DATE,SOURCE,LATITUDE,LONGITUDE,ELEVATION,NAME,REPORT_TYPE,CALL_SIGN,QUALITY_CONTROL,WND,CIG,VIS,TMP,DEW,SLP,AA1,AA2,AY1,AY2,GA1,GF1,IA2,KA1,MA1,MD1,MW1,REM,EQD
01-01T00:00:00,4,31.2,107.5,344.0,"DA XIAN, CH",FM-12,99999,V020,"999,9,C,0000,1","02100,1,9,N","002000,1,N,1","+0051,1","+0037,1","10275,1","06,0000,9,1",,,,,"08,99,1,08,1,05,1,02250,1,99,9,99,9","999,+0040,9",,"99999,9,09852,1","2,1,005,1,-010,1","10,1",SYN088AAXX  01001 57328 31820 80000 10051 20037 39852 40275 52005 71000 885// 333 05106 30049;,Q01  00002PRCP06
01-01T03:00:00,4,31.2,107.5,344.0,"DA XIAN, CH",FM-12,99999,V020,"070,1,N,0010,1","02100,1,9,N","001500,1,N,1","+0054,1","+0042,1","10283,1",,,,,,"08,99,1,08,1,05,1,02250,1,99,9,99,9",,,,"2,1,007,1,+999,9","10,1",SYN066AAXX  01031 57328 41815 80701 10054 20042 40283 52007 71000 885//;,
01-01T06:00:00,4,31.2,107.5,344.0,"DA XIAN, CH",FM-12,99999,V020,"999,9,C,0000,1","99999,9,9,N","001500,1,N,1","+0067,1","+0039,1","10256,1","06,9999,9,9",,,,,"08,99,1,08,1,00,1,99999,9,02,1,99,9",,"999,N,+0048,1","99999,9,09834,1","7,1,025,1,+999,9","60,1",SYN088AAXX  01061 57328 11915 80000 10067 20039 39834 40256 57025 69901 76000 8802/ 333 20048;,
01-01T09:00:00,4,31.2,107.5,344.0,"DA XIAN, CH",FM-12,99999,V020,"040,1,N,0030,1","99999,9,9,N","001500,1,N,1","+0069,1","+0037,1","10249,1",,,"6,1,03,1",,,"08,99,1,08,1,00,1,99999,9,02,1,99,9",,,,"7,1,007,1,+999,9","10,1",SYN066AAXX  01091 57328 41915 80403 10069 20037 40249 57007 71060 8802/;,
01-01T12:00:00,4,31.2,107.5,344.0,"DA XIAN, CH",FM-12,99999,V020,"999,9,C,0000,1","99999,9,9,N","001500,1,N,1","+0067,1","+0034,1","10257,1","06,9999,9,9",,"6,1,06,1",,,"08,99,1,08,1,00,1,99999,9,02,1,99,9",,,"99999,9,09835,1","2,1,008,1,+999,9","10,1",SYN078AAXX  01121 57328 11915 80000 10067 20034 39835 40257 52008 69901 71060 8802/;,
01-01T15:00:00,4,31.2,107.5,344.0,"DA XIAN, CH",FM-12,99999,V020,"040,1,N,0010,1","99999,9,9,N","001500,1,N,1","+0061,1","+0043,1","10266,1",,,,,,"08,99,1,08,1,00,1,99999,9,02,1,99,9",,,,"2,1,008,1,+999,9","10,1",SYN066AAXX  01151 57328 41915 80401 10061 20043 40266 52008 71000 8802/;,
01-01T18:00:00,4,31.2,107.5,344.0,"DA XIAN, CH",FM-12,99999,V020,"999,9,C,0000,1","99999,9,9,N","002000,1,N,1","+0061,1","+0040,1","10272,1","06,0000,9,1",,,,,"08,99,1,08,1,00,1,99999,9,02,1,99,9",,"999,M,+0070,1","99999,9,09850,1","2,1,007,1,+999,9","10,1",SYN082AAXX  01181 57328 31920 80000 10061 20040 39850 40272 52007 71000 8802/ 333 10070;,Q01  00002PRCP06
01-01T21:00:00,4,31.2,107.5,344.0,"DA XIAN, CH",FM-12,99999,V020,"180,1,N,0010,1","02100,1,9,N","002000,1,N,1","+0057,1","+0038,1","10285,1","24,0000,2,1",,"6,1,03,1",,,"08,99,1,08,1,05,1,02250,1,99,9,99,9",,,,"2,1,012,1,+999,9","60,1",SYN076AAXX  01211 57328 41820 81801 10057 20038 40285 52012 76060 885// 333 70001;,
01-02T00:00:00,4,31.2,107.5,344.0,"DA XIAN, CH",FM-12,99999,V020,"250,1,N,0010,1","99999,9,9,N","001100,1,N,1","+0055,1","+0043,1","10307,1","06,0003,9,1","24,0003,9,1","6,1,06,1",,,"08,99,1,08,1,00,1,99999,9,02,1,99,9","999,+0044,9",,"99999,9,09883,1","2,1,021,1,+030,1","21,1",SYN100AAXX  02001 57328 11911 82501 10055 20043 39883 40307 52021 69931 72160 8802/ 333 00300 30044 70003;,
01-02T03:00:00,4,31.2,107.5,344.0,"DA XIAN, CH",FM-12,99999,V020,"160,1,N,0010,1","99999,9,9,N","001200,1,N,1","+0067,1","+0051,1","10335,1",,,,,,"08,99,1,08,1,00,1,99999,9,07,1,99,9",,,,"2,1,027,1,+999,9","10,1",SYN066AAXX  02031 57328 41912 81601 10067 20051 40335 52027 71000 8807/;,
01-02T06:00:00,4,31.2,107.5,344.0,"DA XIAN, CH",FM-12,99999,V020,"250,1,N,0030,1","03600,1,9,N","002000,1,N,1","+0085,1","+0045,1","10313,1","06,0000,2,1",,,,,"08,99,1,02,1,05,1,02250,1,07,1,99,9",,"999,N,+0054,1","99999,9,09890,1","7,1,020,1,+999,9","10,1",SYN082AAXX  02061 57328 31820 82503 10085 20045 39890 40313 57020 71000 8257/ 333 20054;,
01-02T09:00:00,4,31.2,107.5,344.0,"DA XIAN, CH",FM-12,99999,V020,"160,1,N,0010,1","99999,9,9,N","002500,1,N,1","+0089,1","+0044,1","10316,1",,,,,,"08,99,1,08,1,00,1,99999,9,07,1,99,9",,,,"2,1,003,1,+999,9","10,1",SYN066AAXX  02091 57328 41925 81601 10089 20044 40316 52003 71000 8807/;,
01-02T12:00:00,4,31.2,107.5,344.0,"DA XIAN, CH",FM-12,99999,V020,"999,9,C,0000,1","99999,9,9,N","003000,1,N,1","+0079,1","+0050,1","10337,1","06,0000,9,1",,,,,"08,99,1,08,1,00,1,99999,9,07,1,99,9",,,"99999,9,09913,1","2,1,020,1,+999,9","10,1",SYN072AAXX  02121 57328 31930 80000 10079 20050 39913 40337 52020 71000 8807/;,Q01  00002PRCP06
01-02T15:00:00,4,31.2,107.5,344.0,"DA XIAN, CH",FM-12,99999,V020,"999,9,C,0000,1","99999,9,9,N","003000,1,N,1","+0072,1","+0049,1","10343,1",,,,,,"08,99,1,08,1,00,1,99999,9,07,1,99,9",,,,"2,1,006,1,+999,9","10,1",SYN066AAXX  02151 57328 41930 80000 10072 20049 40343 52006 71000 8807/;,
01-02T18:00:00,4,31.2,107.5,344.0,"DA XIAN, CH",FM-12,99999,V020,"999,9,C,0000,1","99999,9,9,N","002000,1,N,1","+0067,1","+0054,1","10345,1","06,0000,9,1",,,,,"08,99,1,08,1,00,1,99999,9,07,1,99,9",,"999,M,+0096,1","99999,9,09922,1","2,1,003,1,+999,9","10,1",SYN082AAXX  02181 57328 31920 80000 10067 20054 39922 40345 52003 71000 8807/ 333 10096;,Q01  00002PRCP06
01-02T21:00:00,4,31.2,107.5,344.0,"DA XIAN, CH",FM-12,99999,V020,"999,9,C,0000,1","99999,9,9,N","001200,1,N,1","+0062,1","+0048,1","10331,1","24,0003,9,1",,,,,"08,99,1,08,1,00,1,99999,9,07,1,99,9",,,,"7,1,014,1,+999,9","10,1",SYN076AAXX  02211 57328 41912 80000 10062 20048 40331 57014 71000 8807/ 333 70002;,
01-03T00:00:00,4,31.2,107.5,344.0,"DA XIAN, CH",FM-12,99999,V020,"040,1,N,0010,1","99999,9,9,N","000500,1,N,1","+0052,1","+0047,1","10333,1","06,0000,9,1",,,,,"08,99,1,08,1,00,1,99999,9,07,1,99,9","999,+0040,9",,"99999,9,09909,1","2,1,001,1,+030,1","46,1",SYN088AAXX  03001 57328 31905 80401 10052 20047 39909 40333 52001 74600 8807/ 333 00300 30046;,Q01  00002PRCP06
01-03T03:00:00,4,31.2,107.5,344.0,"DA XIAN, CH",FM-12,99999,V020,"040,1,N,0030,1","22000,1,9,N","002000,1,N,1","+0065,1","+0042,1","10334,1",,,"4,1,03,1",,"00,1,+99999,9,99,9","00,99,1,00,1,00,1,99999,9,00,1,00,1",,,,"2,1,001,1,+999,9","10,1",SYN060AAXX  03031 57328 41920 00403 10065 20042 40334 52001 71040;,
01-03T06:00:00,4,31.2,107.5,344.0,"DA XIAN, CH",FM-12,99999,V020,"999,9,C,0000,1","22000,1,9,N","003000,1,N,1","+0095,1","+0036,1","10288,1","06,0000,9,1",,"4,1,06,1",,"00,1,+99999,9,99,9","00,99,1,00,1,00,1,99999,9,00,1,00,1",,"999,N,+0050,1","99999,9,09868,1","7,1,042,1,+999,9","10,1",SYN076AAXX  03061 57328 31930 00000 10095 20036 39868 40288 57042 71040 333 20050;,Q01  00002PRCP06
01-03T09:00:00,4,31.2,107.5,344.0,"DA XIAN, CH",FM-12,99999,V020,"999,9,C,0000,1","22000,1,9,N","003000,1,N,1","+0104,1","+0037,1","10267,1",,,,,"00,1,+99999,9,99,9","00,99,1,00,1,00,1,99999,9,00,1,00,1",,,,"7,1,020,1,+999,9","10,1",SYN060AAXX  03091 57328 41930 00000 10104 20037 40267 57020 71000;,
01-03T12:00:00,4,31.2,107.5,344.0,"DA XIAN, CH",FM-12,99999,V020,"999,9,C,0000,1","22000,1,9,N","003000,1,N,1","+0072,1","+0042,1","10277,1","06,0000,9,1",,,,"00,1,+99999,9,99,9","00,99,1,00,1,00,1,99999,9,00,1,00,1",,,"99999,9,09854,1","2,1,006,1,+999,9","10,1",SYN066AAXX  03121 57328 31930 00000 10072 20042 39854 40277 52006 71000;,Q01  00002PRCP06
01-03T15:00:00,4,31.2,107.5,344.0,"DA XIAN, CH",FM-12,99999,V020,"999,9,C,0000,1","22000,1,9,N","003000,1,N,1","+0055,1","+0036,1","10279,1",,,,,"00,1,+99999,9,99,9","00,99,1,00,1,00,1,99999,9,00,1,00,1",,,,"2,1,002,1,+999,9","10,1",SYN060AAXX  03151 57328 41930 00000 10055 20036 40279 52002 71000;,
01-03T18:00:00,4,31.2,107.5,344.0,"DA XIAN, CH",FM-12,99999,V020,"040,1,N,0020,1","22000,1,9,N","000000,1,N,1","+0027,1","+0024,1","10284,1","06,0000,9,1",,,,"00,1,+99999,9,99,9","00,99,1,00,1,00,1,99999,9,00,1,00,1",,"999,M,+0110,1","99999,9,09861,1","2,1,005,1,+999,9","46,1",SYN076AAXX  03181 57328 31900 00402 10027 20024 39861 40284 52005 74600 333 10110;,Q01  00002PRCP06
01-03T21:00:00,4,31.2,107.5,344.0,"DA XIAN, CH",FM-12,99999,V020,"040,1,N,0010,1","00015,1,9,N","000000,1,N,1","+0015,1","+0015,1","10279,1",,,"4,1,03,1","4,1,03,1","09,1,+99999,9,99,9","09,99,1,09,1,99,9,99999,9,99,9,99,9",,,,"7,1,005,1,+999,9","45,1",SYN060AAXX  03211 57328 41/00 90401 10015 20015 40279 57005 74544;,
01-04T00:00:00,4,31.2,107.5,344.0,"DA XIAN, CH",FM-12,99999,V020,"040,1,N,0020,1","00015,1,9,N","000000,1,N,1","+0015,1","+0012,1","10295,1","06,0000,9,1",,"4,1,06,1","4,1,06,1","09,1,+99999,9,99,9","09,99,1,09,1,99,9,99999,9,99,9,99,9","999,+0020,9",,"99999,9,09869,1","2,1,013,1,-040,1","45,1",SYN082AAXX  04001 57328 31/00 90402 10015 20012 39869 40295 52013 74544 333 05454 30024;,Q01  00002PRCP06
01-04T03:00:00,4,31.2,107.5,344.0,"DA XIAN, CH",FM-12,99999,V020,"040,1,N,0030,1","00030,1,9,N","000500,1,N,1","+0025,1","+0022,1","10323,1",,,"4,1,03,1","4,1,03,1","09,1,+99999,9,99,9","09,99,1,09,1,99,9,99999,9,99,9,99,9",,,,"2,1,026,1,+999,9","43,1",SYN060AAXX  04031 57328 41/05 90403 10025 20022 40323 52026 74344;,
01-04T06:00:00,4,31.2,107.5,344.0,"DA XIAN, CH",FM-12,99999,V020,"090,1,N,0010,1","22000,1,9,N","002000,1,N,1","+0091,1","+0026,1","10287,1","06,0000,9,1",,"4,1,06,1",,"00,1,+99999,9,99,9","00,99,1,00,1,00,1,99999,9,00,1,00,1",,"999,N,+0012,1","99999,9,09863,1","7,1,032,1,+999,9","10,1",SYN076AAXX  04061 57328 31920 00901 10091 20026 39863 40287 57032 71040 333 20012;,Q01  00002PRCP06
01-04T09:00:00,4,31.2,107.5,344.0,"DA XIAN, CH",FM-12,99999,V020,"999,9,C,0000,1","99999,9,9,N","002000,1,N,1","+0085,1","+0034,1","10290,1",,,,,,"08,99,1,08,1,00,1,99999,9,07,1,99,9",,,,"2,1,002,1,+999,9","10,1",SYN066AAXX  04091 57328 41920 80000 10085 20034 40290 52002 71000 8807/;,
01-04T12:00:00,4,31.2,107.5,344.0,"DA XIAN, CH",FM-12,99999,V020,"160,1,N,0020,1","99999,9,9,N","002000,1,N,1","+0077,1","+0045,1","10315,1","06,0000,9,1",,,,,"08,99,1,08,1,00,1,99999,9,07,1,99,9",,,"99999,9,09888,1","2,1,023,1,+999,9","10,1",SYN072AAXX  04121 57328 31920 81602 10077 20045 39888 40315 52023 71000 8807/;,Q01  00002PRCP06
01-04T15:00:00,4,31.2,107.5,344.0,"DA XIAN, CH",FM-12,99999,V020,"999,9,C,0000,1","99999,9,9,N","002000,1,N,1","+0069,1","+0046,1","10333,1",,,,,,"08,99,1,08,1,00,1,99999,9,07,1,99,9",,,,"2,1,018,1,+999,9","10,1",SYN066AAXX  04151 57328 41920 80000 10069 20046 40333 52018 71000 8807/;,
01-04T18:00:00,4,31.2,107.5,344.0,"DA XIAN, CH",FM-12,99999,V020,"040,1,N,0010,1","99999,9,9,N","002000,1,N,1","+0063,1","+0047,1","10328,1","06,0000,9,1",,,,,"08,99,1,08,1,00,1,99999,9,07,1,99,9",,"999,M,+0102,1","99999,9,09905,1","7,1,001,1,+999,9","10,1",SYN082AAXX  04181 57328 31920 80401 10063 20047 39905 40328 57001 71000 8807/ 333 10102;,Q01  00002PRCP06
01-04T21:00:00,4,31.2,107.5,344.0,"DA XIAN, CH",FM-12,99999,V020,"040,1,N,0010,1","02100,1,9,N","002000,1,N,1","+0060,1","+0049,1","10328,1",,,,,,"08,99,1,08,1,05,1,02250,1,99,9,99,9",,,,"4,1,000,1,+999,9","10,1",SYN066AAXX  04211 57328 41820 80401 10060 20049 40328 54000 71000 885//;,
01-05T00:00:00,4,31.2,107.5,344.0,"DA XIAN, CH",FM-12,99999,V020,"040,1,N,0010,1","02100,1,9,N","001200,1,N,1","+0059,1","+0040,1","10341,1","06,9999,9,9","24,0000,2,1","6,1,06,1",,,"08,99,1,08,1,05,1,02250,1,99,9,99,9",,,"99999,9,09917,1","2,1,012,1,+050,1","60,1",SYN094AAXX  05001 57328 11812 80401 10059 20040 39917 40341 52012 69911 76060 885// 333 00504 70001;,
01-05T03:00:00,4,31.2,107.5,344.0,"DA XIAN, CH",FM-12,99999,V020,"020,1,N,0030,1","99999,9,9,N","006000,1,N,1","+0071,1","+0023,1","10357,1",,,"6,1,03,1",,,"07,99,1,07,1,00,1,99999,9,04,1,99,9",,,,"2,1,015,1,+999,9","10,1",SYN066AAXX  05031 57328 41956 70203 10071 20023 40357 52015 71060 8704/;,
01-05T06:00:00,4,31.2,107.5,344.0,"DA XIAN, CH",FM-12,99999,V020,"090,1,N,0010,1","03600,1,9,N","006000,1,N,1","+0083,1","+0012,1","10333,1","06,9999,9,9",,"6,1,06,1",,,"08,99,1,02,1,01,1,00800,1,07,1,99,9",,"999,N,+0057,1","99999,9,09910,1","7,1,022,1,+999,9","10,1",SYN088AAXX  05061 57328 11556 80901 10083 20012 39910 40333 57022 69901 71060 8217/ 333 20057;,
01-05T09:00:00,4,31.2,107.5,344.0,"DA XIAN, CH",FM-12,99999,V020,"250,1,N,0010,1","01500,1,9,N","007000,1,N,1","+0080,1","+0002,1","10334,1",,,"6,1,03,1",,,"08,99,1,06,1,05,1,01750,1,07,1,99,9",,,,"4,1,000,1,+999,9","10,1",SYN066AAXX  05091 57328 41757 82501 10080 20002 40334 54000 71060 8657/;,
01-05T12:00:00,4,31.2,107.5,344.0,"DA XIAN, CH",FM-12,99999,V020,"140,1,N,0010,1","02100,1,9,N","006000,1,N,1","+0067,1","+0015,1","10348,1","06,9999,9,9",,"6,1,06,1",,,"08,99,1,08,1,05,1,02250,1,99,9,99,9",,,"99999,9,09923,1","2,1,013,1,+999,9","10,1",SYN078AAXX  05121 57328 11856 81401 10067 20015 39923 40348 52013 69901 71060 885//;,
01-05T15:00:00,4,31.2,107.5,344.0,"DA XIAN, CH",FM-12,99999,V020,"180,1,N,0010,1","99999,9,9,N","006000,1,N,1","+0063,1","+0013,1","10344,1",,,,,,"08,99,1,08,1,00,1,99999,9,07,1,99,9",,,,"7,1,004,1,+999,9","10,1",SYN066AAXX  05151 57328 41956 81801 10063 20013 40344 57004 71000 8807/;,
01-05T18:00:00,4,31.2,107.5,344.0,"DA XIAN, CH",FM-12,99999,V020,"180,1,N,0010,1","99999,9,9,N","008000,1,N,1","+0052,1","+0003,1","10334,1","06,0000,9,1",,,,,"08,99,1,08,1,00,1,99999,9,07,1,99,9",,"999,M,+0088,1","99999,9,09910,1","7,1,009,1,+999,9","10,1",SYN082AAXX  05181 57328 31958 81801 10052 20003 39910 40334 57009 71000 8807/ 333 10088;,Q01  00002PRCP06
01-05T21:00:00,4,31.2,107.5,344.0,"DA XIAN, CH",FM-12,99999,V020,"160,1,N,0010,1","02100,1,9,N","002000,1,N,1","+0043,1","+0015,1","10320,1","24,0000,2,1",,,,,"08,99,1,08,1,05,1,02250,1,99,9,99,9",,,,"7,1,015,1,+999,9","10,1",SYN076AAXX  05211 57328 41820 81601 10043 20015 40320 57015 71000 885// 333 70001;,
01-06T00:00:00,4,31.2,107.5,344.0,"DA XIAN, CH",FM-12,99999,V020,"160,1,N,0020,1","02100,1,9,N","003000,1,N,1","+0038,1","+0012,1","10321,1","06,0000,9,1","24,0000,2,1",,,,"08,99,1,08,1,05,1,02250,1,99,9,99,9","999,+0040,9",,"99999,9,09895,1","4,1,000,1,-020,1","10,1",SYN094AAXX  06001 57328 31830 81602 10038 20012 39895 40321 54000 71000 885// 333 05252 30040 79999;,Q01  00002PRCP06
01-06T03:00:00,4,31.2,107.5,344.0,"DA XIAN, CH",FM-12,99999,V020,"220,1,N,0020,1","99999,9,9,N","005000,1,N,1","+0052,1","+0003,1","10326,1",,,,,,"08,99,1,08,1,00,1,99999,9,07,1,99,9",,,,"2,1,006,1,+999,9","10,1",SYN066AAXX  06031 57328 41950 82202 10052 20003 40326 52006 71000 8807/;,
01-06T06:00:00,4,31.2,107.5,344.0,"DA XIAN, CH",FM-12,99999,V020,"140,1,N,0020,1","99999,9,9,N","005000,1,N,1","+0076,1","+0012,1","10289,1","06,0000,9,1",,,,,"08,99,1,08,1,00,1,99999,9,07,1,99,9",,"999,N,+0036,1","99999,9,09866,1","7,1,035,1,+999,9","10,1",SYN082AAXX  06061 57328 31950 81402 10076 20012 39866 40289 57035 71000 8807/ 333 20036;,Q01  00002PRCP06
01-06T09:00:00,4,31.2,107.5,344.0,"DA XIAN, CH",FM-12,99999,V020,"040,1,N,0010,1","99999,9,9,N","005000,1,N,1","+0081,1","+0024,1","10280,1",,,,,,"08,99,1,08,1,00,1,99999,9,07,1,99,9",,,,"7,1,009,1,+999,9","10,1",SYN066AAXX  06091 57328 41950 80401 10081 20024 40280 57009 71000 8807/;,
01-06T12:00:00,4,31.2,107.5,344.0,"DA XIAN, CH",FM-12,99999,V020,"999,9,C,0000,1","99999,9,9,N","005000,1,N,1","+0067,1","+0032,1","10300,1","06,0000,9,1",,,,,"08,99,1,08,1,00,1,99999,9,07,1,99,9",,,"99999,9,09875,1","2,1,018,1,+999,9","10,1",SYN072AAXX  06121 57328 31950 80000 10067 20032 39875 40300 52018 71000 8807/;,Q01  00002PRCP06
01-06T15:00:00,4,31.2,107.5,344.0,"DA XIAN, CH",FM-12,99999,V020,"999,9,C,0000,1","99999,9,9,N","003000,1,N,1","+0064,1","+0033,1","10311,1",,,,,,"08,99,1,08,1,00,1,99999,9,07,1,99,9",,,,"2,1,011,1,+999,9","10,1",SYN066AAXX  06151 57328 41930 80000 10064 20033 40311 52011 71000 8807/;,
01-06T18:00:00,4,31.2,107.5,344.0,"DA XIAN, CH",FM-12,99999,V020,"040,1,N,0020,1","99999,9,9,N","003000,1,N,1","+0061,1","+0035,1","10307,1","06,0000,9,1",,,,,"08,99,1,08,1,00,1,99999,9,07,1,99,9",,"999,M,+0084,1","99999,9,09884,1","7,1,002,1,+999,9","10,1",SYN082AAXX  06181 57328 31930 80402 10061 20035 39884 40307 57002 71000 8807/ 333 10084;,Q01  00002PRCP06
01-06T21:00:00,4,31.2,107.5,344.0,"DA XIAN, CH",FM-12,99999,V020,"040,1,N,0020,1","99999,9,9,N","003000,1,N,1","+0057,1","+0033,1","10294,1",,,,,,"08,99,1,08,1,00,1,99999,9,07,1,99,9",,,,"7,1,012,1,+999,9","10,1",SYN066AAXX  06211 57328 41930 80402 10057 20033 40294 57012 71000 8807/;,
01-07T00:00:00,4,31.2,107.5,344.0,"DA XIAN, CH",FM-12,99999,V020,"040,1,N,0010,1","99999,9,9,N","002000,1,N,1","+0051,1","+0027,1","10299,1","06,0000,9,1",,,,,"08,99,1,08,1,00,1,99999,9,07,1,99,9","999,+0030,9",,"99999,9,09875,1","2,1,003,1,-020,1","10,1",SYN088AAXX  07001 57328 31920 80401 10051 20027 39875 40299 52003 71000 8807/ 333 05201 30039;,Q01  00002PRCP06
01-07T03:00:00,4,31.2,107.5,344.0,"DA XIAN, CH",FM-12,99999,V020,"040,1,N,0030,1","22000,1,9,N","003000,1,N,1","+0069,1","+0026,1","10307,1",,,,,,"01,99,1,01,1,01,1,01250,1,00,1,00,1",,,,"2,1,009,1,+999,9","10,1",SYN066AAXX  07031 57328 41630 10403 10069 20026 40307 52009 71000 81100;,
01-07T06:00:00,4,31.2,107.5,344.0,"DA XIAN, CH",FM-12,99999,V020,"999,9,C,0000,1","22000,1,9,N","008000,1,N,1","+0098,1","-0004,1","10273,1","06,0000,9,1",,,,,"03,99,1,03,1,01,1,01250,1,00,1,00,1",,"999,N,+0047,1","99999,9,09853,1","7,1,031,1,+999,9","10,1",SYN082AAXX  07061 57328 31658 30000 10098 21004 39853 40273 57031 71000 83100 333 20047;,Q01  00002PRCP06
01-07T09:00:00,4,31.2,107.5,344.0,"DA XIAN, CH",FM-12,99999,V020,"140,1,N,0020,1","22000,1,9,N","008000,1,N,1","+0102,1","+0014,1","10256,1",,,,,"00,1,+99999,9,99,9","00,99,1,00,1,00,1,99999,9,00,1,00,1",,,,"7,1,016,1,+999,9","10,1",SYN060AAXX  07091 57328 41958 01402 10102 20014 40256 57016 71000;,
01-07T12:00:00,4,31.2,107.5,344.0,"DA XIAN, CH",FM-12,99999,V020,"090,1,N,0010,1","22000,1,9,N","005000,1,N,1","+0069,1","+0021,1","10271,1","06,0000,9,1",,,,"00,1,+99999,9,99,9","00,99,1,00,1,00,1,99999,9,00,1,00,1",,,"99999,9,09848,1","2,1,011,1,+999,9","10,1",SYN066AAXX  07121 57328 31950 00901 10069 20021 39848 40271 52011 71000;,Q01  00002PRCP06
01-07T15:00:00,4,31.2,107.5,344.0,"DA XIAN, CH",FM-12,99999,V020,"040,1,N,0010,1","22000,1,9,N","003000,1,N,1","+0053,1","+0024,1","10283,1",,,,,,"02,99,1,02,1,00,1,99999,9,04,1,00,1",,,,"2,1,012,1,+999,9","10,1",SYN066AAXX  07151 57328 41930 20401 10053 20024 40283 52012 71000 82040;,
01-07T18:00:00,4,31.2,107.5,344.0,"DA XIAN, CH",FM-12,99999,V020,"090,1,N,0010,1","99999,9,9,N","002000,1,N,1","+0051,1","+0027,1","10274,1","06,0000,9,1",,,,,"08,99,1,08,1,00,1,99999,9,07,1,99,9",,"999,M,+0111,1","99999,9,09853,1","7,1,007,1,+999,9","10,1",SYN082AAXX  07181 57328 31920 80901 10051 20027 39853 40274 57007 71000 8807/ 333 10111;,Q01  00002PRCP06
01-07T21:00:00,4,31.2,107.5,344.0,"DA XIAN, CH",FM-12,99999,V020,"040,1,N,0020,1","99999,9,9,N","002000,1,N,1","+0053,1","+0024,1","10258,1",,,,,,"08,99,1,08,1,00,1,99999,9,07,1,99,9",,,,"7,1,015,1,+999,9","10,1",SYN120AAXX  07211 57328 41920 80402 10053 20024 40258 57015 71000 8807/ 57411 41915 80000 10052 20038 40265 57009 71000 8807/;,
01-08T00:00:00,4,31.2,107.5,344.0,"DA XIAN, CH",FM-12,99999,V020,"070,1,N,0020,1","99999,9,9,N","004000,1,N,1","+0051,1","+0022,1","10269,1","06,0000,9,1",,,,,"08,99,1,08,1,00,1,99999,9,07,1,99,9","999,+0040,9",,"99999,9,09846,1","2,1,008,1,-030,1","10,1",SYN088AAXX  08001 57328 31940 80702 10051 20022 39846 40269 52008 71000 8807/ 333 05300 30047;,Q01  00002PRCP06
01-08T03:00:00,4,31.2,107.5,344.0,"DA XIAN, CH",FM-12,99999,V020,"040,1,N,0010,1","99999,9,9,N","004000,1,N,1","+0057,1","+0015,1","10273,1",,,,,,"08,99,1,08,1,00,1,99999,9,07,1,99,9",,,,"2,1,003,1,+999,9","10,1",SYN066AAXX  08031 57328 41940 80401 10057 20015 40273 52003 71000 8807/;,
01-08T06:00:00,4,31.2,107.5,344.0,"DA XIAN, CH",FM-12,99999,V020,"020,1,N,0010,1","99999,9,9,N","004000,1,N,1","+0072,1","+0019,1","10238,1","06,0000,9,1",,,,,"08,99,1,08,1,00,1,99999,9,07,1,99,9",,"999,N,+0049,1","99999,9,09817,1","7,1,032,1,+999,9","10,1",SYN082AAXX  08061 57328 31940 80201 10072 20019 39817 40238 57032 71000 8807/ 333 20049;,Q01  00002PRCP06
01-08T09:00:00,4,31.2,107.5,344.0,"DA XIAN, CH",FM-12,99999,V020,"040,1,N,0010,1","99999,9,9,N","004000,1,N,1","+0077,1","+0014,1","10227,1",,,,,,"08,99,1,08,1,00,1,99999,9,02,1,99,9",,,,"7,1,010,1,+999,9","10,1",SYN066AAXX  08091 57328 41940 80401 10077 20014 40227 57010 71000 8802/;,
01-08T12:00:00,4,31.2,107.5,344.0,"DA XIAN, CH",FM-12,99999,V020,"999,9,C,0000,1","99999,9,9,N","003000,1,N,1","+0068,1","+0030,1","10258,1","06,0000,9,1",,,,,"08,99,1,08,1,00,1,99999,9,07,1,99,9",,,"99999,9,09836,1","2,1,029,1,+999,9","10,1",SYN072AAXX  08121 57328 31930 80000 10068 20030 39836 40258 52029 71000 8807/;,Q01  00002PRCP06
01-08T18:00:00,4,31.2,107.5,344.0,"DA XIAN, CH",FM-12,99999,V020,"070,1,N,0010,1","99999,9,9,N","002000,1,N,1","+0055,1","+0034,1","10268,1","06,0000,9,1",,,,,"08,99,1,08,1,00,1,99999,9,07,1,99,9",,"999,M,+0077,1","99999,9,09846,1","7,1,005,1,+999,9","10,1",SYN082AAXX  08181 57328 31920 80701 10055 20034 39846 40268 57005 71000 8807/ 333 10077;,Q01  00002PRCP06
01-08T21:00:00,4,31.2,107.5,344.0,"DA XIAN, CH",FM-12,99999,V020,"040,1,N,0010,1","99999,9,9,N","002000,1,N,1","+0041,1","+0029,1","10268,1",,,,,,"08,99,1,08,1,00,1,99999,9,07,1,99,9",,,,"7,1,001,1,+999,9","10,1",SYN066AAXX  08211 57328 41920 80401 10041 20029 40268 57001 71000 8807/;,
01-09T00:00:00,4,31.2,107.5,344.0,"DA XIAN, CH",FM-12,99999,V020,"070,1,N,0010,1","99999,9,9,N","002000,1,N,1","+0038,1","+0026,1","10285,1","06,0000,9,1",,,,,"08,99,1,08,1,00,1,99999,9,07,1,99,9","999,+0020,9",,"99999,9,09861,1","2,1,016,1,+020,1","10,1",SYN088AAXX  09001 57328 31920 80701 10038 20026 39861 40285 52016 71000 8807/ 333 00251 30026;,Q01  00002PRCP06
01-09T03:00:00,4,31.2,107.5,344.0,"DA XIAN, CH",FM-12,99999,V020,"070,1,N,0010,1","99999,9,9,N","001500,1,N,1","+0054,1","+0027,1","10302,1",,,,,,"06,99,1,06,1,00,1,99999,9,04,1,00,1",,,,"2,1,017,1,+999,9","10,1",SYN066AAXX  09031 57328 41915 60701 10054 20027 40302 52017 71000 86040;,
01-09T06:00:00,4,31.2,107.5,344.0,"DA XIAN, CH",FM-12,99999,V020,"320,1,N,0010,1","99999,9,9,N","003000,1,N,1","+0085,1","+0032,1","10271,1","06,0000,9,1",,,,,"08,99,1,08,1,00,1,99999,9,07,1,99,9",,"999,N,+0034,1","99999,9,09850,1","7,1,028,1,+999,9","10,1",SYN082AAXX  09061 57328 31930 83201 10085 20032 39850 40271 57028 71000 8807/ 333 20034;,Q01  00002PRCP06
01-09T09:00:00,4,31.2,107.5,344.0,"DA XIAN, CH",FM-12,99999,V020,"180,1,N,0010,1","22000,1,9,N","003000,1,N,1","+0098,1","+0040,1","10268,1",,,,,,"01,99,1,01,1,00,1,99999,9,04,1,00,1",,,,"7,1,003,1,+999,9","10,1",SYN066AAXX  09091 57328 41930 11801 10098 20040 40268 57003 71000 81040;,
01-09T12:00:00,4,31.2,107.5,344.0,"DA XIAN, CH",FM-12,99999,V020,"070,1,N,0010,1","22000,1,9,N","002000,1,N,1","+0063,1","+0037,1","10291,1","06,0000,9,1",,,,"00,1,+99999,9,99,9","00,99,1,00,1,00,1,99999,9,00,1,00,1",,,"99999,9,09866,1","2,1,019,1,+999,9","10,1",SYN066AAXX  09121 57328 31920 00701 10063 20037 39866 40291 52019 71000;,Q01  00002PRCP06
01-09T15:00:00,4,31.2,107.5,344.0,"DA XIAN, CH",FM-12,99999,V020,"040,1,N,0010,1","22000,1,9,N","002000,1,N,1","+0041,1","+0031,1","10312,1",,,,,"00,1,+99999,9,99,9","00,99,1,00,1,00,1,99999,9,00,1,00,1",,,,"2,1,020,1,+999,9","10,1",SYN060AAXX  09151 57328 41920 00401 10041 20031 40312 52020 71000;,
01-09T18:00:00,4,31.2,107.5,344.0,"DA XIAN, CH",FM-12,99999,V020,"999,9,C,0000,1","22000,1,9,N","001200,1,N,1","+0031,1","+0026,1","10308,1","06,0000,9,1",,,,"00,1,+99999,9,99,9","00,99,1,00,1,00,1,99999,9,00,1,00,1",,"999,M,+0100,1","99999,9,09883,1","7,1,003,1,+999,9","10,1",SYN076AAXX  09181 57328 31912 00000 10031 20026 39883 40308 57003 71000 333 10100;,Q01  00002PRCP06
01-09T21:00:00,4,31.2,107.5,344.0,"DA XIAN, CH",FM-12,99999,V020,"040,1,N,0030,1","00015,1,9,N","000000,1,N,1","+0022,1","+0022,1","10296,1",,,"4,1,03,1",,"09,1,+99999,9,99,9","09,99,1,09,1,99,9,99999,9,99,9,99,9",,,,"7,1,011,1,+999,9","45,1",SYN060AAXX  09211 57328 41/00 90403 10022 20022 40296 57011 74540;,
01-10T00:00:00,4,31.2,107.5,344.0,"DA XIAN, CH",FM-12,99999,V020,"110,1,N,0010,1","00015,1,9,N","000000,1,N,1","+0017,1","+0017,1","10303,1","06,0000,9,1",,"4,1,06,1",,"09,1,+99999,9,99,9","09,99,1,09,1,99,9,99999,9,99,9,99,9","999,+0020,9",,"99999,9,09876,1","2,1,004,1,+020,1","45,1",SYN082AAXX  10001 57328 31/00 91101 10017 20017 39876 40303 52004 74540 333 00252 30021;,Q01  00002PRCP06
01-10T03:00:00,4,31.2,107.5,344.0,"DA XIAN, CH",FM-12,99999,V020,"999,9,C,0000,1","00015,1,9,N","000000,1,N,1","+0027,1","+0027,1","10317,1",,,"4,1,03,1","4,1,03,1","09,1,+99999,9,99,9","09,99,1,09,1,99,9,99999,9,99,9,99,9",,,,"2,1,012,1,+999,9","45,1",SYN060AAXX  10031 57328 41/00 90000 10027 20027 40317 52012 74544;,
01-10T06:00:00,4,31.2,107.5,344.0,"DA XIAN, CH",FM-12,99999,V020,"999,9,C,0000,1","22000,1,9,N","001500,1,N,1","+0075,1","+0043,1","10274,1","06,0000,9,1",,"4,1,06,1",,"00,1,+99999,9,99,9","00,99,1,00,1,00,1,99999,9,00,1,00,1",,"999,N,+0015,1","99999,9,09850,1","7,1,038,1,+999,9","10,1",SYN076AAXX  10061 57328 31915 00000 10075 20043 39850 40274 57038 71040 333 20015;,Q01  00002PRCP06
01-10T09:00:00,4,31.2,107.5,344.0,"DA XIAN, CH",FM-12,99999,V020,"290,1,N,0010,1","22000,1,9,N","001500,1,N,1","+0097,1","+0044,1","10258,1",,,,,"00,1,+99999,9,99,9","00,99,1,00,1,00,1,99999,9,00,1,00,1",,,,"7,1,014,1,+999,9","10,1",SYN060AAXX  10091 57328 41915 02901 10097 20044 40258 57014 71000;,
01-10T12:00:00,4,31.2,107.5,344.0,"DA XIAN, CH",FM-12,99999,V020,"999,9,C,0000,1","99999,9,9,N","001500,1,N,1","+0079,1","+0043,1","10280,1","06,0000,9,1",,,,,"07,99,1,07,1,00,1,99999,9,04,1,99,9",,,"99999,9,09855,1","2,1,019,1,+999,9","10,1",SYN072AAXX  10121 57328 31915 70000 10079 20043 39855 40280 52019 71000 8704/;,Q01  00002PRCP06
01-10T15:00:00,4,31.2,107.5,344.0,"DA XIAN, CH",FM-12,99999,V020,"999,9,C,0000,1","99999,9,9,N","001500,1,N,1","+0061,1","+0043,1","10295,1",,,,,,"08,99,1,08,1,00,1,99999,9,07,1,99,9",,,,"2,1,014,1,+999,9","10,1",SYN066AAXX  10151 57328 41915 80000 10061 20043 40295 52014 71000 8807/;,
01-10T18:00:00,4,31.2,107.5,344.0,"DA XIAN, CH",FM-12,99999,V020,"040,1,N,0030,1","99999,9,9,N","001500,1,N,1","+0053,1","+0044,1","10295,1","06,0000,9,1",,,,,"08,99,1,08,1,00,1,99999,9,07,1,99,9",,"999,M,+0097,1","99999,9,09872,1","2,1,003,1,+999,9","10,1",SYN082AAXX  10181 57328 31915 80403 10053 20044 39872 40295 52003 71000 8807/ 333 10097;,Q01  00002PRCP06
01-10T21:00:00,4,31.2,107.5,344.0,"DA XIAN, CH",FM-12,99999,V020,"070,1,N,0010,1","99999,9,9,N","001500,1,N,1","+0049,1","+0040,1","10286,1",,,,,,"08,99,1,08,1,00,1,99999,9,07,1,99,9",,,,"7,1,007,1,+999,9","10,1",SYN066AAXX  10211 57328 41915 80701 10049 20040 40286 57007 71000 8807/;,
01-11T00:00:00,4,31.2,107.5,344.0,"DA XIAN, CH",FM-12,99999,V020,"999,9,C,0000,1","99999,9,9,N","001200,1,N,1","+0047,1","+0040,1","10299,1","06,0000,9,1",,,,,"08,99,1,08,1,00,1,99999,9,07,1,99,9","999,+0030,9",,"99999,9,09876,1","2,1,011,1,+000,1","10,1",SYN088AAXX  11001 57328 31912 80000 10047 20040 39876 40299 52011 71000 8807/ 333 00003 30034;,Q01  00002PRCP06
01-11T03:00:00,4,31.2,107.5,344.0,"DA XIAN, CH",FM-12,99999,V020,"999,9,C,0000,1","00015,1,9,N","000000,1,N,1","+0043,1","+0038,1","10316,1",,,"4,1,03,1",,"09,1,+99999,9,99,9","09,99,1,09,1,99,9,99999,9,99,9,99,9",,,,"2,1,014,1,+999,9","45,1",SYN060AAXX  11031 57328 41/00 90000 10043 20038 40316 52014 74540;,
01-11T06:00:00,4,31.2,107.5,344.0,"DA XIAN, CH",FM-12,99999,V020,"999,9,C,0000,1","99999,9,9,N","002000,1,N,1","+0106,1","+0049,1","10270,1","06,0000,9,1",,"4,1,06,1",,,"06,99,1,06,1,00,1,99999,9,04,1,00,1",,"999,N,+0036,1","99999,9,09850,1","7,1,040,1,+999,9","10,1",SYN082AAXX  11061 57328 31920 60000 10106 20049 39850 40270 57040 71040 86040 333 20036;,Q01  00002PRCP06
01-11T09:00:00,4,31.2,107.5,344.0,"DA XIAN, CH",FM-12,99999,V020,"290,1,N,0010,1","22000,1,9,N","002000,1,N,1","+0112,1","+0044,1","10253,1",,,,,"00,1,+99999,9,99,9","00,99,1,00,1,00,1,99999,9,00,1,00,1",,,,"7,1,016,1,+999,9","10,1",SYN060AAXX  11091 57328 41920 02901 10112 20044 40253 57016 71000;,
01-11T12:00:00,4,31.2,107.5,344.0,"DA XIAN, CH",FM-12,99999,V020,"040,1,N,0020,1","22000,1,9,N","002000,1,N,1","+0087,1","+0052,1","10268,1","06,0000,9,1",,,,,"01,99,1,01,1,00,1,99999,9,04,1,00,1",,,"99999,9,09846,1","2,1,012,1,+999,9","10,1",SYN072AAXX  11121 57328 31920 10402 10087 20052 39846 40268 52012 71000 81040;,Q01  00002PRCP06
01-11T15:00:00,4,31.2,107.5,344.0,"DA XIAN, CH",FM-12,99999,V020,"040,1,N,0010,1","22000,1,9,N","003000,1,N,1","+0067,1","+0054,1","10282,1",,,,,"00,1,+99999,9,99,9","00,99,1,00,1,00,1,99999,9,00,1,00,1",,,,"2,1,012,1,+999,9","10,1",SYN060AAXX  11151 57328 41930 00401 10067 20054 40282 52012 71000;,
01-11T18:00:00,4,31.2,107.5,344.0,"DA XIAN, CH",FM-12,99999,V020,"999,9,C,0000,1","22000,1,9,N","001500,1,N,1","+0047,1","+0042,1","10278,1","06,0000,9,1",,,,"00,1,+99999,9,99,9","00,99,1,00,1,00,1,99999,9,00,1,00,1",,"999,M,+0114,1","99999,9,09857,1","7,1,001,1,+999,9","10,1",SYN076AAXX  11181 57328 31915 00000 10047 20042 39857 40278 57001 71000 333 10114;,Q01  00002PRCP06
01-11T21:00:00,4,31.2,107.5,344.0,"DA XIAN, CH",FM-12,99999,V020,"070,1,N,0020,1","00015,1,9,N","000000,1,N,1","+0030,1","+0030,1","10271,1",,,"4,1,03,1",,"09,1,+99999,9,99,9","09,99,1,09,1,99,9,99999,9,99,9,99,9",,,,"7,1,007,1,+999,9","45,1",SYN060AAXX  11211 57328 41/00 90702 10030 20030 40271 57007 74540;,
01-12T00:00:00,4,31.2,107.5,344.0,"DA XIAN, CH",FM-12,99999,V020,"040,1,N,0010,1","00015,1,9,N","000000,1,N,1","+0025,1","+0025,1","10277,1","06,0000,9,1",,"4,1,06,1",,"09,1,+99999,9,99,9","09,99,1,09,1,99,9,99999,9,99,9,99,9","999,+0030,9",,"99999,9,09853,1","2,1,003,1,-020,1","45,1",SYN082AAXX  12001 57328 31/00 90401 10025 20025 39853 40277 52003 74540 333 05252 30031;,Q01  00002PRCP06
01-12T03:00:00,4,31.2,107.5,344.0,"DA XIAN, CH",FM-12,99999,V020,"040,1,N,0020,1","00015,1,9,N","000000,1,N,1","+0034,1","+0032,1","10294,1",,,"4,1,03,1","4,1,03,1","09,1,+99999,9,99,9","09,99,1,09,1,99,9,99999,9,99,9,99,9",,,,"2,1,016,1,+999,9","45,1",SYN060AAXX  12031 57328 41/00 90402 10034 20032 40294 52016 74544;,
01-12T06:00:00,4,31.2,107.5,344.0,"DA XIAN, CH",FM-12,99999,V020,"160,1,N,0010,1","22000,1,9,N","001200,1,N,1","+0079,1","+0057,1","10257,1","06,0000,9,1",,"4,1,06,1","4,1,06,1","00,1,+99999,9,99,9","00,99,1,00,1,00,1,99999,9,00,1,00,1",,"999,N,+0023,1","99999,9,09835,1","7,1,034,1,+999,9","28,1",SYN076AAXX  12061 57328 31912 01601 10079 20057 39835 40257 57034 72844 333 20023;,Q01  00002PRCP06
01-12T09:00:00,4,31.2,107.5,344.0,"DA XIAN, CH",FM-12,99999,V020,"999,9,C,0000,1","22000,1,9,N","001100,1,N,1","+0110,1","+0077,1","10233,1",,,,,"00,1,+99999,9,99,9","00,99,1,00,1,00,1,99999,9,00,1,00,1",,,,"7,1,022,1,+999,9","10,1",SYN060AAXX  12091 57328 41911 00000 10110 20077 40233 57022 71000;,
01-12T12:00:00,4,31.2,107.5,344.0,"DA XIAN, CH",FM-12,99999,V020,"040,1,N,0010,1","22000,1,9,N","000800,1,N,1","+0075,1","+0060,1","10244,1","06,0000,9,1",,"4,1,06,1",,"00,1,+99999,9,99,9","00,99,1,00,1,00,1,99999,9,00,1,00,1",,,"99999,9,09821,1","2,1,008,1,+999,9","44,1",SYN066AAXX  12121 57328 31908 00401 10075 20060 39821 40244 52008 74440;,Q01  00002PRCP06
01-12T15:00:00,4,31.2,107.5,344.0,"DA XIAN, CH",FM-12,99999,V020,"040,1,N,0030,1","22000,1,9,N","000100,1,N,1","+0045,1","+0040,1","10259,1",,,"4,1,03,1","4,1,03,1","00,1,+99999,9,99,9","00,99,1,00,1,00,1,99999,9,00,1,00,1",,,,"2,1,013,1,+999,9","46,1",SYN060AAXX  12151 57328 41901 00403 10045 20040 40259 52013 74644;,
01-12T18:00:00,4,31.2,107.5,344.0,"DA XIAN, CH",FM-12,99999,V020,"040,1,N,0030,1","00015,1,9,N","000000,1,N,1","+0033,1","+0031,1","10247,1","06,0000,9,1",,"4,1,06,1","4,1,06,1","09,1,+99999,9,99,9","09,99,1,09,1,99,9,99999,9,99,9,99,9",,"999,M,+0117,1","99999,9,09825,1","7,1,009,1,+999,9","45,1",SYN076AAXX  12181 57328 31/00 90403 10033 20031 39825 40247 57009 74544 333 10117;,Q01  00002PRCP06
01-12T21:00:00,4,31.2,107.5,344.0,"DA XIAN, CH",FM-12,99999,V020,"020,1,N,0030,1","00015,1,9,N","000000,1,N,1","+0031,1","+0031,1","10235,1",,,"4,1,03,1","4,1,03,1","09,1,+99999,9,99,9","09,99,1,09,1,99,9,99999,9,99,9,99,9",,,,"7,1,010,1,+999,9","45,1",SYN060AAXX  12211 57328 41/00 90203 10031 20031 40235 57010 74544;,
01-13T00:00:00,4,31.2,107.5,344.0,"DA XIAN, CH",FM-12,99999,V020,"040,1,N,0030,1","00015,1,9,N","000000,1,N,1","+0033,1","+0031,1","10249,1","06,0000,9,1",,"4,1,06,1","4,1,06,1","09,1,+99999,9,99,9","09,99,1,09,1,99,9,99999,9,99,9,99,9","999,+0030,9",,"99999,9,09826,1","2,1,011,1,-030,1","45,1",SYN082AAXX  13001 57328 31/00 90403 10033 20031 39826 40249 52011 74544 333 05301 30035;,Q01  00002PRCP06
01-13T03:00:00,4,31.2,107.5,344.0,"DA XIAN, CH",FM-12,99999,V020,"040,1,N,0020,1","22000,1,9,N","000600,1,N,1","+0043,1","+0038,1","10258,1",,,"4,1,03,1","4,1,03,1","00,1,+99999,9,99,9","00,99,1,00,1,00,1,99999,9,00,1,00,1",,,,"2,1,007,1,+999,9","42,1",SYN060AAXX  13031 57328 41906 00402 10043 20038 40258 52007 74244;,
01-13T06:00:00,4,31.2,107.5,344.0,"DA XIAN, CH",FM-12,99999,V020,"999,9,C,0000,1","22000,1,9,N","001500,1,N,1","+0121,1","+0053,1","10216,1","06,0000,9,1",,"4,1,06,1",,"00,1,+99999,9,99,9","00,99,1,00,1,00,1,99999,9,00,1,00,1",,"999,N,+0028,1","99999,9,09798,1","7,1,035,1,+999,9","10,1",SYN076AAXX  13061 57328 31915 00000 10121 20053 39798 40216 57035 71040 333 20028;,Q01  00002PRCP06
01-13T09:00:00,4,31.2,107.5,344.0,"DA XIAN, CH",FM-12,99999,V020,"999,9,C,0000,1","22000,1,9,N","004000,1,N,1","+0149,1","+0020,1","10199,1",,,,,"00,1,+99999,9,99,9","00,99,1,00,1,00,1,99999,9,00,1,00,1",,,,"7,1,014,1,+999,9","10,1",SYN060AAXX  13091 57328 41940 00000 10149 20020 40199 57014 71000;,
01-13T12:00:00,4,31.2,107.5,344.0,"DA XIAN, CH",FM-12,99999,V020,"040,1,N,0020,1","22000,1,9,N","001500,1,N,1","+0089,1","+0044,1","10224,1","06,0000,9,1",,,,"00,1,+99999,9,99,9","00,99,1,00,1,00,1,99999,9,00,1,00,1",,,"99999,9,09803,1","2,1,019,1,+999,9","10,1",SYN066AAXX  13121 57328 31915 00402 10089 20044 39803 40224 52019 71000;,Q01  00002PRCP06
01-13T15:00:00,4,31.2,107.5,344.0,"DA XIAN, CH",FM-12,99999,V020,"040,1,N,0020,1","22000,1,9,N","001500,1,N,1","+0061,1","+0038,1","10242,1",,,,,"00,1,+99999,9,99,9","00,99,1,00,1,00,1,99999,9,00,1,00,1",,,,"2,1,016,1,+999,9","10,1",SYN060AAXX  13151 57328 41915 00402 10061 20038 40242 52016 71000;,
01-13T18:00:00,4,31.2,107.5,344.0,"DA XIAN, CH",FM-12,99999,V020,"070,1,N,0020,1","22000,1,9,N","001500,1,N,1","+0047,1","+0030,1","10244,1","06,0000,9,1",,,,"00,1,+99999,9,99,9","00,99,1,00,1,00,1,99999,9,00,1,00,1",,"999,M,+0156,1","99999,9,09826,1","2,1,007,1,+999,9","10,1",SYN076AAXX  13181 57328 31915 00702 10047 20030 39826 40244 52007 71000 333 10156;,Q01  00002PRCP06
01-13T21:00:00,4,31.2,107.5,344.0,"DA XIAN, CH",FM-12,99999,V020,"999,9,C,0000,1","99999,9,9,N","001500,1,N,1","+0053,1","+0032,1","10234,1",,,,,,"08,99,1,08,1,00,1,99999,9,07,1,99,9",,,,"7,1,007,1,+999,9","10,1",SYN066AAXX  13211 57328 41915 80000 10053 20032 40234 57007 71000 8807/;,
01-14T00:00:00,4,31.2,107.5,344.0,"DA XIAN, CH",FM-12,99999,V020,"999,9,C,0000,1","99999,9,9,N","003000,1,N,1","+0066,1","+0028,1","10251,1","06,0000,9,1",,,,,"08,99,1,08,1,00,1,99999,9,07,1,99,9","999,+0030,9",,"99999,9,09832,1","2,1,013,1,+010,1","10,1",SYN088AAXX  14001 57328 31930 80000 10066 20028 39832 40251 52013 71000 8807/ 333 00103 30035;,Q01  00002PRCP06
01-14T03:00:00,4,31.2,107.5,344.0,"DA XIAN, CH",FM-12,99999,V020,"999,9,C,0000,1","99999,9,9,N","002000,1,N,1","+0083,1","+0045,1","10274,1",,,,,,"08,99,1,08,1,00,1,99999,9,07,1,99,9",,,,"2,1,021,1,+999,9","10,1",SYN066AAXX  14031 57328 41920 80000 10083 20045 40274 52021 71000 8807/;,
01-14T06:00:00,4,31.2,107.5,344.0,"DA XIAN, CH",FM-12,99999,V020,"180,1,N,0010,1","99999,9,9,N","001500,1,N,1","+0096,1","+0045,1","10256,1","06,9999,9,9",,,,,"08,99,1,08,1,00,1,99999,9,02,1,99,9",,"999,N,+0046,1","99999,9,09836,1","7,1,017,1,+999,9","60,1",SYN088AAXX  14061 57328 11915 81801 10096 20045 39836 40256 57017 69901 76000 8802/ 333 20046;,
01-14T09:00:00,4,31.2,107.5,344.0,"DA XIAN, CH",FM-12,99999,V020,"040,1,N,0010,1","99999,9,9,N","000900,1,N,1","+0080,1","+0063,1","10259,1",,,"6,1,03,1","4,1,03,1",,"08,99,1,08,1,00,1,99999,9,02,1,99,9",,,,"2,1,002,1,+999,9","60,1",SYN066AAXX  14091 57328 41909 80401 10080 20063 40259 52002 76064 8802/;,
01-14T12:00:00,4,31.2,107.5,344.0,"DA XIAN, CH",FM-12,99999,V020,"040,1,N,0020,1","99999,9,9,N","000700,1,N,1","+0078,1","+0072,1","10285,1","06,0020,9,1",,"6,1,06,1","4,1,06,1",,"08,99,1,08,1,00,1,99999,9,02,1,99,9",,,"99999,9,09863,1","2,1,025,1,+999,9","60,1",SYN078AAXX  14121 57328 11907 80402 10078 20072 39863 40285 52025 60021 76064 8802/;,
01-14T15:00:00,4,31.2,107.5,344.0,"DA XIAN, CH",FM-12,99999,V020,"040,1,N,0010,1","99999,9,9,N","001500,1,N,1","+0076,1","+0067,1","10298,1",,,"6,1,03,1","4,1,03,1",,"08,99,1,08,1,00,1,99999,9,02,1,99,9",,,,"2,1,014,1,+999,9","60,1",SYN066AAXX  14151 57328 41915 80401 10076 20067 40298 52014 76064 8802/;,
01-14T18:00:00,4,31.2,107.5,344.0,"DA XIAN, CH",FM-12,99999,V020,"999,9,C,0000,1","99999,9,9,N","002000,1,N,1","+0074,1","+0065,1","10289,1","06,0005,9,1",,"6,1,06,1","4,1,06,1",,"08,99,1,08,1,00,1,99999,9,02,1,99,9",,"999,M,+0096,1","99999,9,09869,1","7,1,008,1,+999,9","21,1",SYN088AAXX  14181 57328 11920 80000 10074 20065 39869 40289 57008 69941 72164 8802/ 333 10096;,
01-14T21:00:00,4,31.2,107.5,344.0,"DA XIAN, CH",FM-12,99999,V020,"090,1,N,0010,1","99999,9,9,N","002000,1,N,1","+0072,1","+0063,1","10288,1","24,0028,9,1",,"6,1,03,1",,,"08,99,1,08,1,00,1,99999,9,02,1,99,9",,,,"7,1,002,1,+999,9","60,1",SYN076AAXX  14211 57328 41920 80901 10072 20063 40288 57002 76060 8802/ 333 70027;,
01-15T00:00:00,4,31.2,107.5,344.0,"DA XIAN, CH",FM-12,99999,V020,"999,9,C,0000,1","99999,9,9,N","002000,1,N,1","+0071,1","+0062,1","10298,1","06,0010,9,1","24,0033,9,1","6,1,06,1",,,"08,99,1,08,1,00,1,99999,9,02,1,99,9",,,"99999,9,09876,1","2,1,009,1,+040,1","10,1",SYN094AAXX  15001 57328 11920 80000 10071 20062 39876 40298 52009 60011 71060 8802/ 333 00401 70033;,
01-15T03:00:00,4,31.2,107.5,344.0,"DA XIAN, CH",FM-12,99999,V020,"999,9,C,0000,1","99999,9,9,N","001500,1,N,1","+0077,1","+0066,1","10307,1",,,,,,"08,99,1,08,1,00,1,99999,9,02,1,99,9",,,,"2,1,009,1,+999,9","10,1",SYN066AAXX  15031 57328 41915 80000 10077 20066 40307 52009 71000 8802/;,
01-15T06:00:00,4,31.2,107.5,344.0,"DA XIAN, CH",FM-12,99999,V020,"360,1,N,0020,1","99999,9,9,N","003000,1,N,1","+0099,1","+0067,1","10271,1","06,0000,9,1",,,,,"08,99,1,08,1,00,1,99999,9,04,1,99,9",,"999,N,+0068,1","99999,9,09852,1","7,1,033,1,+999,9","10,1",SYN082AAXX  15061 57328 31930 83602 10099 20067 39852 40271 57033 71000 8804/ 333 20068;,Q01  00002PRCP06
01-15T09:00:00,4,31.2,107.5,344.0,"DA XIAN, CH",FM-12,99999,V020,"040,1,N,0020,1","22000,1,9,N","005000,1,N,1","+0105,1","+0065,1","10257,1",,,,,,"04,99,1,04,1,00,1,99999,9,04,1,00,1",,,,"7,1,013,1,+999,9","10,1",SYN066AAXX  15091 57328 41950 40402 10105 20065 40257 57013 71000 84040;,
01-15T12:00:00,4,31.2,107.5,344.0,"DA XIAN, CH",FM-12,99999,V020,"040,1,N,0020,1","22000,1,9,N","003000,1,N,1","+0081,1","+0064,1","10260,1","06,0000,9,1",,,,,"04,99,1,04,1,00,1,99999,9,04,1,00,1",,,"99999,9,09840,1","2,1,001,1,+999,9","10,1",SYN072AAXX  15121 57328 31930 40402 10081 20064 39840 40260 52001 71000 84040;,Q01  00002PRCP06
01-15T15:00:00,4,31.2,107.5,344.0,"DA XIAN, CH",FM-12,99999,V020,"040,1,N,0010,1","22000,1,9,N","003000,1,N,1","+0057,1","+0048,1","10262,1",,,,,"00,1,+99999,9,99,9","00,99,1,00,1,00,1,99999,9,00,1,00,1",,,,"2,1,001,1,+999,9","10,1",SYN060AAXX  15151 57328 41930 00401 10057 20048 40262 52001 71000;,
01-15T18:00:00,4,31.2,107.5,344.0,"DA XIAN, CH",FM-12,99999,V020,"070,1,N,0020,1","22000,1,9,N","000000,1,N,1","+0037,1","+0035,1","10261,1","06,0000,9,1",,"4,1,06,1",,"00,1,+99999,9,99,9","00,99,1,00,1,00,1,99999,9,00,1,00,1",,"999,M,+0108,1","99999,9,09840,1","7,1,001,1,+999,9","46,1",SYN076AAXX  15181 57328 31900 00702 10037 20035 39840 40261 57001 74640 333 10108;,Q01  00002PRCP06
01-15T21:00:00,4,31.2,107.5,344.0,"DA XIAN, CH",FM-12,99999,V020,"020,1,N,0020,1","00015,1,9,N","000000,1,N,1","+0027,1","+0027,1","10249,1","24,0005,9,1",,"4,1,03,1","4,1,03,1","09,1,+99999,9,99,9","09,99,1,09,1,99,9,99999,9,99,9,99,9",,,,"7,1,012,1,+999,9","45,1",SYN070AAXX  15211 57328 41/00 90202 10027 20027 40249 57012 74544 333 70006;,
01-16T00:00:00,4,31.2,107.5,344.0,"DA XIAN, CH",FM-12,99999,V020,"070,1,N,0020,1","00015,1,9,N","000000,1,N,1","+0024,1","+0024,1","10254,1","06,0000,9,1",,"4,1,06,1","4,1,06,1","09,1,+99999,9,99,9","09,99,1,09,1,99,9,99999,9,99,9,99,9","999,+0030,9",,"99999,9,09831,1","2,1,003,1,-050,1","45,1",SYN082AAXX  16001 57328 31/00 90702 10024 20024 39831 40254 52003 74544 333 05555 30034;,Q01  00002PRCP06
01-16T03:00:00,4,31.2,107.5,344.0,"DA XIAN, CH",FM-12,99999,V020,"040,1,N,0020,1","22000,1,9,N","000400,1,N,1","+0041,1","+0036,1","10264,1",,,"4,1,03,1","4,1,03,1","00,1,+99999,9,99,9","00,99,1,00,1,00,1,99999,9,00,1,00,1",,,,"2,1,009,1,+999,9","42,1",SYN060AAXX  16031 57328 41904 00402 10041 20036 40264 52009 74244;,
01-16T06:00:00,4,31.2,107.5,344.0,"DA XIAN, CH",FM-12,99999,V020,"270,1,N,0010,1","22000,1,9,N","003000,1,N,1","+0107,1","+0056,1","10224,1","06,0000,9,1",,"4,1,06,1",,"00,1,+99999,9,99,9","00,99,1,00,1,00,1,99999,9,00,1,00,1",,"999,N,+0022,1","99999,9,09805,1","7,1,035,1,+999,9","10,1",SYN076AAXX  16061 57328 31930 02701 10107 20056 39805 40224 57035 71040 333 20022;,Q01  00002PRCP06
01-16T09:00:00,4,31.2,107.5,344.0,"DA XIAN, CH",FM-12,99999,V020,"250,1,N,0010,1","22000,1,9,N","004000,1,N,1","+0127,1","+0063,1","10208,1",,,,,"00,1,+99999,9,99,9","00,99,1,00,1,00,1,99999,9,00,1,00,1",,,,"7,1,015,1,+999,9","10,1",SYN060AAXX  16091 57328 41940 02501 10127 20063 40208 57015 71000;,
01-16T12:00:00,4,31.2,107.5,344.0,"DA XIAN, CH",FM-12,99999,V020,"999,9,C,0000,1","22000,1,9,N","003000,1,N,1","+0085,1","+0059,1","10215,1","06,0000,9,1",,,,"00,1,+99999,9,99,9","00,99,1,00,1,00,1,99999,9,00,1,00,1",,,"99999,9,09794,1","2,1,004,1,+999,9","10,1",SYN066AAXX  16121 57328 31930 00000 10085 20059 39794 40215 52004 71000;,Q01  00002PRCP06
01-16T15:00:00,4,31.2,107.5,344.0,"DA XIAN, CH",FM-12,99999,V020,"040,1,N,0010,1","22000,1,9,N","002000,1,N,1","+0059,1","+0050,1","10228,1",,,,,"00,1,+99999,9,99,9","00,99,1,00,1,00,1,99999,9,00,1,00,1",,,,"2,1,012,1,+999,9","10,1",SYN060AAXX  16151 57328 41920 00401 10059 20050 40228 52012 71000;,
01-16T18:00:00,4,31.2,107.5,344.0,"DA XIAN, CH",FM-12,99999,V020,"040,1,N,0020,1","00015,1,9,N","000000,1,N,1","+0037,1","+0037,1","10233,1","06,0000,9,1",,,,"09,1,+99999,9,99,9","09,99,1,09,1,99,9,99999,9,99,9,99,9",,"999,M,+0127,1","99999,9,09814,1","2,1,008,1,+999,9","47,1",SYN076AAXX  16181 57328 31/00 90402 10037 20037 39814 40233 52008 74700 333 10127;,Q01  00002PRCP06
01-16T21:00:00,4,31.2,107.5,344.0,"DA XIAN, CH",FM-12,99999,V020,"999,9,C,0000,1","00015,1,9,N","000000,1,N,1","+0032,1","+0032,1","10232,1",,,"4,1,03,1","4,1,03,1","09,1,+99999,9,99,9","09,99,1,09,1,99,9,99999,9,99,9,99,9",,,,"4,1,000,1,+999,9","45,1",SYN060AAXX  16211 57328 41/00 90000 10032 20032 40232 54000 74544;,
01-17T00:00:00,4,31.2,107.5,344.0,"DA XIAN, CH",FM-12,99999,V020,"110,1,N,0010,1","00015,1,9,N","000000,1,N,1","+0029,1","+0027,1","10250,1","06,0000,9,1",,"4,1,06,1","4,1,06,1","09,1,+99999,9,99,9","09,99,1,09,1,99,9,99999,9,99,9,99,9","999,+0030,9",,"99999,9,09828,1","2,1,014,1,+000,1","45,1",SYN082AAXX  17001 57328 31/00 91101 10029 20027 39828 40250 52014 74544 333 00001 30037;,Q01  00002PRCP06
01-17T03:00:00,4,31.2,107.5,344.0,"DA XIAN, CH",FM-12,99999,V020,"040,1,N,0010,1","02100,1,9,N","001000,1,N,1","+0045,1","+0043,1","10269,1",,,"4,1,03,1","4,1,03,1",,"08,99,1,08,1,05,1,02250,1,99,9,99,9",,,,"2,1,017,1,+999,9","28,1",SYN066AAXX  17031 57328 41810 80401 10045 20043 40269 52017 72844 885//;,
01-17T06:00:00,4,31.2,107.5,344.0,"DA XIAN, CH",FM-12,99999,V020,"999,9,C,0000,1","99999,9,9,N","001200,1,N,1","+0079,1","+0057,1","10247,1","06,0000,9,1",,"4,1,06,1",,,"08,99,1,08,1,00,1,99999,9,07,1,99,9",,"999,N,+0025,1","99999,9,09825,1","7,1,020,1,+999,9","10,1",SYN082AAXX  17061 57328 31912 80000 10079 20057 39825 40247 57020 71040 8807/ 333 20025;,Q01  00002PRCP06
01-17T09:00:00,4,31.2,107.5,344.0,"DA XIAN, CH",FM-12,99999,V020,"999,9,C,0000,1","99999,9,9,N","001200,1,N,1","+0086,1","+0062,1","10242,1",,,,,,"08,99,1,08,1,00,1,99999,9,07,1,99,9",,,,"7,1,005,1,+999,9","10,1",SYN066AAXX  17091 57328 41912 80000 10086 20062 40242 57005 71000 8807/;,
01-17T12:00:00,4,31.2,107.5,344.0,"DA XIAN, CH",FM-12,99999,V020,"999,9,C,0000,1","99999,9,9,N","001200,1,N,1","+0085,1","+0064,1","10262,1","06,0000,9,1",,,,,"08,99,1,08,1,00,1,99999,9,07,1,99,9",,,"99999,9,09839,1","2,1,019,1,+999,9","10,1",SYN072AAXX  17121 57328 31912 80000 10085 20064 39839 40262 52019 71000 8807/;,Q01  00002PRCP06
01-17T15:00:00,4,31.2,107.5,344.0,"DA XIAN, CH",FM-12,99999,V020,"070,1,N,0020,1","99999,9,9,N","001200,1,N,1","+0077,1","+0064,1","10268,1",,,,,,"08,99,1,08,1,00,1,99999,9,07,1,99,9",,,,"2,1,007,1,+999,9","10,1",SYN066AAXX  17151 57328 41912 80702 10077 20064 40268 52007 71000 8807/;,
01-17T18:00:00,4,31.2,107.5,344.0,"DA XIAN, CH",FM-12,99999,V020,"180,1,N,0010,1","99999,9,9,N","001200,1,N,1","+0077,1","+0064,1","10268,1","06,0000,9,1",,,,,"08,99,1,08,1,00,1,99999,9,07,1,99,9",,"999,M,+0087,1","99999,9,09848,1","2,1,002,1,+999,9","10,1",SYN082AAXX  17181 57328 31912 81801 10077 20064 39848 40268 52002 71000 8807/ 333 10087;,Q01  00002PRCP06
01-17T21:00:00,4,31.2,107.5,344.0,"DA XIAN, CH",FM-12,99999,V020,"040,1,N,0010,1","99999,9,9,N","001500,1,N,1","+0073,1","+0064,1","10263,1",,,,,,"08,99,1,08,1,00,1,99999,9,07,1,99,9",,,,"7,1,005,1,+999,9","10,1",SYN066AAXX  17211 57328 41915 80401 10073 20064 40263 57005 71000 8807/;,
01-18T00:00:00,4,31.2,107.5,344.0,"DA XIAN, CH",FM-12,99999,V020,"160,1,N,0010,1","99999,9,9,N","001200,1,N,1","+0072,1","+0063,1","10280,1","06,0000,9,1",,,,,"08,99,1,08,1,00,1,99999,9,07,1,99,9",,,"99999,9,09860,1","2,1,017,1,+003,1","10,1",SYN082AAXX  18001 57328 31912 81601 10072 20063 39860 40280 52017 71000 8807/ 333 00304;,Q01  00002PRCP06
01-18T03:00:00,4,31.2,107.5,344.0,"DA XIAN, CH",FM-12,99999,V020,"999,9,C,0000,1","99999,9,9,N","003000,1,N,1","+0089,1","+0070,1","10300,1",,,,,,"08,99,1,08,1,00,1,99999,9,04,1,99,9",,,,"2,1,019,1,+999,9","10,1",SYN066AAXX  18031 57328 41930 80000 10089 20070 40300 52019 71000 8804/;,
01-18T06:00:00,4,31.2,107.5,344.0,"DA XIAN, CH",FM-12,99999,V020,"140,1,N,0010,1","22000,1,9,N","002000,1,N,1","+0124,1","+0078,1","10279,1","06,0000,9,1",,,,"00,1,+99999,9,99,9","00,99,1,00,1,00,1,99999,9,00,1,00,1",,"999,N,+0070,1","99999,9,09862,1","7,1,017,1,+999,9","10,1",SYN076AAXX  18061 57328 31920 01401 10124 20078 39862 40279 57017 71000 333 20070;,Q01  00002PRCP06
01-18T09:00:00,4,31.2,107.5,344.0,"DA XIAN, CH",FM-12,99999,V020,"999,9,C,0000,1","22000,1,9,N","003000,1,N,1","+0133,1","+0075,1","10270,1",,,,,"00,1,+99999,9,99,9","00,99,1,00,1,00,1,99999,9,00,1,00,1",,,,"7,1,008,1,+999,9","10,1",SYN060AAXX  18091 57328 41930 00000 10133 20075 40270 57008 71000;,
01-18T12:00:00,4,31.2,107.5,344.0,"DA XIAN, CH",FM-12,99999,V020,"040,1,N,0020,1","22000,1,9,N","002000,1,N,1","+0094,1","+0067,1","10283,1","06,0000,9,1",,,,"00,1,+99999,9,99,9","00,99,1,00,1,00,1,99999,9,00,1,00,1",,,"99999,9,09863,1","2,1,009,1,+999,9","10,1",SYN066AAXX  18121 57328 31920 00402 10094 20067 39863 40283 52009 71000;,Q01  00002PRCP06
01-18T15:00:00,4,31.2,107.5,344.0,"DA XIAN, CH",FM-12,99999,V020,"040,1,N,0010,1","22000,1,9,N","003000,1,N,1","+0068,1","+0059,1","10292,1",,,,,"00,1,+99999,9,99,9","00,99,1,00,1,00,1,99999,9,00,1,00,1",,,,"2,1,008,1,+999,9","10,1",SYN060AAXX  18151 57328 41930 00401 10068 20059 40292 52008 71000;,
01-18T18:00:00,4,31.2,107.5,344.0,"DA XIAN, CH",FM-12,99999,V020,"040,1,N,0020,1","22000,1,9,N","003000,1,N,1","+0055,1","+0050,1","10280,1","06,0000,9,1",,,,"00,1,+99999,9,99,9","00,99,1,00,1,00,1,99999,9,00,1,00,1",,"999,M,+0139,1","99999,9,09861,1","7,1,010,1,+999,9","10,1",SYN076AAXX  18181 57328 31930 00402 10055 20050 39861 40280 57010 71000 333 10139;,Q01  00002PRCP06
01-18T21:00:00,4,31.2,107.5,344.0,"DA XIAN, CH",FM-12,99999,V020,"070,1,N,0010,1","22000,1,9,N","000000,1,N,1","+0042,1","+0040,1","10264,1",,,"4,1,03,1",,"00,1,+99999,9,99,9","00,99,1,00,1,00,1,99999,9,00,1,00,1",,,,"7,1,015,1,+999,9","46,1",SYN060AAXX  18211 57328 41900 00701 10042 20040 40264 57015 74640;,
01-19T00:00:00,4,31.2,107.5,344.0,"DA XIAN, CH",FM-12,99999,V020,"040,1,N,0030,1","00015,1,9,N","000000,1,N,1","+0041,1","+0036,1","10253,1","06,0000,9,1",,"4,1,06,1",,"09,1,+99999,9,99,9","09,99,1,09,1,99,9,99999,9,99,9,99,9","999,+0040,9",,"99999,9,09832,1","7,1,014,1,-030,1","45,1",SYN082AAXX  19001 57328 31/00 90403 10041 20036 39832 40253 57014 74540 333 05353 30040;,Q01  00002PRCP06
01-19T03:00:00,4,31.2,107.5,344.0,"DA XIAN, CH",FM-12,99999,V020,"070,1,N,0010,1","00030,1,9,N","000200,1,N,1","+0055,1","+0055,1","10260,1",,,"4,1,03,1","4,1,03,1","09,1,+99999,9,99,9","09,99,1,09,1,99,9,99999,9,99,9,99,9",,,,"2,1,006,1,+999,9","43,1",SYN060AAXX  19031 57328 41/02 90701 10055 20055 40260 52006 74344;,
01-19T06:00:00,4,31.2,107.5,344.0,"DA XIAN, CH",FM-12,99999,V020,"040,1,N,0020,1","22000,1,9,N","001500,1,N,1","+0117,1","+0072,1","10207,1","06,0000,9,1",,"4,1,06,1",,"00,1,+99999,9,99,9","00,99,1,00,1,00,1,99999,9,00,1,00,1",,"999,N,+0039,1","99999,9,09791,1","7,1,047,1,+999,9","10,1",SYN076AAXX  19061 57328 31915 00402 10117 20072 39791 40207 57047 71040 333 20039;,Q01  00002PRCP06
01-19T09:00:00,4,31.2,107.5,344.0,"DA XIAN, CH",FM-12,99999,V020,"340,1,N,0010,1","22000,1,9,N","001500,1,N,1","+0139,1","+0080,1","10179,1",,,,,"00,1,+99999,9,99,9","00,99,1,00,1,00,1,99999,9,00,1,00,1",,,,"7,1,027,1,+999,9","10,1",SYN060AAXX  19091 57328 41915 03401 10139 20080 40179 57027 71000;,
01-19T12:00:00,4,31.2,107.5,344.0,"DA XIAN, CH",FM-12,99999,V020,"040,1,N,0010,1","99999,9,9,N","001500,1,N,1","+0103,1","+0081,1","10184,1","06,0000,9,1",,,,,"08,99,1,08,1,00,1,99999,9,07,1,99,9",,,"99999,9,09767,1","2,1,003,1,+999,9","10,1",SYN072AAXX  19121 57328 31915 80401 10103 20081 39767 40184 52003 71000 8807/;,Q01  00002PRCP06
01-19T15:00:00,4,31.2,107.5,344.0,"DA XIAN, CH",FM-12,99999,V020,"040,1,N,0010,1","99999,9,9,N","001500,1,N,1","+0081,1","+0073,1","10201,1",,,,,,"08,99,1,08,1,00,1,99999,9,07,1,99,9",,,,"2,1,015,1,+999,9","10,1",SYN066AAXX  19151 57328 41915 80401 10081 20073 40201 52015 71000 8807/;,
01-19T18:00:00,4,31.2,107.5,344.0,"DA XIAN, CH",FM-12,99999,V020,"040,1,N,0020,1","99999,9,9,N","001500,1,N,1","+0073,1","+0064,1","10201,1","06,0000,9,1",,,,,"08,99,1,08,1,00,1,99999,9,07,1,99,9",,"999,M,+0140,1","99999,9,09786,1","2,1,004,1,+999,9","10,1",SYN082AAXX  19181 57328 31915 80402 10073 20064 39786 40201 52004 71000 8807/ 333 10140;,Q01  00002PRCP06
01-19T21:00:00,4,31.2,107.5,344.0,"DA XIAN, CH",FM-12,99999,V020,"090,1,N,0020,1","99999,9,9,N","001500,1,N,1","+0075,1","+0066,1","10201,1",,,,,,"07,99,1,07,1,00,1,99999,9,04,1,99,9",,,,"2,1,002,1,+999,9","10,1",SYN066AAXX  19211 57328 41915 70902 10075 20066 40201 52002 71000 8704/;,
01-20T00:00:00,4,31.2,107.5,344.0,"DA XIAN, CH",FM-12,99999,V020,"999,9,C,0000,1","00015,1,9,N","000000,1,N,1","+0064,1","+0062,1","10219,1","06,0000,9,1",,,,"09,1,+99999,9,99,9","09,99,1,09,1,99,9,99999,9,99,9,99,9","999,+0040,9",,"99999,9,09802,1","2,1,014,1,-030,1","47,1",SYN082AAXX  20001 57328 31/00 90000 10064 20062 39802 40219 52014 74700 333 05302 30045;,Q01  00002PRCP06
01-20T03:00:00,4,31.2,107.5,344.0,"DA XIAN, CH",FM-12,99999,V020,"070,1,N,0010,1","00015,1,9,N","000000,1,N,1","+0074,1","+0072,1","10245,1",,,"4,1,03,1","4,1,03,1","09,1,+99999,9,99,9","09,99,1,09,1,99,9,99999,9,99,9,99,9",,,,"2,1,024,1,+999,9","45,1",SYN060AAXX  20031 57328 41/00 90701 10074 20072 40245 52024 74544;,
01-20T06:00:00,4,31.2,107.5,344.0,"DA XIAN, CH",FM-12,99999,V020,"270,1,N,0010,1","22000,1,9,N","000800,1,N,1","+0112,1","+0090,1","10207,1","06,0000,9,1",,"4,1,06,1","4,1,06,1","00,1,+99999,9,99,9","00,99,1,00,1,00,1,99999,9,00,1,00,1",,"999,N,+0062,1","99999,9,09792,1","7,1,034,1,+999,9","42,1",SYN076AAXX  20061 57328 31908 02701 10112 20090 39792 40207 57034 74244 333 20062;,Q01  00002PRCP06
01-20T09:00:00,4,31.2,107.5,344.0,"DA XIAN, CH",FM-12,99999,V020,"270,1,N,0010,1","22000,1,9,N","001100,1,N,1","+0129,1","+0090,1","10188,1",,,"4,1,03,1",,"00,1,+99999,9,99,9","00,99,1,00,1,00,1,99999,9,00,1,00,1",,,,"7,1,017,1,+999,9","10,1",SYN060AAXX  20091 57328 41911 02701 10129 20090 40188 57017 71040;,
01-20T12:00:00,4,31.2,107.5,344.0,"DA XIAN, CH",FM-12,99999,V020,"180,1,N,0010,1","99999,9,9,N","001200,1,N,1","+0105,1","+0087,1","10193,1","06,0000,9,1",,"4,1,06,1",,,"08,99,1,08,1,00,1,99999,9,07,1,99,9",,,"99999,9,09777,1","2,1,002,1,+999,9","10,1",SYN072AAXX  20121 57328 31912 81801 10105 20087 39777 40193 52002 71040 8807/;,Q01  00002PRCP06
01-20T15:00:00,4,31.2,107.5,344.0,"DA XIAN, CH",FM-12,99999,V020,"070,1,N,0010,1","99999,9,9,N","001200,1,N,1","+0094,1","+0082,1","10196,1",,,,,,"08,99,1,08,1,00,1,99999,9,07,1,99,9",,,,"2,1,003,1,+999,9","10,1",SYN066AAXX  20151 57328 41912 80701 10094 20082 40196 52003 71000 8807/;,
01-20T18:00:00,4,31.2,107.5,344.0,"DA XIAN, CH",FM-12,99999,V020,"999,9,C,0000,1","99999,9,9,N","001000,1,N,1","+0097,1","+0087,1","10174,1","06,0000,9,1",,,,,"08,99,1,08,1,00,1,99999,9,07,1,99,9",,"999,M,+0129,1","99999,9,09762,1","7,1,018,1,+999,9","10,1",SYN082AAXX  20181 57328 31910 80000 10097 20087 39762 40174 57018 71000 8807/ 333 10129;,Q01  00002PRCP06
01-20T21:00:00,4,31.2,107.5,344.0,"DA XIAN, CH",FM-12,99999,V020,"999,9,C,0000,1","99999,9,9,N","001000,1,N,1","+0094,1","+0084,1","10141,1",,,,,,"08,99,1,08,1,00,1,99999,9,07,1,99,9",,,,"7,1,031,1,+999,9","10,1",SYN066AAXX  20211 57328 41910 80000 10094 20084 40141 57031 71000 8807/;,
01-21T00:00:00,4,31.2,107.5,344.0,"DA XIAN, CH",FM-12,99999,V020,"360,1,N,0010,1","99999,9,9,N","001000,1,N,1","+0092,1","+0082,1","10128,1","06,0000,9,1",,,,,"08,99,1,08,1,00,1,99999,9,07,1,99,9",,,"99999,9,09717,1","7,1,014,1,+009,1","10,1",SYN082AAXX  21001 57328 31910 83601 10092 20082 39717 40128 57014 71000 8807/ 333 05903;,Q01  00002PRCP06
01-21T03:00:00,4,31.2,107.5,344.0,"DA XIAN, CH",FM-12,99999,V020,"040,1,N,0020,1","99999,9,9,N","000600,1,N,1","+0096,1","+0086,1","10128,1",,,"4,1,03,1",,,"08,99,1,08,1,00,1,99999,9,07,1,99,9",,,,"7,1,001,1,+999,9","44,1",SYN066AAXX  21031 57328 41906 80402 10096 20086 40128 57001 74440 8807/;,
01-21T06:00:00,4,31.2,107.5,344.0,"DA XIAN, CH",FM-12,99999,V020,"040,1,N,0030,1","02100,1,9,N","001200,1,N,1","+0099,1","+0085,1","10104,1","06,9999,9,9",,"6,1,06,1","4,1,06,1",,"08,99,1,08,1,05,1,02250,1,99,9,99,9",,"999,N,+0090,1","99999,9,09694,1","7,1,022,1,+999,9","60,1",SYN088AAXX  21061 57328 11812 80403 10099 20085 39694 40104 57022 69901 76064 885// 333 20090;,
01-21T09:00:00,4,31.2,107.5,344.0,"DA XIAN, CH",FM-12,99999,V020,"040,1,N,0010,1","02100,1,9,N","001200,1,N,1","+0106,1","+0100,1","10115,1",,,"6,1,03,1","6,1,03,1",,"08,99,1,08,1,05,1,02250,1,99,9,99,9",,,,"2,1,010,1,+999,9","60,1",SYN066AAXX  21091 57328 41812 80401 10106 20100 40115 52010 76066 885//;,
01-21T12:00:00,4,31.2,107.5,344.0,"DA XIAN, CH",FM-12,99999,V020,"040,1,N,0020,1","02100,1,9,N","003000,1,N,1","+0107,1","+0099,1","10145,1","06,0005,9,1",,"6,1,06,1","6,1,06,1",,"08,99,1,08,1,05,1,02250,1,99,9,99,9",,,"99999,9,09733,1","2,1,029,1,+999,9","21,1",SYN078AAXX  21121 57328 11830 80402 10107 20099 39733 40145 52029 69951 72166 885//;,
01-21T15:00:00,4,31.2,107.5,344.0,"DA XIAN, CH",FM-12,99999,V020,"090,1,N,0010,1","02100,1,9,N","004000,1,N,1","+0112,1","+0090,1","10177,1",,,,,,"06,99,1,06,1,05,1,02250,1,00,1,00,1",,,,"2,1,031,1,+999,9","10,1",SYN066AAXX  21151 57328 41840 60901 10112 20090 40177 52031 71000 86500;,
01-21T18:00:00,4,31.2,107.5,344.0,"DA XIAN, CH",FM-12,99999,V020,"070,1,N,0020,1","22000,1,9,N","006000,1,N,1","+0100,1","+0066,1","10192,1","06,0000,2,1",,,,"00,1,+99999,9,99,9","00,99,1,00,1,00,1,99999,9,00,1,00,1",,"999,M,+0116,1","99999,9,09778,1","2,1,014,1,+999,9","10,1",SYN076AAXX  21181 57328 31956 00702 10100 20066 39778 40192 52014 71000 333 10116;,
01-21T21:00:00,4,31.2,107.5,344.0,"DA XIAN, CH",FM-12,99999,V020,"090,1,N,0010,1","22000,1,9,N","003000,1,N,1","+0073,1","+0051,1","10195,1","24,0005,9,1",,,,"00,1,+99999,9,99,9","00,99,1,00,1,00,1,99999,9,00,1,00,1",,,,"2,1,002,1,+999,9","10,1",SYN070AAXX  21211 57328 41930 00901 10073 20051 40195 52002 71000 333 70005;,
01-22T00:00:00,4,31.2,107.5,344.0,"DA XIAN, CH",FM-12,99999,V020,"999,9,C,0000,1","22000,1,9,N","003000,1,N,1","+0058,1","+0044,1","10208,1","06,0000,9,1","24,0005,9,1",,,,"03,99,1,00,1,00,1,99999,9,00,1,01,1","999,+0023,9",,"99999,9,09791,1","2,1,011,1,+070,1","10,1",SYN094AAXX  22001 57328 31930 30000 10058 20044 39791 40208 52011 71000 80001 333 00753 30023 70005;,Q01  00002PRCP06
01-22T03:00:00,4,31.2,107.5,344.0,"DA XIAN, CH",FM-12,99999,V020,"999,9,C,0000,1","22000,1,9,N","006000,1,N,1","+0115,1","+0045,1","10218,1",,,,,"00,1,+99999,9,99,9","00,99,1,00,1,00,1,99999,9,00,1,00,1",,,,"2,1,014,1,+999,9","10,1",SYN060AAXX  22031 57328 41956 00000 10115 20045 40218 52014 71000;,
01-22T06:00:00,4,31.2,107.5,344.0,"DA XIAN, CH",FM-12,99999,V020,"220,1,N,0010,1","22000,1,9,N","008000,1,N,1","+0155,1","+0035,1","10188,1","06,0000,9,1",,,,"00,1,+99999,9,99,9","00,99,1,00,1,00,1,99999,9,00,1,00,1",,"999,N,+0057,1","99999,9,09778,1","7,1,027,1,+999,9","10,1",SYN076AAXX  22061 57328 31958 02201 10155 20035 39778 40188 57027 71000 333 20057;,Q01  00002PRCP06
01-22T09:00:00,4,31.2,107.5,344.0,"DA XIAN, CH",FM-12,99999,V020,"220,1,N,0010,1","22000,1,9,N","012000,1,N,1","+0163,1","+0004,1","10174,1",,,,,"00,1,+99999,9,99,9","00,99,1,00,1,00,1,99999,9,00,1,00,1",,,,"7,1,014,1,+999,9",,SYN054AAXX  22091 57328 42962 02201 10163 20004 40174 57014;,
01-22T12:00:00,4,31.2,107.5,344.0,"DA XIAN, CH",FM-12,99999,V020,"040,1,N,0010,1","22000,1,9,N","007000,1,N,1","+0103,1","+0036,1","10189,1","06,0000,9,1",,,,"00,1,+99999,9,99,9","00,99,1,00,1,00,1,99999,9,00,1,00,1",,,"99999,9,09773,1","2,1,009,1,+999,9","10,1",SYN066AAXX  22121 57328 31957 00401 10103 20036 39773 40189 52009 71000;,Q01  00002PRCP06
01-22T15:00:00,4,31.2,107.5,344.0,"DA XIAN, CH",FM-12,99999,V020,"040,1,N,0020,1","22000,1,9,N","008000,1,N,1","+0064,1","+0034,1","10197,1",,,,,"00,1,+99999,9,99,9","00,99,1,00,1,00,1,99999,9,00,1,00,1",,,,"2,1,009,1,+999,9","10,1",SYN060AAXX  22151 57328 41958 00402 10064 20034 40197 52009 71000;,
01-22T18:00:00,4,31.2,107.5,344.0,"DA XIAN, CH",FM-12,99999,V020,"070,1,N,0020,1","22000,1,9,N","008000,1,N,1","+0046,1","+0029,1","10193,1","06,0000,9,1",,,,"00,1,+99999,9,99,9","00,99,1,00,1,00,1,99999,9,00,1,00,1",,"999,M,+0173,1","99999,9,09779,1","7,1,003,1,+999,9","10,1",SYN076AAXX  22181 57328 31958 00702 10046 20029 39779 40193 57003 71000 333 10173;,Q01  00002PRCP06
01-22T21:00:00,4,31.2,107.5,344.0,"DA XIAN, CH",FM-12,99999,V020,"040,1,N,0030,1","22000,1,9,N","006000,1,N,1","+0037,1","+0025,1","10172,1",,,,,"00,1,+99999,9,99,9","00,99,1,00,1,00,1,99999,9,00,1,00,1",,,,"7,1,020,1,+999,9","10,1",SYN060AAXX  22211 57328 41956 00403 10037 20025 40172 57020 71000;,
01-23T00:00:00,4,31.2,107.5,344.0,"DA XIAN, CH",FM-12,99999,V020,"040,1,N,0020,1","99999,9,9,N","006000,1,N,1","+0041,1","+0019,1","10178,1","06,0000,9,1",,,,,"07,99,1,07,1,00,1,99999,9,04,1,99,9","999,+0020,9",,"99999,9,09761,1","2,1,002,1,-030,1","10,1",SYN088AAXX  23001 57328 31956 70402 10041 20019 39761 40178 52002 71000 8704/ 333 05352 30020;,Q01  00002PRCP06
01-23T03:00:00,4,31.2,107.5,344.0,"DA XIAN, CH",FM-12,99999,V020,"040,1,N,0010,1","99999,9,9,N","007000,1,N,1","+0073,1","+0026,1","10180,1",,,,,,"08,99,1,08,1,00,1,99999,9,07,1,99,9",,,,"2,1,001,1,+999,9","10,1",SYN066AAXX  23031 57328 41957 80401 10073 20026 40180 52001 71000 8807/;,
01-23T06:00:00,4,31.2,107.5,344.0,"DA XIAN, CH",FM-12,99999,V020,"999,9,C,0000,1","99999,9,9,N","007000,1,N,1","+0099,1","+0036,1","10135,1","06,0000,9,1",,,,,"08,99,1,08,1,00,1,99999,9,07,1,99,9",,"999,N,+0036,1","99999,9,09720,1","7,1,042,1,+999,9","10,1",SYN082AAXX  23061 57328 31957 80000 10099 20036 39720 40135 57042 71000 8807/ 333 20036;,Q01  00002PRCP06
01-23T09:00:00,4,31.2,107.5,344.0,"DA XIAN, CH",FM-12,99999,V020,"040,1,N,0020,1","99999,9,9,N","008000,1,N,1","+0113,1","+0043,1","10116,1",,,,,,"08,99,1,08,1,00,1,99999,9,07,1,99,9",,,,"7,1,018,1,+999,9","10,1",SYN066AAXX  23091 57328 41958 80402 10113 20043 40116 57018 71000 8807/;,
01-23T12:00:00,4,31.2,107.5,344.0,"DA XIAN, CH",FM-12,99999,V020,"040,1,N,0020,1","99999,9,9,N","005000,1,N,1","+0103,1","+0039,1","10116,1","06,0000,9,1",,,,,"08,99,1,08,1,00,1,99999,9,07,1,99,9",,,"99999,9,09701,1","7,1,001,1,+999,9","10,1",SYN072AAXX  23121 57328 31950 80402 10103 20039 39701 40116 57001 71000 8807/;,Q01  00002PRCP06
01-23T15:00:00,4,31.2,107.5,344.0,"DA XIAN, CH",FM-12,99999,V020,"040,1,N,0020,1","99999,9,9,N","005000,1,N,1","+0092,1","+0051,1","10113,1",,,,,,"08,99,1,08,1,00,1,99999,9,07,1,99,9",,,,"7,1,001,1,+999,9","10,1",SYN066AAXX  23151 57328 41950 80402 10092 20051 40113 57001 71000 8807/;,
01-23T18:00:00,4,31.2,107.5,344.0,"DA XIAN, CH",FM-12,99999,V020,"040,1,N,0020,1","99999,9,9,N","005000,1,N,1","+0087,1","+0052,1","10103,1","06,9999,9,9",,"6,1,06,1",,,"08,99,1,08,1,00,1,99999,9,07,1,99,9",,"999,M,+0113,1","99999,9,09692,1","7,1,008,1,+999,9","10,1",SYN088AAXX  23181 57328 11950 80402 10087 20052 39692 40103 57008 69901 71060 8807/ 333 10113;,
01-23T21:00:00,4,31.2,107.5,344.0,"DA XIAN, CH",FM-12,99999,V020,"040,1,N,0020,1","99999,9,9,N","003000,1,N,1","+0086,1","+0058,1","10095,1","24,0000,9,1",,,,,"08,99,1,08,1,00,1,99999,9,07,1,99,9",,,,"7,1,007,1,+999,9","10,1",SYN076AAXX  23211 57328 41930 80402 10086 20058 40095 57007 71000 8807/ 333 79999;,Q01  00002PRCP24
01-24T00:00:00,4,31.2,107.5,344.0,"DA XIAN, CH",FM-12,99999,V020,"040,1,N,0010,1","02100,1,9,N","003000,1,N,1","+0082,1","+0065,1","10107,1","06,0003,9,1","24,0003,9,1","6,1,06,1",,,"08,99,1,08,1,05,1,02250,1,99,9,99,9",,,"99999,9,09696,1","2,1,011,1,-070,1","21,1",SYN094AAXX  24001 57328 11830 80401 10082 20065 39696 40107 52011 69931 72160 885// 333 05704 70003;,
01-24T03:00:00,4,31.2,107.5,344.0,"DA XIAN, CH",FM-12,99999,V020,"040,1,N,0020,1","02100,1,9,N","003000,1,N,1","+0079,1","+0075,1","10116,1",,,,,,"08,99,1,08,1,05,1,02250,1,99,9,99,9",,,,"2,1,007,1,+999,9","10,1",SYN066AAXX  24031 57328 41830 80402 10079 20075 40116 52007 71000 885//;,
01-24T06:00:00,4,31.2,107.5,344.0,"DA XIAN, CH",FM-12,99999,V020,"999,9,C,0000,1","99999,9,9,N","003000,1,N,1","+0092,1","+0078,1","10100,1","06,9999,9,9",,"6,1,06,1",,,"08,99,1,08,1,00,1,99999,9,02,1,99,9",,"999,N,+0077,1","99999,9,09689,1","7,1,014,1,+999,9","60,1",SYN088AAXX  24061 57328 11930 80000 10092 20078 39689 40100 57014 69901 76060 8802/ 333 20077;,
01-24T09:00:00,4,31.2,107.5,344.0,"DA XIAN, CH",FM-12,99999,V020,"040,1,N,0010,1","99999,9,9,N","005000,1,N,1","+0099,1","+0070,1","10102,1",,,"6,1,03,1","6,1,03,1",,"08,99,1,08,1,00,1,99999,9,07,1,99,9",,,,"2,1,002,1,+999,9","60,1",SYN066AAXX  24091 57328 41950 80401 10099 20070 40102 52002 76066 8807/;,
01-24T12:00:00,4,31.2,107.5,344.0,"DA XIAN, CH",FM-12,99999,V020,"040,1,N,0020,1","99999,9,9,N","004000,1,N,1","+0095,1","+0079,1","10131,1","06,9999,9,9",,"6,1,06,1",,,"08,99,1,08,1,00,1,99999,9,07,1,99,9",,,"99999,9,09718,1","2,1,027,1,+999,9","10,1",SYN078AAXX  24121 57328 11940 80402 10095 20079 39718 40131 52027 69901 71060 8807/;,
01-24T15:00:00,4,31.2,107.5,344.0,"DA XIAN, CH",FM-12,99999,V020,"040,1,N,0020,1","02100,1,9,N","006000,1,N,1","+0090,1","+0038,1","10142,1",,,,,,"08,99,1,08,1,05,1,02250,1,99,9,99,9",,,,"2,1,010,1,+999,9","10,1",SYN066AAXX  24151 57328 41856 80402 10090 20038 40142 52010 71000 885//;,
01-24T18:00:00,4,31.2,107.5,344.0,"DA XIAN, CH",FM-12,99999,V020,"040,1,N,0020,1","99999,9,9,N","012000,1,N,1","+0087,1","+0035,1","10137,1","06,0000,9,1",,,,,"08,99,1,08,1,00,1,99999,9,07,1,99,9",,"999,M,+0101,1","99999,9,09724,1","7,1,004,1,+999,9",,SYN076AAXX  24181 57328 32962 80402 10087 20035 39724 40137 57004 8807/ 333 10101;,Q01  00002PRCP06
01-24T21:00:00,4,31.2,107.5,344.0,"DA XIAN, CH",FM-12,99999,V020,"090,1,N,0010,1","99999,9,9,N","012000,1,N,1","+0083,1","+0030,1","10136,1","24,0003,9,1",,,,,"08,99,1,08,1,00,1,99999,9,07,1,99,9",,,,"7,1,001,1,+999,9",,SYN070AAXX  24211 57328 42962 80901 10083 20030 40136 57001 8807/ 333 70003;,
01-25T00:00:00,4,31.2,107.5,344.0,"DA XIAN, CH",FM-12,99999,V020,"040,1,N,0030,1","02100,1,9,N","010000,1,N,1","+0081,1","+0027,1","10152,1","06,9999,9,9","24,0000,2,1","6,1,06,1",,,"08,99,1,08,1,05,1,02250,1,99,9,99,9",,,"99999,9,09738,1","2,1,015,1,+040,1","21,1",SYN094AAXX  25001 57328 11860 80403 10081 20027 39738 40152 52015 69901 72160 885// 333 00400 79999;,
01-25T03:00:00,4,31.2,107.5,344.0,"DA XIAN, CH",FM-12,99999,V020,"999,9,C,0000,1","02100,1,9,N","010000,1,N,1","+0083,1","+0032,1","10175,1",,,"6,1,03,1",,,"08,99,1,08,1,05,1,02250,1,99,9,99,9",,,,"2,1,022,1,+999,9","60,1",SYN066AAXX  25031 57328 41860 80000 10083 20032 40175 52022 76060 885//;,
01-25T06:00:00,4,31.2,107.5,344.0,"DA XIAN, CH",FM-12,99999,V020,"040,1,N,0020,1","02100,1,9,N","008000,1,N,1","+0080,1","+0034,1","10156,1","06,9999,9,9",,"6,1,06,1",,,"08,99,1,08,1,05,1,02250,1,99,9,99,9",,"999,N,+0077,1","99999,9,09741,1","7,1,019,1,+999,9","60,1",SYN088AAXX  25061 57328 11858 80402 10080 20034 39741 40156 57019 69901 76060 885// 333 20077;,
01-25T09:00:00,4,31.2,107.5,344.0,"DA XIAN, CH",FM-12,99999,V020,"040,1,N,0030,1","02100,1,9,N","008000,1,N,1","+0077,1","+0036,1","10152,1",,,"6,1,03,1",,,"08,99,1,08,1,05,1,02250,1,99,9,99,9",,,,"7,1,004,1,+999,9","10,1",SYN066AAXX  25091 57328 41858 80403 10077 20036 40152 57004 71060 885//;,
01-25T12:00:00,4,31.2,107.5,344.0,"DA XIAN, CH",FM-12,99999,V020,"040,1,N,0020,1","02100,1,9,N","008000,1,N,1","+0079,1","+0033,1","10178,1","06,9999,9,9",,"6,1,06,1",,,"08,99,1,08,1,05,1,02250,1,99,9,99,9",,,"99999,9,09762,1","2,1,025,1,+999,9","10,1",SYN078AAXX  25121 57328 11858 80402 10079 20033 39762 40178 52025 69901 71060 885//;,
01-25T15:00:00,4,31.2,107.5,344.0,"DA XIAN, CH",FM-12,99999,V020,"040,1,N,0020,1","02100,1,9,N","008000,1,N,1","+0079,1","+0030,1","10203,1",,,,,,"08,99,1,08,1,05,1,02250,1,99,9,99,9",,,,"2,1,024,1,+999,9","10,1",SYN066AAXX  25151 57328 41858 80402 10079 20030 40203 52024 71000 885//;,
01-25T18:00:00,4,31.2,107.5,344.0,"DA XIAN, CH",FM-12,99999,V020,"999,9,C,0000,1","02100,1,9,N","008000,1,N,1","+0075,1","+0025,1","10194,1","06,0000,9,1",,,,,"08,99,1,08,1,05,1,02250,1,99,9,99,9",,"999,M,+0088,1","99999,9,09777,1","7,1,009,1,+999,9","10,1",SYN082AAXX  25181 57328 31858 80000 10075 20025 39777 40194 57009 71000 885// 333 10088;,Q01  00002PRCP06
01-25T21:00:00,4,31.2,107.5,344.0,"DA XIAN, CH",FM-12,99999,V020,"040,1,N,0030,1","02100,1,9,N","030000,1,N,1","+0076,1","+0010,1","10186,1","24,0000,2,1",,,,,"08,99,1,08,1,05,1,02250,1,99,9,99,9",,,,"7,1,008,1,+999,9","60,1",SYN076AAXX  25211 57328 41880 80403 10076 20010 40186 57008 76000 885// 333 79999;,
01-26T00:00:00,4,31.2,107.5,344.0,"DA XIAN, CH",FM-12,99999,V020,"040,1,N,0020,1","02100,1,9,N","030000,1,N,1","+0070,1","+0017,1","10206,1","06,9999,9,9","24,0000,2,1","6,1,06,1",,,"08,99,1,08,1,05,1,02250,1,99,9,99,9",,,"99999,9,09788,1","2,1,019,1,+050,1","60,1",SYN094AAXX  26001 57328 11880 80402 10070 20017 39788 40206 52019 69901 76060 885// 333 00551 79999;,
01-26T03:00:00,4,31.2,107.5,344.0,"DA XIAN, CH",FM-12,99999,V020,"040,1,N,0040,1","02100,1,9,N","020000,1,N,1","+0064,1","+0028,1","10236,1",,,"6,1,03,1","6,1,03,1",,"08,99,1,08,1,05,1,02250,1,99,9,99,9",,,,"2,1,028,1,+999,9","60,1",SYN066AAXX  26031 57328 41870 80404 10064 20028 40236 52028 76066 885//;,
01-26T06:00:00,4,31.2,107.5,344.0,"DA XIAN, CH",FM-12,99999,V020,"040,1,N,0020,1","02100,1,9,N","008000,1,N,1","+0065,1","+0042,1","10235,1","06,0020,9,1",,"6,1,06,1","6,1,06,1",,"08,99,1,08,1,05,1,02250,1,99,9,99,9",,"999,N,+0059,1","99999,9,09815,1","7,1,001,1,+999,9","60,1",SYN088AAXX  26061 57328 11858 80402 10065 20042 39815 40235 57001 60021 76066 885// 333 20059;,
01-26T09:00:00,4,31.2,107.5,344.0,"DA XIAN, CH",FM-12,99999,V020,"110,1,N,0020,1","02100,1,9,N","012000,1,N,1","+0083,1","+0013,1","10252,1",,,"6,1,03,1","6,1,03,1",,"08,99,1,08,1,05,1,02250,1,99,9,99,9",,,,"2,1,018,1,+999,9","60,1",SYN066AAXX  26091 57328 41862 81102 10083 20013 40252 52018 76066 885//;,
01-26T12:00:00,4,31.2,107.5,344.0,"DA XIAN, CH",FM-12,99999,V020,"020,1,N,0070,1","02100,1,9,N","020000,1,N,1","+0084,1","-0032,1","10301,1","06,9999,9,9",,"6,1,06,1",,,"08,99,1,08,1,05,1,02250,1,99,9,99,9",,,"99999,9,09880,1","2,1,047,1,+999,9","00,1",SYN078AAXX  26121 57328 11870 80207 10084 21032 39880 40301 52047 69921 70060 885//;,
01-26T15:00:00,4,31.2,107.5,344.0,"DA XIAN, CH",FM-12,99999,V020,"070,1,N,0020,1","99999,9,9,N","025000,1,N,1","+0072,1","-0025,1","10340,1",,,,,,"07,99,1,07,1,00,1,99999,9,04,1,99,9",,,,"2,1,036,1,+999,9",,SYN060AAXX  26151 57328 42975 70702 10072 21025 40340 52036 8704/;,
01-26T18:00:00,4,31.2,107.5,344.0,"DA XIAN, CH",FM-12,99999,V020,"040,1,N,0030,1","99999,9,9,N","025000,1,N,1","+0057,1","-0061,1","10343,1","06,0000,9,1",,,,,"07,99,1,07,1,00,1,99999,9,04,1,99,9",,"999,M,+0089,1","99999,9,09917,1","2,1,001,1,+999,9",,SYN076AAXX  26181 57328 32975 70403 10057 21061 39917 40343 52001 8704/ 333 10089;,Q01  00002PRCP06
01-26T21:00:00,4,31.2,107.5,344.0,"DA XIAN, CH",FM-12,99999,V020,"090,1,N,0010,1","22000,1,9,N","012000,1,N,1","+0037,1","-0022,1","10344,1","24,0020,9,1",,,,"00,1,+99999,9,99,9","00,99,1,00,1,00,1,99999,9,00,1,00,1",,,,"2,1,001,1,+999,9",,SYN064AAXX  26211 57328 42962 00901 10037 21022 40344 52001 333 70021;,
01-27T00:00:00,4,31.2,107.5,344.0,"DA XIAN, CH",FM-12,99999,V020,"040,1,N,0010,1","22000,1,9,N","020000,1,N,1","+0016,1","-0031,1","10343,1","06,0000,9,1","24,0020,9,1",,,"00,1,+99999,9,99,9","00,99,1,00,1,00,1,99999,9,00,1,00,1","999,-0007,9",,"99999,9,09916,1","7,1,002,1,+130,1",,SYN082AAXX  27001 57328 32970 00401 10016 21031 39916 40343 57002 333 01355 31007 70021;,Q01  00002PRCP06
01-27T03:00:00,4,31.2,107.5,344.0,"DA XIAN, CH",FM-12,99999,V020,"020,1,N,0020,1","22000,1,9,N","030000,1,N,1","+0069,1","-0076,1","10341,1",,,,,"00,1,+99999,9,99,9","00,99,1,00,1,00,1,99999,9,00,1,00,1",,,,"2,1,001,1,+999,9",,SYN054AAXX  27031 57328 42980 00202 10069 21076 40341 52001;,
01-27T06:00:00,4,31.2,107.5,344.0,"DA XIAN, CH",FM-12,99999,V020,"180,1,N,0020,1","02100,1,9,N","030000,1,N,1","+0105,1","-0040,1","10297,1","06,0000,9,1",,,,,"07,99,1,07,1,05,1,02250,1,99,9,99,9",,"999,N,+0012,1","99999,9,09876,1","7,1,041,1,+999,9",,SYN076AAXX  27061 57328 32880 71802 10105 21040 39876 40297 57041 875// 333 20012;,Q01  00002PRCP06
01-27T09:00:00,4,31.2,107.5,344.0,"DA XIAN, CH",FM-12,99999,V020,"220,1,N,0020,1","22000,1,9,N","030000,1,N,1","+0100,1","-0025,1","10283,1",,,,,,"01,99,1,01,1,00,1,99999,9,04,1,00,1",,,,"7,1,015,1,+999,9",,SYN060AAXX  27091 57328 42980 12202 10100 21025 40283 57015 81040;,
01-27T12:00:00,4,31.2,107.5,344.0,"DA XIAN, CH",FM-12,99999,V020,"200,1,N,0010,1","22000,1,9,N","030000,1,N,1","+0073,1","+0000,1","10296,1","06,0000,9,1",,,,"00,1,+99999,9,99,9","00,99,1,00,1,00,1,99999,9,00,1,00,1",,,"99999,9,09870,1","2,1,009,1,+999,9",,SYN060AAXX  27121 57328 32980 02001 10073 20000 39870 40296 52009;,Q01  00002PRCP06
01-27T15:00:00,4,31.2,107.5,344.0,"DA XIAN, CH",FM-12,99999,V020,"999,9,C,0000,1","22000,1,9,N","015000,1,N,1","+0043,1","+0010,1","10308,1",,,,,"00,1,+99999,9,99,9","00,99,1,00,1,00,1,99999,9,00,1,00,1",,,,"2,1,013,1,+999,9",,SYN054AAXX  27151 57328 42965 00000 10043 20010 40308 52013;,
01-27T18:00:00,4,31.2,107.5,344.0,"DA XIAN, CH",FM-12,99999,V020,"070,1,N,0020,1","22000,1,9,N","007000,1,N,1","+0034,1","+0014,1","10301,1","06,0000,9,1",,,,"00,1,+99999,9,99,9","00,99,1,00,1,00,1,99999,9,00,1,00,1",,"999,M,+0115,1","99999,9,09878,1","7,1,005,1,+999,9","10,1",SYN076AAXX  27181 57328 31957 00702 10034 20014 39878 40301 57005 71000 333 10115;,Q01  00002PRCP06
01-27T21:00:00,4,31.2,107.5,344.0,"DA XIAN, CH",FM-12,99999,V020,"040,1,N,0020,1","99999,9,9,N","003000,1,N,1","+0021,1","+0008,1","10293,1",,,,,,"07,99,1,07,1,00,1,99999,9,04,1,99,9",,,,"7,1,009,1,+999,9","10,1",SYN066AAXX  27211 57328 41930 70402 10021 20008 40293 57009 71000 8704/;,
01-28T00:00:00,4,31.2,107.5,344.0,"DA XIAN, CH",FM-12,99999,V020,"040,1,N,0020,1","99999,9,9,N","003000,1,N,1","+0021,1","+0008,1","10302,1","06,0000,9,1",,,,,"07,99,1,07,1,00,1,99999,9,04,1,99,9","999,+0000,9",,"99999,9,09876,1","2,1,007,1,-040,1","10,1",SYN088AAXX  28001 57328 31930 70402 10021 20008 39876 40302 52007 71000 8704/ 333 05401 30009;,Q01  00002PRCP06
01-28T03:00:00,4,31.2,107.5,344.0,"DA XIAN, CH",FM-12,99999,V020,"999,9,C,0000,1","22000,1,9,N","005000,1,N,1","+0067,1","+0001,1","10306,1",,,,,,"01,99,1,01,1,00,1,99999,9,04,1,00,1",,,,"2,1,005,1,+999,9","10,1",SYN066AAXX  28031 57328 41950 10000 10067 20001 40306 52005 71000 81040;,
01-28T06:00:00,4,31.2,107.5,344.0,"DA XIAN, CH",FM-12,99999,V020,"270,1,N,0010,1","99999,9,9,N","008000,1,N,1","+0109,1","+0018,1","10270,1","06,0000,9,1",,,,,"07,99,1,07,1,00,1,99999,9,04,1,99,9",,"999,N,+0018,1","99999,9,09849,1","7,1,032,1,+999,9","10,1",SYN082AAXX  28061 57328 31958 72701 10109 20018 39849 40270 57032 71000 8704/ 333 20018;,Q01  00002PRCP06
01-28T09:00:00,4,31.2,107.5,344.0,"DA XIAN, CH",FM-12,99999,V020,"220,1,N,0010,1","22000,1,9,N","015000,1,N,1","+0107,1","+0006,1","10252,1",,,,,"00,1,+99999,9,99,9","00,99,1,00,1,00,1,99999,9,00,1,00,1",,,,"7,1,018,1,+999,9",,SYN054AAXX  28091 57328 42965 02201 10107 20006 40252 57018;,
01-28T12:00:00,4,31.2,107.5,344.0,"DA XIAN, CH",FM-12,99999,V020,"999,9,C,0000,1","22000,1,9,N","010000,1,N,1","+0073,1","+0026,1","10265,1","06,0000,9,1",,,,"00,1,+99999,9,99,9","00,99,1,00,1,00,1,99999,9,00,1,00,1",,,"99999,9,09841,1","2,1,010,1,+999,9",,SYN060AAXX  28121 57328 32960 00000 10073 20026 39841 40265 52010;,Q01  00002PRCP06
01-28T15:00:00,4,31.2,107.5,344.0,"DA XIAN, CH",FM-12,99999,V020,"040,1,N,0020,1","99999,9,9,N","008000,1,N,1","+0055,1","+0021,1","10279,1",,,,,,"08,99,1,08,1,00,1,99999,9,07,1,99,9",,,,"2,1,015,1,+999,9","10,1",SYN066AAXX  28151 57328 41958 80402 10055 20021 40279 52015 71000 8807/;,
01-28T18:00:00,4,31.2,107.5,344.0,"DA XIAN, CH",FM-12,99999,V020,"070,1,N,0020,1","22000,1,9,N","004000,1,N,1","+0035,1","+0028,1","10270,1","06,0000,9,1",,,,"00,1,+99999,9,99,9","00,99,1,00,1,00,1,99999,9,00,1,00,1",,"999,M,+0122,1","99999,9,09849,1","7,1,007,1,+999,9","10,1",SYN076AAXX  28181 57328 31940 00702 10035 20028 39849 40270 57007 71000 333 10122;,Q01  00002PRCP06
01-28T21:00:00,4,31.2,107.5,344.0,"DA XIAN, CH",FM-12,99999,V020,"040,1,N,0010,1","99999,9,9,N","004000,1,N,1","+0031,1","+0024,1","10255,1",,,,,,"08,99,1,08,1,00,1,99999,9,07,1,99,9",,,,"7,1,015,1,+999,9","10,1",SYN066AAXX  28211 57328 41940 80401 10031 20024 40255 57015 71000 8807/;,
01-29T00:00:00,4,31.2,107.5,344.0,"DA XIAN, CH",FM-12,99999,V020,"040,1,N,0020,1","99999,9,9,N","005000,1,N,1","+0040,1","+0020,1","10257,1","06,0000,9,1",,,,,"08,99,1,08,1,00,1,99999,9,07,1,99,9","999,+0020,9",,"99999,9,09834,1","4,1,000,1,-040,1","10,1",SYN088AAXX  29001 57328 31950 80402 10040 20020 39834 40257 54000 71000 8807/ 333 05402 30024;,Q01  00002PRCP06
01-29T03:00:00,4,31.2,107.5,344.0,"DA XIAN, CH",FM-12,99999,V020,"020,1,N,0030,1","99999,9,9,N","004000,1,N,1","+0049,1","+0022,1","10266,1",,,,,,"08,99,1,08,1,00,1,99999,9,02,1,99,9",,,,"2,1,008,1,+999,9","10,1",SYN066AAXX  29031 57328 41940 80203 10049 20022 40266 52008 71000 8802/;,
01-29T06:00:00,4,31.2,107.5,344.0,"DA XIAN, CH",FM-12,99999,V020,"020,1,N,0010,1","99999,9,9,N","004000,1,N,1","+0066,1","+0025,1","10235,1","06,9999,9,9",,"6,1,06,1",,,"08,99,1,08,1,00,1,99999,9,07,1,99,9",,"999,N,+0029,1","99999,9,09812,1","7,1,030,1,+999,9","10,1",SYN088AAXX  29061 57328 11940 80201 10066 20025 39812 40235 57030 69901 71060 8807/ 333 20029;,
01-29T09:00:00,4,31.2,107.5,344.0,"DA XIAN, CH",FM-12,99999,V020,"070,1,N,0010,1","99999,9,9,N","003000,1,N,1","+0070,1","+0030,1","10219,1",,,,,,"08,99,1,08,1,00,1,99999,9,07,1,99,9",,,,"7,1,015,1,+999,9","10,1",SYN066AAXX  29091 57328 41930 80701 10070 20030 40219 57015 71000 8807/;,
01-29T12:00:00,4,31.2,107.5,344.0,"DA XIAN, CH",FM-12,99999,V020,"040,1,N,0020,1","99999,9,9,N","004000,1,N,1","+0066,1","+0033,1","10219,1","06,0000,9,1",,,,,"08,99,1,08,1,00,1,99999,9,07,1,99,9",,,"99999,9,09797,1","4,1,000,1,+999,9","10,1",SYN072AAXX  29121 57328 31940 80402 10066 20033 39797 40219 54000 71000 8807/;,Q01  00002PRCP06
01-29T15:00:00,4,31.2,107.5,344.0,"DA XIAN, CH",FM-12,99999,V020,"040,1,N,0020,1","02100,1,9,N","003000,1,N,1","+0063,1","+0035,1","10214,1",,,,,,"08,99,1,08,1,05,1,02250,1,99,9,99,9",,,,"7,1,004,1,+999,9","10,1",SYN066AAXX  29151 57328 41830 80402 10063 20035 40214 57004 71000 885//;,
01-29T18:00:00,4,31.2,107.5,344.0,"DA XIAN, CH",FM-12,99999,V020,"040,1,N,0010,1","99999,9,9,N","004000,1,N,1","+0061,1","+0035,1","10202,1","06,0000,9,1",,,,,"08,99,1,08,1,00,1,99999,9,07,1,99,9",,"999,M,+0072,1","99999,9,09783,1","7,1,010,1,+999,9","10,1",SYN082AAXX  29181 57328 31940 80401 10061 20035 39783 40202 57010 71000 8807/ 333 10072;,Q01  00002PRCP06
01-29T21:00:00,4,31.2,107.5,344.0,"DA XIAN, CH",FM-12,99999,V020,"999,9,C,0000,1","99999,9,9,N","002000,1,N,1","+0055,1","+0041,1","10186,1","24,0000,9,1",,,,,"08,99,1,08,1,00,1,99999,9,07,1,99,9",,,,"7,1,016,1,+999,9","10,1",SYN076AAXX  29211 57328 41920 80000 10055 20041 40186 57016 71000 8807/ 333 79999;,Q01  00002PRCP24
01-30T00:00:00,4,31.2,107.5,344.0,"DA XIAN, CH",FM-12,99999,V020,"040,1,N,0020,1","99999,9,9,N","003000,1,N,1","+0057,1","+0043,1","10186,1","06,0000,9,1","24,0000,9,1",,,,"08,99,1,08,1,00,1,99999,9,07,1,99,9",,,"99999,9,09767,1","4,1,000,1,-070,1","10,1",SYN088AAXX  30001 57328 31930 80402 10057 20043 39767 40186 54000 71000 8807/ 333 05702 79999;,Q01  00002PRCP06Q02  00002PRCP24
01-30T03:00:00,4,31.2,107.5,344.0,"DA XIAN, CH",FM-12,99999,V020,"999,9,C,0000,1","99999,9,9,N","004000,1,N,1","+0066,1","+0036,1","10191,1",,,,,,"08,99,1,08,1,00,1,99999,9,02,1,99,9",,,,"2,1,005,1,+999,9","10,1",SYN066AAXX  30031 57328 41940 80000 10066 20036 40191 52005 71000 8802/;,
01-30T06:00:00,4,31.2,107.5,344.0,"DA XIAN, CH",FM-12,99999,V020,"999,9,C,0000,1","99999,9,9,N","005000,1,N,1","+0081,1","+0035,1","10165,1","06,0000,9,1",,,,,"08,99,1,08,1,00,1,99999,9,02,1,99,9",,"999,N,+0054,1","99999,9,09748,1","7,1,024,1,+999,9","10,1",SYN082AAXX  30061 57328 31950 80000 10081 20035 39748 40165 57024 71000 8802/ 333 20054;,Q01  00002PRCP06
01-30T09:00:00,4,31.2,107.5,344.0,"DA XIAN, CH",FM-12,99999,V020,"070,1,N,0010,1","99999,9,9,N","006000,1,N,1","+0091,1","+0034,1","10162,1",,,,,,"08,99,1,08,1,00,1,99999,9,02,1,99,9",,,,"7,1,002,1,+999,9","10,1",SYN066AAXX  30091 57328 41956 80701 10091 20034 40162 57002 71000 8802/;,
01-30T12:00:00,4,31.2,107.5,344.0,"DA XIAN, CH",FM-12,99999,V020,"999,9,C,0000,1","99999,9,9,N","005000,1,N,1","+0083,1","+0043,1","10189,1","06,0000,9,1",,,,,"08,99,1,08,1,00,1,99999,9,02,1,99,9",,,"99999,9,09771,1","2,1,025,1,+999,9","10,1",SYN072AAXX  30121 57328 31950 80000 10083 20043 39771 40189 52025 71000 8802/;,Q01  00002PRCP06
01-30T15:00:00,4,31.2,107.5,344.0,"DA XIAN, CH",FM-12,99999,V020,"999,9,C,0000,1","99999,9,9,N","004000,1,N,1","+0077,1","+0022,1","10220,1",,,,,,"08,99,1,08,1,00,1,99999,9,02,1,99,9",,,,"2,1,030,1,+999,9","10,1",SYN066AAXX  30151 57328 41940 80000 10077 20022 40220 52030 71000 8802/;,
01-30T18:00:00,4,31.2,107.5,344.0,"DA XIAN, CH",FM-12,99999,V020,"999,9,C,0000,1","99999,9,9,N","004000,1,N,1","+0071,1","+0051,1","10222,1","06,0000,9,1",,,,,"08,99,1,08,1,00,1,99999,9,02,1,99,9",,"999,M,+0091,1","99999,9,09804,1","2,1,003,1,+999,9","10,1",SYN082AAXX  30181 57328 31940 80000 10071 20051 39804 40222 52003 71000 8802/ 333 10091;,Q01  00002PRCP06
01-30T21:00:00,4,31.2,107.5,344.0,"DA XIAN, CH",FM-12,99999,V020,"999,9,C,0000,1","99999,9,9,N","004000,1,N,1","+0067,1","+0049,1","10223,1",,,,,,"08,99,1,08,1,00,1,99999,9,02,1,99,9",,,,"2,1,001,1,+999,9","10,1",SYN066AAXX  30211 57328 41940 80000 10067 20049 40223 52001 71000 8802/;,
01-31T00:00:00,4,31.2,107.5,344.0,"DA XIAN, CH",FM-12,99999,V020,"040,1,N,0020,1","99999,9,9,N","004000,1,N,1","+0061,1","+0040,1","10243,1","06,0000,9,1",,,,,"08,99,1,08,1,00,1,99999,9,02,1,99,9",,,"99999,9,09823,1","2,1,018,1,+006,1","10,1",SYN082AAXX  31001 57328 31940 80402 10061 20040 39823 40243 52018 71000 8802/ 333 00600;,Q01  00002PRCP06
01-31T03:00:00,4,31.2,107.5,344.0,"DA XIAN, CH",FM-12,99999,V020,"040,1,N,0020,1","99999,9,9,N","007000,1,N,1","+0074,1","+0019,1","10261,1",,,,,,"08,99,1,08,1,00,1,99999,9,02,1,99,9",,,,"2,1,018,1,+999,9","10,1",SYN066AAXX  31031 57328 41957 80402 10074 20019 40261 52018 71000 8802/;,
01-31T06:00:00,4,31.2,107.5,344.0,"DA XIAN, CH",FM-12,99999,V020,"999,9,C,0000,1","99999,9,9,N","009000,1,N,1","+0097,1","+0011,1","10239,1","06,0000,9,1",,,,,"07,99,1,07,1,00,1,99999,9,04,1,99,9",,"999,N,+0059,1","99999,9,09821,1","7,1,020,1,+999,9","10,1",SYN082AAXX  31061 57328 31959 70000 10097 20011 39821 40239 57020 71000 8704/ 333 20059;,Q01  00002PRCP06
01-31T09:00:00,4,31.2,107.5,344.0,"DA XIAN, CH",FM-12,99999,V020,"999,9,C,0000,1","99999,9,9,N","007000,1,N,1","+0111,1","+0040,1","10232,1",,,,,,"07,99,1,00,1,00,1,99999,9,00,1,02,1",,,,"7,1,006,1,+999,9","10,1",SYN066AAXX  31091 57328 41957 70000 10111 20040 40232 57006 71000 80002;,
01-31T12:00:00,4,31.2,107.5,344.0,"DA XIAN, CH",FM-12,99999,V020,"040,1,N,0010,1","99999,9,9,N","004000,1,N,1","+0081,1","+0043,1","10254,1","06,0000,9,1",,,,,"08,99,1,08,1,00,1,99999,9,07,1,99,9",,,"99999,9,09834,1","2,1,019,1,+999,9","10,1",SYN072AAXX  31121 57328 31940 80401 10081 20043 39834 40254 52019 71000 8807/;,Q01  00002PRCP06
01-31T15:00:00,4,31.2,107.5,344.0,"DA XIAN, CH",FM-12,99999,V020,"040,1,N,0010,1","99999,9,9,N","004000,1,N,1","+0061,1","+0040,1","10276,1",,,,,,"08,99,1,08,1,00,1,99999,9,07,1,99,9",,,,"2,1,020,1,+999,9","10,1",SYN066AAXX  31151 57328 41940 80401 10061 20040 40276 52020 71000 8807/;,
01-31T18:00:00,4,31.2,107.5,344.0,"DA XIAN, CH",FM-12,99999,V020,"040,1,N,0020,1","99999,9,9,N","003000,1,N,1","+0059,1","+0040,1","10276,1","06,0000,9,1",,,,,"08,99,1,08,1,00,1,99999,9,07,1,99,9",,"999,M,+0114,1","99999,9,09856,1","2,1,002,1,+999,9","10,1",SYN082AAXX  31181 57328 31930 80402 10059 20040 39856 40276 52002 71000 8807/ 333 10114;,Q01  00002PRCP06
01-31T21:00:00,4,31.2,107.5,344.0,"DA XIAN, CH",FM-12,99999,V020,"070,1,N,0020,1","99999,9,9,N","008000,1,N,1","+0063,1","+0014,1","10277,1",,,,,,"08,99,1,08,1,00,1,99999,9,07,1,99,9",,,,"2,1,002,1,+999,9","10,1",SYN066AAXX  31211 57328 41958 80702 10063 20014 40277 52002 71000 8807/;,
02-01T00:00:00,4,31.2,107.5,344.0,"DA XIAN, CH",FM-12,99999,V020,"040,1,N,0010,1","99999,9,9,N","006000,1,N,1","+0063,1","+0002,1","10291,1","06,0000,9,1",,,,,"08,99,1,08,1,00,1,99999,9,07,1,99,9","999,+0050,9",,"99999,9,09869,1","2,1,011,1,+050,1","10,1",SYN088AAXX  01001 57328 31956 80401 10063 20002 39869 40291 52011 71000 8807/ 333 00500 30050;,Q01  00002PRCP06
02-01T03:00:00,4,31.2,107.5,344.0,"DA XIAN, CH",FM-12,99999,V020,"020,1,N,0010,1","99999,9,9,N","008000,1,N,1","+0075,1","+0014,1","10307,1",,,,,,"08,99,1,08,1,00,1,99999,9,07,1,99,9",,,,"2,1,015,1,+999,9","10,1",SYN066AAXX  01031 57328 41958 80201 10075 20014 40307 52015 71000 8807/;,
02-01T06:00:00,4,31.2,107.5,344.0,"DA XIAN, CH",FM-12,99999,V020,"040,1,N,0020,1","99999,9,9,N","011000,1,N,1","+0110,1","+0017,1","10272,1","06,0000,9,1",,,,,"06,99,1,00,1,00,1,99999,9,00,1,02,1",,"999,N,+0055,1","99999,9,09853,1","7,1,031,1,+999,9",,SYN076AAXX  01061 57328 32961 60402 10110 20017 39853 40272 57031 80002 333 20055;,Q01  00002PRCP06
02-01T09:00:00,4,31.2,107.5,344.0,"DA XIAN, CH",FM-12,99999,V020,"270,1,N,0010,1","99999,9,9,N","011000,1,N,1","+0119,1","+0032,1","10257,1",,,,,,"08,99,1,08,1,00,1,99999,9,07,1,99,9",,,,"7,1,014,1,+999,9",,SYN060AAXX  01091 57328 42961 82701 10119 20032 40257 57014 8807/;,
02-01T12:00:00,4,31.2,107.5,344.0,"DA XIAN, CH",FM-12,99999,V020,"999,9,C,0000,1","99999,9,9,N","006000,1,N,1","+0103,1","+0038,1","10277,1","06,0000,9,1",,,,,"08,99,1,08,1,00,1,99999,9,07,1,99,9",,,"99999,9,09857,1","2,1,018,1,+999,9","10,1",SYN072AAXX  01121 57328 31956 80000 10103 20038 39857 40277 52018 71000 8807/;,Q01  00002PRCP06
02-01T15:00:00,4,31.2,107.5,344.0,"DA XIAN, CH",FM-12,99999,V020,"220,1,N,0010,1","99999,9,9,N","007000,1,N,1","+0094,1","+0048,1","10287,1",,,,,,"08,99,1,08,1,00,1,99999,9,07,1,99,9",,,,"2,1,010,1,+999,9","10,1",SYN066AAXX  01151 57328 41957 82201 10094 20048 40287 52010 71000 8807/;,
02-01T18:00:00,4,31.2,107.5,344.0,"DA XIAN, CH",FM-12,99999,V020,"999,9,C,0000,1","99999,9,9,N","006000,1,N,1","+0086,1","+0053,1","10277,1","06,0000,9,1",,,,,"08,99,1,08,1,00,1,99999,9,07,1,99,9",,"999,M,+0123,1","99999,9,09860,1","7,1,007,1,+999,9","10,1",SYN082AAXX  01181 57328 31956 80000 10086 20053 39860 40277 57007 71000 8807/ 333 10123;,Q01  00002PRCP06
02-01T21:00:00,4,31.2,107.5,344.0,"DA XIAN, CH",FM-12,99999,V020,"040,1,N,0020,1","99999,9,9,N","005000,1,N,1","+0078,1","+0056,1","10269,1",,,,,,"08,99,1,08,1,00,1,99999,9,07,1,99,9",,,,"7,1,008,1,+999,9","10,1",SYN066AAXX  01211 57328 41950 80402 10078 20056 40269 57008 71000 8807/;,
02-02T00:00:00,4,31.2,107.5,344.0,"DA XIAN, CH",FM-12,99999,V020,"999,9,C,0000,1","99999,9,9,N","004000,1,N,1","+0074,1","+0059,1","10279,1","06,0000,9,1",,,,,"08,99,1,08,1,00,1,99999,9,07,1,99,9",,,"99999,9,09860,1","2,1,008,1,+001,1","10,1",SYN082AAXX  02001 57328 31940 80000 10074 20059 39860 40279 52008 71000 8807/ 333 05101;,Q01  00002PRCP06
02-02T03:00:00,4,31.2,107.5,344.0,"DA XIAN, CH",FM-12,99999,V020,"270,1,N,0010,1","99999,9,9,N","004000,1,N,1","+0085,1","+0054,1","10292,1",,,,,,"08,99,1,08,1,00,1,99999,9,02,1,99,9",,,,"2,1,013,1,+999,9","10,1",SYN066AAXX  02031 57328 41940 82701 10085 20054 40292 52013 71000 8802/;,
02-02T06:00:00,4,31.2,107.5,344.0,"DA XIAN, CH",FM-12,99999,V020,"999,9,C,0000,1","99999,9,9,N","011000,1,N,1","+0103,1","+0038,1","10269,1","06,0000,9,1",,,,,"08,99,1,08,1,00,1,99999,9,02,1,99,9",,"999,N,+0072,1","99999,9,09851,1","7,1,022,1,+999,9",,SYN076AAXX  02061 57328 32961 80000 10103 20038 39851 40269 57022 8802/ 333 20072;,Q01  00002PRCP06
02-02T09:00:00,4,31.2,107.5,344.0,"DA XIAN, CH",FM-12,99999,V020,"999,9,C,0000,1","99999,9,9,N","015000,1,N,1","+0104,1","+0039,1","10267,1",,,,,,"08,99,1,08,1,00,1,99999,9,02,1,99,9",,,,"7,1,002,1,+999,9",,SYN060AAXX  02091 57328 42965 80000 10104 20039 40267 57002 8802/;,
02-02T12:00:00,4,31.2,107.5,344.0,"DA XIAN, CH",FM-12,99999,V020,"220,1,N,0010,1","99999,9,9,N","007000,1,N,1","+0095,1","+0046,1","10283,1","06,0000,9,1",,,,,"08,99,1,08,1,00,1,99999,9,02,1,99,9",,,"99999,9,09863,1","2,1,014,1,+999,9","10,1",SYN072AAXX  02121 57328 31957 82201 10095 20046 39863 40283 52014 71000 8802/;,Q01  00002PRCP06
02-02T15:00:00,4,31.2,107.5,344.0,"DA XIAN, CH",FM-12,99999,V020,"999,9,C,0000,1","99999,9,9,N","006000,1,N,1","+0085,1","+0054,1","10295,1",,,,,,"08,99,1,08,1,00,1,99999,9,02,1,99,9",,,,"2,1,012,1,+999,9","10,1",SYN066AAXX  02151 57328 41956 80000 10085 20054 40295 52012 71000 8802/;,
02-02T18:00:00,4,31.2,107.5,344.0,"DA XIAN, CH",FM-12,99999,V020,"160,1,N,0010,1","99999,9,9,N","006000,1,N,1","+0080,1","+0056,1","10296,1","06,0000,9,1",,,,,"08,99,1,08,1,00,1,99999,9,02,1,99,9",,"999,M,+0111,1","99999,9,09877,1","2,1,002,1,+999,9","10,1",SYN082AAXX  02181 57328 31956 81601 10080 20056 39877 40296 52002 71000 8802/ 333 10111;,Q01  00002PRCP06
02-02T21:00:00,4,31.2,107.5,344.0,"DA XIAN, CH",FM-12,99999,V020,"180,1,N,0020,1","99999,9,9,N","003000,1,N,1","+0074,1","+0054,1","10286,1",,,,,,"08,99,1,08,1,00,1,99999,9,02,1,99,9",,,,"7,1,010,1,+999,9","10,1",SYN066AAXX  02211 57328 41930 81802 10074 20054 40286 57010 71000 8802/;,
02-03T00:00:00,4,31.2,107.5,344.0,"DA XIAN, CH",FM-12,99999,V020,"999,9,C,0000,1","99999,9,9,N","003000,1,N,1","+0071,1","+0058,1","10298,1","06,0000,9,1",,,,,"08,99,1,08,1,00,1,99999,9,02,1,99,9",,,"99999,9,09878,1","2,1,011,1,+002,1","10,1",SYN082AAXX  03001 57328 31930 80000 10071 20058 39878 40298 52011 71000 8802/ 333 00200;,Q01  00002PRCP06
02-03T03:00:00,4,31.2,107.5,344.0,"DA XIAN, CH",FM-12,99999,V020,"999,9,C,0000,1","99999,9,9,N","002000,1,N,1","+0077,1","+0060,1","10317,1",,,,,,"08,99,1,08,1,00,1,99999,9,02,1,99,9",,,,"2,1,017,1,+999,9","10,1",SYN066AAXX  03031 57328 41920 80000 10077 20060 40317 52017 71000 8802/;,
02-03T06:00:00,4,31.2,107.5,344.0,"DA XIAN, CH",FM-12,99999,V020,"180,1,N,0010,1","99999,9,9,N","006000,1,N,1","+0111,1","+0058,1","10287,1","06,0000,9,1",,,,,"07,99,1,07,1,00,1,99999,9,04,1,99,9",,"999,N,+0068,1","99999,9,09869,1","7,1,026,1,+999,9","10,1",SYN082AAXX  03061 57328 31956 71801 10111 20058 39869 40287 57026 71000 8704/ 333 20068;,Q01  00002PRCP06
02-03T09:00:00,4,31.2,107.5,344.0,"DA XIAN, CH",FM-12,99999,V020,"999,9,C,0000,1","22000,1,9,N","008000,1,N,1","+0117,1","+0026,1","10284,1",,,,,,"02,99,1,02,1,00,1,99999,9,04,1,00,1",,,,"7,1,003,1,+999,9","10,1",SYN066AAXX  03091 57328 41958 20000 10117 20026 40284 57003 71000 82040;,
02-03T12:00:00,4,31.2,107.5,344.0,"DA XIAN, CH",FM-12,99999,V020,"999,9,C,0000,1","22000,1,9,N","004000,1,N,1","+0091,1","+0026,1","10301,1","06,0000,9,1",,,,,"03,99,1,03,1,00,1,99999,9,04,1,00,1",,,"99999,9,09880,1","2,1,014,1,+999,9","10,1",SYN072AAXX  03121 57328 31940 30000 10091 20026 39880 40301 52014 71000 83040;,Q01  00002PRCP06
02-03T15:00:00,4,31.2,107.5,344.0,"DA XIAN, CH",FM-12,99999,V020,"110,1,N,0020,1","22000,1,9,N","003000,1,N,1","+0057,1","+0036,1","10320,1",,,,,"00,1,+99999,9,99,9","00,99,1,00,1,00,1,99999,9,00,1,00,1",,,,"2,1,016,1,+999,9","10,1",SYN060AAXX  03151 57328 41930 01102 10057 20036 40320 52016 71000;,
02-03T18:00:00,4,31.2,107.5,344.0,"DA XIAN, CH",FM-12,99999,V020,"040,1,N,0030,1","99999,9,9,N","002000,1,N,1","+0045,1","+0030,1","10324,1","06,0000,9,1",,,,,"07,99,1,07,1,00,1,99999,9,04,1,99,9",,"999,M,+0122,1","99999,9,09902,1","2,1,006,1,+999,9","10,1",SYN082AAXX  03181 57328 31920 70403 10045 20030 39902 40324 52006 71000 8704/ 333 10122;,Q01  00002PRCP06
02-03T21:00:00,4,31.2,107.5,344.0,"DA XIAN, CH",FM-12,99999,V020,"040,1,N,0030,1","99999,9,9,N","003000,1,N,1","+0043,1","+0033,1","10314,1",,,,,,"08,99,1,08,1,00,1,99999,9,07,1,99,9",,,,"7,1,010,1,+999,9","10,1",SYN066AAXX  03211 57328 41930 80403 10043 20033 40314 57010 71000 8807/;,
02-04T00:00:00,4,31.2,107.5,344.0,"DA XIAN, CH",FM-12,99999,V020,"040,1,N,0030,1","99999,9,9,N","001500,1,N,1","+0038,1","+0028,1","10331,1","06,0000,9,1",,,,,"08,99,1,08,1,00,1,99999,9,07,1,99,9","999,+0020,9",,"99999,9,09906,1","2,1,014,1,+030,1","10,1",SYN088AAXX  04001 57328 31915 80403 10038 20028 39906 40331 52014 71000 8807/ 333 00353 30026;,Q01  00002PRCP06
02-04T03:00:00,4,31.2,107.5,344.0,"DA XIAN, CH",FM-12,99999,V020,"020,1,N,0030,1","99999,9,9,N","003000,1,N,1","+0069,1","+0039,1","10344,1",,,,,,"07,99,1,07,1,00,1,99999,9,04,1,99,9",,,,"2,1,013,1,+999,9","10,1",SYN066AAXX  04031 57328 41930 70203 10069 20039 40344 52013 71000 8704/;,
02-04T06:00:00,4,31.2,107.5,344.0,"DA XIAN, CH",FM-12,99999,V020,"290,1,N,0010,1","09000,1,9,N","004000,1,N,1","+0117,1","+0042,1","10308,1","06,0000,9,1",,,,,"06,99,1,01,1,01,1,00800,1,00,1,02,1",,"999,N,+0037,1","99999,9,09887,1","7,1,032,1,+999,9","10,1",SYN082AAXX  04061 57328 31540 62901 10117 20042 39887 40308 57032 71000 81102 333 20037;,Q01  00002PRCP06
02-04T09:00:00,4,31.2,107.5,344.0,"DA XIAN, CH",FM-12,99999,V020,"220,1,N,0020,1","99999,9,9,N","007000,1,N,1","+0127,1","+0040,1","10292,1",,,,,,"07,99,1,00,1,00,1,99999,9,00,1,02,1",,,,"7,1,015,1,+999,9","10,1",SYN066AAXX  04091 57328 41957 72202 10127 20040 40292 57015 71000 80002;,
02-04T12:00:00,4,31.2,107.5,344.0,"DA XIAN, CH",FM-12,99999,V020,"200,1,N,0010,1","22000,1,9,N","006000,1,N,1","+0099,1","+0053,1","10313,1","06,0000,9,1",,,,"00,1,+99999,9,99,9","00,99,1,00,1,00,1,99999,9,00,1,00,1",,,"99999,9,09890,1","2,1,018,1,+999,9","10,1",SYN066AAXX  04121 57328 31956 02001 10099 20053 39890 40313 52018 71000;,Q01  00002PRCP06
02-04T15:00:00,4,31.2,107.5,344.0,"DA XIAN, CH",FM-12,99999,V020,"040,1,N,0020,1","22000,1,9,N","005000,1,N,1","+0063,1","+0042,1","10326,1",,,,,"00,1,+99999,9,99,9","00,99,1,00,1,00,1,99999,9,00,1,00,1",,,,"2,1,012,1,+999,9","10,1",SYN060AAXX  04151 57328 41950 00402 10063 20042 40326 52012 71000;,
02-04T18:00:00,4,31.2,107.5,344.0,"DA XIAN, CH",FM-12,99999,V020,"040,1,N,0030,1","22000,1,9,N","004000,1,N,1","+0049,1","+0037,1","10315,1","06,0000,9,1",,,,"00,1,+99999,9,99,9","00,99,1,00,1,00,1,99999,9,00,1,00,1",,"999,M,+0134,1","99999,9,09894,1","7,1,008,1,+999,9","10,1",SYN076AAXX  04181 57328 31940 00403 10049 20037 39894 40315 57008 71000 333 10134;,Q01  00002PRCP06
02-04T21:00:00,4,31.2,107.5,344.0,"DA XIAN, CH",FM-12,99999,V020,"040,1,N,0030,1","22000,1,9,N","005000,1,N,1","+0044,1","+0029,1","10305,1",,,,,,"04,99,1,00,1,00,1,99999,9,00,1,02,1",,,,"7,1,009,1,+999,9","10,1",SYN066AAXX  04211 57328 41950 40403 10044 20029 40305 57009 71000 80002;,
02-05T00:00:00,4,31.2,107.5,344.0,"DA XIAN, CH",FM-12,99999,V020,"040,1,N,0020,1","22000,1,9,N","004000,1,N,1","+0033,1","+0026,1","10319,1","06,0000,9,1",,,,"00,1,+99999,9,99,9","00,99,1,00,1,00,1,99999,9,00,1,00,1","999,+0010,9",,"99999,9,09895,1","2,1,010,1,-010,1","10,1",SYN082AAXX  05001 57328 31940 00402 10033 20026 39895 40319 52010 71000 333 05151 30018;,Q01  00002PRCP06
02-05T03:00:00,4,31.2,107.5,344.0,"DA XIAN, CH",FM-12,99999,V020,"020,1,N,0030,1","22000,1,9,N","007000,1,N,1","+0075,1","+0022,1","10328,1",,,,,"00,1,+99999,9,99,9","00,99,1,00,1,00,1,99999,9,00,1,00,1",,,,"2,1,009,1,+999,9","10,1",SYN060AAXX  05031 57328 41957 00203 10075 20022 40328 52009 71000;,
02-05T06:00:00,4,31.2,107.5,344.0,"DA XIAN, CH",FM-12,99999,V020,"070,1,N,0010,1","22000,1,9,N","015000,1,N,1","+0135,1","+0022,1","10289,1","06,0000,9,1",,,,,"02,99,1,00,1,00,1,99999,9,00,1,01,1",,"999,N,+0033,1","99999,9,09870,1","7,1,034,1,+999,9",,SYN076AAXX  05061 57328 32965 20701 10135 20022 39870 40289 57034 80001 333 20033;,Q01  00002PRCP06
02-05T09:00:00,4,31.2,107.5,344.0,"DA XIAN, CH",FM-12,99999,V020,"999,9,C,0000,1","22000,1,9,N","015000,1,N,1","+0148,1","+0015,1","10257,1",,,,,,"01,99,1,00,1,00,1,99999,9,00,1,01,1",,,,"7,1,030,1,+999,9",,SYN060AAXX  05091 57328 42965 10000 10148 20015 40257 57030 80001;,
02-05T12:00:00,4,31.2,107.5,344.0,"DA XIAN, CH",FM-12,99999,V020,"040,1,N,0020,1","22000,1,9,N","008000,1,N,1","+0102,1","+0026,1","10272,1","06,0000,9,1",,,,,"01,99,1,00,1,00,1,99999,9,00,1,01,1",,,"99999,9,09850,1","2,1,010,1,+999,9","10,1",SYN072AAXX  05121 57328 31958 10402 10102 20026 39850 40272 52010 71000 80001;,Q01  00002PRCP06
02-05T15:00:00,4,31.2,107.5,344.0,"DA XIAN, CH",FM-12,99999,V020,"040,1,N,0020,1","99999,9,9,N","005000,1,N,1","+0071,1","+0031,1","10286,1",,,,,,"07,99,1,07,1,00,1,99999,9,04,1,99,9",,,,"2,1,015,1,+999,9","10,1",SYN066AAXX  05151 57328 41950 70402 10071 20031 40286 52015 71000 8704/;,
02-05T18:00:00,4,31.2,107.5,344.0,"DA XIAN, CH",FM-12,99999,V020,"040,1,N,0020,1","99999,9,9,N","007000,1,N,1","+0069,1","+0034,1","10270,1","06,0000,9,1",,,,,"08,99,1,08,1,00,1,99999,9,07,1,99,9",,"999,M,+0152,1","99999,9,09853,1","7,1,012,1,+999,9","10,1",SYN082AAXX  05181 57328 31957 80402 10069 20034 39853 40270 57012 71000 8807/ 333 10152;,Q01  00002PRCP06
02-05T21:00:00,4,31.2,107.5,344.0,"DA XIAN, CH",FM-12,99999,V020,"040,1,N,0030,1","99999,9,9,N","007000,1,N,1","+0070,1","+0035,1","10250,1",,,,,,"08,99,1,99,9,99,9,99999,9,99,9,99,9",,,,,,SYN065AAXX  05211 57328 41957 80403 10070 20035 40250 7018 71000 8807/;,
02-06T00:00:00,4,31.2,107.5,344.0,"DA XIAN, CH",FM-12,99999,V020,"040,1,N,0020,1","99999,9,9,N","008000,1,N,1","+0067,1","+0034,1","10256,1","06,0000,9,1",,,,,"08,99,1,08,1,00,1,99999,9,07,1,99,9",,,"99999,9,09837,1","2,1,002,1,+006,1","10,1",SYN082AAXX  06001 57328 31958 80402 10067 20034 39837 40256 52002 71000 8807/ 333 05603;,Q01  00002PRCP06
02-06T03:00:00,4,31.2,107.5,344.0,"DA XIAN, CH",FM-12,99999,V020,"040,1,N,0020,1","99999,9,9,N","008000,1,N,1","+0093,1","+0028,1","10259,1",,,,,,"08,99,1,08,1,00,1,99999,9,07,1,99,9",,,,"2,1,003,1,+999,9","10,1",SYN066AAXX  06031 57328 41958 80402 10093 20028 40259 52003 71000 8807/;,
02-06T06:00:00,4,31.2,107.5,344.0,"DA XIAN, CH",FM-12,99999,V020,"999,9,C,0000,1","99999,9,9,N","007000,1,N,1","+0123,1","+0032,1","10220,1","06,0000,9,1",,,,,"08,99,1,08,1,00,1,99999,9,07,1,99,9",,"999,N,+0065,1","99999,9,09805,1","7,1,035,1,+999,9","10,1",SYN082AAXX  06061 57328 31957 80000 10123 20032 39805 40220 57035 71000 8807/ 333 20065;,Q01  00002PRCP06
02-06T09:00:00,4,31.2,107.5,344.0,"DA XIAN, CH",FM-12,99999,V020,"999,9,C,0000,1","99999,9,9,N","008000,1,N,1","+0145,1","+0032,1","10188,1",,,,,,"07,99,1,02,1,00,1,99999,9,04,1,02,1",,,,"7,1,029,1,+999,9","10,1",SYN066AAXX  06091 57328 41958 70000 10145 20032 40188 57029 71000 82042;,
02-06T12:00:00,4,31.2,107.5,344.0,"DA XIAN, CH",FM-12,99999,V020,"040,1,N,0010,1","99999,9,9,N","004000,1,N,1","+0115,1","+0046,1","10195,1","06,0000,9,1",,,,,"08,99,1,08,1,00,1,99999,9,07,1,99,9",,,"99999,9,09780,1","2,1,004,1,+999,9","10,1",SYN072AAXX  06121 57328 31940 80401 10115 20046 39780 40195 52004 71000 8807/;,Q01  00002PRCP06
02-06T15:00:00,4,31.2,107.5,344.0,"DA XIAN, CH",FM-12,99999,V020,"040,1,N,0020,1","99999,9,9,N","004000,1,N,1","+0099,1","+0046,1","10191,1",,,,,,"08,99,1,08,1,00,1,99999,9,07,1,99,9",,,,"7,1,003,1,+999,9","10,1",SYN066AAXX  06151 57328 41940 80402 10099 20046 40191 57003 71000 8807/;,
02-06T18:00:00,4,31.2,107.5,344.0,"DA XIAN, CH",FM-12,99999,V020,"040,1,N,0010,1","99999,9,9,N","003000,1,N,1","+0089,1","+0049,1","10169,1","06,0000,9,1",,,,,"08,99,1,08,1,00,1,99999,9,07,1,99,9",,"999,M,+0150,1","99999,9,09757,1","7,1,020,1,+999,9","10,1",SYN082AAXX  06181 57328 31930 80401 10089 20049 39757 40169 57020 71000 8807/ 333 10150;,Q01  00002PRCP06
02-06T21:00:00,4,31.2,107.5,344.0,"DA XIAN, CH",FM-12,99999,V020,"040,1,N,0020,1","99999,9,9,N","003000,1,N,1","+0083,1","+0052,1","10150,1",,,,,,"08,99,1,08,1,00,1,99999,9,07,1,99,9",,,,"7,1,017,1,+999,9","10,1",SYN066AAXX  06211 57328 41930 80402 10083 20052 40150 57017 71000 8807/;,
02-07T00:00:00,4,31.2,107.5,344.0,"DA XIAN, CH",FM-12,99999,V020,"090,1,N,0010,1","99999,9,9,N","003000,1,N,1","+0082,1","+0060,1","10152,1","06,9999,9,9","24,0000,9,1","6,1,06,1",,,"08,99,1,08,1,00,1,99999,9,07,1,99,9",,,"99999,9,09740,1","4,1,000,1,-100,1","10,1",SYN094AAXX  07001 57328 11930 80901 10082 20060 39740 40152 54000 69911 71060 8807/ 333 06002 70001;,Q01  00002PRCP24
02-07T03:00:00,4,31.2,107.5,344.0,"DA XIAN, CH",FM-12,99999,V020,"040,1,N,0010,1","99999,9,9,N","006000,1,N,1","+0091,1","+0054,1","10155,1",,,,,,"08,99,1,08,1,00,1,99999,9,02,1,99,9",,,,"2,1,002,1,+999,9","10,1",SYN066AAXX  07031 57328 41956 80401 10091 20054 40155 52002 71000 8802/;,
02-07T06:00:00,4,31.2,107.5,344.0,"DA XIAN, CH",FM-12,99999,V020,"040,1,N,0010,1","99999,9,9,N","008000,1,N,1","+0122,1","+0047,1","10120,1","06,0000,9,1",,,,,"08,99,1,08,1,00,1,99999,9,07,1,99,9",,"999,N,+0082,1","99999,9,09710,1","7,1,032,1,+999,9","10,1",SYN082AAXX  07061 57328 31958 80401 10122 20047 39710 40120 57032 71000 8807/ 333 20082;,Q01  00002PRCP06
02-07T09:00:00,4,31.2,107.5,344.0,"DA XIAN, CH",FM-12,99999,V020,"360,1,N,0010,1","99999,9,9,N","011000,1,N,1","+0132,1","+0047,1","10107,1",,,,,,"07,99,1,07,1,00,1,99999,9,04,1,00,1",,,,"7,1,012,1,+999,9",,SYN060AAXX  07091 57328 42961 73601 10132 20047 40107 57012 87040;,
02-07T12:00:00,4,31.2,107.5,344.0,"DA XIAN, CH",FM-12,99999,V020,"040,1,N,0020,1","22000,1,9,N","010000,1,N,1","+0106,1","+0052,1","10126,1","06,0000,9,1",,,,"00,1,+99999,9,99,9","00,99,1,00,1,00,1,99999,9,00,1,00,1",,,"99999,9,09714,1","2,1,016,1,+999,9",,SYN060AAXX  07121 57328 32960 00402 10106 20052 39714 40126 52016;,Q01  00002PRCP06
02-07T15:00:00,4,31.2,107.5,344.0,"DA XIAN, CH",FM-12,99999,V020,"040,1,N,0020,1","22000,1,9,N","008000,1,N,1","+0075,1","+0043,1","10138,1",,,,,"00,1,+99999,9,99,9","00,99,1,00,1,00,1,99999,9,00,1,00,1",,,,"2,1,010,1,+999,9","10,1",SYN060AAXX  07151 57328 41958 00402 10075 20043 40138 52010 71000;,
02-07T18:00:00,4,31.2,107.5,344.0,"DA XIAN, CH",FM-12,99999,V020,"040,1,N,0020,1","22000,1,9,N","008000,1,N,1","+0055,1","+0041,1","10128,1","06,0000,9,1",,,,"00,1,+99999,9,99,9","00,99,1,00,1,00,1,99999,9,00,1,00,1",,"999,M,+0133,1","99999,9,09715,1","7,1,009,1,+999,9","10,1",SYN076AAXX  07181 57328 31958 00402 10055 20041 39715 40128 57009 71000 333 10133;,Q01  00002PRCP06
02-07T21:00:00,4,31.2,107.5,344.0,"DA XIAN, CH",FM-12,99999,V020,"020,1,N,0030,1","22000,1,9,N","006000,1,N,1","+0048,1","+0034,1","10119,1","24,0000,9,1",,,,"00,1,+99999,9,99,9","00,99,1,00,1,00,1,99999,9,00,1,00,1",,,,"7,1,008,1,+999,9","10,1",SYN070AAXX  07211 57328 41956 00203 10048 20034 40119 57008 71000 333 70001;,Q01  00002PRCP24
02-08T00:00:00,4,31.2,107.5,344.0,"DA XIAN, CH",FM-12,99999,V020,"040,1,N,0030,1","99999,9,9,N","008000,1,N,1","+0044,1","+0030,1","10119,1","06,0000,9,1",,,,,"07,99,1,07,1,00,1,99999,9,04,1,99,9","999,+0020,9",,"99999,9,09705,1","7,1,002,1,-040,1","10,1",SYN088AAXX  08001 57328 31958 70403 10044 20030 39705 40119 57002 71000 8704/ 333 05454 30027;,Q01  00002PRCP06
02-08T03:00:00,4,31.2,107.5,344.0,"DA XIAN, CH",FM-12,99999,V020,"020,1,N,0030,1","99999,9,9,N","008000,1,N,1","+0102,1","+0043,1","10117,1",,,,,,"06,99,1,06,1,00,1,99999,9,04,1,00,1",,,,"4,1,000,1,+999,9","10,1",SYN066AAXX  08031 57328 41958 60203 10102 20043 40117 54000 71000 86040;,
02-08T06:00:00,4,31.2,107.5,344.0,"DA XIAN, CH",FM-12,99999,V020,"040,1,N,0020,1","22000,1,9,N","020000,1,N,1","+0151,1","+0047,1","10076,1","06,0000,9,1",,,,,"01,99,1,00,1,00,1,99999,9,00,1,01,1",,"999,N,+0042,1","99999,9,09667,1","7,1,038,1,+999,9",,SYN076AAXX  08061 57328 32970 10402 10151 20047 39667 40076 57038 80001 333 20042;,Q01  00002PRCP06
02-08T09:00:00,4,31.2,107.5,344.0,"DA XIAN, CH",FM-12,99999,V020,"999,9,C,0000,1","22000,1,9,N","030000,1,N,1","+0185,1","+0073,1","10039,1",,,,,"00,1,+99999,9,99,9","00,99,1,00,1,00,1,99999,9,00,1,00,1",,,,"7,1,033,1,+999,9",,SYN054AAXX  08091 57328 42980 00000 10185 20073 40039 57033;,
02-08T12:00:00,4,31.2,107.5,344.0,"DA XIAN, CH",FM-12,99999,V020,"040,1,N,0020,1","22000,1,9,N","015000,1,N,1","+0136,1","+0077,1","10055,1","06,0000,9,1",,,,"00,1,+99999,9,99,9","00,99,1,00,1,00,1,99999,9,00,1,00,1",,,"99999,9,09645,1","2,1,011,1,+999,9",,SYN060AAXX  08121 57328 32965 00402 10136 20077 39645 40055 52011;,Q01  00002PRCP06
02-08T15:00:00,4,31.2,107.5,344.0,"DA XIAN, CH",FM-12,99999,V020,"040,1,N,0020,1","02100,1,9,N","011000,1,N,1","+0115,1","+0075,1","10065,1",,,,,,"08,99,1,08,1,05,1,02250,1,99,9,99,9",,,,"2,1,013,1,+999,9",,SYN060AAXX  08151 57328 42861 80402 10115 20075 40065 52013 885//;,
02-08T18:00:00,4,31.2,107.5,344.0,"DA XIAN, CH",FM-12,99999,V020,"040,1,N,0020,1","02100,1,9,N","011000,1,N,1","+0119,1","+0075,1","10058,1","06,0000,9,1",,,,,"08,99,1,08,1,05,1,02250,1,99,9,99,9",,"999,M,+0186,1","99999,9,09655,1","7,1,003,1,+999,9",,SYN076AAXX  08181 57328 32861 80402 10119 20075 39655 40058 57003 885// 333 10186;,Q01  00002PRCP06
02-08T21:00:00,4,31.2,107.5,344.0,"DA XIAN, CH",FM-12,99999,V020,"999,9,C,0000,1","99999,9,9,N","012000,1,N,1","+0121,1","+0077,1","10055,1",,,,,,"08,99,1,08,1,00,1,99999,9,07,1,99,9",,,,"7,1,001,1,+999,9",,SYN060AAXX  08211 57328 42962 80000 10121 20077 40055 57001 8807/;,
02-09T00:00:00,4,31.2,107.5,344.0,"DA XIAN, CH",FM-12,99999,V020,"180,1,N,0020,1","02100,1,9,N","006000,1,N,1","+0119,1","+0083,1","10084,1","06,0000,9,1",,,,,"08,99,1,08,1,05,1,02250,1,99,9,99,9",,,"99999,9,09679,1","2,1,025,1,+003,1","10,1",SYN082AAXX  09001 57328 31856 81802 10119 20083 39679 40084 52025 71000 885// 333 05308;,Q01  00002PRCP06
02-09T03:00:00,4,31.2,107.5,344.0,"DA XIAN, CH",FM-12,99999,V020,"999,9,C,0000,1","99999,9,9,N","004000,1,N,1","+0127,1","+0092,1","10114,1",,,,,,"08,99,1,08,1,00,1,99999,9,02,1,99,9",,,,"2,1,027,1,+999,9","60,1",SYN066AAXX  09031 57328 41940 80000 10127 20092 40114 52027 76000 8802/;,
02-09T06:00:00,4,31.2,107.5,344.0,"DA XIAN, CH",FM-12,99999,V020,"040,1,N,0030,1","99999,9,9,N","004000,1,N,1","+0133,1","+0077,1","10108,1","06,9999,9,9",,"6,1,06,1",,,"08,99,1,08,1,00,1,99999,9,02,1,99,9",,"999,N,+0112,1","99999,9,09701,1","7,1,005,1,+999,9","10,1",SYN088AAXX  09061 57328 11940 80403 10133 20077 39701 40108 57005 69901 71060 8802/ 333 20112;,
02-09T09:00:00,4,31.2,107.5,344.0,"DA XIAN, CH",FM-12,99999,V020,"040,1,N,0020,1","99999,9,9,N","015000,1,N,1","+0124,1","+0074,1","10112,1",,,,,,"08,99,1,08,1,00,1,99999,9,02,1,99,9",,,,"2,1,004,1,+999,9",,SYN060AAXX  09091 57328 42965 80402 10124 20074 40112 52004 8802/;,
02-09T12:00:00,4,31.2,107.5,344.0,"DA XIAN, CH",FM-12,99999,V020,"020,1,N,0040,1","99999,9,9,N","015000,1,N,1","+0118,1","+0073,1","10129,1","06,0000,9,1",,,,,"08,99,1,08,1,00,1,99999,9,07,1,99,9",,,"99999,9,09720,1","2,1,015,1,+999,9",,SYN066AAXX  09121 57328 32965 80204 10118 20073 39720 40129 52015 8807/;,Q01  00002PRCP06
02-09T15:00:00,4,31.2,107.5,344.0,"DA XIAN, CH",FM-12,99999,V020,"040,1,N,0020,1","99999,9,9,N","015000,1,N,1","+0114,1","+0069,1","10144,1",,,,,,"08,99,1,08,1,00,1,99999,9,07,1,99,9",,,,"2,1,015,1,+999,9",,SYN060AAXX  09151 57328 42965 80402 10114 20069 40144 52015 8807/;,
02-09T18:00:00,4,31.2,107.5,344.0,"DA XIAN, CH",FM-12,99999,V020,"040,1,N,0020,1","99999,9,9,N","015000,1,N,1","+0113,1","+0063,1","10142,1","06,0000,9,1",,,,,"08,99,1,08,1,00,1,99999,9,07,1,99,9",,"999,M,+0136,1","99999,9,09734,1","7,1,001,1,+999,9",,SYN076AAXX  09181 57328 32965 80402 10113 20063 39734 40142 57001 8807/ 333 10136;,Q01  00002PRCP06
02-10T00:00:00,4,31.2,107.5,344.0,"DA XIAN, CH",FM-12,99999,V020,"040,1,N,0020,1","02100,1,9,N","012000,1,N,1","+0098,1","+0082,1","10161,1","06,0010,9,1","24,0010,9,1","6,1,06,1",,,"08,99,1,08,1,05,1,02250,1,99,9,99,9",,,"99999,9,09750,1","2,1,026,1,+070,1","21,1",SYN094AAXX  10001 57328 11862 80402 10098 20082 39750 40161 52026 60011 72160 885// 333 00752 70010;,
02-10T03:00:00,4,31.2,107.5,344.0,"DA XIAN, CH",FM-12,99999,V020,"040,1,N,0020,1","02100,1,9,N","020000,1,N,1","+0102,1","+0064,1","10187,1",,,"6,1,03,1",,,"08,99,1,08,1,05,1,02250,1,99,9,99,9",,,,"2,1,025,1,+999,9","00,1",SYN066AAXX  10031 57328 41870 80402 10102 20064 40187 52025 70060 885//;,
02-10T06:00:00,4,31.2,107.5,344.0,"DA XIAN, CH",FM-12,99999,V020,"040,1,N,0030,1","02100,1,9,N","030000,1,N,1","+0114,1","+0042,1","10174,1","06,9999,9,9",,"6,1,06,1",,,"08,99,1,08,1,05,1,02250,1,99,9,99,9",,"999,N,+0097,1","99999,9,09763,1","7,1,012,1,+999,9","00,1",SYN088AAXX  10061 57328 11880 80403 10114 20042 39763 40174 57012 69901 70060 885// 333 20097;,
02-10T09:00:00,4,31.2,107.5,344.0,"DA XIAN, CH",FM-12,99999,V020,"040,1,N,0030,1","02100,1,9,N","030000,1,N,1","+0108,1","+0031,1","10175,1",,,,,,"08,99,1,08,1,05,1,02250,1,99,9,99,9",,,,"4,1,000,1,+999,9",,SYN060AAXX  10091 57328 42880 80403 10108 20031 40175 54000 885//;,
02-10T12:00:00,4,31.2,107.5,344.0,"DA XIAN, CH",FM-12,99999,V020,"020,1,N,0040,1","02100,1,9,N","030000,1,N,1","+0106,1","+0029,1","10197,1","06,0000,9,1",,,,,"08,99,1,08,1,05,1,02250,1,99,9,99,9",,,"99999,9,09783,1","2,1,020,1,+999,9",,SYN066AAXX  10121 57328 32880 80204 10106 20029 39783 40197 52020 885//;,Q01  00002PRCP06
02-10T15:00:00,4,31.2,107.5,344.0,"DA XIAN, CH",FM-12,99999,V020,"040,1,N,0010,1","02100,1,9,N","030000,1,N,1","+0102,1","+0021,1","10218,1",,,,,,"08,99,1,08,1,05,1,02250,1,99,9,99,9",,,,"2,1,021,1,+999,9",,SYN060AAXX  10151 57328 42880 80401 10102 20021 40218 52021 885//;,
02-10T18:00:00,4,31.2,107.5,344.0,"DA XIAN, CH",FM-12,99999,V020,"020,1,N,0040,1","02100,1,9,N","030000,1,N,1","+0093,1","+0011,1","10210,1","06,0000,9,1",,,,,"08,99,1,08,1,05,1,02250,1,99,9,99,9",,"999,M,+0116,1","99999,9,09796,1","7,1,008,1,+999,9",,SYN076AAXX  10181 57328 32880 80204 10093 20011 39796 40210 57008 885// 333 10116;,Q01  00002PRCP06
02-10T21:00:00,4,31.2,107.5,344.0,"DA XIAN, CH",FM-12,99999,V020,"040,1,N,0030,1","02100,1,9,N","012000,1,N,1","+0078,1","+0026,1","10221,1","24,0013,9,1",,"6,1,03,1",,,"08,99,1,08,1,05,1,02250,1,99,9,99,9",,,,"2,1,009,1,+999,9","60,1",SYN076AAXX  10211 57328 41862 80403 10078 20026 40221 52009 76060 885// 333 70013;,
02-11T00:00:00,4,31.2,107.5,344.0,"DA XIAN, CH",FM-12,99999,V020,"020,1,N,0040,1","02100,1,9,N","025000,1,N,1","+0062,1","+0039,1","10244,1","06,0010,9,1","24,0015,9,1","6,1,06,1",,,"08,99,1,08,1,05,1,02250,1,99,9,99,9",,,"99999,9,09826,1","2,1,021,1,+080,1","60,1",SYN094AAXX  11001 57328 11875 80204 10062 20039 39826 40244 52021 60011 76060 885// 333 00854 70014;,
02-11T03:00:00,4,31.2,107.5,344.0,"DA XIAN, CH",FM-12,99999,V020,"020,1,N,0040,1","02100,1,9,N","028000,1,N,1","+0060,1","+0039,1","10262,1",,,"6,1,03,1","6,1,03,1",,"08,99,1,08,1,05,1,02250,1,99,9,99,9",,,,"2,1,017,1,+999,9","60,1",SYN066AAXX  11031 57328 41878 80204 10060 20039 40262 52017 76066 885//;,
02-11T06:00:00,4,31.2,107.5,344.0,"DA XIAN, CH",FM-12,99999,V020,"020,1,N,0020,1","02100,1,9,N","015000,1,N,1","+0062,1","+0051,1","10249,1","06,0030,9,1",,"6,1,06,1","6,1,06,1",,"08,99,1,08,1,05,1,02250,1,99,9,99,9",,"999,N,+0057,1","99999,9,09830,1","7,1,013,1,+999,9","60,1",SYN088AAXX  11061 57328 11865 80202 10062 20051 39830 40249 57013 60031 76066 885// 333 20057;,
02-11T09:00:00,4,31.2,107.5,344.0,"DA XIAN, CH",FM-12,99999,V020,"040,1,N,0030,1","02100,1,9,N","012000,1,N,1","+0066,1","+0046,1","10238,1",,,"6,1,03,1","6,1,03,1",,"08,99,1,08,1,05,1,02250,1,99,9,99,9",,,,"7,1,012,1,+999,9","60,1",SYN066AAXX  11091 57328 41862 80403 10066 20046 40238 57012 76066 885//;,
02-11T12:00:00,4,31.2,107.5,344.0,"DA XIAN, CH",FM-12,99999,V020,"040,1,N,0030,1","02100,1,9,N","011000,1,N,1","+0063,1","+0047,1","10260,1","06,0010,9,1",,"6,1,06,1","6,1,06,1",,"08,99,1,08,1,05,1,02250,1,99,9,99,9",,,"99999,9,09838,1","2,1,020,1,+999,9","60,1",SYN078AAXX  11121 57328 11861 80403 10063 20047 39838 40260 52020 60011 76066 885//;,
02-11T15:00:00,4,31.2,107.5,344.0,"DA XIAN, CH",FM-12,99999,V020,"999,9,C,0000,1","02100,1,9,N","011000,1,N,1","+0064,1","+0043,1","10276,1",,,"6,1,03,1","6,1,03,1",,"08,99,1,08,1,05,1,02250,1,99,9,99,9",,,,"2,1,015,1,+999,9","21,1",SYN066AAXX  11151 57328 41861 80000 10064 20043 40276 52015 72166 885//;,
02-11T18:00:00,4,31.2,107.5,344.0,"DA XIAN, CH",FM-12,99999,V020,"040,1,N,0020,1","02100,1,9,N","007000,1,N,1","+0064,1","+0043,1","10265,1","06,9999,9,9",,"6,1,06,1",,,"08,99,1,08,1,05,1,02250,1,99,9,99,9",,"999,M,+0094,1","99999,9,09843,1","7,1,010,1,+999,9","10,1",SYN088AAXX  11181 57328 11857 80402 10064 20043 39843 40265 57010 69911 71060 885// 333 10094;,
02-11T21:00:00,4,31.2,107.5,344.0,"DA XIAN, CH",FM-12,99999,V020,"999,9,C,0000,1","02100,1,9,N","008000,1,N,1","+0061,1","+0033,1","10265,1","24,0051,9,1",,,,,"08,99,1,08,1,05,1,02250,1,99,9,99,9",,,,"4,1,000,1,+999,9","10,1",SYN076AAXX  11211 57328 41858 80000 10061 20033 40265 54000 71000 885// 333 70050;,
02-12T00:00:00,4,31.2,107.5,344.0,"DA XIAN, CH",FM-12,99999,V020,"250,1,N,0010,1","02100,1,9,N","008000,1,N,1","+0061,1","+0038,1","10286,1","06,0005,9,1","24,0043,9,1","6,1,06,1",,,"08,99,1,08,1,05,1,02250,1,99,9,99,9",,,"99999,9,09863,1","2,1,020,1,+040,1","21,1",SYN094AAXX  12001 57328 11858 82501 10061 20038 39863 40286 52020 69941 72160 885// 333 00400 70043;,
02-12T03:00:00,4,31.2,107.5,344.0,"DA XIAN, CH",FM-12,99999,V020,"160,1,N,0010,1","99999,9,9,N","008000,1,N,1","+0074,1","+0034,1","10299,1",,,,,,"08,99,1,08,1,00,1,99999,9,07,1,99,9",,,,"2,1,013,1,+999,9","10,1",SYN066AAXX  12031 57328 41958 81601 10074 20034 40299 52013 71000 8807/;,
02-12T06:00:00,4,31.2,107.5,344.0,"DA XIAN, CH",FM-12,99999,V020,"160,1,N,0020,1","02100,1,9,N","011000,1,N,1","+0086,1","+0033,1","10263,1","06,9999,9,9",,"6,1,06,1",,,"08,99,1,08,1,05,1,02250,1,99,9,99,9",,"999,N,+0055,1","99999,9,09843,1","7,1,033,1,+999,9","00,1",SYN088AAXX  12061 57328 11861 81602 10086 20033 39843 40263 57033 69901 70060 885// 333 20055;,
02-12T09:00:00,4,31.2,107.5,344.0,"DA XIAN, CH",FM-12,99999,V020,"999,9,C,0000,1","02100,1,9,N","011000,1,N,1","+0090,1","+0041,1","10239,1",,,,,,"08,99,1,08,1,05,1,02250,1,99,9,99,9",,,,"7,1,023,1,+999,9",,SYN060AAXX  12091 57328 42861 80000 10090 20041 40239 57023 885//;,
02-12T12:00:00,4,31.2,107.5,344.0,"DA XIAN, CH",FM-12,99999,V020,"220,1,N,0010,1","02100,1,9,N","009000,1,N,1","+0081,1","+0040,1","10248,1","06,0000,9,1",,,,,"08,99,1,08,1,05,1,02250,1,99,9,99,9",,,"99999,9,09828,1","2,1,008,1,+999,9","10,1",SYN072AAXX  12121 57328 31859 82201 10081 20040 39828 40248 52008 71000 885//;,Q01  00002PRCP06
02-12T15:00:00,4,31.2,107.5,344.0,"DA XIAN, CH",FM-12,99999,V020,"140,1,N,0010,1","02100,1,9,N","008000,1,N,1","+0077,1","+0055,1","10243,1",,,,,,"08,99,1,08,1,05,1,02250,1,99,9,99,9",,,,"7,1,004,1,+999,9","10,1",SYN066AAXX  12151 57328 41858 81401 10077 20055 40243 57004 71000 885//;,
02-12T18:00:00,4,31.2,107.5,344.0,"DA XIAN, CH",FM-12,99999,V020,"040,1,N,0010,1","02100,1,9,N","006000,1,N,1","+0073,1","+0051,1","10231,1","06,0000,9,1",,,,,"08,99,1,08,1,05,1,02250,1,99,9,99,9",,"999,M,+0091,1","99999,9,09813,1","7,1,011,1,+999,9","10,1",SYN082AAXX  12181 57328 31856 80401 10073 20051 39813 40231 57011 71000 885// 333 10091;,Q01  00002PRCP06
02-12T21:00:00,4,31.2,107.5,344.0,"DA XIAN, CH",FM-12,99999,V020,"999,9,C,0000,1","02100,1,9,N","004000,1,N,1","+0065,1","+0058,1","10214,1","24,0013,9,1",,"6,1,03,1",,,"08,99,1,08,1,05,1,02250,1,99,9,99,9",,,,"7,1,017,1,+999,9","60,1",SYN076AAXX  12211 57328 41840 80000 10065 20058 40214 57017 76060 885// 333 70012;,
02-13T00:00:00,4,31.2,107.5,344.0,"DA XIAN, CH",FM-12,99999,V020,"070,1,N,0020,1","02100,1,9,N","004000,1,N,1","+0065,1","+0056,1","10221,1","06,0008,9,1","24,0008,9,1","6,1,06,1",,,"08,99,1,08,1,05,1,02250,1,99,9,99,9",,,"99999,9,09802,1","2,1,006,1,-060,1","10,1",SYN094AAXX  13001 57328 11840 80702 10065 20056 39802 40221 52006 69981 71060 885// 333 05600 70008;,
02-13T03:00:00,4,31.2,107.5,344.0,"DA XIAN, CH",FM-12,99999,V020,"999,9,C,0000,1","02100,1,9,N","003000,1,N,1","+0075,1","+0057,1","10224,1",,,,,,"08,99,1,08,1,05,1,02250,1,99,9,99,9",,,,"2,1,004,1,+999,9","10,1",SYN066AAXX  13031 57328 41830 80000 10075 20057 40224 52004 71000 885//;,
02-13T06:00:00,4,31.2,107.5,344.0,"DA XIAN, CH",FM-12,99999,V020,"040,1,N,0020,1","02100,1,9,N","007000,1,N,1","+0093,1","+0052,1","10194,1","06,0000,9,1",,,,,"08,99,1,08,1,05,1,02250,1,99,9,99,9",,"999,N,+0063,1","99999,9,09778,1","7,1,028,1,+999,9","10,1",SYN082AAXX  13061 57328 31857 80402 10093 20052 39778 40194 57028 71000 885// 333 20063;,Q01  00002PRCP06
02-13T09:00:00,4,31.2,107.5,344.0,"DA XIAN, CH",FM-12,99999,V020,"020,1,N,0020,1","02100,1,9,N","010000,1,N,1","+0103,1","+0046,1","10178,1",,,,,,"08,99,1,08,1,05,1,02250,1,99,9,99,9",,,,"7,1,015,1,+999,9",,SYN060AAXX  13091 57328 42860 80202 10103 20046 40178 57015 885//;,
02-13T12:00:00,4,31.2,107.5,344.0,"DA XIAN, CH",FM-12,99999,V020,"070,1,N,0010,1","02100,1,9,N","008000,1,N,1","+0094,1","+0057,1","10191,1","06,0000,9,1",,,,,"08,99,1,08,1,05,1,02250,1,99,9,99,9",,,"99999,9,09774,1","2,1,011,1,+999,9","10,1",SYN072AAXX  13121 57328 31858 80701 10094 20057 39774 40191 52011 71000 885//;,Q01  00002PRCP06
02-13T15:00:00,4,31.2,107.5,344.0,"DA XIAN, CH",FM-12,99999,V020,"040,1,N,0020,1","02100,1,9,N","008000,1,N,1","+0084,1","+0058,1","10194,1",,,,,,"08,99,1,08,1,05,1,02250,1,99,9,99,9",,,,"2,1,003,1,+999,9","10,1",SYN066AAXX  13151 57328 41858 80402 10084 20058 40194 52003 71000 885//;,
02-13T18:00:00,4,31.2,107.5,344.0,"DA XIAN, CH",FM-12,99999,V020,"999,9,C,0000,1","02100,1,9,N","008000,1,N,1","+0079,1","+0064,1","10183,1","06,0000,9,1",,,,,"08,99,1,08,1,05,1,02250,1,99,9,99,9",,"999,M,+0103,1","99999,9,09768,1","7,1,009,1,+999,9","10,1",SYN082AAXX  13181 57328 31858 80000 10079 20064 39768 40183 57009 71000 885// 333 10103;,Q01  00002PRCP06
02-13T21:00:00,4,31.2,107.5,344.0,"DA XIAN, CH",FM-12,99999,V020,"999,9,C,0000,1","02100,1,9,N","005000,1,N,1","+0077,1","+0062,1","10181,1","24,0000,2,1",,,,,"08,99,1,08,1,05,1,02250,1,99,9,99,9",,,,"7,1,002,1,+999,9","10,1",SYN076AAXX  13211 57328 41850 80000 10077 20062 40181 57002 71000 885// 333 79999;,
02-14T00:00:00,4,31.2,107.5,344.0,"DA XIAN, CH",FM-12,99999,V020,"999,9,C,0000,1","02100,1,9,N","004000,1,N,1","+0077,1","+0062,1","10191,1","06,0000,9,1",,,,,"08,99,1,08,1,05,1,02250,1,99,9,99,9",,,"99999,9,09775,1","2,1,009,1,+003,1","10,1",SYN082AAXX  14001 57328 31840 80000 10077 20062 39775 40191 52009 71000 885// 333 05301;,Q01  00002PRCP06
02-14T03:00:00,4,31.2,107.5,344.0,"DA XIAN, CH",FM-12,99999,V020,"999,9,C,0000,1","99999,9,9,N","004000,1,N,1","+0084,1","+0063,1","10200,1",,,,,,"08,99,1,08,1,00,1,99999,9,02,1,99,9",,,,"2,1,009,1,+999,9","10,1",SYN066AAXX  14031 57328 41940 80000 10084 20063 40200 52009 71000 8802/;,
02-14T06:00:00,4,31.2,107.5,344.0,"DA XIAN, CH",FM-12,99999,V020,"999,9,C,0000,1","99999,9,9,N","007000,1,N,1","+0097,1","+0056,1","10175,1","06,0000,9,1",,,,,"08,99,1,08,1,00,1,99999,9,02,1,99,9",,"999,N,+0074,1","99999,9,09760,1","7,1,024,1,+999,9","10,1",SYN082AAXX  14061 57328 31957 80000 10097 20056 39760 40175 57024 71000 8802/ 333 20074;,Q01  00002PRCP06
02-14T09:00:00,4,31.2,107.5,344.0,"DA XIAN, CH",FM-12,99999,V020,"999,9,C,0000,1","99999,9,9,N","012000,1,N,1","+0101,1","+0054,1","10160,1",,,,,,"08,99,1,08,1,00,1,99999,9,02,1,99,9",,,,"7,1,014,1,+999,9",,SYN060AAXX  14091 57328 42962 80000 10101 20054 40160 57014 8802/;,
02-14T12:00:00,4,31.2,107.5,344.0,"DA XIAN, CH",FM-12,99999,V020,"040,1,N,0020,1","99999,9,9,N","004000,1,N,1","+0093,1","+0054,1","10171,1","06,0000,9,1",,,,,"08,99,1,08,1,00,1,99999,9,07,1,99,9",,,"99999,9,09756,1","2,1,010,1,+999,9","10,1",SYN072AAXX  14121 57328 31940 80402 10093 20054 39756 40171 52010 71000 8807/;,Q01  00002PRCP06
02-14T15:00:00,4,31.2,107.5,344.0,"DA XIAN, CH",FM-12,99999,V020,"070,1,N,0010,1","99999,9,9,N","004000,1,N,1","+0083,1","+0055,1","10187,1",,,,,,"07,99,1,07,1,00,1,99999,9,04,1,99,9",,,,"2,1,015,1,+999,9","10,1",SYN066AAXX  14151 57328 41940 70701 10083 20055 40187 52015 71000 8704/;,
02-14T18:00:00,4,31.2,107.5,344.0,"DA XIAN, CH",FM-12,99999,V020,"070,1,N,0010,1","99999,9,9,N","006000,1,N,1","+0073,1","+0055,1","10185,1","06,0000,9,1",,,,,"08,99,1,08,1,00,1,99999,9,07,1,99,9",,"999,M,+0105,1","99999,9,09769,1","7,1,002,1,+999,9","10,1",SYN082AAXX  14181 57328 31956 80701 10073 20055 39769 40185 57002 71000 8807/ 333 10105;,Q01  00002PRCP06
02-14T21:00:00,4,31.2,107.5,344.0,"DA XIAN, CH",FM-12,99999,V020,"040,1,N,0020,1","99999,9,9,N","012000,1,N,1","+0073,1","+0053,1","10176,1",,,,,,"08,99,1,08,1,00,1,99999,9,07,1,99,9",,,,"7,1,008,1,+999,9",,SYN060AAXX  14211 57328 42962 80402 10073 20053 40176 57008 8807/;,
02-15T00:00:00,4,31.2,107.5,344.0,"DA XIAN, CH",FM-12,99999,V020,"999,9,C,0000,1","99999,9,9,N","015000,1,N,1","+0073,1","+0041,1","10185,1","06,0000,9,1",,,,,"08,99,1,08,1,00,1,99999,9,07,1,99,9",,,"99999,9,09769,1","2,1,008,1,+001,1",,SYN076AAXX  15001 57328 32965 80000 10073 20041 39769 40185 52008 8807/ 333 05100;,Q01  00002PRCP06
02-15T03:00:00,4,31.2,107.5,344.0,"DA XIAN, CH",FM-12,99999,V020,"070,1,N,0010,1","02100,1,9,N","008000,1,N,1","+0081,1","+0050,1","10196,1",,,,,,"08,99,1,08,1,05,1,02250,1,99,9,99,9",,,,"2,1,011,1,+999,9","10,1",SYN066AAXX  15031 57328 41858 80701 10081 20050 40196 52011 71000 885//;,
02-15T06:00:00,4,31.2,107.5,344.0,"DA XIAN, CH",FM-12,99999,V020,"040,1,N,0040,1","02100,1,9,N","012000,1,N,1","+0087,1","+0042,1","10175,1","06,0000,9,1",,,,,"08,99,1,08,1,05,1,02250,1,99,9,99,9",,"999,N,+0068,1","99999,9,09759,1","7,1,021,1,+999,9",,SYN076AAXX  15061 57328 32862 80404 10087 20042 39759 40175 57021 885// 333 20068;,Q01  00002PRCP06
02-15T09:00:00,4,31.2,107.5,344.0,"DA XIAN, CH",FM-12,99999,V020,"040,1,N,0040,1","02100,1,9,N","015000,1,N,1","+0083,1","+0048,1","10169,1",,,,,,"08,99,1,08,1,05,1,02250,1,99,9,99,9",,,,"7,1,006,1,+999,9",,SYN060AAXX  15091 57328 42865 80404 10083 20048 40169 57006 885//;,
02-15T12:00:00,4,31.2,107.5,344.0,"DA XIAN, CH",FM-12,99999,V020,"999,9,C,0000,1","99999,9,9,N","008000,1,N,1","+0082,1","+0049,1","10189,1","06,0000,9,1",,,,,"07,99,1,07,1,00,1,99999,9,04,1,99,9",,,"99999,9,09772,1","2,1,019,1,+999,9","10,1",SYN072AAXX  15121 57328 31958 70000 10082 20049 39772 40189 52019 71000 8704/;,Q01  00002PRCP06
02-15T15:00:00,4,31.2,107.5,344.0,"DA XIAN, CH",FM-12,99999,V020,"040,1,N,0020,1","99999,9,9,N","008000,1,N,1","+0077,1","+0050,1","10207,1",,,,,,"08,99,1,08,1,00,1,99999,9,07,1,99,9",,,,"2,1,018,1,+999,9","10,1",SYN066AAXX  15151 57328 41958 80402 10077 20050 40207 52018 71000 8807/;,
02-15T18:00:00,4,31.2,107.5,344.0,"DA XIAN, CH",FM-12,99999,V020,"090,1,N,0020,1","99999,9,9,N","016000,1,N,1","+0074,1","+0045,1","10203,1","06,0000,9,1",,,,,"08,99,1,08,1,00,1,99999,9,07,1,99,9",,"999,M,+0090,1","99999,9,09786,1","7,1,004,1,+999,9",,SYN076AAXX  15181 57328 32966 80902 10074 20045 39786 40203 57004 8807/ 333 10090;,Q01  00002PRCP06
02-15T21:00:00,4,31.2,107.5,344.0,"DA XIAN, CH",FM-12,99999,V020,"040,1,N,0030,1","99999,9,9,N","020000,1,N,1","+0072,1","+0045,1","10198,1",,,,,,"08,99,1,08,1,00,1,99999,9,07,1,99,9",,,,"7,1,005,1,+999,9",,SYN060AAXX  15211 57328 42970 80403 10072 20045 40198 57005 8807/;,
02-16T00:00:00,4,31.2,107.5,344.0,"DA XIAN, CH",FM-12,99999,V020,"040,1,N,0010,1","02100,1,9,N","008000,1,N,1","+0074,1","+0045,1","10214,1","06,0000,9,1",,,,,"08,99,1,08,1,05,1,02250,1,99,9,99,9",,,"99999,9,09796,1","2,1,015,1,+003,1","10,1",SYN082AAXX  16001 57328 31858 80401 10074 20045 39796 40214 52015 71000 885// 333 00300;,Q01  00002PRCP06
02-16T03:00:00,4,31.2,107.5,344.0,"DA XIAN, CH",FM-12,99999,V020,"020,1,N,0040,1","99999,9,9,N","009000,1,N,1","+0095,1","+0044,1","10221,1",,,,,,"06,99,1,06,1,00,1,99999,9,04,1,00,1",,,,"2,1,008,1,+999,9","10,1",SYN066AAXX  16031 57328 41959 60204 10095 20044 40221 52008 71000 86040;,
02-16T06:00:00,4,31.2,107.5,344.0,"DA XIAN, CH",FM-12,99999,V020,"020,1,N,0010,1","00750,1,9,N","012000,1,N,1","+0134,1","+0074,1","10186,1","06,0000,9,1",,,,,"07,99,1,07,1,01,1,00800,1,00,1,00,1",,"999,N,+0069,1","99999,9,09773,1","7,1,031,1,+999,9",,SYN076AAXX  16061 57328 32562 70201 10134 20074 39773 40186 57031 87100 333 20069;,Q01  00002PRCP06
02-16T09:00:00,4,31.2,107.5,344.0,"DA XIAN, CH",FM-12,99999,V020,"070,1,N,0020,1","99999,9,9,N","011000,1,N,1","+0136,1","+0055,1","10177,1",,,,,,"07,99,1,07,1,00,1,99999,9,04,1,99,9",,,,"7,1,009,1,+999,9",,SYN060AAXX  16091 57328 42961 70702 10136 20055 40177 57009 8704/;,
02-16T12:00:00,4,31.2,107.5,344.0,"DA XIAN, CH",FM-12,99999,V020,"070,1,N,0010,1","22000,1,9,N","012000,1,N,1","+0111,1","+0063,1","10191,1","06,0000,9,1",,,,"00,1,+99999,9,99,9","00,99,1,00,1,00,1,99999,9,00,1,00,1",,,"99999,9,09776,1","2,1,012,1,+999,9",,SYN060AAXX  16121 57328 32962 00701 10111 20063 39776 40191 52012;,Q01  00002PRCP06
02-16T15:00:00,4,31.2,107.5,344.0,"DA XIAN, CH",FM-12,99999,V020,"040,1,N,0020,1","22000,1,9,N","012000,1,N,1","+0082,1","+0058,1","10209,1",,,,,"00,1,+99999,9,99,9","00,99,1,00,1,00,1,99999,9,00,1,00,1",,,,"2,1,017,1,+999,9",,SYN054AAXX  16151 57328 42962 00402 10082 20058 40209 52017;,
02-16T18:00:00,4,31.2,107.5,344.0,"DA XIAN, CH",FM-12,99999,V020,"040,1,N,0020,1","99999,9,9,N","015000,1,N,1","+0069,1","+0051,1","10206,1","06,0000,9,1",,,,,"06,99,1,06,1,00,1,99999,9,04,1,00,1",,"999,M,+0139,1","99999,9,09792,1","7,1,001,1,+999,9",,SYN076AAXX  16181 57328 32965 60402 10069 20051 39792 40206 57001 86040 333 10139;,Q01  00002PRCP06
02-16T21:00:00,4,31.2,107.5,344.0,"DA XIAN, CH",FM-12,99999,V020,"070,1,N,0020,1","99999,9,9,N","009000,1,N,1","+0061,1","+0047,1","10194,1",,,,,,"06,99,1,06,1,00,1,99999,9,04,1,00,1",,,,"7,1,012,1,+999,9","10,1",SYN066AAXX  16211 57328 41959 60702 10061 20047 40194 57012 71000 86040;,
02-17T03:00:00,4,31.2,107.5,344.0,"DA XIAN, CH",FM-12,99999,V020,"020,1,N,0020,1","99999,9,9,N","011000,1,N,1","+0095,1","+0046,1","10214,1",,,,,,"07,99,1,07,1,00,1,99999,9,04,1,99,9",,,,"2,1,010,1,+999,9",,SYN060AAXX  17031 57328 42961 70202 10095 20046 40214 52010 8704/;,
02-17T06:00:00,4,31.2,107.5,344.0,"DA XIAN, CH",FM-12,99999,V020,"040,1,N,0020,1","99999,9,9,N","015000,1,N,1","+0131,1","+0056,1","10191,1","06,0000,9,1",,,,,"06,99,1,06,1,00,1,99999,9,04,1,00,1",,"999,N,+0051,1","99999,9,09777,1","7,1,021,1,+999,9",,SYN076AAXX  17061 57328 32965 60402 10131 20056 39777 40191 57021 86040 333 20051;,Q01  00002PRCP06
02-17T09:00:00,4,31.2,107.5,344.0,"DA XIAN, CH",FM-12,99999,V020,"360,1,N,0010,1","22000,1,9,N","020000,1,N,1","+0153,1","+0041,1","10170,1",,,,,"00,1,+99999,9,99,9","00,99,1,00,1,00,1,99999,9,00,1,00,1",,,,"7,1,019,1,+999,9",,SYN054AAXX  17091 57328 42970 03601 10153 20041 40170 57019;,
02-17T12:00:00,4,31.2,107.5,344.0,"DA XIAN, CH",FM-12,99999,V020,"040,1,N,0020,1","22000,1,9,N","011000,1,N,1","+0116,1","+0054,1","10183,1","06,0000,9,1",,,,"00,1,+99999,9,99,9","00,99,1,00,1,00,1,99999,9,00,1,00,1",,,"99999,9,09767,1","2,1,009,1,+999,9",,SYN060AAXX  17121 57328 32961 00402 10116 20054 39767 40183 52009;,Q01  00002PRCP06
02-17T15:00:00,4,31.2,107.5,344.0,"DA XIAN, CH",FM-12,99999,V020,"040,1,N,0020,1","22000,1,9,N","007000,1,N,1","+0081,1","+0059,1","10192,1",,,,,"00,1,+99999,9,99,9","00,99,1,00,1,00,1,99999,9,00,1,00,1",,,,"2,1,010,1,+999,9","10,1",SYN060AAXX  17151 57328 41957 00402 10081 20059 40192 52010 71000;,
02-17T18:00:00,4,31.2,107.5,344.0,"DA XIAN, CH",FM-12,99999,V020,"040,1,N,0030,1","99999,9,9,N","005000,1,N,1","+0064,1","+0055,1","10191,1","06,0000,9,1",,,,,"06,99,1,06,1,00,1,99999,9,04,1,00,1",,"999,M,+0155,1","99999,9,09777,1","4,1,000,1,+999,9","10,1",SYN082AAXX  17181 57328 31950 60403 10064 20055 39777 40191 54000 71000 86040 333 10155;,Q01  00002PRCP06
02-17T21:00:00,4,31.2,107.5,344.0,"DA XIAN, CH",FM-12,99999,V020,"020,1,N,0030,1","22000,1,9,N","005000,1,N,1","+0057,1","+0043,1","10177,1",,,,,"00,1,+99999,9,99,9","00,99,1,00,1,00,1,99999,9,00,1,00,1",,,,"7,1,012,1,+999,9","10,1",SYN060AAXX  17211 57328 41950 00203 10057 20043 40177 57012 71000;,
02-18T00:00:00,4,31.2,107.5,344.0,"DA XIAN, CH",FM-12,99999,V020,"040,1,N,0040,1","22000,1,9,N","008000,1,N,1","+0049,1","+0037,1","10186,1","06,0000,9,1",,,,"00,1,+99999,9,99,9","00,99,1,00,1,00,1,99999,9,00,1,00,1","999,+0030,9",,"99999,9,09770,1","2,1,005,1,-020,1","10,1",SYN082AAXX  18001 57328 31958 00404 10049 20037 39770 40186 52005 71000 333 05200 30036;,Q01  00002PRCP06
02-18T03:00:00,4,31.2,107.5,344.0,"DA XIAN, CH",FM-12,99999,V020,"999,9,C,0000,1","99999,9,9,N","008000,1,N,1","+0093,1","+0054,1","10199,1",,,,,,"08,99,1,08,1,00,1,99999,9,07,1,99,9",,,,"2,1,013,1,+999,9","10,1",SYN066AAXX  18031 57328 41958 80000 10093 20054 40199 52013 71000 8807/;,
02-18T06:00:00,4,31.2,107.5,344.0,"DA XIAN, CH",FM-12,99999,V020,"999,9,C,0000,1","99999,9,9,N","012000,1,N,1","+0133,1","+0058,1","10177,1","06,0000,9,1",,,,,"08,99,1,08,1,00,1,99999,9,07,1,99,9",,"999,N,+0048,1","99999,9,09764,1","7,1,019,1,+999,9",,SYN076AAXX  18061 57328 32962 80000 10133 20058 39764 40177 57019 8807/ 333 20048;,Q01  00002PRCP06
02-18T09:00:00,4,31.2,107.5,344.0,"DA XIAN, CH",FM-12,99999,V020,"999,9,C,0000,1","99999,9,9,N","007000,1,N,1","+0143,1","+0056,1","10168,1",,,,,,"08,99,1,08,1,00,1,99999,9,07,1,99,9",,,,"7,1,009,1,+999,9","10,1",SYN066AAXX  18091 57328 41957 80000 10143 20056 40168 57009 71000 8807/;,
02-18T12:00:00,4,31.2,107.5,344.0,"DA XIAN, CH",FM-12,99999,V020,"999,9,C,0000,1","22000,1,9,N","006000,1,N,1","+0126,1","+0069,1","10187,1","06,0000,9,1",,,,"00,1,+99999,9,99,9","00,99,1,00,1,00,1,99999,9,00,1,00,1",,,"99999,9,09772,1","2,1,017,1,+999,9","10,1",SYN066AAXX  18121 57328 31956 00000 10126 20069 39772 40187 52017 71000;,Q01  00002PRCP06
02-18T15:00:00,4,31.2,107.5,344.0,"DA XIAN, CH",FM-12,99999,V020,"040,1,N,0020,1","22000,1,9,N","006000,1,N,1","+0086,1","+0067,1","10211,1",,,,,"00,1,+99999,9,99,9","00,99,1,00,1,00,1,99999,9,00,1,00,1",,,,"2,1,023,1,+999,9","10,1",SYN060AAXX  18151 57328 41956 00402 10086 20067 40211 52023 71000;,
02-18T18:00:00,4,31.2,107.5,344.0,"DA XIAN, CH",FM-12,99999,V020,"040,1,N,0020,1","22000,1,9,N","004000,1,N,1","+0073,1","+0060,1","10217,1","06,0000,9,1",,,,"00,1,+99999,9,99,9","00,99,1,00,1,00,1,99999,9,00,1,00,1",,"999,M,+0144,1","99999,9,09803,1","2,1,008,1,+999,9","10,1",SYN076AAXX  18181 57328 31940 00402 10073 20060 39803 40217 52008 71000 333 10144;,Q01  00002PRCP06
02-18T21:00:00,4,31.2,107.5,344.0,"DA XIAN, CH",FM-12,99999,V020,"070,1,N,0030,1","22000,1,9,N","002000,1,N,1","+0059,1","+0055,1","10220,1",,,,,"00,1,+99999,9,99,9","00,99,1,00,1,00,1,99999,9,00,1,00,1",,,,"2,1,002,1,+999,9","10,1",SYN060AAXX  18211 57328 41920 00703 10059 20055 40220 52002 71000;,
02-19T00:00:00,4,31.2,107.5,344.0,"DA XIAN, CH",FM-12,99999,V020,"040,1,N,0030,1","00015,1,9,N","000000,1,N,1","+0045,1","+0043,1","10247,1","06,0000,9,1",,,,"09,1,+99999,9,99,9","09,99,1,09,1,99,9,99999,9,99,9,99,9","999,+0040,9",,"99999,9,09829,1","2,1,024,1,+060,1","47,1",SYN082AAXX  19001 57328 31/00 90403 10045 20043 39829 40247 52024 74700 333 00600 30040;,Q01  00002PRCP06
02-19T03:00:00,4,31.2,107.5,344.0,"DA XIAN, CH",FM-12,99999,V020,"040,1,N,0030,1","22000,1,9,N","007000,1,N,1","+0106,1","+0066,1","10251,1",,,"4,1,03,1",,"00,1,+99999,9,99,9","00,99,1,00,1,00,1,99999,9,00,1,00,1",,,,"2,1,005,1,+999,9","10,1",SYN060AAXX  19031 57328 41957 00403 10106 20066 40251 52005 71040;,
02-19T06:00:00,4,31.2,107.5,344.0,"DA XIAN, CH",FM-12,99999,V020,"290,1,N,0020,1","22000,1,9,N","009000,1,N,1","+0171,1","+0065,1","10212,1","06,0000,9,1",,"4,1,06,1",,"00,1,+99999,9,99,9","00,99,1,00,1,00,1,99999,9,00,1,00,1",,"999,N,+0043,1","99999,9,09801,1","7,1,033,1,+999,9","05,1",SYN076AAXX  19061 57328 31959 02902 10171 20065 39801 40212 57033 70540 333 20043;,Q01  00002PRCP06
02-19T09:00:00,4,31.2,107.5,344.0,"DA XIAN, CH",FM-12,99999,V020,"999,9,C,0000,1","22000,1,9,N","011000,1,N,1","+0193,1","+0076,1","10183,1",,,,,"00,1,+99999,9,99,9","00,99,1,00,1,00,1,99999,9,00,1,00,1",,,,"7,1,028,1,+999,9",,SYN054AAXX  19091 57328 42961 00000 10193 20076 40183 57028;,
02-19T12:00:00,4,31.2,107.5,344.0,"DA XIAN, CH",FM-12,99999,V020,"070,1,N,0010,1","22000,1,9,N","010000,1,N,1","+0142,1","+0081,1","10187,1","06,0000,9,1",,,,"00,1,+99999,9,99,9","00,99,1,00,1,00,1,99999,9,00,1,00,1",,,"99999,9,09773,1","4,1,000,1,+999,9",,SYN060AAXX  19121 57328 32960 00701 10142 20081 39773 40187 54000;,Q01  00002PRCP06
02-19T15:00:00,4,31.2,107.5,344.0,"DA XIAN, CH",FM-12,99999,V020,"040,1,N,0020,1","99999,9,9,N","008000,1,N,1","+0107,1","+0076,1","10178,1",,,,,,"08,99,1,08,1,00,1,99999,9,07,1,99,9",,,,"7,1,007,1,+999,9","10,1",SYN066AAXX  19151 57328 41958 80402 10107 20076 40178 57007 71000 8807/;,
02-19T18:00:00,4,31.2,107.5,344.0,"DA XIAN, CH",FM-12,99999,V020,"070,1,N,0020,1","99999,9,9,N","008000,1,N,1","+0107,1","+0076,1","10150,1","06,0000,9,1",,,,,"08,99,1,08,1,00,1,99999,9,07,1,99,9",,"999,M,+0193,1","99999,9,09743,1","7,1,023,1,+999,9","10,1",SYN082AAXX  19181 57328 31958 80702 10107 20076 39743 40150 57023 71000 8807/ 333 10193;,Q01  00002PRCP06
02-19T21:00:00,4,31.2,107.5,344.0,"DA XIAN, CH",FM-12,99999,V020,"040,1,N,0020,1","99999,9,9,N","005000,1,N,1","+0105,1","+0077,1","10115,1",,,,,,"08,99,1,08,1,00,1,99999,9,07,1,99,9",,,,"7,1,032,1,+999,9","10,1",SYN066AAXX  19211 57328 41950 80402 10105 20077 40115 57032 71000 8807/;,
02-20T00:00:00,4,31.2,107.5,344.0,"DA XIAN, CH",FM-12,99999,V020,"040,1,N,0020,1","02100,1,9,N","008000,1,N,1","+0105,1","+0083,1","10098,1","06,0000,9,1",,,,,"08,99,1,08,1,05,1,02250,1,99,9,99,9",,,"99999,9,09691,1","7,1,020,1,+014,1","10,1",SYN082AAXX  20001 57328 31858 80402 10105 20083 39691 40098 57020 71000 885// 333 06406;,Q01  00002PRCP06
02-20T03:00:00,4,31.2,107.5,344.0,"DA XIAN, CH",FM-12,99999,V020,"040,1,N,0010,1","02100,1,9,N","008000,1,N,1","+0117,1","+0085,1","10089,1",,,,,,"08,99,1,08,1,05,1,02250,1,99,9,99,9",,,,"7,1,010,1,+999,9","10,1",SYN066AAXX  20031 57328 41858 80401 10117 20085 40089 57010 71000 885//;,
02-20T06:00:00,4,31.2,107.5,344.0,"DA XIAN, CH",FM-12,99999,V020,"999,9,C,0000,1","99999,9,9,N","007000,1,N,1","+0141,1","+0091,1","10045,1","06,0000,9,1",,,,,"08,99,1,08,1,00,1,99999,9,07,1,99,9",,"999,N,+0100,1","99999,9,09641,1","7,1,040,1,+999,9","10,1",SYN082AAXX  20061 57328 31957 80000 10141 20091 39641 40045 57040 71000 8807/ 333 20100;,Q01  00002PRCP06
02-20T09:00:00,4,31.2,107.5,344.0,"DA XIAN, CH",FM-12,99999,V020,"999,9,C,0000,1","99999,9,9,N","011000,1,N,1","+0155,1","+0079,1","10004,1",,,,,,"08,99,1,08,1,00,1,99999,9,07,1,99,9",,,,"7,1,039,1,+999,9",,SYN060AAXX  20091 57328 42961 80000 10155 20079 40004 57039 8807/;,
02-20T12:00:00,4,31.2,107.5,344.0,"DA XIAN, CH",FM-12,99999,V020,"020,1,N,0010,1","02100,1,9,N","006000,1,N,1","+0148,1","+0089,1","10001,1","06,0000,9,1",,,,,"08,99,1,08,1,05,1,02250,1,99,9,99,9",,,"99999,9,09599,1","7,1,003,1,+999,9","10,1",SYN072AAXX  20121 57328 31856 80201 10148 20089 39599 40001 57003 71000 885//;,Q01  00002PRCP06
02-20T15:00:00,4,31.2,107.5,344.0,"DA XIAN, CH",FM-12,99999,V020,"070,1,N,0010,1","02100,1,9,N","006000,1,N,1","+0155,1","+0086,1","10006,1",,,,,,"08,99,1,08,1,05,1,02250,1,99,9,99,9",,,,"2,1,006,1,+999,9","10,1",SYN066AAXX  20151 57328 41856 80701 10155 20086 40006 52006 71000 885//;,
02-20T18:00:00,4,31.2,107.5,344.0,"DA XIAN, CH",FM-12,99999,V020,"999,9,C,0000,1","02100,1,9,N","006000,1,N,1","+0157,1","+0097,1","10012,1","06,9999,9,9",,,,,"08,99,1,08,1,05,1,02250,1,99,9,99,9",,"999,M,+0159,1","99999,9,09612,1","2,1,007,1,+999,9","60,1",SYN088AAXX  20181 57328 11856 80000 10157 20097 39612 40012 52007 69901 76000 885// 333 10159;,
02-20T21:00:00,4,31.2,107.5,344.0,"DA XIAN, CH",FM-12,99999,V020,"999,9,C,0000,1","22000,1,9,N","007000,1,N,1","+0141,1","+0106,1","10010,1","24,0000,2,1",,"6,1,03,1",,,"04,99,1,04,1,00,1,99999,9,04,1,00,1",,,,"7,1,002,1,+999,9","10,1",SYN076AAXX  20211 57328 41957 40000 10141 20106 40010 57002 71060 84040 333 79999;,
02-21T00:00:00,4,31.2,107.5,344.0,"DA XIAN, CH",FM-12,99999,V020,"220,1,N,0020,1","02100,1,9,N","006000,1,N,1","+0146,1","+0103,1","10047,1","06,9999,9,9","24,0000,2,1","6,1,06,1",,,"08,99,1,08,1,05,1,02250,1,99,9,99,9",,,"99999,9,09646,1","2,1,036,1,-050,1","10,1",SYN094AAXX  21001 57328 11856 82202 10146 20103 39646 40047 52036 69901 71060 885// 333 05504 79999;,
02-21T06:00:00,4,31.2,107.5,344.0,"DA XIAN, CH",FM-12,99999,V020,"040,1,N,0020,1","02100,1,9,N","008000,1,N,1","+0123,1","+0092,1","10082,1","06,9999,9,9",,"6,1,06,1",,,"08,99,1,08,1,05,1,02250,1,99,9,99,9",,"999,N,+0120,1","99999,9,09678,1","7,1,001,1,+999,9","10,1",SYN088AAXX  21061 57328 11858 80402 10123 20092 39678 40082 57001 69901 71060 885// 333 20120;,
02-21T09:00:00,4,31.2,107.5,344.0,"DA XIAN, CH",FM-12,99999,V020,"020,1,N,0010,1","02100,1,9,N","012000,1,N,1","+0137,1","+0087,1","10082,1",,,,,,"08,99,1,08,1,05,1,02250,1,99,9,99,9",,,,"4,1,000,1,+999,9",,SYN060AAXX  21091 57328 42862 80201 10137 20087 40082 54000 885//;,
02-21T12:00:00,4,31.2,107.5,344.0,"DA XIAN, CH",FM-12,99999,V020,"040,1,N,0020,1","22000,1,9,N","011000,1,N,1","+0127,1","+0088,1","10087,1","06,0000,9,1",,,,"00,1,+99999,9,99,9","00,99,1,00,1,00,1,99999,9,00,1,00,1",,,"99999,9,09683,1","2,1,005,1,+999,9",,SYN060AAXX  21121 57328 32961 00402 10127 20088 39683 40087 52005;,Q01  00002PRCP06
02-21T15:00:00,4,31.2,107.5,344.0,"DA XIAN, CH",FM-12,99999,V020,"020,1,N,0010,1","22000,1,9,N","008000,1,N,1","+0103,1","+0083,1","10103,1",,,,,"00,1,+99999,9,99,9","00,99,1,00,1,00,1,99999,9,00,1,00,1",,,,"2,1,013,1,+999,9","10,1",SYN060AAXX  21151 57328 41958 00201 10103 20083 40103 52013 71000;,
02-21T18:00:00,4,31.2,107.5,344.0,"DA XIAN, CH",FM-12,99999,V020,"180,1,N,0020,1","22000,1,9,N","008000,1,N,1","+0095,1","+0074,1","10111,1","06,0000,9,1",,,,"00,1,+99999,9,99,9","00,99,1,00,1,00,1,99999,9,00,1,00,1",,"999,M,+0158,1","99999,9,09702,1","2,1,006,1,+999,9","10,1",SYN076AAXX  21181 57328 31958 01802 10095 20074 39702 40111 52006 71000 333 10158;,Q01  00002PRCP06
02-21T20:00:00,4,31.2,107.5,344.0,"DA XIAN, CH",FM-12,99999,V020,"070,1,N,0040,1","22000,1,9,N","015000,1,N,1","+0127,1","+0070,1","10123,1","06,0000,9,1",,,,"00,1,+99999,9,99,9","00,99,1,00,1,00,1,99999,9,00,1,00,1",,,"99999,9,09713,1","2,1,018,1,+999,9",,SYN060AAXX  22121 57328 32965 00704 10127 20070 39713 40123 52018;,Q01  00002PRCP06
02-21T21:00:00,4,31.2,107.5,344.0,"DA XIAN, CH",FM-12,99999,V020,"999,9,C,0000,1","99999,9,9,N","006000,1,N,1","+0084,1","+0071,1","10109,1","24,0000,9,1",,,,,"07,99,1,07,1,00,1,99999,9,04,1,99,9",,,,"7,1,002,1,+999,9","10,1",SYN076AAXX  21211 57328 41956 70000 10084 20071 40109 57002 71000 8704/ 333 79999;,Q01  00002PRCP24
02-22T00:00:00,4,31.2,107.5,344.0,"DA XIAN, CH",FM-12,99999,V020,"999,9,C,0000,1","02100,1,9,N","003000,1,N,1","+0083,1","+0070,1","10123,1","06,0000,9,1","24,0000,9,1",,,,"08,99,1,08,1,05,1,02250,1,99,9,99,9",,,"99999,9,09713,1","2,1,013,1,+070,1","10,1",SYN088AAXX  22001 57328 31830 80000 10083 20070 39713 40123 52013 71000 885// 333 00756 79999;,Q01  00002PRCP06Q02  00002PRCP24
02-22T03:00:00,4,31.2,107.5,344.0,"DA XIAN, CH",FM-12,99999,V020,"999,9,C,0000,1","99999,9,9,N","005000,1,N,1","+0111,1","+0083,1","10140,1",,,,,,"07,99,1,07,1,00,1,99999,9,04,1,99,9",,,,"2,1,016,1,+999,9","10,1",SYN066AAXX  22031 57328 41950 70000 10111 20083 40140 52016 71000 8704/;,
02-22T06:00:00,4,31.2,107.5,344.0,"DA XIAN, CH",FM-12,99999,V020,"020,1,N,0020,1","99999,9,9,N","009000,1,N,1","+0161,1","+0080,1","10112,1","06,0000,9,1",,,,,"07,99,1,07,1,00,1,99999,9,04,1,99,9",,"999,N,+0074,1","99999,9,09705,1","7,1,024,1,+999,9","10,1",SYN082AAXX  22061 57328 31959 70202 10161 20080 39705 40112 57024 71000 8704/ 333 20074;,Q01  00002PRCP06
02-22T09:00:00,4,31.2,107.5,344.0,"DA XIAN, CH",FM-12,99999,V020,"040,1,N,0030,1","99999,9,9,N","015000,1,N,1","+0161,1","+0075,1","10102,1",,,,,,"07,99,1,07,1,00,1,99999,9,04,1,99,9",,,,"7,1,010,1,+999,9",,SYN060AAXX  22091 57328 42965 70403 10161 20075 40102 57010 8704/;,
02-22T12:00:00,4,31.2,107.5,344.0,"DA XIAN, CH",FM-12,99999,V020,"070,1,N,0040,1","22000,1,9,N","015000,1,N,1","+0127,1","+0070,1","10123,1","06,0000,9,1",,,,"00,1,+99999,9,99,9","00,99,1,00,1,00,1,99999,9,00,1,00,1",,,"99999,9,09713,1","2,1,018,1,+999,9",,SYN060AAXX  22121 57328 32965 00704 10127 20070 39713 40123 52018;,Q01  00002PRCP06
02-22T18:00:00,4,31.2,107.5,344.0,"DA XIAN, CH",FM-12,99999,V020,"040,1,N,0030,1","22000,1,9,N","012000,1,N,1","+0099,1","+0063,1","10132,1","06,0000,9,1",,,,"00,1,+99999,9,99,9","00,99,1,00,1,00,1,99999,9,00,1,00,1",,"999,M,+0168,1","99999,9,09725,1","2,1,003,1,+999,9",,SYN070AAXX  22181 57328 32962 00403 10099 20063 39725 40132 52003 333 10168;,Q01  00002PRCP06
02-22T21:00:00,4,31.2,107.5,344.0,"DA XIAN, CH",FM-12,99999,V020,"070,1,N,0010,1","99999,9,9,N","012000,1,N,1","+0095,1","+0056,1","10134,1",,,,,,"07,99,1,07,1,00,1,99999,9,04,1,99,9",,,,"2,1,002,1,+999,9",,SYN060AAXX  22211 57328 42962 70701 10095 20056 40134 52002 8704/;,
02-23T00:00:00,4,31.2,107.5,344.0,"DA XIAN, CH",FM-12,99999,V020,"040,1,N,0030,1","22000,1,9,N","020000,1,N,1","+0076,1","+0052,1","10165,1","06,0000,9,1",,,,"00,1,+99999,9,99,9","00,99,1,00,1,00,1,99999,9,00,1,00,1",,,"99999,9,09753,1","2,1,026,1,+004,1",,SYN070AAXX  23001 57328 32970 00403 10076 20052 39753 40165 52026 333 00451;,Q01  00002PRCP06
02-23T03:00:00,4,31.2,107.5,344.0,"DA XIAN, CH",FM-12,99999,V020,"040,1,N,0040,1","22000,1,9,N","030000,1,N,1","+0139,1","+0046,1","10176,1",,,,,"00,1,+99999,9,99,9","00,99,1,00,1,00,1,99999,9,00,1,00,1",,,,"2,1,013,1,+999,9",,SYN054AAXX  23031 57328 42980 00404 10139 20046 40176 52013;,
02-23T06:00:00,4,31.2,107.5,344.0,"DA XIAN, CH",FM-12,99999,V020,"270,1,N,0020,1","22000,1,9,N","030000,1,N,1","+0188,1","+0082,1","10144,1","06,0000,9,1",,,,"00,1,+99999,9,99,9","00,99,1,00,1,00,1,99999,9,00,1,00,1",,"999,N,+0075,1","99999,9,09738,1","7,1,028,1,+999,9",,SYN070AAXX  23061 57328 32980 02702 10188 20082 39738 40144 57028 333 20075;,Q01  00002PRCP06
02-23T09:00:00,4,31.2,107.5,344.0,"DA XIAN, CH",FM-12,99999,V020,"250,1,N,0010,1","22000,1,9,N","030000,1,N,1","+0201,1","+0085,1","10119,1",,,,,"00,1,+99999,9,99,9","00,99,1,00,1,00,1,99999,9,00,1,00,1",,,,"7,1,023,1,+999,9",,SYN054AAXX  23091 57328 42980 02501 10201 20085 40119 57023;,
02-23T21:00:00,4,31.2,107.5,344.0,"DA XIAN, CH",FM-12,99999,V020,"999,9,C,0000,1","02100,1,9,N","006000,1,N,1","+0119,1","+0088,1","10126,1",,,,,,"08,99,1,08,1,05,1,02250,1,99,9,99,9",,,,"7,1,014,1,+999,9","10,1",SYN066AAXX  23211 57328 41856 80000 10119 20088 40126 57014 71000 885//;,
02-24T00:00:00,4,31.2,107.5,344.0,"DA XIAN, CH",FM-12,99999,V020,"040,1,N,0020,1","99999,9,9,N","008000,1,N,1","+0120,1","+0087,1","10140,1","06,0000,9,1",,,,,"08,99,1,08,1,00,1,99999,9,07,1,99,9",,,"99999,9,09733,1","2,1,010,1,+002,1","10,1",SYN082AAXX  24001 57328 31958 80402 10120 20087 39733 40140 52010 71000 8807/ 333 05204;,Q01  00002PRCP06
02-24T03:00:00,4,31.2,107.5,344.0,"DA XIAN, CH",FM-12,99999,V020,"040,1,N,0010,1","99999,9,9,N","008000,1,N,1","+0123,1","+0092,1","10152,1",,,"6,1,03,1",,,"08,99,1,08,1,00,1,99999,9,07,1,99,9",,,,"2,1,010,1,+999,9","10,1",SYN066AAXX  24031 57328 41958 80401 10123 20092 40152 52010 71060 8807/;,
02-24T06:00:00,4,31.2,107.5,344.0,"DA XIAN, CH",FM-12,99999,V020,"110,1,N,0030,1","99999,9,9,N","008000,1,N,1","+0161,1","+0089,1","10125,1","06,9999,9,9",,"6,1,06,1",,,"08,99,1,08,1,00,1,99999,9,07,1,99,9",,"999,N,+0113,1","99999,9,09719,1","7,1,024,1,+999,9","10,1",SYN088AAXX  24061 57328 11958 81103 10161 20089 39719 40125 57024 69901 71060 8807/ 333 20113;,
02-24T09:00:00,4,31.2,107.5,344.0,"DA XIAN, CH",FM-12,99999,V020,"090,1,N,0020,1","99999,9,9,N","011000,1,N,1","+0163,1","+0091,1","10097,1",,,,,,"07,99,1,07,1,00,1,99999,9,04,1,99,9",,,,"7,1,026,1,+999,9",,SYN060AAXX  24091 57328 42961 70902 10163 20091 40097 57026 8704/;,
02-24T12:00:00,4,31.2,107.5,344.0,"DA XIAN, CH",FM-12,99999,V020,"999,9,C,0000,1","99999,9,9,N","006000,1,N,1","+0141,1","+0091,1","10106,1","06,0000,9,1",,,,,"05,99,1,05,1,00,1,99999,9,04,1,00,1",,,"99999,9,09700,1","2,1,007,1,+999,9","10,1",SYN072AAXX  24121 57328 31956 50000 10141 20091 39700 40106 52007 71000 85040;,Q01  00002PRCP06
02-24T15:00:00,4,31.2,107.5,344.0,"DA XIAN, CH",FM-12,99999,V020,"999,9,C,0000,1","22000,1,9,N","006000,1,N,1","+0114,1","+0088,1","10116,1",,,,,"00,1,+99999,9,99,9","00,99,1,00,1,00,1,99999,9,00,1,00,1",,,,"2,1,008,1,+999,9","10,1",SYN060AAXX  24151 57328 41956 00000 10114 20088 40116 52008 71000;,
02-24T18:00:00,4,31.2,107.5,344.0,"DA XIAN, CH",FM-12,99999,V020,"020,1,N,0020,1","22000,1,9,N","004000,1,N,1","+0111,1","+0085,1","10111,1","06,0000,9,1",,,,,"04,99,1,04,1,00,1,99999,9,04,1,00,1",,"999,M,+0164,1","99999,9,09706,1","7,1,002,1,+999,9","10,1",SYN082AAXX  24181 57328 31940 40202 10111 20085 39706 40111 57002 71000 84040 333 10164;,Q01  00002PRCP06
02-24T21:00:00,4,31.2,107.5,344.0,"DA XIAN, CH",FM-12,99999,V020,"070,1,N,0010,1","99999,9,9,N","008000,1,N,1","+0113,1","+0085,1","10101,1","24,0000,9,1",,,,,"08,99,1,08,1,00,1,99999,9,07,1,99,9",,,,"7,1,010,1,+999,9","10,1",SYN076AAXX  24211 57328 41958 80701 10113 20085 40101 57010 71000 8807/ 333 79999;,Q01  00002PRCP24
02-25T00:00:00,4,31.2,107.5,344.0,"DA XIAN, CH",FM-12,99999,V020,"040,1,N,0020,1","99999,9,9,N","008000,1,N,1","+0106,1","+0086,1","10114,1","06,0000,9,1","24,0000,9,1",,,,"07,99,1,07,1,00,1,99999,9,04,1,99,9",,,"99999,9,09707,1","2,1,011,1,-030,1","10,1",SYN088AAXX  25001 57328 31958 70402 10106 20086 39707 40114 52011 71000 8704/ 333 05351 79999;,Q01  00002PRCP06Q02  00002PRCP24
02-25T03:00:00,4,31.2,107.5,344.0,"DA XIAN, CH",FM-12,99999,V020,"999,9,C,0000,1","99999,9,9,N","008000,1,N,1","+0133,1","+0090,1","10125,1",,,,,,"08,99,1,08,1,00,1,99999,9,07,1,99,9",,,,"2,1,010,1,+999,9","10,1",SYN066AAXX  25031 57328 41958 80000 10133 20090 40125 52010 71000 8807/;,
02-25T06:00:00,4,31.2,107.5,344.0,"DA XIAN, CH",FM-12,99999,V020,"040,1,N,0040,1","99999,9,9,N","010000,1,N,1","+0161,1","+0084,1","10107,1","06,0000,9,1",,,,,"08,99,1,08,1,00,1,99999,9,07,1,99,9",,"999,N,+0104,1","99999,9,09702,1","7,1,015,1,+999,9",,SYN076AAXX  25061 57328 32960 80404 10161 20084 39702 40107 57015 8807/ 333 20104;,Q01  00002PRCP06
02-25T09:00:00,4,31.2,107.5,344.0,"DA XIAN, CH",FM-12,99999,V020,"040,1,N,0030,1","99999,9,9,N","012000,1,N,1","+0158,1","+0073,1","10101,1",,,,,,"08,99,1,08,1,00,1,99999,9,07,1,99,9",,,,"7,1,006,1,+999,9",,SYN060AAXX  25091 57328 42962 80403 10158 20073 40101 57006 8807/;,
02-25T12:00:00,4,31.2,107.5,344.0,"DA XIAN, CH",FM-12,99999,V020,"070,1,N,0010,1","99999,9,9,N","011000,1,N,1","+0146,1","+0086,1","10125,1","06,0000,9,1",,,,,"08,99,1,08,1,00,1,99999,9,07,1,99,9",,,"99999,9,09718,1","2,1,022,1,+999,9",,SYN066AAXX  25121 57328 32961 80701 10146 20086 39718 40125 52022 8807/;,Q01  00002PRCP06
02-25T15:00:00,4,31.2,107.5,344.0,"DA XIAN, CH",FM-12,99999,V020,"040,1,N,0020,1","02100,1,9,N","011000,1,N,1","+0143,1","+0071,1","10141,1",,,,,,"08,99,1,08,1,05,1,02250,1,99,9,99,9",,,,"2,1,017,1,+999,9",,SYN060AAXX  25151 57328 42861 80402 10143 20071 40141 52017 885//;,
02-25T18:00:00,4,31.2,107.5,344.0,"DA XIAN, CH",FM-12,99999,V020,"070,1,N,0020,1","99999,9,9,N","011000,1,N,1","+0133,1","+0066,1","10134,1","06,0000,9,1",,,,,"08,99,1,08,1,00,1,99999,9,07,1,99,9",,"999,M,+0162,1","99999,9,09729,1","7,1,006,1,+999,9",,SYN076AAXX  25181 57328 32961 80702 10133 20066 39729 40134 57006 8807/ 333 10162;,Q01  00002PRCP06
02-25T21:00:00,4,31.2,107.5,344.0,"DA XIAN, CH",FM-12,99999,V020,"040,1,N,0020,1","02100,1,9,N","010000,1,N,1","+0121,1","+0070,1","10136,1",,,,,,"08,99,1,08,1,05,1,02250,1,99,9,99,9",,,,"2,1,001,1,+999,9",,SYN060AAXX  25211 57328 42860 80402 10121 20070 40136 52001 885//;,
02-26T00:00:00,4,31.2,107.5,344.0,"DA XIAN, CH",FM-12,99999,V020,"040,1,N,0020,1","02100,1,9,N","015000,1,N,1","+0125,1","+0063,1","10151,1","06,0000,9,1",,,,,"08,99,1,08,1,05,1,02250,1,99,9,99,9",,,"99999,9,09744,1","2,1,014,1,+004,1",,SYN076AAXX  26001 57328 32865 80402 10125 20063 39744 40151 52014 885// 333 00402;,Q01  00002PRCP06
02-26T03:00:00,4,31.2,107.5,344.0,"DA XIAN, CH",FM-12,99999,V020,"040,1,N,0020,1","02100,1,9,N","015000,1,N,1","+0139,1","+0066,1","10161,1",,,,,,"08,99,1,08,1,05,1,02250,1,99,9,99,9",,,,"2,1,010,1,+999,9",,SYN060AAXX  26031 57328 42865 80402 10139 20066 40161 52010 885//;,
02-26T09:00:00,4,31.2,107.5,344.0,"DA XIAN, CH",FM-12,99999,V020,"040,1,N,0030,1","99999,9,9,N","028000,1,N,1","+0152,1","+0075,1","10132,1",,,,,,"08,99,1,08,1,00,1,99999,9,07,1,99,9",,,,"7,1,009,1,+999,9",,SYN060AAXX  26091 57328 42978 80403 10152 20075 40132 57009 8807/;,
02-26T12:00:00,4,31.2,107.5,344.0,"DA XIAN, CH",FM-12,99999,V020,"040,1,N,0030,1","02100,1,9,N","012000,1,N,1","+0143,1","+0073,1","10141,1","06,0000,9,1",,,,,"08,99,1,08,1,05,1,02250,1,99,9,99,9",,,"99999,9,09734,1","2,1,008,1,+999,9",,SYN066AAXX  26121 57328 32862 80403 10143 20073 39734 40141 52008 885//;,Q01  00002PRCP06
02-26T15:00:00,4,31.2,107.5,344.0,"DA XIAN, CH",FM-12,99999,V020,"090,1,N,0020,1","02100,1,9,N","012000,1,N,1","+0132,1","+0074,1","10152,1",,,,,,"08,99,1,08,1,05,1,02250,1,99,9,99,9",,,,"2,1,011,1,+999,9",,SYN060AAXX  26151 57328 42862 80902 10132 20074 40152 52011 885//;,
02-26T18:00:00,4,31.2,107.5,344.0,"DA XIAN, CH",FM-12,99999,V020,"360,1,N,0010,1","02100,1,9,N","011000,1,N,1","+0127,1","+0075,1","10145,1","06,0000,9,1",,,,,"08,99,1,08,1,05,1,02250,1,99,9,99,9",,"999,M,+0161,1","99999,9,09739,1","7,1,006,1,+999,9",,SYN076AAXX  26181 57328 32861 83601 10127 20075 39739 40145 57006 885// 333 10161;,Q01  00002PRCP06
02-26T21:00:00,4,31.2,107.5,344.0,"DA XIAN, CH",FM-12,99999,V020,"090,1,N,0010,1","02100,1,9,N","012000,1,N,1","+0119,1","+0081,1","10145,1","24,0000,2,1",,"6,1,03,1",,,"08,99,1,08,1,05,1,02250,1,99,9,99,9",,,,"7,1,001,1,+999,9","21,1",SYN076AAXX  26211 57328 41862 80901 10119 20081 40145 57001 72160 885// 333 79999;,
02-27T03:00:00,4,31.2,107.5,344.0,"DA XIAN, CH",FM-12,99999,V020,"110,1,N,0020,1","02100,1,9,N","007000,1,N,1","+0121,1","+0077,1","10173,1",,,"6,1,03,1","6,1,03,1",,"08,99,1,08,1,05,1,02250,1,99,9,99,9",,,,"2,1,015,1,+999,9","21,1",SYN066AAXX  27031 57328 41857 81102 10121 20077 40173 52015 72166 885//;,
02-27T06:00:00,4,31.2,107.5,344.0,"DA XIAN, CH",FM-12,99999,V020,"040,1,N,0020,1","02100,1,9,N","008000,1,N,1","+0113,1","+0098,1","10164,1","06,0008,9,1",,"6,1,06,1",,,"08,99,1,08,1,05,1,02250,1,99,9,99,9",,"999,N,+0110,1","99999,9,09754,1","7,1,010,1,+999,9","21,1",SYN088AAXX  27061 57328 11858 80402 10113 20098 39754 40164 57010 69981 72160 885// 333 20110;,
02-27T09:00:00,4,31.2,107.5,344.0,"DA XIAN, CH",FM-12,99999,V020,"040,1,N,0020,1","02100,1,9,N","008000,1,N,1","+0117,1","+0081,1","10145,1",,,,,,"08,99,1,08,1,05,1,02250,1,99,9,99,9",,,,"7,1,018,1,+999,9","10,1",SYN066AAXX  27091 57328 41858 80402 10117 20081 40145 57018 71000 885//;,
02-27T12:00:00,4,31.2,107.5,344.0,"DA XIAN, CH",FM-12,99999,V020,"040,1,N,0030,1","02100,1,9,N","008000,1,N,1","+0115,1","+0070,1","10148,1","06,0000,2,1",,,,,"08,99,1,08,1,05,1,02250,1,99,9,99,9",,,"99999,9,09738,1","2,1,002,1,+999,9","10,1",SYN072AAXX  27121 57328 31858 80403 10115 20070 39738 40148 52002 71000 885//;,
02-27T15:00:00,4,31.2,107.5,344.0,"DA XIAN, CH",FM-12,99999,V020,"999,9,C,0000,1","02100,1,9,N","007000,1,N,1","+0113,1","+0068,1","10164,1",,,,,,"08,99,1,08,1,05,1,02250,1,99,9,99,9",,,,"2,1,016,1,+999,9","10,1",SYN066AAXX  27151 57328 41857 80000 10113 20068 40164 52016 71000 885//;,
02-27T18:00:00,4,31.2,107.5,344.0,"DA XIAN, CH",FM-12,99999,V020,"070,1,N,0020,1","02100,1,9,N","015000,1,N,1","+0115,1","+0056,1","10165,1","06,0000,9,1",,,,,"07,99,1,07,1,05,1,02250,1,99,9,99,9",,"999,M,+0127,1","99999,9,09754,1","4,1,000,1,+999,9",,SYN076AAXX  27181 57328 32865 70702 10115 20056 39754 40165 54000 875// 333 10127;,Q01  00002PRCP06
02-27T21:00:00,4,31.2,107.5,344.0,"DA XIAN, CH",FM-12,99999,V020,"040,1,N,0010,1","02100,1,9,N","012000,1,N,1","+0109,1","+0053,1","10154,1","24,0008,9,1",,,,,"08,99,1,08,1,05,1,02250,1,99,9,99,9",,,,"7,1,010,1,+999,9",,SYN070AAXX  27211 57328 42862 80401 10109 20053 40154 57010 885// 333 70008;,
02-28T00:00:00,4,31.2,107.5,344.0,"DA XIAN, CH",FM-12,99999,V020,"090,1,N,0010,1","99999,9,9,N","020000,1,N,1","+0105,1","+0056,1","10159,1","06,0000,9,1","24,0008,9,1",,,,"07,99,1,07,1,00,1,99999,9,04,1,99,9",,,"99999,9,09748,1","2,1,004,1,+000,1",,SYN082AAXX  28001 57328 32970 70901 10105 20056 39748 40159 52004 8704/ 333 00051 70008;,Q01  00002PRCP06
02-28T03:00:00,4,31.2,107.5,344.0,"DA XIAN, CH",FM-12,99999,V020,"040,1,N,0030,1","99999,9,9,N","015000,1,N,1","+0119,1","+0040,1","10175,1",,,,,,"08,99,1,08,1,00,1,99999,9,07,1,99,9",,,,"2,1,016,1,+999,9",,SYN060AAXX  28031 57328 42965 80403 10119 20040 40175 52016 8807/;,
02-28T06:00:00,4,31.2,107.5,344.0,"DA XIAN, CH",FM-12,99999,V020,"040,1,N,0020,1","99999,9,9,N","030000,1,N,1","+0125,1","+0048,1","10159,1","06,0000,9,1",,,,,"08,99,1,08,1,00,1,99999,9,07,1,99,9",,"999,N,+0100,1","99999,9,09749,1","7,1,015,1,+999,9",,SYN076AAXX  28061 57328 32980 80402 10125 20048 39749 40159 57015 8807/ 333 20100;,Q01  00002PRCP06
02-28T09:00:00,4,31.2,107.5,344.0,"DA XIAN, CH",FM-12,99999,V020,"999,9,C,0000,1","99999,9,9,N","030000,1,N,1","+0140,1","+0060,1","10136,1",,,,,,"08,99,1,08,1,00,1,99999,9,07,1,99,9",,,,"7,1,021,1,+999,9",,SYN060AAXX  28091 57328 42980 80000 10140 20060 40136 57021 8807/;,
02-28T12:00:00,4,31.2,107.5,344.0,"DA XIAN, CH",FM-12,99999,V020,"140,1,N,0020,1","22000,1,9,N","012000,1,N,1","+0122,1","+0080,1","10146,1","06,0000,9,1",,,,"00,1,+99999,9,99,9","00,99,1,00,1,00,1,99999,9,00,1,00,1",,,"99999,9,09736,1","2,1,008,1,+999,9",,SYN060AAXX  28121 57328 32962 01402 10122 20080 39736 40146 52008;,Q01  00002PRCP06
02-28T15:00:00,4,31.2,107.5,344.0,"DA XIAN, CH",FM-12,99999,V020,"040,1,N,0010,1","22000,1,9,N","009000,1,N,1","+0093,1","+0070,1","10157,1",,,,,"00,1,+99999,9,99,9","00,99,1,00,1,00,1,99999,9,00,1,00,1",,,,"2,1,010,1,+999,9","10,1",SYN060AAXX  28151 57328 41959 00401 10093 20070 40157 52010 71000;,
02-28T18:00:00,4,31.2,107.5,344.0,"DA XIAN, CH",FM-12,99999,V020,"040,1,N,0020,1","22000,1,9,N","009000,1,N,1","+0088,1","+0065,1","10162,1","06,0000,9,1",,,,,"02,99,1,02,1,05,1,02250,1,00,1,00,1",,"999,M,+0142,1","99999,9,09750,1","2,1,004,1,+999,9","10,1",SYN082AAXX  28181 57328 31859 20402 10088 20065 39750 40162 52004 71000 82500 333 10142;,Q01  00002PRCP06
02-28T21:00:00,4,31.2,107.5,344.0,"DA XIAN, CH",FM-12,99999,V020,"040,1,N,0020,1","02100,1,9,N","005000,1,N,1","+0074,1","+0065,1","10147,1",,,,,,"07,99,1,07,1,05,1,02250,1,99,9,99,9",,,,"7,1,014,1,+999,9","10,1",SYN066AAXX  28211 57328 41850 70402 10074 20065 40147 57014 71000 875//;,
03-01T00:00:00,4,31.2,107.5,344.0,"DA XIAN, CH",FM-12,99999,V020,"999,9,C,0000,1","99999,9,9,N","007000,1,N,1","+0083,1","+0070,1","10141,1","06,0000,9,1",,,,,"07,99,1,07,1,00,1,99999,9,04,1,99,9",,,"99999,9,09730,1","7,1,006,1,+002,1","10,1",SYN082AAXX  01001 57328 31957 70000 10083 20070 39730 40141 57006 71000 8704/ 333 05252;,Q01  00002PRCP06
03-01T03:00:00,4,31.2,107.5,344.0,"DA XIAN, CH",FM-12,99999,V020,"040,1,N,0020,1","99999,9,9,N","006000,1,N,1","+0109,1","+0081,1","10139,1",,,,,,"08,99,1,08,1,00,1,99999,9,07,1,99,9",,,,"7,1,002,1,+999,9","10,1",SYN066AAXX  01031 57328 41956 80402 10109 20081 40139 57002 71000 8807/;,
03-01T06:00:00,4,31.2,107.5,344.0,"DA XIAN, CH",FM-12,99999,V020,"160,1,N,0010,1","99999,9,9,N","011000,1,N,1","+0158,1","+0085,1","10103,1","06,0000,9,1",,,,,"08,99,1,08,1,00,1,99999,9,07,1,99,9",,"999,N,+0074,1","99999,9,09696,1","7,1,032,1,+999,9",,SYN076AAXX  01061 57328 32961 81601 10158 20085 39696 40103 57032 8807/ 333 20074;,Q01  00002PRCP06
03-01T09:00:00,4,31.2,107.5,344.0,"DA XIAN, CH",FM-12,99999,V020,"140,1,N,0020,1","99999,9,9,N","020000,1,N,1","+0167,1","+0085,1","10070,1",,,,,,"08,99,1,08,1,00,1,99999,9,07,1,99,9",,,,"7,1,032,1,+999,9",,SYN060AAXX  01091 57328 42970 81402 10167 20085 40070 57032 8807/;,
03-01T12:00:00,4,31.2,107.5,344.0,"DA XIAN, CH",FM-12,99999,V020,"070,1,N,0020,1","22000,1,9,N","012000,1,N,1","+0149,1","+0088,1","10067,1","06,0000,9,1",,,,,"03,99,1,03,1,00,1,99999,9,04,1,00,1",,,"99999,9,09661,1","7,1,003,1,+999,9",,SYN066AAXX  01121 57328 32962 30702 10149 20088 39661 40067 57003 83040;,Q01  00002PRCP06
03-01T15:00:00,4,31.2,107.5,344.0,"DA XIAN, CH",FM-12,99999,V020,"070,1,N,0020,1","02100,1,9,N","012000,1,N,1","+0137,1","+0091,1","10080,1",,,,,,"08,99,1,08,1,05,1,02250,1,99,9,99,9",,,,"2,1,013,1,+999,9",,SYN060AAXX  01151 57328 42862 80702 10137 20091 40080 52013 885//;,
03-01T18:00:00,4,31.2,107.5,344.0,"DA XIAN, CH",FM-12,99999,V020,"999,9,C,0000,1","99999,9,9,N","008000,1,N,1","+0137,1","+0095,1","10081,1","06,0000,9,1",,,,,"08,99,1,08,1,00,1,99999,9,07,1,99,9",,"999,M,+0173,1","99999,9,09678,1","2,1,004,1,+999,9","10,1",SYN082AAXX  01181 57328 31958 80000 10137 20095 39678 40081 52004 71000 8807/ 333 10173;,Q01  00002PRCP06
03-01T21:00:00,4,31.2,107.5,344.0,"DA XIAN, CH",FM-12,99999,V020,"270,1,N,0010,1","22000,1,9,N","008000,1,N,1","+0129,1","+0094,1","10051,1",,,,,"00,1,+99999,9,99,9","00,99,1,00,1,00,1,99999,9,00,1,00,1",,,,"7,1,028,1,+999,9","10,1",SYN060AAXX  01211 57328 41958 02701 10129 20094 40051 57028 71000;,
03-02T03:00:00,4,31.2,107.5,344.0,"DA XIAN, CH",FM-12,99999,V020,"999,9,C,0000,1","99999,9,9,N","004000,1,N,1","+0133,1","+0103,1","10100,1",,,,,,"08,99,1,08,1,00,1,99999,9,07,1,99,9",,,,"2,1,020,1,+999,9","10,1",SYN066AAXX  02031 57328 41940 80000 10133 20103 40100 52020 71000 8807/;,
03-02T06:00:00,4,31.2,107.5,344.0,"DA XIAN, CH",FM-12,99999,V020,"040,1,N,0020,1","99999,9,9,N","006000,1,N,1","+0150,1","+0104,1","10071,1","06,9999,9,9",,"6,1,06,1",,,"08,99,1,08,1,00,1,99999,9,02,1,99,9",,"999,N,+0122,1","99999,9,09668,1","7,1,027,1,+999,9","21,1",SYN088AAXX  02061 57328 11956 80402 10150 20104 39668 40071 57027 69901 72160 8802/ 333 20122;,
03-02T09:00:00,4,31.2,107.5,344.0,"DA XIAN, CH",FM-12,99999,V020,"020,1,N,0020,1","99999,9,9,N","007000,1,N,1","+0149,1","+0106,1","10059,1",,,,,,"08,99,1,08,1,00,1,99999,9,02,1,99,9",,,,"7,1,012,1,+999,9","10,1",SYN066AAXX  02091 57328 41957 80202 10149 20106 40059 57012 71000 8802/;,
03-02T12:00:00,4,31.2,107.5,344.0,"DA XIAN, CH",FM-12,99999,V020,"090,1,N,0010,1","99999,9,9,N","004000,1,N,1","+0144,1","+0111,1","10077,1","06,0000,2,1",,,,,"08,99,1,08,1,00,1,99999,9,02,1,99,9",,,"99999,9,09673,1","2,1,017,1,+999,9","10,1",SYN072AAXX  02121 57328 31940 80901 10144 20111 39673 40077 52017 71000 8802/;,
03-02T15:00:00,4,31.2,107.5,344.0,"DA XIAN, CH",FM-12,99999,V020,"040,1,N,0010,1","99999,9,9,N","004000,1,N,1","+0139,1","+0115,1","10100,1",,,,,,"08,99,1,08,1,00,1,99999,9,02,1,99,9",,,,"2,1,022,1,+999,9","10,1",SYN066AAXX  02151 57328 41940 80401 10139 20115 40100 52022 71000 8802/;,
03-02T18:00:00,4,31.2,107.5,344.0,"DA XIAN, CH",FM-12,99999,V020,"020,1,N,0010,1","99999,9,9,N","004000,1,N,1","+0135,1","+0115,1","10098,1","06,0000,9,1",,,,,"08,99,1,08,1,00,1,99999,9,02,1,99,9",,"999,M,+0153,1","99999,9,09694,1","7,1,001,1,+999,9","10,1",SYN082AAXX  02181 57328 31940 80201 10135 20115 39694 40098 57001 71000 8802/ 333 10153;,Q01  00002PRCP06
03-02T21:00:00,4,31.2,107.5,344.0,"DA XIAN, CH",FM-12,99999,V020,"020,1,N,0020,1","02100,1,9,N","004000,1,N,1","+0130,1","+0113,1","10092,1","24,0000,2,1",,,,,"08,99,1,08,1,05,1,02250,1,99,9,99,9",,,,"7,1,006,1,+999,9","60,1",SYN076AAXX  02211 57328 41840 80202 10130 20113 40092 57006 76000 885// 333 79999;,
03-03T00:00:00,4,31.2,107.5,344.0,"DA XIAN, CH",FM-12,99999,V020,"040,1,N,0050,1","02100,1,9,N","005000,1,N,1","+0125,1","+0090,1","10112,1","06,9999,9,9","24,0000,2,1","6,1,06,1",,,"08,99,1,08,1,05,1,02250,1,99,9,99,9",,,"99999,9,09706,1","2,1,018,1,+030,1","60,1",SYN094AAXX  03001 57328 11850 80405 10125 20090 39706 40112 52018 69911 76060 885// 333 00300 70001;,
03-03T03:00:00,4,31.2,107.5,344.0,"DA XIAN, CH",FM-12,99999,V020,"070,1,N,0040,1","02100,1,9,N","004000,1,N,1","+0111,1","+0087,1","10131,1",,,"6,1,03,1",,,"08,99,1,08,1,05,1,02250,1,99,9,99,9",,,,"2,1,017,1,+999,9","60,1",SYN066AAXX  03031 57328 41840 80704 10111 20087 40131 52017 76060 885//;,
03-03T06:00:00,4,31.2,107.5,344.0,"DA XIAN, CH",FM-12,99999,V020,"090,1,N,0020,1","02100,1,9,N","005000,1,N,1","+0103,1","+0091,1","10110,1","06,0008,9,1",,"6,1,06,1",,,"08,99,1,08,1,05,1,02250,1,99,9,99,9",,"999,N,+0102,1","99999,9,09702,1","7,1,021,1,+999,9","60,1",SYN088AAXX  03061 57328 11850 80902 10103 20091 39702 40110 57021 69971 76060 885// 333 20102;,
03-03T09:00:00,4,31.2,107.5,344.0,"DA XIAN, CH",FM-12,99999,V020,"040,1,N,0030,1","02100,1,9,N","007000,1,N,1","+0099,1","+0087,1","10092,1",,,"6,1,03,1","6,1,03,1",,"08,99,1,08,1,05,1,02250,1,99,9,99,9",,,,"7,1,018,1,+999,9","60,1",SYN066AAXX  03091 57328 41857 80403 10099 20087 40092 57018 76066 885//;,
03-03T12:00:00,4,31.2,107.5,344.0,"DA XIAN, CH",FM-12,99999,V020,"360,1,N,0010,1","02100,1,9,N","004000,1,N,1","+0105,1","+0074,1","10111,1","06,0005,9,1",,"6,1,06,1",,,"08,99,1,08,1,05,1,02250,1,99,9,99,9",,,"99999,9,09703,1","2,1,019,1,+999,9","10,1",SYN078AAXX  03121 57328 11840 83601 10105 20074 39703 40111 52019 69961 71060 885//;,
03-03T15:00:00,4,31.2,107.5,344.0,"DA XIAN, CH",FM-12,99999,V020,"090,1,N,0040,1","02100,1,9,N","015000,1,N,1","+0117,1","+0018,1","10123,1",,,,,,"08,99,1,08,1,05,1,02250,1,99,9,99,9",,,,"2,1,011,1,+999,9",,SYN060AAXX  03151 57328 42865 80904 10117 20018 40123 52011 885//;,
03-03T18:00:00,4,31.2,107.5,344.0,"DA XIAN, CH",FM-12,99999,V020,"090,1,N,0040,1","02100,1,9,N","020000,1,N,1","+0107,1","+0004,1","10126,1","06,9999,9,9",,,,,"08,99,1,08,1,05,1,02250,1,99,9,99,9",,"999,M,+0134,1","99999,9,09716,1","2,1,002,1,+999,9","60,1",SYN088AAXX  03181 57328 11870 80904 10107 20004 39716 40126 52002 69901 76000 885// 333 10134;,
03-03T21:00:00,4,31.2,107.5,344.0,"DA XIAN, CH",FM-12,99999,V020,"110,1,N,0020,1","02100,1,9,N","005000,1,N,1","+0093,1","+0012,1","10111,1","24,0015,9,1",,"6,1,03,1",,,"08,99,1,08,1,05,1,02250,1,99,9,99,9",,,,"7,1,016,1,+999,9","10,1",SYN076AAXX  03211 57328 41850 81102 10093 20012 40111 57016 71060 885// 333 70014;,
03-04T00:00:00,4,31.2,107.5,344.0,"DA XIAN, CH",FM-12,99999,V020,"040,1,N,0020,1","02100,1,9,N","008000,1,N,1","+0071,1","+0049,1","10117,1","06,0003,9,1","24,0015,9,1","6,1,06,1",,,"08,99,1,08,1,05,1,02250,1,99,9,99,9",,,"99999,9,09705,1","2,1,005,1,+000,1","60,1",SYN094AAXX  04001 57328 11858 80402 10071 20049 39705 40117 52005 69931 76060 885// 333 00055 70016;,
03-04T03:00:00,4,31.2,107.5,344.0,"DA XIAN, CH",FM-12,99999,V020,"020,1,N,0040,1","02100,1,9,N","008000,1,N,1","+0067,1","+0049,1","10130,1",,,"6,1,03,1","6,1,03,1",,"08,99,1,08,1,05,1,02250,1,99,9,99,9",,,,"2,1,013,1,+999,9","60,1",SYN066AAXX  04031 57328 41858 80204 10067 20049 40130 52013 76066 885//;,
03-04T06:00:00,4,31.2,107.5,344.0,"DA XIAN, CH",FM-12,99999,V020,"020,1,N,0040,1","02100,1,9,N","004000,1,N,1","+0063,1","+0050,1","10109,1","06,0010,9,1",,"6,1,06,1","6,1,06,1",,"08,99,1,08,1,05,1,02250,1,99,9,99,9",,"999,N,+0061,1","99999,9,09697,1","7,1,021,1,+999,9","60,1",SYN088AAXX  04061 57328 11840 80204 10063 20050 39697 40109 57021 60011 76066 885// 333 20061;,
03-04T09:00:00,4,31.2,107.5,344.0,"DA XIAN, CH",FM-12,99999,V020,"040,1,N,0020,1","02100,1,9,N","008000,1,N,1","+0063,1","+0050,1","10095,1",,,"6,1,03,1","6,1,03,1",,"08,99,1,08,1,05,1,02250,1,99,9,99,9",,,,"7,1,015,1,+999,9","60,1",SYN066AAXX  04091 57328 41858 80402 10063 20050 40095 57015 76066 885//;,
03-04T12:00:00,4,31.2,107.5,344.0,"DA XIAN, CH",FM-12,99999,V020,"040,1,N,0030,1","02100,1,9,N","008000,1,N,1","+0051,1","+0027,1","10109,1","06,0005,9,1",,"6,1,06,1","6,1,06,1",,"08,99,1,08,1,05,1,02250,1,99,9,99,9",,,"99999,9,09693,1","2,1,011,1,+999,9","60,1",SYN078AAXX  04121 57328 11858 80403 10051 20027 39693 40109 52011 69951 76066 885//;,
03-04T15:00:00,4,31.2,107.5,344.0,"DA XIAN, CH",FM-12,99999,V020,"020,1,N,0030,1","02100,1,9,N","017000,1,N,1","+0041,1","+0013,1","10130,1",,,"6,1,03,1","6,1,03,1",,"08,99,1,08,1,05,1,02250,1,99,9,99,9",,,,"2,1,019,1,+999,9","60,1",SYN066AAXX  04151 57328 41867 80203 10041 20013 40130 52019 76066 885//;,
03-04T18:00:00,4,31.2,107.5,344.0,"DA XIAN, CH",FM-12,99999,V020,"040,1,N,0040,1","02100,1,9,N","020000,1,N,1","+0024,1","+0014,1","10142,1","06,0008,9,1",,"6,1,06,1","6,1,06,1",,"08,99,1,08,1,05,1,02250,1,99,9,99,9",,"999,M,+0108,1","99999,9,09722,1","2,1,010,1,+999,9","60,1",SYN088AAXX  04181 57328 11870 80404 10024 20014 39722 40142 52010 69981 76066 885// 333 10108;,
03-04T21:00:00,4,31.2,107.5,344.0,"DA XIAN, CH",FM-12,99999,V020,"040,1,N,0050,1","02100,1,9,N","008000,1,N,1","+0015,1","+0007,1","10144,1","24,0033,9,1",,"6,1,03,1","6,1,03,1",,"08,99,1,08,1,05,1,02250,1,99,9,99,9",,,,"2,1,001,1,+999,9","60,1",SYN076AAXX  04211 57328 41858 80405 10015 20007 40144 52001 76066 885// 333 70032;,
03-05T00:00:00,4,31.2,107.5,344.0,"DA XIAN, CH",FM-12,99999,V020,"040,1,N,0050,1","00750,1,9,N","012000,1,N,1","+0015,1","-0001,1","10177,1","06,0008,9,1","24,0030,9,1","7,1,06,1","6,1,06,1",,"08,99,1,08,1,05,1,00800,1,99,9,99,9","999,+0029,9",,"99999,9,09754,1","2,1,031,1,+050,1","68,1",SYN100AAXX  05001 57328 11562 80405 10015 21001 39754 40177 52031 69971 76876 885// 333 00556 30029 70031;,
03-05T03:00:00,4,31.2,107.5,344.0,"DA XIAN, CH",FM-12,99999,V020,"020,1,N,0040,1","99999,9,9,N","020000,1,N,1","+0032,1","-0028,1","10204,1",,,"7,1,03,1","7,1,03,1",,"08,99,1,08,1,00,1,99999,9,02,1,99,9",,,,"2,1,027,1,+999,9","68,1",SYN066AAXX  05031 57328 41970 80204 10032 21028 40204 52027 76877 8802/;,
03-05T06:00:00,4,31.2,107.5,344.0,"DA XIAN, CH",FM-12,99999,V020,"040,1,N,0060,1","99999,9,9,N","030000,1,N,1","+0038,1","-0041,1","10197,1","06,9999,9,9",,"7,1,06,1",,,"08,99,1,08,1,00,1,99999,9,07,1,99,9",,"999,N,+0013,1","99999,9,09773,1","7,1,008,1,+999,9","00,1",SYN088AAXX  05061 57328 11980 80406 10038 21041 39773 40197 57008 69901 70070 8807/ 333 20013;,
03-05T09:00:00,4,31.2,107.5,344.0,"DA XIAN, CH",FM-12,99999,V020,"020,1,N,0060,1","99999,9,9,N","030000,1,N,1","+0045,1","-0042,1","10198,1",,,,,,"08,99,1,08,1,00,1,99999,9,07,1,99,9",,,,"2,1,001,1,+999,9",,SYN060AAXX  05091 57328 42980 80206 10045 21042 40198 52001 8807/;,
03-05T12:00:00,4,31.2,107.5,344.0,"DA XIAN, CH",FM-12,99999,V020,"040,1,N,0010,1","02100,1,9,N","020000,1,N,1","+0047,1","-0032,1","10219,1","06,0000,9,1",,,,,"08,99,1,08,1,05,1,02250,1,99,9,99,9",,,"99999,9,09794,1","2,1,020,1,+999,9",,SYN066AAXX  05121 57328 32870 80401 10047 21032 39794 40219 52020 885//;,Q01  00002PRCP06
03-05T15:00:00,4,31.2,107.5,344.0,"DA XIAN, CH",FM-12,99999,V020,"040,1,N,0020,1","02100,1,9,N","020000,1,N,1","+0043,1","-0034,1","10254,1",,,,,,"07,99,1,07,1,05,1,02250,1,99,9,99,9",,,,"2,1,035,1,+999,9",,SYN060AAXX  05151 57328 42870 70402 10043 21034 40254 52035 875//;,
03-05T18:00:00,4,31.2,107.5,344.0,"DA XIAN, CH",FM-12,99999,V020,"110,1,N,0010,1","02100,1,9,N","015000,1,N,1","+0039,1","-0036,1","10268,1","06,0000,9,1",,,,,"06,99,1,06,1,05,1,02250,1,00,1,00,1",,"999,M,+0049,1","99999,9,09842,1","2,1,013,1,+999,9",,SYN076AAXX  05181 57328 32865 61101 10039 21036 39842 40268 52013 86500 333 10049;,Q01  00002PRCP06
03-05T21:00:00,4,31.2,107.5,344.0,"DA XIAN, CH",FM-12,99999,V020,"999,9,C,0000,1","99999,9,9,N","015000,1,N,1","+0029,1","-0019,1","10265,1","24,0003,9,1",,,,,"08,99,1,08,1,00,1,99999,9,07,1,99,9",,,,"7,1,003,1,+999,9",,SYN070AAXX  05211 57328 42965 80000 10029 21019 40265 57003 8807/ 333 70002;,
03-06T00:00:00,4,31.2,107.5,344.0,"DA XIAN, CH",FM-12,99999,V020,"160,1,N,0010,1","22000,1,9,N","015000,1,N,1","+0023,1","-0013,1","10276,1","06,0000,9,1","24,0000,2,1",,,"00,1,+99999,9,99,9","00,99,1,00,1,00,1,99999,9,00,1,00,1","999,+0002,9",,"99999,9,09849,1","2,1,010,1,+100,1",,SYN082AAXX  06001 57328 32965 01601 10023 21013 39849 40276 52010 333 01001 30002 79999;,Q01  00002PRCP06
03-06T03:00:00,4,31.2,107.5,344.0,"DA XIAN, CH",FM-12,99999,V020,"220,1,N,0010,1","22000,1,9,N","015000,1,N,1","+0072,1","-0029,1","10283,1",,,,,"00,1,+99999,9,99,9","00,99,1,00,1,00,1,99999,9,00,1,00,1",,,,"2,1,010,1,+999,9",,SYN054AAXX  06031 57328 42965 02201 10072 21029 40283 52010;,
03-06T06:00:00,4,31.2,107.5,344.0,"DA XIAN, CH",FM-12,99999,V020,"220,1,N,0010,1","22000,1,9,N","014000,1,N,1","+0099,1","-0042,1","10252,1","06,0000,9,1",,,,,"01,99,1,01,1,01,1,00800,1,00,1,00,1",,"999,N,+0021,1","99999,9,09831,1","7,1,028,1,+999,9",,SYN076AAXX  06061 57328 32564 12201 10099 21042 39831 40252 57028 81100 333 20021;,Q01  00002PRCP06
03-06T09:00:00,4,31.2,107.5,344.0,"DA XIAN, CH",FM-12,99999,V020,"999,9,C,0000,1","22000,1,9,N","017000,1,N,1","+0113,1","-0018,1","10233,1",,,,,,"01,99,1,01,1,01,1,00800,1,00,1,00,1",,,,"7,1,018,1,+999,9",,SYN060AAXX  06091 57328 42567 10000 10113 21018 40233 57018 81100;,
03-06T12:00:00,4,31.2,107.5,344.0,"DA XIAN, CH",FM-12,99999,V020,"999,9,C,0000,1","22000,1,9,N","014000,1,N,1","+0091,1","-0001,1","10249,1","06,0000,9,1",,,,"00,1,+99999,9,99,9","00,99,1,00,1,00,1,99999,9,00,1,00,1",,,"99999,9,09827,1","2,1,014,1,+999,9",,SYN060AAXX  06121 57328 32964 00000 10091 21001 39827 40249 52014;,Q01  00002PRCP06
03-06T15:00:00,4,31.2,107.5,344.0,"DA XIAN, CH",FM-12,99999,V020,"040,1,N,0020,1","22000,1,9,N","012000,1,N,1","+0053,1","+0010,1","10269,1",,,,,"00,1,+99999,9,99,9","00,99,1,00,1,00,1,99999,9,00,1,00,1",,,,"2,1,020,1,+999,9",,SYN054AAXX  06151 57328 42962 00402 10053 20010 40269 52020;,
03-06T18:00:00,4,31.2,107.5,344.0,"DA XIAN, CH",FM-12,99999,V020,"040,1,N,0020,1","22000,1,9,N","011000,1,N,1","+0042,1","+0017,1","10271,1","06,0000,9,1",,,,"00,1,+99999,9,99,9","00,99,1,00,1,00,1,99999,9,00,1,00,1",,"999,M,+0119,1","99999,9,09850,1","2,1,003,1,+999,9",,SYN070AAXX  06181 57328 32961 00402 10042 20017 39850 40271 52003 333 10119;,Q01  00002PRCP06
03-06T21:00:00,4,31.2,107.5,344.0,"DA XIAN, CH",FM-12,99999,V020,"040,1,N,0010,1","99999,9,9,N","007000,1,N,1","+0047,1","+0017,1","10267,1",,,,,,"08,99,1,08,1,00,1,99999,9,07,1,99,9",,,,"7,1,003,1,+999,9","10,1",SYN066AAXX  06211 57328 41957 80401 10047 20017 40267 57003 71000 8807/;,
03-07T00:00:00,4,31.2,107.5,344.0,"DA XIAN, CH",FM-12,99999,V020,"040,1,N,0010,1","99999,9,9,N","006000,1,N,1","+0049,1","+0019,1","10283,1","06,0000,9,1",,,,,"08,99,1,08,1,00,1,99999,9,07,1,99,9","999,+0030,9",,"99999,9,09861,1","2,1,014,1,+010,1","10,1",SYN088AAXX  07001 57328 31956 80401 10049 20019 39861 40283 52014 71000 8807/ 333 00103 30036;,Q01  00002PRCP06
03-07T03:00:00,4,31.2,107.5,344.0,"DA XIAN, CH",FM-12,99999,V020,"999,9,C,0000,1","22000,1,9,N","012000,1,N,1","+0101,1","+0010,1","10286,1",,,,,,"02,99,1,00,1,00,1,99999,9,00,1,01,1",,,,"2,1,004,1,+999,9",,SYN060AAXX  07031 57328 42962 20000 10101 20010 40286 52004 80001;,
03-07T06:00:00,4,31.2,107.5,344.0,"DA XIAN, CH",FM-12,99999,V020,"360,1,N,0020,1","22000,1,9,N","015000,1,N,1","+0141,1","-0014,1","10254,1","06,0000,9,1",,,,,"01,99,1,00,1,00,1,99999,9,00,1,01,1",,"999,N,+0042,1","99999,9,09837,1","7,1,028,1,+999,9",,SYN076AAXX  07061 57328 32965 13602 10141 21014 39837 40254 57028 80001 333 20042;,Q01  00002PRCP06
03-07T09:00:00,4,31.2,107.5,344.0,"DA XIAN, CH",FM-12,99999,V020,"160,1,N,0010,1","22000,1,9,N","018000,1,N,1","+0155,1","-0007,1","10230,1",,,,,"00,1,+99999,9,99,9","00,99,1,00,1,00,1,99999,9,00,1,00,1",,,,"7,1,022,1,+999,9",,SYN054AAXX  07091 57328 42968 01601 10155 21007 40230 57022;,
03-07T12:00:00,4,31.2,107.5,344.0,"DA XIAN, CH",FM-12,99999,V020,"999,9,C,0000,1","22000,1,9,N","011000,1,N,1","+0115,1","-0004,1","10241,1","06,0000,9,1",,,,"00,1,+99999,9,99,9","00,99,1,00,1,00,1,99999,9,00,1,00,1",,,"99999,9,09823,1","2,1,008,1,+999,9",,SYN060AAXX  07121 57328 32961 00000 10115 21004 39823 40241 52008;,Q01  00002PRCP06
03-07T15:00:00,4,31.2,107.5,344.0,"DA XIAN, CH",FM-12,99999,V020,"040,1,N,0020,1","22000,1,9,N","009000,1,N,1","+0077,1","+0019,1","10263,1",,,,,"00,1,+99999,9,99,9","00,99,1,00,1,00,1,99999,9,00,1,00,1",,,,"2,1,022,1,+999,9","10,1",SYN060AAXX  07151 57328 41959 00402 10077 20019 40263 52022 71000;,
03-07T18:00:00,4,31.2,107.5,344.0,"DA XIAN, CH",FM-12,99999,V020,"040,1,N,0020,1","22000,1,9,N","008000,1,N,1","+0063,1","+0025,1","10269,1","06,0000,9,1",,,,"00,1,+99999,9,99,9","00,99,1,00,1,00,1,99999,9,00,1,00,1",,"999,M,+0158,1","99999,9,09852,1","2,1,007,1,+999,9","10,1",SYN076AAXX  07181 57328 31958 00402 10063 20025 39852 40269 52007 71000 333 10158;,Q01  00002PRCP06
03-07T21:00:00,4,31.2,107.5,344.0,"DA XIAN, CH",FM-12,99999,V020,"070,1,N,0020,1","99999,9,9,N","008000,1,N,1","+0047,1","+0025,1","10267,1",,,,,,"07,99,1,07,1,00,1,99999,9,04,1,99,9",,,,"7,1,002,1,+999,9","10,1",SYN066AAXX  07211 57328 41958 70702 10047 20025 40267 57002 71000 8704/;,
03-08T00:00:00,4,31.2,107.5,344.0,"DA XIAN, CH",FM-12,99999,V020,"040,1,N,0020,1","99999,9,9,N","007000,1,N,1","+0055,1","+0029,1","10280,1","06,0000,9,1",,,,,"07,99,1,07,1,00,1,99999,9,04,1,99,9","999,+0030,9",,"99999,9,09861,1","2,1,011,1,+000,1","10,1",SYN088AAXX  08001 57328 31957 70402 10055 20029 39861 40280 52011 71000 8704/ 333 00001 30038;,Q01  00002PRCP06
03-08T03:00:00,4,31.2,107.5,344.0,"DA XIAN, CH",FM-12,99999,V020,"040,1,N,0020,1","99999,9,9,N","015000,1,N,1","+0103,1","+0024,1","10289,1",,,,,,"07,99,1,07,1,00,1,99999,9,04,1,99,9",,,,"2,1,009,1,+999,9",,SYN060AAXX  08031 57328 42965 70402 10103 20024 40289 52009 8704/;,
03-08T09:00:00,4,31.2,107.5,344.0,"DA XIAN, CH",FM-12,99999,V020,"020,1,N,0030,1","02100,1,9,N","020000,1,N,1","+0141,1","+0004,1","10232,1",,,,,,"06,99,1,06,1,05,1,02250,1,00,1,00,1",,,,"7,1,021,1,+999,9",,SYN060AAXX  08091 57328 42870 60203 10141 20004 40232 57021 86500;,
03-08T12:00:00,4,31.2,107.5,344.0,"DA XIAN, CH",FM-12,99999,V020,"040,1,N,0010,1","99999,9,9,N","015000,1,N,1","+0119,1","+0020,1","10247,1","06,0000,9,1",,,,,"07,99,1,07,1,00,1,99999,9,04,1,99,9",,,"99999,9,09829,1","2,1,013,1,+999,9",,SYN066AAXX  08121 57328 32965 70401 10119 20020 39829 40247 52013 8704/;,Q01  00002PRCP06
03-08T15:00:00,4,31.2,107.5,344.0,"DA XIAN, CH",FM-12,99999,V020,"040,1,N,0030,1","99999,9,9,N","007000,1,N,1","+0096,1","+0029,1","10264,1",,,,,,"08,99,1,08,1,00,1,99999,9,07,1,99,9",,,,"2,1,018,1,+999,9","10,1",SYN066AAXX  08151 57328 41957 80403 10096 20029 40264 52018 71000 8807/;,
03-08T18:00:00,4,31.2,107.5,344.0,"DA XIAN, CH",FM-12,99999,V020,"040,1,N,0030,1","99999,9,9,N","015000,1,N,1","+0115,1","+0002,1","10260,1","06,0000,9,1",,,,,"08,99,1,08,1,00,1,99999,9,07,1,99,9",,"999,M,+0159,1","99999,9,09849,1","2,1,002,1,+999,9",,SYN076AAXX  08181 57328 32965 80403 10115 20002 39849 40260 52002 8807/ 333 10159;,Q01  00002PRCP06
03-08T21:00:00,4,31.2,107.5,344.0,"DA XIAN, CH",FM-12,99999,V020,"110,1,N,0040,1","02100,1,9,N","015000,1,N,1","+0107,1","+0015,1","10264,1","24,0000,2,1",,"6,1,03,1",,,"08,99,1,08,1,05,1,02250,1,99,9,99,9",,,,"2,1,002,1,+999,9","60,1",SYN076AAXX  08211 57328 41865 81104 10107 20015 40264 52002 76060 885// 333 79999;,
03-09T00:00:00,4,31.2,107.5,344.0,"DA XIAN, CH",FM-12,99999,V020,"020,1,N,0020,1","99999,9,9,N","015000,1,N,1","+0093,1","+0028,1","10280,1","06,9999,9,9","24,0000,2,1","6,1,06,1",,,"08,99,1,08,1,00,1,99999,9,07,1,99,9",,,"99999,9,09864,1","2,1,013,1,+000,1","00,1",SYN094AAXX  09001 57328 11965 80202 10093 20028 39864 40280 52013 69901 70060 8807/ 333 00004 79999;,
03-09T03:00:00,4,31.2,107.5,344.0,"DA XIAN, CH",FM-12,99999,V020,"140,1,N,0020,1","03600,1,9,N","015000,1,N,1","+0123,1","+0011,1","10292,1",,,,,,"07,99,1,01,1,01,1,00800,1,04,1,99,9",,,,"2,1,012,1,+999,9",,SYN060AAXX  09031 57328 42565 71402 10123 20011 40292 52012 8114/;,
03-09T06:00:00,4,31.2,107.5,344.0,"DA XIAN, CH",FM-12,99999,V020,"090,1,N,0040,1","01200,1,9,N","030000,1,N,1","+0142,1","+0005,1","10261,1","06,0000,9,1",,,,,"07,99,1,07,1,01,1,01250,1,00,1,00,1",,"999,N,+0091,1","99999,9,09849,1","7,1,027,1,+999,9",,SYN076AAXX  09061 57328 32680 70904 10142 20005 39849 40261 57027 87100 333 20091;,Q01  00002PRCP06
03-09T12:00:00,4,31.2,107.5,344.0,"DA XIAN, CH",FM-12,99999,V020,"999,9,C,0000,1","22000,1,9,N","015000,1,N,1","+0117,1","+0029,1","10250,1","06,0000,9,1",,,,"00,1,+99999,9,99,9","00,99,1,00,1,00,1,99999,9,00,1,00,1",,,"99999,9,09835,1","2,1,002,1,+999,9",,SYN060AAXX  09121 57328 32965 00000 10117 20029 39835 40250 52002;,Q01  00002PRCP06
03-09T15:00:00,4,31.2,107.5,344.0,"DA XIAN, CH",FM-12,99999,V020,"040,1,N,0030,1","22000,1,9,N","011000,1,N,1","+0077,1","+0035,1","10259,1",,,,,"00,1,+99999,9,99,9","00,99,1,00,1,00,1,99999,9,00,1,00,1",,,,"2,1,008,1,+999,9",,SYN054AAXX  09151 57328 42961 00403 10077 20035 40259 52008;,
03-09T18:00:00,4,31.2,107.5,344.0,"DA XIAN, CH",FM-12,99999,V020,"040,1,N,0030,1","22000,1,9,N","008000,1,N,1","+0055,1","+0034,1","10257,1","06,0000,9,1",,,,"00,1,+99999,9,99,9","00,99,1,00,1,00,1,99999,9,00,1,00,1",,"999,M,+0155,1","99999,9,09840,1","7,1,003,1,+999,9","10,1",SYN076AAXX  09181 57328 31958 00403 10055 20034 39840 40257 57003 71000 333 10155;,Q01  00002PRCP06
03-09T21:00:00,4,31.2,107.5,344.0,"DA XIAN, CH",FM-12,99999,V020,"040,1,N,0020,1","22000,1,9,N","008000,1,N,1","+0043,1","+0026,1","10236,1","24,0000,2,1",,,,"00,1,+99999,9,99,9","00,99,1,00,1,00,1,99999,9,00,1,00,1",,,,"7,1,021,1,+999,9","10,1",SYN070AAXX  09211 57328 41958 00402 10043 20026 40236 57021 71000 333 79999;,
03-10T00:00:00,4,31.2,107.5,344.0,"DA XIAN, CH",FM-12,99999,V020,"040,1,N,0020,1","22000,1,9,N","006000,1,N,1","+0039,1","+0024,1","10240,1","06,0000,9,1",,,,"00,1,+99999,9,99,9","00,99,1,00,1,00,1,99999,9,00,1,00,1","999,+0020,9",,"99999,9,09821,1","2,1,002,1,-040,1","10,1",SYN082AAXX  10001 57328 31956 00402 10039 20024 39821 40240 52002 71000 333 05455 30028;,Q01  00002PRCP06
03-10T03:00:00,4,31.2,107.5,344.0,"DA XIAN, CH",FM-12,99999,V020,"040,1,N,0020,1","22000,1,9,N","012000,1,N,1","+0113,1","+0018,1","10229,1",,,,,"00,1,+99999,9,99,9","00,99,1,00,1,00,1,99999,9,00,1,00,1",,,,"7,1,008,1,+999,9",,SYN054AAXX  10031 57328 42962 00402 10113 20018 40229 57008;,
03-10T06:00:00,4,31.2,107.5,344.0,"DA XIAN, CH",FM-12,99999,V020,"140,1,N,0030,1","22000,1,9,N","030000,1,N,1","+0159,1","+0007,1","10181,1","06,0000,9,1",,,,"00,1,+99999,9,99,9","00,99,1,00,1,00,1,99999,9,00,1,00,1",,"999,N,+0037,1","99999,9,09769,1","7,1,044,1,+999,9",,SYN070AAXX  10061 57328 32980 01403 10159 20007 39769 40181 57044 333 20037;,Q01  00002PRCP06
03-10T09:00:00,4,31.2,107.5,344.0,"DA XIAN, CH",FM-12,99999,V020,"040,1,N,0020,1","22000,1,9,N","030000,1,N,1","+0175,1","+0059,1","10141,1",,,,,"00,1,+99999,9,99,9","00,99,1,00,1,00,1,99999,9,00,1,00,1",,,,"7,1,038,1,+999,9",,SYN054AAXX  10091 57328 42980 00402 10175 20059 40141 57038;,
03-10T12:00:00,4,31.2,107.5,344.0,"DA XIAN, CH",FM-12,99999,V020,"040,1,N,0010,1","02100,1,9,N","015000,1,N,1","+0158,1","+0031,1","10155,1","06,0000,9,1",,,,,"07,99,1,07,1,05,1,02250,1,99,9,99,9",,,"99999,9,09743,1","2,1,012,1,+999,9",,SYN066AAXX  10121 57328 32865 70401 10158 20031 39743 40155 52012 875//;,Q01  00002PRCP06
03-10T15:00:00,4,31.2,107.5,344.0,"DA XIAN, CH",FM-12,99999,V020,"040,1,N,0020,1","02100,1,9,N","011000,1,N,1","+0145,1","+0032,1","10173,1",,,,,,"08,99,1,08,1,05,1,02250,1,99,9,99,9",,,,"2,1,021,1,+999,9",,SYN060AAXX  10151 57328 42861 80402 10145 20032 40173 52021 885//;,
03-10T21:00:00,4,31.2,107.5,344.0,"DA XIAN, CH",FM-12,99999,V020,"040,1,N,0030,1","02100,1,9,N","004000,1,N,1","+0110,1","+0078,1","10191,1","24,0005,9,1",,"6,1,03,1","6,1,03,1",,"08,99,1,08,1,05,1,02250,1,99,9,99,9",,,,"2,1,014,1,+999,9","60,1",SYN076AAXX  10211 57328 41840 80403 10110 20078 40191 52014 76066 885// 333 70005;,
03-11T00:00:00,4,31.2,107.5,344.0,"DA XIAN, CH",FM-12,99999,V020,"070,1,N,0020,1","02100,1,9,N","008000,1,N,1","+0101,1","+0089,1","10217,1","06,0010,9,1","24,0015,9,1","6,1,06,1","6,1,06,1",,"08,99,1,08,1,05,1,02250,1,99,9,99,9",,,"99999,9,09806,1","2,1,023,1,-020,1","60,1",SYN094AAXX  11001 57328 11858 80702 10101 20089 39806 40217 52023 60011 76066 885// 333 05206 70014;,
03-11T03:00:00,4,31.2,107.5,344.0,"DA XIAN, CH",FM-12,99999,V020,"020,1,N,0040,1","02100,1,9,N","008000,1,N,1","+0105,1","+0089,1","10234,1",,,"6,1,03,1","6,1,03,1",,"08,99,1,08,1,05,1,02250,1,99,9,99,9",,,,"2,1,016,1,+999,9","60,1",SYN066AAXX  11031 57328 41858 80204 10105 20089 40234 52016 76066 885//;,
03-11T06:00:00,4,31.2,107.5,344.0,"DA XIAN, CH",FM-12,99999,V020,"040,1,N,0030,1","02100,1,9,N","008000,1,N,1","+0104,1","+0082,1","10223,1","06,0030,9,1",,"6,1,06,1","6,1,06,1",,"08,99,1,08,1,05,1,02250,1,99,9,99,9",,"999,N,+0098,1","99999,9,09811,1","7,1,011,1,+999,9","60,1",SYN088AAXX  11061 57328 11858 80403 10104 20082 39811 40223 57011 60031 76066 885// 333 20098;,
03-11T09:00:00,4,31.2,107.5,344.0,"DA XIAN, CH",FM-12,99999,V020,"020,1,N,0030,1","02100,1,9,N","008000,1,N,1","+0103,1","+0083,1","10219,1",,,"6,1,03,1","6,1,03,1",,"08,99,1,08,1,05,1,02250,1,99,9,99,9",,,,"7,1,006,1,+999,9","60,1",SYN066AAXX  11091 57328 41858 80203 10103 20083 40219 57006 76066 885//;,
03-11T12:00:00,4,31.2,107.5,344.0,"DA XIAN, CH",FM-12,99999,V020,"040,1,N,0020,1","02100,1,9,N","008000,1,N,1","+0104,1","+0082,1","10236,1","06,0005,9,1",,"6,1,06,1",,,"08,99,1,08,1,05,1,02250,1,99,9,99,9",,,"99999,9,09821,1","2,1,016,1,+999,9","10,1",SYN078AAXX  11121 57328 11858 80402 10104 20082 39821 40236 52016 69961 71060 885//;,
03-11T15:00:00,4,31.2,107.5,344.0,"DA XIAN, CH",FM-12,99999,V020,"020,1,N,0020,1","02100,1,9,N","008000,1,N,1","+0100,1","+0084,1","10257,1",,,,,,"08,99,1,08,1,05,1,02250,1,99,9,99,9",,,,"2,1,020,1,+999,9","10,1",SYN066AAXX  11151 57328 41858 80202 10100 20084 40257 52020 71000 885//;,
03-11T18:00:00,4,31.2,107.5,344.0,"DA XIAN, CH",FM-12,99999,V020,"040,1,N,0020,1","02100,1,9,N","007000,1,N,1","+0097,1","+0083,1","10256,1","06,9999,9,9",,"6,1,06,1",,,"08,99,1,08,1,05,1,02250,1,99,9,99,9",,"999,M,+0132,1","99999,9,09840,1","7,1,001,1,+999,9","60,1",SYN088AAXX  11181 57328 11857 80402 10097 20083 39840 40256 57001 69911 76060 885// 333 10132;,
03-11T21:00:00,4,31.2,107.5,344.0,"DA XIAN, CH",FM-12,99999,V020,"070,1,N,0020,1","02100,1,9,N","004000,1,N,1","+0091,1","+0070,1","10254,1","24,0046,9,1",,"6,1,03,1","6,1,03,1",,"08,99,1,08,1,05,1,02250,1,99,9,99,9",,,,"7,1,003,1,+999,9","60,1",SYN076AAXX  11211 57328 41840 80702 10091 20070 40254 57003 76066 885// 333 70046;,
03-12T00:00:00,4,31.2,107.5,344.0,"DA XIAN, CH",FM-12,99999,V020,"090,1,N,0010,1","02100,1,9,N","003000,1,N,1","+0088,1","+0082,1","10273,1","06,0005,9,1","24,0038,9,1","6,1,06,1","6,1,06,1",,"08,99,1,08,1,05,1,02250,1,99,9,99,9",,,"99999,9,09855,1","2,1,018,1,+050,1","60,1",SYN094AAXX  12001 57328 11830 80901 10088 20082 39855 40273 52018 69951 76066 885// 333 00551 70038;,
03-12T03:00:00,4,31.2,107.5,344.0,"DA XIAN, CH",FM-12,99999,V020,"040,1,N,0010,1","02100,1,9,N","003000,1,N,1","+0085,1","+0077,1","10281,1",,,"6,1,03,1","6,1,03,1",,"08,99,1,08,1,05,1,02250,1,99,9,99,9",,,,"2,1,008,1,+999,9","60,1",SYN066AAXX  12031 57328 41830 80401 10085 20077 40281 52008 76066 885//;,
03-12T06:00:00,4,31.2,107.5,344.0,"DA XIAN, CH",FM-12,99999,V020,"040,1,N,0010,1","02100,1,9,N","001500,1,N,1","+0085,1","+0079,1","10267,1","06,0010,9,1",,"6,1,06,1","6,1,06,1",,"08,99,1,08,1,05,1,02250,1,99,9,99,9",,"999,N,+0083,1","99999,9,09849,1","7,1,014,1,+999,9","60,1",SYN088AAXX  12061 57328 11815 80401 10085 20079 39849 40267 57014 60011 76066 885// 333 20083;,
03-12T09:00:00,4,31.2,107.5,344.0,"DA XIAN, CH",FM-12,99999,V020,"070,1,N,0020,1","03600,1,9,N","008000,1,N,1","+0088,1","+0073,1","10256,1",,,"6,1,03,1","6,1,03,1",,"08,99,1,01,1,07,1,00800,1,02,1,99,9",,,,"7,1,011,1,+999,9","60,1",SYN066AAXX  12091 57328 41558 80702 10088 20073 40256 57011 76066 8172/;,
03-12T12:00:00,4,31.2,107.5,344.0,"DA XIAN, CH",FM-12,99999,V020,"040,1,N,0020,1","02100,1,9,N","003000,1,N,1","+0089,1","+0068,1","10276,1","06,0005,9,1",,"6,1,06,1","6,1,06,1",,"08,99,1,08,1,05,1,02250,1,99,9,99,9",,,"99999,9,09857,1","2,1,019,1,+999,9","21,1",SYN078AAXX  12121 57328 11830 80402 10089 20068 39857 40276 52019 69941 72166 885//;,
03-12T15:00:00,4,31.2,107.5,344.0,"DA XIAN, CH",FM-12,99999,V020,"040,1,N,0020,1","02100,1,9,N","006000,1,N,1","+0089,1","+0068,1","10279,1",,,,,,"08,99,1,08,1,05,1,02250,1,99,9,99,9",,,,"2,1,003,1,+999,9","10,1",SYN066AAXX  12151 57328 41856 80402 10089 20068 40279 52003 71000 885//;,
03-12T18:00:00,4,31.2,107.5,344.0,"DA XIAN, CH",FM-12,99999,V020,"090,1,N,0010,1","02100,1,9,N","006000,1,N,1","+0087,1","+0070,1","10275,1","06,0000,2,1",,,,,"08,99,1,08,1,05,1,02250,1,99,9,99,9",,"999,M,+0098,1","99999,9,09856,1","7,1,004,1,+999,9","10,1",SYN082AAXX  12181 57328 31856 80901 10087 20070 39856 40275 57004 71000 885// 333 10098;,
03-12T21:00:00,4,31.2,107.5,344.0,"DA XIAN, CH",FM-12,99999,V020,"070,1,N,0010,1","02100,1,9,N","006000,1,N,1","+0084,1","+0069,1","10261,1","24,0018,9,1",,,,,"08,99,1,08,1,05,1,02250,1,99,9,99,9",,,,"7,1,014,1,+999,9","10,1",SYN076AAXX  12211 57328 41856 80701 10084 20069 40261 57014 71000 885// 333 70019;,
03-13T00:00:00,4,31.2,107.5,344.0,"DA XIAN, CH",FM-12,99999,V020,"999,9,C,0000,1","02100,1,9,N","005000,1,N,1","+0085,1","+0068,1","10272,1","06,0000,9,1","24,0018,9,1",,,,"08,99,1,08,1,05,1,02250,1,99,9,99,9",,,"99999,9,09853,1","2,1,011,1,+000,1","10,1",SYN088AAXX  13001 57328 31850 80000 10085 20068 39853 40272 52011 71000 885// 333 00000 70018;,Q01  00002PRCP06
03-13T03:00:00,4,31.2,107.5,344.0,"DA XIAN, CH",FM-12,99999,V020,"020,1,N,0010,1","02100,1,9,N","004000,1,N,1","+0091,1","+0066,1","10274,1",,,,,,"08,99,1,08,1,05,1,02250,1,99,9,99,9",,,,"2,1,003,1,+999,9","10,1",SYN066AAXX  13031 57328 41840 80201 10091 20066 40274 52003 71000 885//;,
03-13T06:00:00,4,31.2,107.5,344.0,"DA XIAN, CH",FM-12,99999,V020,"070,1,N,0020,1","02100,1,9,N","015000,1,N,1","+0105,1","+0053,1","10241,1","06,0000,9,1",,,,,"08,99,1,08,1,05,1,02250,1,99,9,99,9",,"999,N,+0083,1","99999,9,09825,1","7,1,031,1,+999,9",,SYN076AAXX  13061 57328 32865 80702 10105 20053 39825 40241 57031 885// 333 20083;,Q01  00002PRCP06
03-13T09:00:00,4,31.2,107.5,344.0,"DA XIAN, CH",FM-12,99999,V020,"070,1,N,0020,1","02100,1,9,N","015000,1,N,1","+0107,1","+0051,1","10214,1",,,,,,"08,99,1,08,1,05,1,02250,1,99,9,99,9",,,,"7,1,026,1,+999,9",,SYN060AAXX  13091 57328 42865 80702 10107 20051 40214 57026 885//;,
03-13T12:00:00,4,31.2,107.5,344.0,"DA XIAN, CH",FM-12,99999,V020,"110,1,N,0020,1","02100,1,9,N","005000,1,N,1","+0099,1","+0051,1","10213,1","06,9999,9,9",,,,,"08,99,1,08,1,05,1,02250,1,99,9,99,9",,,"99999,9,09797,1","7,1,002,1,+999,9","60,1",SYN078AAXX  13121 57328 11850 81102 10099 20051 39797 40213 57002 69901 76000 885//;,
03-13T15:00:00,4,31.2,107.5,344.0,"DA XIAN, CH",FM-12,99999,V020,"070,1,N,0010,1","02100,1,9,N","003000,1,N,1","+0079,1","+0071,1","10219,1",,,"6,1,03,1","6,1,03,1",,"08,99,1,08,1,05,1,02250,1,99,9,99,9",,,,"2,1,005,1,+999,9","60,1",SYN066AAXX  13151 57328 41830 80701 10079 20071 40219 52005 76066 885//;,
03-13T18:00:00,4,31.2,107.5,344.0,"DA XIAN, CH",FM-12,99999,V020,"040,1,N,0010,1","02100,1,9,N","003000,1,N,1","+0075,1","+0071,1","10207,1","06,0010,9,1",,"6,1,06,1","6,1,06,1",,"08,99,1,08,1,05,1,02250,1,99,9,99,9",,"999,M,+0109,1","99999,9,09791,1","7,1,011,1,+999,9","60,1",SYN088AAXX  13181 57328 11830 80401 10075 20071 39791 40207 57011 60011 76066 885// 333 10109;,
03-13T21:00:00,4,31.2,107.5,344.0,"DA XIAN, CH",FM-12,99999,V020,"999,9,C,0000,1","02100,1,9,N","003000,1,N,1","+0077,1","+0071,1","10189,1","24,0013,9,1",,"6,1,03,1","6,1,03,1",,"08,99,1,08,1,05,1,02250,1,99,9,99,9",,,,"7,1,017,1,+999,9","60,1",SYN076AAXX  13211 57328 41830 80000 10077 20071 40189 57017 76066 885// 333 70013;,
03-14T00:00:00,4,31.2,107.5,344.0,"DA XIAN, CH",FM-12,99999,V020,"090,1,N,0010,1","02100,1,9,N","007000,1,N,1","+0079,1","+0068,1","10195,1","06,0005,9,1","24,0015,9,1","6,1,06,1",,,"08,99,1,08,1,05,1,02250,1,99,9,99,9",,,"99999,9,09780,1","2,1,006,1,-070,1","10,1",SYN094AAXX  14001 57328 11857 80901 10079 20068 39780 40195 52006 69961 71060 885// 333 05751 70016;,
03-14T03:00:00,4,31.2,107.5,344.0,"DA XIAN, CH",FM-12,99999,V020,"020,1,N,0020,1","02100,1,9,N","007000,1,N,1","+0085,1","+0072,1","10201,1",,,"6,1,03,1",,,"08,99,1,08,1,05,1,02250,1,99,9,99,9",,,,"2,1,004,1,+999,9","21,1",SYN066AAXX  14031 57328 41857 80202 10085 20072 40201 52004 72160 885//;,
03-14T06:00:00,4,31.2,107.5,344.0,"DA XIAN, CH",FM-12,99999,V020,"040,1,N,0020,1","02100,1,9,N","015000,1,N,1","+0093,1","+0063,1","10183,1","06,9999,9,9",,"6,1,06,1",,,"08,99,1,08,1,05,1,02250,1,99,9,99,9",,"999,N,+0074,1","99999,9,09767,1","7,1,017,1,+999,9","00,1",SYN088AAXX  14061 57328 11865 80402 10093 20063 39767 40183 57017 69901 70060 885// 333 20074;,
03-14T09:00:00,4,31.2,107.5,344.0,"DA XIAN, CH",FM-12,99999,V020,"110,1,N,0020,1","02100,1,9,N","030000,1,N,1","+0101,1","+0063,1","10166,1",,,,,,"08,99,1,08,1,05,1,02250,1,99,9,99,9",,,,"7,1,015,1,+999,9",,SYN060AAXX  14091 57328 42880 81102 10101 20063 40166 57015 885//;,
03-14T12:00:00,4,31.2,107.5,344.0,"DA XIAN, CH",FM-12,99999,V020,"270,1,N,0010,1","02100,1,9,N","012000,1,N,1","+0103,1","+0070,1","10181,1","06,0000,9,1",,,,,"08,99,1,08,1,05,1,02250,1,99,9,99,9",,,"99999,9,09766,1","2,1,014,1,+999,9",,SYN066AAXX  14121 57328 32862 82701 10103 20070 39766 40181 52014 885//;,Q01  00002PRCP06
03-14T15:00:00,4,31.2,107.5,344.0,"DA XIAN, CH",FM-12,99999,V020,"999,9,C,0000,1","99999,9,9,N","012000,1,N,1","+0101,1","+0072,1","10181,1",,,,,,"07,99,1,07,1,00,1,99999,9,04,1,99,9",,,,"2,1,001,1,+999,9",,SYN060AAXX  14151 57328 42962 70000 10101 20072 40181 52001 8704/;,
03-14T18:00:00,4,31.2,107.5,344.0,"DA XIAN, CH",FM-12,99999,V020,"070,1,N,0010,1","99999,9,9,N","008000,1,N,1","+0091,1","+0074,1","10165,1","06,0000,9,1",,,,,"08,99,1,08,1,00,1,99999,9,07,1,99,9",,"999,M,+0111,1","99999,9,09751,1","7,1,016,1,+999,9","10,1",SYN082AAXX  14181 57328 31958 80701 10091 20074 39751 40165 57016 71000 8807/ 333 10111;,Q01  00002PRCP06
03-14T21:00:00,4,31.2,107.5,344.0,"DA XIAN, CH",FM-12,99999,V020,"040,1,N,0010,1","02100,1,9,N","006000,1,N,1","+0087,1","+0072,1","10137,1","24,0003,9,1",,,,,"08,99,1,08,1,05,1,02250,1,99,9,99,9",,,,"7,1,026,1,+999,9","10,1",SYN076AAXX  14211 57328 41856 80401 10087 20072 40137 57026 71000 885// 333 70003;,
03-15T00:00:00,4,31.2,107.5,344.0,"DA XIAN, CH",FM-12,99999,V020,"070,1,N,0030,1","02100,1,9,N","006000,1,N,1","+0086,1","+0074,1","10130,1","06,0000,9,1","24,0000,2,1",,,,"08,99,1,08,1,05,1,02250,1,99,9,99,9",,,"99999,9,09718,1","7,1,007,1,-060,1","10,1",SYN088AAXX  15001 57328 31856 80703 10086 20074 39718 40130 57007 71000 885// 333 05601 79999;,Q01  00002PRCP06
03-15T03:00:00,4,31.2,107.5,344.0,"DA XIAN, CH",FM-12,99999,V020,"040,1,N,0020,1","99999,9,9,N","008000,1,N,1","+0098,1","+0067,1","10130,1",,,,,,"08,99,1,08,1,00,1,99999,9,07,1,99,9",,,,"2,1,001,1,+999,9","10,1",SYN066AAXX  15031 57328 41958 80402 10098 20067 40130 52001 71000 8807/;,
03-15T06:00:00,4,31.2,107.5,344.0,"DA XIAN, CH",FM-12,99999,V020,"040,1,N,0010,1","99999,9,9,N","025000,1,N,1","+0117,1","+0068,1","10105,1","06,0000,9,1",,,,,"08,99,1,08,1,00,1,99999,9,07,1,99,9",,"999,N,+0085,1","99999,9,09695,1","7,1,024,1,+999,9",,SYN076AAXX  15061 57328 32975 80401 10117 20068 39695 40105 57024 8807/ 333 20085;,Q01  00002PRCP06
03-15T09:00:00,4,31.2,107.5,344.0,"DA XIAN, CH",FM-12,99999,V020,"040,1,N,0030,1","99999,9,9,N","025000,1,N,1","+0120,1","+0064,1","10084,1",,,,,,"08,99,1,08,1,00,1,99999,9,07,1,99,9",,,,"7,1,020,1,+999,9",,SYN060AAXX  15091 57328 42975 80403 10120 20064 40084 57020 8807/;,
03-15T12:00:00,4,31.2,107.5,344.0,"DA XIAN, CH",FM-12,99999,V020,"040,1,N,0020,1","02100,1,9,N","015000,1,N,1","+0114,1","+0073,1","10097,1","06,0000,9,1",,,,,"08,99,1,08,1,05,1,02250,1,99,9,99,9",,,"99999,9,09687,1","2,1,012,1,+999,9",,SYN066AAXX  15121 57328 32865 80402 10114 20073 39687 40097 52012 885//;,Q01  00002PRCP06
03-15T15:00:00,4,31.2,107.5,344.0,"DA XIAN, CH",FM-12,99999,V020,"070,1,N,0010,1","99999,9,9,N","020000,1,N,1","+0095,1","+0061,1","10119,1",,,,,,"07,99,1,07,1,00,1,99999,9,04,1,99,9",,,,"2,1,021,1,+999,9",,SYN060AAXX  15151 57328 42970 70701 10095 20061 40119 52021 8704/;,
03-15T18:00:00,4,31.2,107.5,344.0,"DA XIAN, CH",FM-12,99999,V020,"070,1,N,0010,1","99999,9,9,N","015000,1,N,1","+0098,1","+0057,1","10116,1","06,0000,9,1",,,,,"08,99,1,08,1,00,1,99999,9,07,1,99,9",,"999,M,+0122,1","99999,9,09706,1","7,1,002,1,+999,9",,SYN076AAXX  15181 57328 32965 80701 10098 20057 39706 40116 57002 8807/ 333 10122;,Q01  00002PRCP06
03-15T21:00:00,4,31.2,107.5,344.0,"DA XIAN, CH",FM-12,99999,V020,"040,1,N,0020,1","99999,9,9,N","015000,1,N,1","+0097,1","+0049,1","10113,1",,,,,,"08,99,1,08,1,00,1,99999,9,07,1,99,9",,,,"7,1,002,1,+999,9",,SYN060AAXX  15211 57328 42965 80402 10097 20049 40113 57002 8807/;,
03-16T00:00:00,4,31.2,107.5,344.0,"DA XIAN, CH",FM-12,99999,V020,"040,1,N,0010,1","99999,9,9,N","020000,1,N,1","+0095,1","+0052,1","10131,1","06,0000,9,1",,,,,"08,99,1,08,1,00,1,99999,9,07,1,99,9",,,"99999,9,09720,1","2,1,016,1,+000,1",,SYN076AAXX  16001 57328 32970 80401 10095 20052 39720 40131 52016 8807/ 333 00001;,Q01  00002PRCP06
03-16T03:00:00,4,31.2,107.5,344.0,"DA XIAN, CH",FM-12,99999,V020,"040,1,N,0020,1","99999,9,9,N","030000,1,N,1","+0103,1","+0049,1","10156,1",,,,,,"08,99,1,08,1,00,1,99999,9,07,1,99,9",,,,"2,1,024,1,+999,9",,SYN060AAXX  16031 57328 42980 80402 10103 20049 40156 52024 8807/;,
03-16T06:00:00,4,31.2,107.5,344.0,"DA XIAN, CH",FM-12,99999,V020,"020,1,N,0040,1","99999,9,9,N","030000,1,N,1","+0109,1","+0048,1","10148,1","06,0000,9,1",,,,,"08,99,1,08,1,00,1,99999,9,07,1,99,9",,"999,N,+0093,1","99999,9,09737,1","7,1,007,1,+999,9",,SYN076AAXX  16061 57328 32980 80204 10109 20048 39737 40148 57007 8807/ 333 20093;,Q01  00002PRCP06
03-16T09:00:00,4,31.2,107.5,344.0,"DA XIAN, CH",FM-12,99999,V020,"040,1,N,0030,1","99999,9,9,N","030000,1,N,1","+0098,1","+0057,1","10149,1",,,,,,"08,99,1,08,1,00,1,99999,9,07,1,99,9",,,,"4,1,000,1,+999,9",,SYN060AAXX  16091 57328 42980 80403 10098 20057 40149 54000 8807/;,
03-16T12:00:00,4,31.2,107.5,344.0,"DA XIAN, CH",FM-12,99999,V020,"070,1,N,0030,1","99999,9,9,N","030000,1,N,1","+0099,1","+0041,1","10171,1","06,0000,9,1",,,,,"08,99,1,08,1,00,1,99999,9,07,1,99,9",,,"99999,9,09758,1","2,1,021,1,+999,9",,SYN066AAXX  16121 57328 32980 80703 10099 20041 39758 40171 52021 8807/;,Q01  00002PRCP06
03-16T15:00:00,4,31.2,107.5,344.0,"DA XIAN, CH",FM-12,99999,V020,"070,1,N,0040,1","99999,9,9,N","015000,1,N,1","+0093,1","+0049,1","10190,1",,,,,,"08,99,1,08,1,00,1,99999,9,07,1,99,9",,,,"2,1,018,1,+999,9",,SYN060AAXX  16151 57328 42965 80704 10093 20049 40190 52018 8807/;,
03-16T18:00:00,4,31.2,107.5,344.0,"DA XIAN, CH",FM-12,99999,V020,"040,1,N,0030,1","99999,9,9,N","015000,1,N,1","+0090,1","+0043,1","10188,1","06,9999,9,9",,"6,1,06,1",,,"08,99,1,08,1,00,1,99999,9,07,1,99,9",,"999,M,+0111,1","99999,9,09774,1","7,1,002,1,+999,9","00,1",SYN088AAXX  16181 57328 11965 80403 10090 20043 39774 40188 57002 69901 70060 8807/ 333 10111;,
03-16T21:00:00,4,31.2,107.5,344.0,"DA XIAN, CH",FM-12,99999,V020,"040,1,N,0030,1","99999,9,9,N","020000,1,N,1","+0088,1","+0043,1","10192,1","24,0000,9,1",,,,,"08,99,1,08,1,00,1,99999,9,07,1,99,9",,,,"2,1,003,1,+999,9",,SYN070AAXX  16211 57328 42970 80403 10088 20043 40192 52003 8807/ 333 79999;,Q01  00002PRCP24
03-17T00:00:00,4,31.2,107.5,344.0,"DA XIAN, CH",FM-12,99999,V020,"040,1,N,0020,1","02100,1,9,N","030000,1,N,1","+0087,1","+0037,1","10216,1","06,0000,9,1","24,0000,9,1",,,,"08,99,1,08,1,05,1,02250,1,99,9,99,9",,,"99999,9,09800,1","2,1,023,1,+080,1",,SYN082AAXX  17001 57328 32880 80402 10087 20037 39800 40216 52023 885// 333 00851 79999;,Q01  00002PRCP06Q02  00002PRCP24
03-17T03:00:00,4,31.2,107.5,344.0,"DA XIAN, CH",FM-12,99999,V020,"040,1,N,0030,1","02100,1,9,N","030000,1,N,1","+0093,1","+0039,1","10234,1",,,,,,"08,99,1,08,1,05,1,02250,1,99,9,99,9",,,,"2,1,018,1,+999,9",,SYN060AAXX  17031 57328 42880 80403 10093 20039 40234 52018 885//;,
03-17T06:00:00,4,31.2,107.5,344.0,"DA XIAN, CH",FM-12,99999,V020,"040,1,N,0040,1","02100,1,9,N","030000,1,N,1","+0101,1","+0044,1","10230,1","06,0000,9,1",,,,,"08,99,1,08,1,05,1,02250,1,99,9,99,9",,"999,N,+0085,1","99999,9,09814,1","7,1,004,1,+999,9",,SYN076AAXX  17061 57328 32880 80404 10101 20044 39814 40230 57004 885// 333 20085;,Q01  00002PRCP06
03-17T09:00:00,4,31.2,107.5,344.0,"DA XIAN, CH",FM-12,99999,V020,"090,1,N,0020,1","02100,1,9,N","030000,1,N,1","+0108,1","+0044,1","10224,1",,,,,,"08,99,1,08,1,05,1,02250,1,99,9,99,9",,,,"7,1,005,1,+999,9",,SYN060AAXX  17091 57328 42880 80902 10108 20044 40224 57005 885//;,
03-17T12:00:00,4,31.2,107.5,344.0,"DA XIAN, CH",FM-12,99999,V020,"040,1,N,0010,1","02100,1,9,N","030000,1,N,1","+0101,1","+0068,1","10241,1","06,0000,9,1",,,,,"08,99,1,08,1,05,1,02250,1,99,9,99,9",,,"99999,9,09824,1","2,1,015,1,+999,9",,SYN066AAXX  17121 57328 32880 80401 10101 20068 39824 40241 52015 885//;,Q01  00002PRCP06
03-17T15:00:00,4,31.2,107.5,344.0,"DA XIAN, CH",FM-12,99999,V020,"040,1,N,0010,1","02100,1,9,N","030000,1,N,1","+0099,1","+0051,1","10255,1",,,,,,"08,99,1,08,1,05,1,02250,1,99,9,99,9",,,,"2,1,014,1,+999,9",,SYN060AAXX  17151 57328 42880 80401 10099 20051 40255 52014 885//;,
03-17T18:00:00,4,31.2,107.5,344.0,"DA XIAN, CH",FM-12,99999,V020,"040,1,N,0010,1","02100,1,9,N","020000,1,N,1","+0093,1","+0041,1","10252,1","06,9999,9,9",,,,,"08,99,1,08,1,05,1,02250,1,99,9,99,9",,"999,M,+0109,1","99999,9,09835,1","7,1,003,1,+999,9","60,1",SYN088AAXX  17181 57328 11870 80401 10093 20041 39835 40252 57003 69901 76000 885// 333 10109;,
03-17T21:00:00,4,31.2,107.5,344.0,"DA XIAN, CH",FM-12,99999,V020,"070,1,N,0020,1","02100,1,9,N","020000,1,N,1","+0081,1","+0043,1","10246,1","24,0003,9,1",,"6,1,03,1",,,"08,99,1,08,1,05,1,02250,1,99,9,99,9",,,,"7,1,006,1,+999,9","60,1",SYN076AAXX  17211 57328 41870 80702 10081 20043 40246 57006 76060 885// 333 70002;,
03-18T00:00:00,4,31.2,107.5,344.0,"DA XIAN, CH",FM-12,99999,V020,"040,1,N,0030,1","02100,1,9,N","015000,1,N,1","+0082,1","+0036,1","10262,1","06,9999,9,9","24,0003,9,1","6,1,06,1",,,"08,99,1,08,1,05,1,02250,1,99,9,99,9",,,"99999,9,09844,1","2,1,015,1,+040,1","00,1",SYN094AAXX  18001 57328 11865 80403 10082 20036 39844 40262 52015 69921 70060 885// 333 00451 70002;,
03-18T03:00:00,4,31.2,107.5,344.0,"DA XIAN, CH",FM-12,99999,V020,"040,1,N,0020,1","99999,9,9,N","020000,1,N,1","+0092,1","+0040,1","10268,1",,,,,,"08,99,1,08,1,00,1,99999,9,07,1,99,9",,,,"2,1,007,1,+999,9",,SYN060AAXX  18031 57328 42970 80402 10092 20040 40268 52007 8807/;,
03-18T09:00:00,4,31.2,107.5,344.0,"DA XIAN, CH",FM-12,99999,V020,"020,1,N,0010,1","99999,9,9,N","020000,1,N,1","+0105,1","+0043,1","10246,1",,,"6,1,03,1",,,"08,99,1,08,1,00,1,99999,9,07,1,99,9",,,,"7,1,012,1,+999,9","00,1",SYN066AAXX  18091 57328 41970 80201 10105 20043 40246 57012 70060 8807/;,
03-18T12:00:00,4,31.2,107.5,344.0,"DA XIAN, CH",FM-12,99999,V020,"999,9,C,0000,1","99999,9,9,N","015000,1,N,1","+0101,1","+0048,1","10266,1","06,9999,9,9",,"6,1,06,1",,,"08,99,1,08,1,00,1,99999,9,07,1,99,9",,,"99999,9,09848,1","2,1,019,1,+999,9","00,1",SYN078AAXX  18121 57328 11965 80000 10101 20048 39848 40266 52019 69901 70060 8807/;,
03-18T15:00:00,4,31.2,107.5,344.0,"DA XIAN, CH",FM-12,99999,V020,"040,1,N,0010,1","99999,9,9,N","007000,1,N,1","+0087,1","+0059,1","10267,1",,,,,,"07,99,1,07,1,00,1,99999,9,04,1,99,9",,,,"2,1,001,1,+999,9","10,1",SYN066AAXX  18151 57328 41957 70401 10087 20059 40267 52001 71000 8704/;,
03-18T18:00:00,4,31.2,107.5,344.0,"DA XIAN, CH",FM-12,99999,V020,"999,9,C,0000,1","99999,9,9,N","008000,1,N,1","+0077,1","+0053,1","10262,1","06,0000,9,1",,,,,"07,99,1,07,1,00,1,99999,9,04,1,99,9",,"999,M,+0105,1","99999,9,09844,1","7,1,005,1,+999,9","10,1",SYN082AAXX  18181 57328 31958 70000 10077 20053 39844 40262 57005 71000 8704/ 333 10105;,Q01  00002PRCP06
03-18T21:00:00,4,31.2,107.5,344.0,"DA XIAN, CH",FM-12,99999,V020,"999,9,C,0000,1","99999,9,9,N","007000,1,N,1","+0077,1","+0041,1","10251,1","24,0000,2,1",,"6,1,03,1",,,"08,99,1,08,1,00,1,99999,9,07,1,99,9",,,,"7,1,010,1,+999,9","60,1",SYN076AAXX  18211 57328 41957 80000 10077 20041 40251 57010 76060 8807/ 333 79999;,
03-19T00:00:00,4,31.2,107.5,344.0,"DA XIAN, CH",FM-12,99999,V020,"040,1,N,0020,1","99999,9,9,N","007000,1,N,1","+0077,1","+0045,1","10256,1","06,9999,9,9","24,0000,2,1","6,1,06,1",,,"08,99,1,08,1,00,1,99999,9,07,1,99,9",,,"99999,9,09838,1","2,1,004,1,-010,1","21,1",SYN094AAXX  19001 57328 11957 80402 10077 20045 39838 40256 52004 69901 72160 8807/ 333 05151 79999;,
03-19T03:00:00,4,31.2,107.5,344.0,"DA XIAN, CH",FM-12,99999,V020,"040,1,N,0020,1","99999,9,9,N","007000,1,N,1","+0103,1","+0035,1","10260,1",,,,,,"07,99,1,07,1,00,1,99999,9,04,1,99,9",,,,"2,1,005,1,+999,9","10,1",SYN066AAXX  19031 57328 41957 70402 10103 20035 40260 52005 71000 8704/;,
03-19T06:00:00,4,31.2,107.5,344.0,"DA XIAN, CH",FM-12,99999,V020,"040,1,N,0020,1","99999,9,9,N","015000,1,N,1","+0115,1","+0045,1","10234,1","06,0000,2,1",,,,,"08,99,1,08,1,00,1,99999,9,07,1,99,9",,"999,N,+0072,1","99999,9,09818,1","7,1,025,1,+999,9",,SYN076AAXX  19061 57328 32965 80402 10115 20045 39818 40234 57025 8807/ 333 20072;,
03-19T09:00:00,4,31.2,107.5,344.0,"DA XIAN, CH",FM-12,99999,V020,"090,1,N,0020,1","99999,9,9,N","015000,1,N,1","+0119,1","+0056,1","10217,1",,,,,,"08,99,1,08,1,00,1,99999,9,07,1,99,9",,,,"7,1,016,1,+999,9",,SYN060AAXX  19091 57328 42965 80902 10119 20056 40217 57016 8807/;,
03-19T12:00:00,4,31.2,107.5,344.0,"DA XIAN, CH",FM-12,99999,V020,"040,1,N,0020,1","22000,1,9,N","008000,1,N,1","+0107,1","+0056,1","10223,1","06,0000,9,1",,,,"00,1,+99999,9,99,9","00,99,1,00,1,00,1,99999,9,00,1,00,1",,,"99999,9,09807,1","2,1,005,1,+999,9","10,1",SYN066AAXX  19121 57328 31958 00402 10107 20056 39807 40223 52005 71000;,Q01  00002PRCP06
03-19T15:00:00,4,31.2,107.5,344.0,"DA XIAN, CH",FM-12,99999,V020,"999,9,C,0000,1","99999,9,9,N","008000,1,N,1","+0093,1","+0059,1","10236,1",,,,,,"07,99,1,07,1,00,1,99999,9,04,1,99,9",,,,"2,1,013,1,+999,9","10,1",SYN066AAXX  19151 57328 41958 70000 10093 20059 40236 52013 71000 8704/;,
03-19T18:00:00,4,31.2,107.5,344.0,"DA XIAN, CH",FM-12,99999,V020,"040,1,N,0020,1","99999,9,9,N","004000,1,N,1","+0075,1","+0057,1","10235,1","06,0000,9,1",,,,,"08,99,1,08,1,00,1,99999,9,02,1,99,9",,"999,M,+0120,1","99999,9,09819,1","7,1,001,1,+999,9","10,1",SYN082AAXX  19181 57328 31940 80402 10075 20057 39819 40235 57001 71000 8802/ 333 10120;,Q01  00002PRCP06
03-19T21:00:00,4,31.2,107.5,344.0,"DA XIAN, CH",FM-12,99999,V020,"040,1,N,0010,1","22000,1,9,N","003000,1,N,1","+0069,1","+0056,1","10227,1","24,0000,2,1",,,,"00,1,+99999,9,99,9","00,99,1,00,1,00,1,99999,9,00,1,00,1",,,,"7,1,008,1,+999,9","10,1",SYN070AAXX  19211 57328 41930 00401 10069 20056 40227 57008 71000 333 79999;,
03-20T00:00:00,4,31.2,107.5,344.0,"DA XIAN, CH",FM-12,99999,V020,"070,1,N,0010,1","99999,9,9,N","003000,1,N,1","+0064,1","+0053,1","10240,1","06,0000,9,1",,,,,"07,99,1,07,1,00,1,99999,9,04,1,99,9",,,"99999,9,09822,1","2,1,011,1,+002,1","10,1",SYN082AAXX  20001 57328 31930 70701 10064 20053 39822 40240 52011 71000 8704/ 333 05251;,Q01  00002PRCP06
03-20T03:00:00,4,31.2,107.5,344.0,"DA XIAN, CH",FM-12,99999,V020,"110,1,N,0010,1","22000,1,9,N","007000,1,N,1","+0128,1","+0066,1","10241,1",,,,,,"02,99,1,02,1,01,1,00800,1,00,1,00,1",,,,"2,1,005,1,+999,9","10,1",SYN066AAXX  20031 57328 41557 21101 10128 20066 40241 52005 71000 82100;,
03-20T06:00:00,4,31.2,107.5,344.0,"DA XIAN, CH",FM-12,99999,V020,"140,1,N,0020,1","22000,1,9,N","020000,1,N,1","+0173,1","+0071,1","10206,1","06,0000,9,1",,,,,"04,99,1,04,1,05,1,02250,1,00,1,00,1",,"999,N,+0055,1","99999,9,09795,1","7,1,032,1,+999,9",,SYN076AAXX  20061 57328 32870 41402 10173 20071 39795 40206 57032 84500 333 20055;,Q01  00002PRCP06
03-20T09:00:00,4,31.2,107.5,344.0,"DA XIAN, CH",FM-12,99999,V020,"180,1,N,0010,1","22000,1,9,N","030000,1,N,1","+0186,1","+0071,1","10179,1",,,,,,"01,99,1,01,1,01,1,01250,1,00,1,00,1",,,,"7,1,025,1,+999,9",,SYN060AAXX  20091 57328 42680 11801 10186 20071 40179 57025 81100;,
03-20T12:00:00,4,31.2,107.5,344.0,"DA XIAN, CH",FM-12,99999,V020,"999,9,C,0000,1","22000,1,9,N","012000,1,N,1","+0155,1","+0079,1","10189,1","06,0000,9,1",,,,"00,1,+99999,9,99,9","00,99,1,00,1,00,1,99999,9,00,1,00,1",,,"99999,9,09777,1","2,1,007,1,+999,9",,SYN060AAXX  20121 57328 32962 00000 10155 20079 39777 40189 52007;,Q01  00002PRCP06
03-20T15:00:00,4,31.2,107.5,344.0,"DA XIAN, CH",FM-12,99999,V020,"040,1,N,0020,1","22000,1,9,N","007000,1,N,1","+0106,1","+0080,1","10209,1",,,,,"00,1,+99999,9,99,9","00,99,1,00,1,00,1,99999,9,00,1,00,1",,,,"2,1,020,1,+999,9","10,1",SYN060AAXX  20151 57328 41957 00402 10106 20080 40209 52020 71000;,
03-20T18:00:00,4,31.2,107.5,344.0,"DA XIAN, CH",FM-12,99999,V020,"070,1,N,0020,1","22000,1,9,N","005000,1,N,1","+0086,1","+0071,1","10206,1","06,0000,9,1",,,,"00,1,+99999,9,99,9","00,99,1,00,1,00,1,99999,9,00,1,00,1",,"999,M,+0190,1","99999,9,09796,1","7,1,001,1,+999,9","10,1",SYN076AAXX  20181 57328 31950 00702 10086 20071 39796 40206 57001 71000 333 10190;,Q01  00002PRCP06
03-20T21:00:00,4,31.2,107.5,344.0,"DA XIAN, CH",FM-12,99999,V020,"999,9,C,0000,1","22000,1,9,N","005000,1,N,1","+0079,1","+0066,1","10209,1",,,,,"00,1,+99999,9,99,9","00,99,1,00,1,00,1,99999,9,00,1,00,1",,,,"2,1,003,1,+999,9","10,1",SYN060AAXX  20211 57328 41950 00000 10079 20066 40209 52003 71000;,
03-21T00:00:00,4,31.2,107.5,344.0,"DA XIAN, CH",FM-12,99999,V020,"020,1,N,0030,1","99999,9,9,N","007000,1,N,1","+0079,1","+0066,1","10228,1","06,0000,9,1",,,,,"07,99,1,07,1,00,1,99999,9,04,1,99,9",,,"99999,9,09815,1","2,1,016,1,+001,1","10,1",SYN082AAXX  21001 57328 31957 70203 10079 20066 39815 40228 52016 71000 8704/ 333 05102;,Q01  00002PRCP06
03-21T03:00:00,4,31.2,107.5,344.0,"DA XIAN, CH",FM-12,99999,V020,"020,1,N,0030,1","99999,9,9,N","012000,1,N,1","+0145,1","+0078,1","10232,1",,,,,,"06,99,1,06,1,00,1,99999,9,04,1,00,1",,,,"2,1,005,1,+999,9",,SYN060AAXX  21031 57328 42962 60203 10145 20078 40232 52005 86040;,
03-21T06:00:00,4,31.2,107.5,344.0,"DA XIAN, CH",FM-12,99999,V020,"999,9,C,0000,1","99999,9,9,N","012000,1,N,1","+0185,1","+0087,1","10214,1","06,0000,9,1",,,,,"07,99,1,07,1,00,1,99999,9,04,1,99,9",,"999,N,+0069,1","99999,9,09804,1","7,1,016,1,+999,9",,SYN076AAXX  21061 57328 32962 70000 10185 20087 39804 40214 57016 8704/ 333 20069;,Q01  00002PRCP06
03-21T09:00:00,4,31.2,107.5,344.0,"DA XIAN, CH",FM-12,99999,V020,"999,9,C,0000,1","99999,9,9,N","017000,1,N,1","+0190,1","+0086,1","10200,1",,,,,,"08,99,1,08,1,00,1,99999,9,07,1,99,9",,,,"7,1,013,1,+999,9",,SYN060AAXX  21091 57328 42967 80000 10190 20086 40200 57013 8807/;,
03-21T12:00:00,4,31.2,107.5,344.0,"DA XIAN, CH",FM-12,99999,V020,"999,9,C,0000,1","99999,9,9,N","012000,1,N,1","+0165,1","+0097,1","10208,1","06,0000,9,1",,,,,"08,99,1,08,1,00,1,99999,9,07,1,99,9",,,"99999,9,09797,1","2,1,006,1,+999,9",,SYN066AAXX  21121 57328 32962 80000 10165 20097 39797 40208 52006 8807/;,Q01  00002PRCP06
03-21T18:00:00,4,31.2,107.5,344.0,"DA XIAN, CH",FM-12,99999,V020,"040,1,N,0010,1","02100,1,9,N","012000,1,N,1","+0141,1","+0063,1","10217,1","06,9999,9,9",,"6,1,06,1",,,"08,99,1,08,1,05,1,02250,1,99,9,99,9",,"999,M,+0199,1","99999,9,09811,1","7,1,006,1,+999,9","60,1",SYN088AAXX  21181 57328 11862 80401 10141 20063 39811 40217 57006 69901 76060 885// 333 10199;,
03-21T21:00:00,4,31.2,107.5,344.0,"DA XIAN, CH",FM-12,99999,V020,"999,9,C,0000,1","02100,1,9,N","008000,1,N,1","+0109,1","+0093,1","10224,1","24,0033,9,1",,"6,1,03,1","6,1,03,1",,"08,99,1,08,1,05,1,02250,1,99,9,99,9",,,,"2,1,005,1,+999,9","60,1",SYN076AAXX  21211 57328 41858 80000 10109 20093 40224 52005 76066 885// 333 70034;,
03-22T00:00:00,4,31.2,107.5,344.0,"DA XIAN, CH",FM-12,99999,V020,"020,1,N,0020,1","02100,1,9,N","007000,1,N,1","+0101,1","+0093,1","10243,1","06,0071,9,2","24,0069,9,2","6,1,06,1","6,1,06,1",,"08,99,1,08,1,05,1,02250,1,99,9,99,9",,,"99999,9,09832,1","2,1,016,1,+020,1","60,1",SYN094AAXX  22001 57328 11857 80202 10101 20093 39832 40243 52016 60071 76066 885// 333 00202 70068;,
03-22T03:00:00,4,31.2,107.5,344.0,"DA XIAN, CH",FM-12,99999,V020,"020,1,N,0020,1","02100,1,9,N","006000,1,N,1","+0105,1","+0097,1","10253,1",,,"6,1,03,1","6,1,03,1",,"08,99,1,08,1,05,1,02250,1,99,9,99,9",,,,"2,1,009,1,+999,9","60,1",SYN066AAXX  22031 57328 41856 80202 10105 20097 40253 52009 76066 885//;,
03-22T06:00:00,4,31.2,107.5,344.0,"DA XIAN, CH",FM-12,99999,V020,"070,1,N,0010,1","02100,1,9,N","006000,1,N,1","+0107,1","+0087,1","10240,1","06,0020,9,1",,"6,1,06,1","6,1,06,1",,"08,99,1,08,1,05,1,02250,1,99,9,99,9",,"999,N,+0100,1","99999,9,09828,1","7,1,013,1,+999,9","60,1",SYN088AAXX  22061 57328 11856 80701 10107 20087 39828 40240 57013 60021 76066 885// 333 20100;,
03-22T09:00:00,4,31.2,107.5,344.0,"DA XIAN, CH",FM-12,99999,V020,"020,1,N,0010,1","02100,1,9,N","008000,1,N,1","+0115,1","+0087,1","10234,1",,,"6,1,03,1",,,"08,99,1,08,1,05,1,02250,1,99,9,99,9",,,,"7,1,008,1,+999,9","10,1",SYN066AAXX  22091 57328 41858 80201 10115 20087 40234 57008 71060 885//;,
03-22T12:00:00,4,31.2,107.5,344.0,"DA XIAN, CH",FM-12,99999,V020,"999,9,C,0000,1","02100,1,9,N","005000,1,N,1","+0112,1","+0092,1","10244,1","06,9999,9,9",,"6,1,06,1",,,"08,99,1,08,1,05,1,02250,1,99,9,99,9",,,"99999,9,09829,1","2,1,009,1,+999,9","10,1",SYN078AAXX  22121 57328 11850 80000 10112 20092 39829 40244 52009 69901 71060 885//;,
03-22T15:00:00,4,31.2,107.5,344.0,"DA XIAN, CH",FM-12,99999,V020,"999,9,C,0000,1","02100,1,9,N","004000,1,N,1","+0105,1","+0089,1","10251,1",,,,,,"08,99,1,08,1,05,1,02250,1,99,9,99,9",,,,"2,1,007,1,+999,9","10,1",SYN066AAXX  22151 57328 41840 80000 10105 20089 40251 52007 71000 885//;,
03-22T18:00:00,4,31.2,107.5,344.0,"DA XIAN, CH",FM-12,99999,V020,"070,1,N,0020,1","99999,9,9,N","004000,1,N,1","+0095,1","+0087,1","10245,1","06,0000,9,1",,,,,"07,99,1,07,1,00,1,99999,9,04,1,99,9",,"999,M,+0139,1","99999,9,09829,1","7,1,007,1,+999,9","10,1",SYN082AAXX  22181 57328 31940 70702 10095 20087 39829 40245 57007 71000 8704/ 333 10139;,Q01  00002PRCP06
03-22T21:00:00,4,31.2,107.5,344.0,"DA XIAN, CH",FM-12,99999,V020,"040,1,N,0020,1","22000,1,9,N","000000,1,N,1","+0081,1","+0079,1","10232,1","24,0056,9,1",,,,"00,1,+99999,9,99,9","00,99,1,00,1,00,1,99999,9,00,1,00,1",,,,"7,1,013,1,+999,9","46,1",SYN070AAXX  22211 57328 41900 00402 10081 20079 40232 57013 74600 333 70055;,
03-23T00:00:00,4,31.2,107.5,344.0,"DA XIAN, CH",FM-12,99999,V020,"020,1,N,0010,1","22000,1,9,N","002000,1,N,1","+0073,1","+0073,1","10244,1","06,0000,9,1","24,0020,9,1","4,1,06,1",,"00,1,+99999,9,99,9","00,99,1,00,1,00,1,99999,9,00,1,00,1",,,"99999,9,09827,1","2,1,011,1,-010,1","28,1",SYN082AAXX  23001 57328 31920 00201 10073 20073 39827 40244 52011 72840 333 05153 70021;,Q01  00002PRCP06
03-23T03:00:00,4,31.2,107.5,344.0,"DA XIAN, CH",FM-12,99999,V020,"999,9,C,0000,1","99999,9,9,N","007000,1,N,1","+0129,1","+0077,1","10241,1",,,,,,"05,99,1,00,1,00,1,99999,9,00,1,01,1",,,,"2,1,001,1,+999,9","10,1",SYN066AAXX  23031 57328 41957 50000 10129 20077 40241 52001 71000 80001;,
03-23T06:00:00,4,31.2,107.5,344.0,"DA XIAN, CH",FM-12,99999,V020,"200,1,N,0010,1","22000,1,9,N","015000,1,N,1","+0175,1","+0078,1","10212,1","06,0000,9,1",,,,,"01,99,1,01,1,01,1,01250,1,00,1,00,1",,"999,N,+0071,1","99999,9,09802,1","7,1,026,1,+999,9",,SYN076AAXX  23061 57328 32665 12001 10175 20078 39802 40212 57026 81100 333 20071;,Q01  00002PRCP06
03-23T09:00:00,4,31.2,107.5,344.0,"DA XIAN, CH",FM-12,99999,V020,"140,1,N,0010,1","99999,9,9,N","020000,1,N,1","+0186,1","+0086,1","10194,1",,,,,,"06,99,1,06,1,00,1,99999,9,04,1,00,1",,,,"7,1,017,1,+999,9",,SYN060AAXX  23091 57328 42970 61401 10186 20086 40194 57017 86040;,
03-23T12:00:00,4,31.2,107.5,344.0,"DA XIAN, CH",FM-12,99999,V020,"999,9,C,0000,1","22000,1,9,N","008000,1,N,1","+0163,1","+0099,1","10216,1","06,0000,9,1",,,,"00,1,+99999,9,99,9","00,99,1,00,1,00,1,99999,9,00,1,00,1",,,"99999,9,09804,1","2,1,019,1,+999,9","10,1",SYN066AAXX  23121 57328 31958 00000 10163 20099 39804 40216 52019 71000;,Q01  00002PRCP06
03-23T15:00:00,4,31.2,107.5,344.0,"DA XIAN, CH",FM-12,99999,V020,"090,1,N,0010,1","22000,1,9,N","006000,1,N,1","+0120,1","+0095,1","10231,1",,,,,,"04,99,1,04,1,00,1,99999,9,04,1,00,1",,,,"2,1,015,1,+999,9","10,1",SYN066AAXX  23151 57328 41956 40901 10120 20095 40231 52015 71000 84040;,
03-23T18:00:00,4,31.2,107.5,344.0,"DA XIAN, CH",FM-12,99999,V020,"070,1,N,0010,1","99999,9,9,N","003000,1,N,1","+0107,1","+0091,1","10219,1","06,0000,9,1",,,,,"07,99,1,07,1,00,1,99999,9,04,1,99,9",,"999,M,+0194,1","99999,9,09810,1","7,1,009,1,+999,9","10,1",SYN082AAXX  23181 57328 31930 70701 10107 20091 39810 40219 57009 71000 8704/ 333 10194;,Q01  00002PRCP06
03-23T21:00:00,4,31.2,107.5,344.0,"DA XIAN, CH",FM-12,99999,V020,"020,1,N,0020,1","02100,1,9,N","004000,1,N,1","+0095,1","+0085,1","10215,1",,,,,,"08,99,1,08,1,05,1,02250,1,99,9,99,9",,,,"7,1,004,1,+999,9","10,1",SYN066AAXX  23211 57328 41840 80202 10095 20085 40215 57004 71000 885//;,
03-24T00:00:00,4,31.2,107.5,344.0,"DA XIAN, CH",FM-12,99999,V020,"360,1,N,0020,1","99999,9,9,N","007000,1,N,1","+0103,1","+0087,1","10220,1","06,0000,9,1",,,,,"07,99,1,07,1,00,1,99999,9,04,1,99,9",,,"99999,9,09810,1","2,1,004,1,+002,1","10,1",SYN082AAXX  24001 57328 31957 73602 10103 20087 39810 40220 52004 71000 8704/ 333 05203;,Q01  00002PRCP06
03-24T03:00:00,4,31.2,107.5,344.0,"DA XIAN, CH",FM-12,99999,V020,"999,9,C,0000,1","22000,1,9,N","008000,1,N,1","+0165,1","+0093,1","10219,1",,,,,"00,1,+99999,9,99,9","00,99,1,00,1,00,1,99999,9,00,1,00,1",,,,"4,1,000,1,+999,9","10,1",SYN060AAXX  24031 57328 41958 00000 10165 20093 40219 54000 71000;,
03-24T06:00:00,4,31.2,107.5,344.0,"DA XIAN, CH",FM-12,99999,V020,"270,1,N,0010,1","22000,1,9,N","015000,1,N,1","+0203,1","+0092,1","10184,1","06,0000,9,1",,,,,"02,99,1,02,1,01,1,01250,1,00,1,00,1",,"999,N,+0093,1","99999,9,09778,1","7,1,032,1,+999,9",,SYN076AAXX  24061 57328 32665 22701 10203 20092 39778 40184 57032 82100 333 20093;,Q01  00002PRCP06
03-24T09:00:00,4,31.2,107.5,344.0,"DA XIAN, CH",FM-12,99999,V020,"340,1,N,0010,1","22000,1,9,N","018000,1,N,1","+0213,1","+0084,1","10152,1",,,,,,"02,99,1,02,1,01,1,01250,1,00,1,00,1",,,,"7,1,031,1,+999,9",,SYN060AAXX  24091 57328 42668 23401 10213 20084 40152 57031 82100;,
03-24T12:00:00,4,31.2,107.5,344.0,"DA XIAN, CH",FM-12,99999,V020,"070,1,N,0020,1","22000,1,9,N","020000,1,N,1","+0173,1","+0101,1","10157,1","06,0000,9,1",,,,"00,1,+99999,9,99,9","00,99,1,00,1,00,1,99999,9,00,1,00,1",,,"99999,9,09750,1","2,1,003,1,+999,9",,SYN060AAXX  24121 57328 32970 00702 10173 20101 39750 40157 52003;,Q01  00002PRCP06
03-24T15:00:00,4,31.2,107.5,344.0,"DA XIAN, CH",FM-12,99999,V020,"040,1,N,0030,1","22000,1,9,N","013000,1,N,1","+0132,1","+0100,1","10165,1",,,,,"00,1,+99999,9,99,9","00,99,1,00,1,00,1,99999,9,00,1,00,1",,,,"2,1,009,1,+999,9",,SYN054AAXX  24151 57328 42963 00403 10132 20100 40165 52009;,
03-24T18:00:00,4,31.2,107.5,344.0,"DA XIAN, CH",FM-12,99999,V020,"040,1,N,0020,1","22000,1,9,N","008000,1,N,1","+0121,1","+0090,1","10156,1","06,0000,9,1",,,,"00,1,+99999,9,99,9","00,99,1,00,1,00,1,99999,9,00,1,00,1",,"999,M,+0214,1","99999,9,09752,1","7,1,007,1,+999,9","10,1",SYN076AAXX  24181 57328 31958 00402 10121 20090 39752 40156 57007 71000 333 10214;,Q01  00002PRCP06
03-24T21:00:00,4,31.2,107.5,344.0,"DA XIAN, CH",FM-12,99999,V020,"040,1,N,0030,1","22000,1,9,N","005000,1,N,1","+0109,1","+0085,1","10143,1",,,,,"00,1,+99999,9,99,9","00,99,1,00,1,00,1,99999,9,00,1,00,1",,,,"7,1,012,1,+999,9","10,1",SYN060AAXX  24211 57328 41950 00403 10109 20085 40143 57012 71000;,
03-25T00:00:00,4,31.2,107.5,344.0,"DA XIAN, CH",FM-12,99999,V020,"040,1,N,0020,1","22000,1,9,N","008000,1,N,1","+0114,1","+0080,1","10150,1","06,0000,9,1",,,,"00,1,+99999,9,99,9","00,99,1,00,1,00,1,99999,9,00,1,00,1",,,"99999,9,09744,1","2,1,004,1,+007,1","10,1",SYN076AAXX  25001 57328 31958 00402 10114 20080 39744 40150 52004 71000 333 05701;,Q01  00002PRCP06
03-25T03:00:00,4,31.2,107.5,344.0,"DA XIAN, CH",FM-12,99999,V020,"040,1,N,0010,1","22000,1,9,N","011000,1,N,1","+0189,1","+0097,1","10143,1",,,,,"00,1,+99999,9,99,9","00,99,1,00,1,00,1,99999,9,00,1,00,1",,,,"7,1,004,1,+999,9",,SYN054AAXX  25031 57328 42961 00401 10189 20097 40143 57004;,
03-25T06:00:00,4,31.2,107.5,344.0,"DA XIAN, CH",FM-12,99999,V020,"040,1,N,0010,1","22000,1,9,N","015000,1,N,1","+0255,1","+0097,1","10096,1","06,0000,9,1",,,,,"04,99,1,00,1,00,1,99999,9,00,1,01,1",,"999,N,+0104,1","99999,9,09698,1","7,1,042,1,+999,9",,SYN076AAXX  25061 57328 32965 40401 10255 20097 39698 40096 57042 80001 333 20104;,Q01  00002PRCP06
03-25T09:00:00,4,31.2,107.5,344.0,"DA XIAN, CH",FM-12,99999,V020,"160,1,N,0020,1","99999,9,9,N","020000,1,N,1","+0261,1","+0104,1","10063,1",,,,,,"05,99,1,00,1,00,1,99999,9,00,1,01,1",,,,"7,1,032,1,+999,9",,SYN060AAXX  25091 57328 42970 51602 10261 20104 40063 57032 80001;,
03-25T12:00:00,4,31.2,107.5,344.0,"DA XIAN, CH",FM-12,99999,V020,"040,1,N,0020,1","22000,1,9,N","015000,1,N,1","+0219,1","+0112,1","10063,1","06,0000,9,1",,,,,"02,99,1,00,1,00,1,99999,9,00,1,01,1",,,"99999,9,09664,1","7,1,002,1,+999,9",,SYN066AAXX  25121 57328 32965 20402 10219 20112 39664 40063 57002 80001;,Q01  00002PRCP06
03-25T15:00:00,4,31.2,107.5,344.0,"DA XIAN, CH",FM-12,99999,V020,"070,1,N,0030,1","22000,1,9,N","012000,1,N,1","+0178,1","+0109,1","10083,1",,,,,"00,1,+99999,9,99,9","00,99,1,00,1,00,1,99999,9,00,1,00,1",,,,"2,1,021,1,+999,9",,SYN054AAXX  25151 57328 42962 00703 10178 20109 40083 52021;,
03-25T18:00:00,4,31.2,107.5,344.0,"DA XIAN, CH",FM-12,99999,V020,"040,1,N,0010,1","99999,9,9,N","011000,1,N,1","+0180,1","+0107,1","10080,1","06,0000,9,1",,,,,"08,99,1,08,1,00,1,99999,9,07,1,99,9",,"999,M,+0268,1","99999,9,09687,1","2,1,002,1,+999,9",,SYN076AAXX  25181 57328 32961 80401 10180 20107 39687 40080 52002 8807/ 333 10268;,Q01  00002PRCP06
03-25T21:00:00,4,31.2,107.5,344.0,"DA XIAN, CH",FM-12,99999,V020,"040,1,N,0020,1","22000,1,9,N","006000,1,N,1","+0155,1","+0109,1","10072,1",,,,,"00,1,+99999,9,99,9","00,99,1,00,1,00,1,99999,9,00,1,00,1",,,,"7,1,009,1,+999,9","10,1",SYN060AAXX  25211 57328 41956 00402 10155 20109 40072 57009 71000;,
03-26T00:00:00,4,31.2,107.5,344.0,"DA XIAN, CH",FM-12,99999,V020,"040,1,N,0020,1","99999,9,9,N","009000,1,N,1","+0153,1","+0105,1","10099,1","06,0000,9,1",,,,,"07,99,1,07,1,00,1,99999,9,04,1,00,1",,,"99999,9,09701,1","2,1,023,1,+004,1","10,1",SYN082AAXX  26001 57328 31959 70402 10153 20105 39701 40099 52023 71000 87040 333 05404;,Q01  00002PRCP06
03-26T03:00:00,4,31.2,107.5,344.0,"DA XIAN, CH",FM-12,99999,V020,"070,1,N,0020,1","02100,1,9,N","012000,1,N,1","+0161,1","+0124,1","10140,1",,,"6,1,03,1",,,"08,99,1,08,1,05,1,02250,1,99,9,99,9",,,,"2,1,037,1,+999,9","60,1",SYN066AAXX  26031 57328 41862 80702 10161 20124 40140 52037 76060 885//;,
03-26T06:00:00,4,31.2,107.5,344.0,"DA XIAN, CH",FM-12,99999,V020,"070,1,N,0050,1","02100,1,9,N","025000,1,N,1","+0164,1","+0113,1","10144,1","06,9999,9,9",,"6,1,06,1",,,"08,99,1,08,1,05,1,02250,1,99,9,99,9",,"999,N,+0147,1","99999,9,09742,1","2,1,004,1,+999,9","60,1",SYN088AAXX  26061 57328 11875 80705 10164 20113 39742 40144 52004 69901 76060 885// 333 20147;,
03-26T09:00:00,4,31.2,107.5,344.0,"DA XIAN, CH",FM-12,99999,V020,"999,9,C,0000,1","99999,9,9,N","030000,1,N,1","+0165,1","+0139,1","10146,1",,,"6,1,03,1","6,1,03,1",,"07,99,1,07,1,00,1,99999,9,04,1,99,9",,,,"2,1,001,1,+999,9","21,1",SYN066AAXX  26091 57328 41980 70000 10165 20139 40146 52001 72166 8704/;,
03-26T12:00:00,4,31.2,107.5,344.0,"DA XIAN, CH",FM-12,99999,V020,"090,1,N,0010,1","22000,1,9,N","030000,1,N,1","+0155,1","+0134,1","10168,1","06,0020,9,1",,"6,1,06,1",,,"01,99,1,01,1,00,1,99999,9,04,1,00,1",,,"99999,9,09763,1","2,1,020,1,+999,9","00,1",SYN078AAXX  26121 57328 11980 10901 10155 20134 39763 40168 52020 60021 70060 81040;,
03-26T15:00:00,4,31.2,107.5,344.0,"DA XIAN, CH",FM-12,99999,V020,"040,1,N,0020,1","22000,1,9,N","004000,1,N,1","+0129,1","+0120,1","10188,1",,,,,"00,1,+99999,9,99,9","00,99,1,00,1,00,1,99999,9,00,1,00,1",,,,"2,1,018,1,+999,9","10,1",SYN060AAXX  26151 57328 41940 00402 10129 20120 40188 52018 71000;,
03-26T18:00:00,4,31.2,107.5,344.0,"DA XIAN, CH",FM-12,99999,V020,"999,9,C,0000,1","22000,1,9,N","000000,1,N,1","+0112,1","+0110,1","10194,1","06,0000,9,1",,"4,1,06,1",,"00,1,+99999,9,99,9","00,99,1,00,1,00,1,99999,9,00,1,00,1",,"999,M,+0181,1","99999,9,09786,1","2,1,005,1,+999,9","46,1",SYN076AAXX  26181 57328 31900 00000 10112 20110 39786 40194 52005 74640 333 10181;,Q01  00002PRCP06
03-26T21:00:00,4,31.2,107.5,344.0,"DA XIAN, CH",FM-12,99999,V020,"040,1,N,0040,1","00015,1,9,N","000000,1,N,1","+0107,1","+0105,1","10199,1","24,0020,9,1",,"4,1,03,1","4,1,03,1","09,1,+99999,9,99,9","09,99,1,09,1,99,9,99999,9,99,9,99,9",,,,"2,1,004,1,+999,9","45,1",SYN070AAXX  26211 57328 41/00 90404 10107 20105 40199 52004 74544 333 70020;,
03-27T00:00:00,4,31.2,107.5,344.0,"DA XIAN, CH",FM-12,99999,V020,"020,1,N,0060,1","22000,1,9,N","001500,1,N,1","+0107,1","+0105,1","10205,1","06,0000,9,1","24,0020,9,1","4,1,06,1","4,1,06,1","00,1,+99999,9,99,9","00,99,1,00,1,00,1,99999,9,00,1,00,1",,,"99999,9,09795,1","2,1,005,1,+090,1","28,1",SYN082AAXX  27001 57328 31915 00206 10107 20105 39795 40205 52005 72844 333 00955 70020;,Q01  00002PRCP06
03-27T03:00:00,4,31.2,107.5,344.0,"DA XIAN, CH",FM-12,99999,V020,"090,1,N,0020,1","22000,1,9,N","011000,1,N,1","+0154,1","+0114,1","10201,1",,,,,"00,1,+99999,9,99,9","00,99,1,00,1,00,1,99999,9,00,1,00,1",,,,"7,1,002,1,+999,9",,SYN054AAXX  27031 57328 42961 00902 10154 20114 40201 57002;,
03-27T06:00:00,4,31.2,107.5,344.0,"DA XIAN, CH",FM-12,99999,V020,"140,1,N,0030,1","22000,1,9,N","025000,1,N,1","+0227,1","+0101,1","10166,1","06,0000,9,1",,,,,"01,99,1,01,1,01,1,00800,1,00,1,00,1",,"999,N,+0105,1","99999,9,09763,1","7,1,030,1,+999,9",,SYN076AAXX  27061 57328 32575 11403 10227 20101 39763 40166 57030 81100 333 20105;,Q01  00002PRCP06
03-27T09:00:00,4,31.2,107.5,344.0,"DA XIAN, CH",FM-12,99999,V020,"110,1,N,0030,1","99999,9,9,N","030000,1,N,1","+0225,1","+0094,1","10138,1",,,,,,"07,99,1,07,1,00,1,99999,9,04,1,99,9",,,,"7,1,027,1,+999,9",,SYN060AAXX  27091 57328 42980 71103 10225 20094 40138 57027 8704/;,
03-27T12:00:00,4,31.2,107.5,344.0,"DA XIAN, CH",FM-12,99999,V020,"040,1,N,0010,1","02100,1,9,N","020000,1,N,1","+0207,1","+0098,1","10143,1","06,0000,9,1",,,,,"08,99,1,08,1,05,1,02250,1,99,9,99,9",,,"99999,9,09739,1","2,1,003,1,+999,9",,SYN066AAXX  27121 57328 32870 80401 10207 20098 39739 40143 52003 885//;,Q01  00002PRCP06
03-27T15:00:00,4,31.2,107.5,344.0,"DA XIAN, CH",FM-12,99999,V020,"040,1,N,0020,1","02100,1,9,N","012000,1,N,1","+0180,1","+0113,1","10154,1",,,,,,"08,99,1,08,1,05,1,02250,1,99,9,99,9",,,,"2,1,012,1,+999,9",,SYN060AAXX  27151 57328 42862 80402 10180 20113 40154 52012 885//;,
03-27T18:00:00,4,31.2,107.5,344.0,"DA XIAN, CH",FM-12,99999,V020,"999,9,C,0000,1","02100,1,9,N","008000,1,N,1","+0164,1","+0117,1","10144,1","06,0000,9,1",,,,,"08,99,1,08,1,05,1,02250,1,99,9,99,9",,"999,M,+0238,1","99999,9,09745,1","7,1,006,1,+999,9","10,1",SYN082AAXX  27181 57328 31858 80000 10164 20117 39745 40144 57006 71000 885// 333 10238;,Q01  00002PRCP06
03-27T21:00:00,4,31.2,107.5,344.0,"DA XIAN, CH",FM-12,99999,V020,"070,1,N,0020,1","99999,9,9,N","008000,1,N,1","+0153,1","+0105,1","10150,1",,,,,,"07,99,1,07,1,00,1,99999,9,04,1,99,9",,,,"2,1,005,1,+999,9","10,1",SYN066AAXX  27211 57328 41958 70702 10153 20105 40150 52005 71000 8704/;,
03-28T00:00:00,4,31.2,107.5,344.0,"DA XIAN, CH",FM-12,99999,V020,"040,1,N,0020,1","22000,1,9,N","004000,1,N,1","+0138,1","+0104,1","10162,1","06,0000,9,1",,,,,"02,99,1,00,1,00,1,99999,9,00,1,01,1",,,"99999,9,09760,1","2,1,010,1,+004,1","10,1",SYN082AAXX  28001 57328 31940 20402 10138 20104 39760 40162 52010 71000 80001 333 05403;,Q01  00002PRCP06
03-28T03:00:00,4,31.2,107.5,344.0,"DA XIAN, CH",FM-12,99999,V020,"999,9,C,0000,1","22000,1,9,N","012000,1,N,1","+0209,1","+0113,1","10168,1",,,,,"00,1,+99999,9,99,9","00,99,1,00,1,00,1,99999,9,00,1,00,1",,,,"2,1,008,1,+999,9",,SYN054AAXX  28031 57328 42962 00000 10209 20113 40168 52008;,
03-28T06:00:00,4,31.2,107.5,344.0,"DA XIAN, CH",FM-12,99999,V020,"270,1,N,0020,1","22000,1,9,N","012000,1,N,1","+0247,1","+0118,1","10131,1","06,0000,9,1",,,,,"01,99,1,01,1,01,1,01250,1,00,1,00,1",,"999,N,+0133,1","99999,9,09734,1","7,1,034,1,+999,9",,SYN076AAXX  28061 57328 32662 12702 10247 20118 39734 40131 57034 81100 333 20133;,Q01  00002PRCP06
03-28T09:00:00,4,31.2,107.5,344.0,"DA XIAN, CH",FM-12,99999,V020,"140,1,N,0010,1","22000,1,9,N","012000,1,N,1","+0253,1","+0117,1","10102,1",,,,,,"01,99,1,01,1,01,1,01250,1,00,1,00,1",,,,"7,1,028,1,+999,9",,SYN060AAXX  28091 57328 42662 11401 10253 20117 40102 57028 81100;,
03-28T12:00:00,4,31.2,107.5,344.0,"DA XIAN, CH",FM-12,99999,V020,"090,1,N,0010,1","22000,1,9,N","012000,1,N,1","+0215,1","+0129,1","10100,1","06,0000,9,1",,,,"00,1,+99999,9,99,9","00,99,1,00,1,00,1,99999,9,00,1,00,1",,,"99999,9,09701,1","7,1,005,1,+999,9",,SYN060AAXX  28121 57328 32962 00901 10215 20129 39701 40100 57005;,Q01  00002PRCP06
03-28T15:00:00,4,31.2,107.5,344.0,"DA XIAN, CH",FM-12,99999,V020,"040,1,N,0020,1","22000,1,9,N","008000,1,N,1","+0169,1","+0134,1","10101,1",,,,,"00,1,+99999,9,99,9","00,99,1,00,1,00,1,99999,9,00,1,00,1",,,,"2,1,002,1,+999,9","10,1",SYN060AAXX  28151 57328 41958 00402 10169 20134 40101 52002 71000;,
03-28T18:00:00,4,31.2,107.5,344.0,"DA XIAN, CH",FM-12,99999,V020,"040,1,N,0020,1","22000,1,9,N","006000,1,N,1","+0147,1","+0124,1","10091,1","06,0000,9,1",,,,"00,1,+99999,9,99,9","00,99,1,00,1,00,1,99999,9,00,1,00,1",,"999,M,+0257,1","99999,9,09695,1","7,1,008,1,+999,9","10,1",SYN076AAXX  28181 57328 31956 00402 10147 20124 39695 40091 57008 71000 333 10257;,Q01  00002PRCP06
03-28T21:00:00,4,31.2,107.5,344.0,"DA XIAN, CH",FM-12,99999,V020,"040,1,N,0020,1","22000,1,9,N","006000,1,N,1","+0135,1","+0115,1","10073,1",,,,,"00,1,+99999,9,99,9","00,99,1,00,1,00,1,99999,9,00,1,00,1",,,,"7,1,018,1,+999,9","10,1",SYN060AAXX  28211 57328 41956 00402 10135 20115 40073 57018 71000;,
03-29T00:00:00,4,31.2,107.5,344.0,"DA XIAN, CH",FM-12,99999,V020,"040,1,N,0030,1","22000,1,9,N","005000,1,N,1","+0136,1","+0112,1","10079,1","06,0000,9,1",,,,"00,1,+99999,9,99,9","00,99,1,00,1,00,1,99999,9,00,1,00,1",,,"99999,9,09680,1","2,1,003,1,+008,1","10,1",SYN076AAXX  29001 57328 31950 00403 10136 20112 39680 40079 52003 71000 333 05800;,Q01  00002PRCP06
03-29T03:00:00,4,31.2,107.5,344.0,"DA XIAN, CH",FM-12,99999,V020,"040,1,N,0020,1","22000,1,9,N","020000,1,N,1","+0219,1","+0120,1","10073,1",,,,,"00,1,+99999,9,99,9","00,99,1,00,1,00,1,99999,9,00,1,00,1",,,,"7,1,003,1,+999,9",,SYN054AAXX  29031 57328 42970 00402 10219 20120 40073 57003;,
03-29T06:00:00,4,31.2,107.5,344.0,"DA XIAN, CH",FM-12,99999,V020,"040,1,N,0020,1","22000,1,9,N","030000,1,N,1","+0273,1","+0107,1","10033,1","06,0000,9,1",,,,"00,1,+99999,9,99,9","00,99,1,00,1,00,1,99999,9,00,1,00,1",,"999,N,+0129,1","99999,9,09641,1","7,1,036,1,+999,9",,SYN070AAXX  29061 57328 32980 00402 10273 20107 39641 40033 57036 333 20129;,Q01  00002PRCP06
03-29T09:00:00,4,31.2,107.5,344.0,"DA XIAN, CH",FM-12,99999,V020,"160,1,N,0030,1","22000,1,9,N","030000,1,N,1","+0291,1","+0111,1","10005,1",,,,,"00,1,+99999,9,99,9","00,99,1,00,1,00,1,99999,9,00,1,00,1",,,,"7,1,027,1,+999,9",,SYN054AAXX  29091 57328 42980 01603 10291 20111 40005 57027;,
03-29T12:00:00,4,31.2,107.5,344.0,"DA XIAN, CH",FM-12,99999,V020,"040,1,N,0020,1","22000,1,9,N","020000,1,N,1","+0237,1","+0122,1","10012,1","06,0000,9,1",,,,"00,1,+99999,9,99,9","00,99,1,00,1,00,1,99999,9,00,1,00,1",,,"99999,9,09617,1","2,1,003,1,+999,9",,SYN060AAXX  29121 57328 32970 00402 10237 20122 39617 40012 52003;,Q01  00002PRCP06
03-29T15:00:00,4,31.2,107.5,344.0,"DA XIAN, CH",FM-12,99999,V020,"040,1,N,0020,1","22000,1,9,N","007000,1,N,1","+0183,1","+0127,1","10012,1",,,,,"00,1,+99999,9,99,9","00,99,1,00,1,00,1,99999,9,00,1,00,1",,,,"2,1,002,1,+999,9","10,1",SYN060AAXX  29151 57328 41957 00402 10183 20127 40012 52002 71000;,
03-29T18:00:00,4,31.2,107.5,344.0,"DA XIAN, CH",FM-12,99999,V020,"040,1,N,0020,1","22000,1,9,N","007000,1,N,1","+0162,1","+0123,1","09999,1","06,0000,9,1",,,,"00,1,+99999,9,99,9","00,99,1,00,1,00,1,99999,9,00,1,00,1",,"999,M,+0296,1","99999,9,09609,1","7,1,010,1,+999,9","10,1",SYN076AAXX  29181 57328 31957 00402 10162 20123 39609 49999 57010 71000 333 10296;,Q01  00002PRCP06
03-29T21:00:00,4,31.2,107.5,344.0,"DA XIAN, CH",FM-12,99999,V020,"020,1,N,0020,1","22000,1,9,N","007000,1,N,1","+0154,1","+0114,1","09985,1",,,,,"00,1,+99999,9,99,9","00,99,1,00,1,00,1,99999,9,00,1,00,1",,,,"7,1,013,1,+999,9","10,1",SYN060AAXX  29211 57328 41957 00202 10154 20114 49985 57013 71000;,
03-30T00:00:00,4,31.2,107.5,344.0,"DA XIAN, CH",FM-12,99999,V020,"040,1,N,0030,1","22000,1,9,N","008000,1,N,1","+0153,1","+0109,1","10002,1","06,0000,9,1",,,,"00,1,+99999,9,99,9","00,99,1,00,1,00,1,99999,9,00,1,00,1",,,"99999,9,09609,1","2,1,013,1,+007,1","10,1",SYN076AAXX  30001 57328 31958 00403 10153 20109 39609 40002 52013 71000 333 05702;,Q01  00002PRCP06
03-30T03:00:00,4,31.2,107.5,344.0,"DA XIAN, CH",FM-12,99999,V020,"020,1,N,0020,1","22000,1,9,N","015000,1,N,1","+0239,1","+0114,1","10009,1",,,,,"00,1,+99999,9,99,9","00,99,1,00,1,00,1,99999,9,00,1,00,1",,,,"2,1,009,1,+999,9",,SYN054AAXX  30031 57328 42965 00202 10239 20114 40009 52009;,
03-30T06:00:00,4,31.2,107.5,344.0,"DA XIAN, CH",FM-12,99999,V020,"160,1,N,0030,1","22000,1,9,N","020000,1,N,1","+0291,1","+0155,1","09982,1","06,0000,9,1",,,,,"03,99,1,03,1,00,1,99999,9,04,1,00,1",,"999,N,+0147,1","99999,9,09594,1","7,1,024,1,+999,9",,SYN076AAXX  30061 57328 32970 31603 10291 20155 39594 49982 57024 83040 333 20147;,Q01  00002PRCP06
03-30T09:00:00,4,31.2,107.5,344.0,"DA XIAN, CH",FM-12,99999,V020,"200,1,N,0010,1","22000,1,9,N","020000,1,N,1","+0297,1","+0151,1","09963,1",,,,,"00,1,+99999,9,99,9","00,99,1,00,1,00,1,99999,9,00,1,00,1",,,,"7,1,019,1,+999,9",,SYN054AAXX  30091 57328 42970 02001 10297 20151 49963 57019;,
03-30T12:00:00,4,31.2,107.5,344.0,"DA XIAN, CH",FM-12,99999,V020,"040,1,N,0030,1","22000,1,9,N","015000,1,N,1","+0253,1","+0168,1","09978,1","06,0000,9,1",,,,"00,1,+99999,9,99,9","00,99,1,00,1,00,1,99999,9,00,1,00,1",,,"99999,9,09587,1","2,1,012,1,+999,9",,SYN060AAXX  30121 57328 32965 00403 10253 20168 39587 49978 52012;,Q01  00002PRCP06
03-30T15:00:00,4,31.2,107.5,344.0,"DA XIAN, CH",FM-12,99999,V020,"040,1,N,0030,1","22000,1,9,N","012000,1,N,1","+0214,1","+0171,1","09993,1",,,,,"00,1,+99999,9,99,9","00,99,1,00,1,00,1,99999,9,00,1,00,1",,,,"2,1,017,1,+999,9",,SYN054AAXX  30151 57328 42962 00403 10214 20171 49993 52017;,
03-30T18:00:00,4,31.2,107.5,344.0,"DA XIAN, CH",FM-12,99999,V020,"040,1,N,0030,1","22000,1,9,N","012000,1,N,1","+0197,1","+0165,1","09987,1","06,0000,9,1",,,,"00,1,+99999,9,99,9","00,99,1,00,1,00,1,99999,9,00,1,00,1",,"999,M,+0299,1","99999,9,09601,1","7,1,003,1,+999,9",,SYN070AAXX  30181 57328 32962 00403 10197 20165 39601 49987 57003 333 10299;,Q01  00002PRCP06
03-30T21:00:00,4,31.2,107.5,344.0,"DA XIAN, CH",FM-12,99999,V020,"040,1,N,0030,1","22000,1,9,N","012000,1,N,1","+0195,1","+0157,1","09983,1",,,,,"00,1,+99999,9,99,9","00,99,1,00,1,00,1,99999,9,00,1,00,1",,,,"7,1,004,1,+999,9",,SYN054AAXX  30211 57328 42962 00403 10195 20157 49983 57004;,
03-31T00:00:00,4,31.2,107.5,344.0,"DA XIAN, CH",FM-12,99999,V020,"040,1,N,0040,1","99999,9,9,N","006000,1,N,1","+0193,1","+0153,1","10002,1","06,0000,9,1",,,,,"05,99,1,03,1,00,1,99999,9,04,1,01,1",,,"99999,9,09613,1","2,1,016,1,+000,1","10,1",SYN082AAXX  31001 57328 31956 50404 10193 20153 39613 40002 52016 71000 83041 333 00004;,Q01  00002PRCP06
03-31T03:00:00,4,31.2,107.5,344.0,"DA XIAN, CH",FM-12,99999,V020,"070,1,N,0010,1","99999,9,9,N","010000,1,N,1","+0262,1","+0160,1","10003,1",,,,,,"07,99,1,00,1,00,1,99999,9,00,1,02,1",,,,"2,1,002,1,+999,9",,SYN060AAXX  31031 57328 42960 70701 10262 20160 40003 52002 80002;,
03-31T06:00:00,4,31.2,107.5,344.0,"DA XIAN, CH",FM-12,99999,V020,"290,1,N,0030,1","99999,9,9,N","010000,1,N,1","+0303,1","+0174,1","09979,1","06,0000,9,1",,,,,"07,99,1,02,1,00,1,99999,9,04,1,02,1",,"999,N,+0187,1","99999,9,09594,1","7,1,021,1,+999,9",,SYN076AAXX  31061 57328 32960 72903 10303 20174 39594 49979 57021 82042 333 20187;,Q01  00002PRCP06
03-31T09:00:00,4,31.2,107.5,344.0,"DA XIAN, CH",FM-12,99999,V020,"160,1,N,0030,1","99999,9,9,N","010000,1,N,1","+0303,1","+0170,1","09955,1",,,,,,"07,99,1,00,1,00,1,99999,9,00,1,02,1",,,,"7,1,023,1,+999,9",,SYN060AAXX  31091 57328 42960 71603 10303 20170 49955 57023 80002;,
03-31T12:00:00,4,31.2,107.5,344.0,"DA XIAN, CH",FM-12,99999,V020,"160,1,N,0040,1","01500,1,9,N","010000,1,N,1","+0273,1","+0176,1","09962,1","06,9999,9,9",,,,,"08,99,1,08,1,09,1,01750,1,99,9,99,9",,,"99999,9,09575,1","2,1,004,1,+999,9","95,1",SYN078AAXX  31121 57328 11760 81604 10273 20176 39575 49962 52004 69901 79500 889//;,
03-31T15:00:00,4,31.2,107.5,344.0,"DA XIAN, CH",FM-12,99999,V020,"040,1,N,0060,1","03600,1,9,N","015000,1,N,1","+0216,1","+0156,1","10007,1",,,"9,1,03,1","8,1,03,1",,"08,99,1,01,1,09,1,01750,1,07,1,99,9",,,,"2,1,044,1,+999,9","13,1",SYN066AAXX  31151 57328 41765 80406 10216 20156 40007 52044 71398 8197/;,
03-31T18:00:00,4,31.2,107.5,344.0,"DA XIAN, CH",FM-12,99999,V020,"040,1,N,0050,1","22000,1,9,N","012000,1,N,1","+0207,1","+0158,1","09992,1","06,9999,9,9",,"9,1,06,1","8,1,06,1","00,1,+99999,9,99,9","00,99,1,00,1,00,1,99999,9,00,1,00,1",,"999,M,+0318,1","99999,9,09607,1","7,1,012,1,+999,9","00,1",SYN082AAXX  31181 57328 11962 00405 10207 20158 39607 49992 57012 69901 70098 333 10318;,
03-31T21:00:00,4,31.2,107.5,344.0,"DA XIAN, CH",FM-12,99999,V020,"040,1,N,0030,1","02100,1,9,N","012000,1,N,1","+0199,1","+0156,1","09993,1","24,0000,2,1",,,,,"08,99,1,08,1,05,1,02250,1,99,9,99,9",,,,"4,1,000,1,+999,9",,SYN070AAXX  31211 57328 42862 80403 10199 20156 49993 54000 885// 333 79999;,
04-01T00:00:00,4,31.2,107.5,344.0,"DA XIAN, CH",FM-12,99999,V020,"040,1,N,0040,1","22000,1,9,N","025000,1,N,1","+0181,1","+0170,1","10004,1","06,0030,9,2","24,0028,9,2","8,1,06,1",,,"04,99,1,04,1,05,1,02250,1,00,1,00,1",,,"99999,9,09615,1","2,1,008,1,+000,1","25,1",SYN094AAXX  01001 57328 11875 40404 10181 20170 39615 40004 52008 60031 72580 84500 333 00051 70027;,
04-01T03:00:00,4,31.2,107.5,344.0,"DA XIAN, CH",FM-12,99999,V020,"020,1,N,0050,1","02100,1,9,N","030000,1,N,1","+0228,1","+0169,1","10023,1",,,,,,"06,99,1,06,1,05,1,02250,1,00,1,00,1",,,,"2,1,018,1,+999,9",,SYN060AAXX  01031 57328 42880 60205 10228 20169 40023 52018 86500;,
04-01T06:00:00,4,31.2,107.5,344.0,"DA XIAN, CH",FM-12,99999,V020,"020,1,N,0070,1","03600,1,9,N","030000,1,N,1","+0247,1","+0135,1","10003,1","06,0000,2,1",,,,,"07,99,1,03,1,01,1,01250,1,04,1,99,9",,"999,N,+0176,1","99999,9,09614,1","7,1,019,1,+999,9",,SYN076AAXX  01061 57328 32680 70207 10247 20135 39614 40003 57019 8314/ 333 20176;,
04-01T09:00:00,4,31.2,107.5,344.0,"DA XIAN, CH",FM-12,99999,V020,"999,9,C,0000,1","02100,1,9,N","020000,1,N,1","+0181,1","+0156,1","10032,1",,,"6,1,03,1",,,"08,99,1,08,1,05,1,02250,1,99,9,99,9",,,,"2,1,023,1,+999,9","60,1",SYN066AAXX  01091 57328 41870 80000 10181 20156 40032 52023 76060 885//;,
04-01T12:00:00,4,31.2,107.5,344.0,"DA XIAN, CH",FM-12,99999,V020,"040,1,N,0020,1","02100,1,9,N","007000,1,N,1","+0167,1","+0157,1","10057,1","06,0099,9,1",,"6,1,06,1",,,"08,99,1,08,1,05,1,02250,1,99,9,99,9",,,"99999,9,09659,1","2,1,022,1,+999,9","60,1",SYN078AAXX  01121 57328 11857 80402 10167 20157 39659 40057 52022 60101 76060 885//;,
04-01T15:00:00,4,31.2,107.5,344.0,"DA XIAN, CH",FM-12,99999,V020,"070,1,N,0030,1","99999,9,9,N","020000,1,N,1","+0161,1","+0135,1","10072,1",,,,,,"07,99,1,99,9,99,9,02250,1,99,9,99,9",,,,,,SYN065AAXX  01151 57328 41870 70703 10161 20135 40072 2017 72166 875//;,
04-01T18:00:00,4,31.2,107.5,344.0,"DA XIAN, CH",FM-12,99999,V020,"999,9,C,0000,1","02100,1,9,N","020000,1,N,1","+0163,1","+0137,1","10077,1","06,0008,9,1",,"6,1,06,1",,,"08,99,1,08,1,05,1,02250,1,99,9,99,9",,"999,M,+0256,1","99999,9,09682,1","2,1,006,1,+999,9","00,1",SYN088AAXX  01181 57328 11870 80000 10163 20137 39682 40077 52006 69971 70060 885// 333 10256;,
04-01T21:00:00,4,31.2,107.5,344.0,"DA XIAN, CH",FM-12,99999,V020,"999,9,C,0000,1","02100,1,9,N","015000,1,N,1","+0157,1","+0143,1","10077,1","24,0130,9,1",,,,,"08,99,1,08,1,05,1,02250,1,99,9,99,9",,,,"7,1,005,1,+999,9",,SYN070AAXX  01211 57328 42865 80000 10157 20143 40077 57005 885// 333 70129;,
04-02T00:00:00,4,31.2,107.5,344.0,"DA XIAN, CH",FM-12,99999,V020,"090,1,N,0020,1","02100,1,9,N","015000,1,N,1","+0159,1","+0145,1","10093,1","06,0000,9,1","24,0102,9,1",,,,"08,99,1,08,1,05,1,02250,1,99,9,99,9",,,"99999,9,09692,1","2,1,015,1,+080,1",,SYN082AAXX  02001 57328 32865 80902 10159 20145 39692 40093 52015 885// 333 00852 70102;,Q01  00002PRCP06
04-02T03:00:00,4,31.2,107.5,344.0,"DA XIAN, CH",FM-12,99999,V020,"110,1,N,0010,1","02100,1,9,N","020000,1,N,1","+0173,1","+0131,1","10108,1",,,"6,1,03,1",,,"08,99,1,08,1,05,1,02250,1,99,9,99,9",,,,"2,1,015,1,+999,9","00,1",SYN066AAXX  02031 57328 41870 81101 10173 20131 40108 52015 70060 885//;,
04-02T06:00:00,4,31.2,107.5,344.0,"DA XIAN, CH",FM-12,99999,V020,"110,1,N,0050,1","02100,1,9,N","025000,1,N,1","+0175,1","+0114,1","10099,1","06,9999,9,9",,"6,1,06,1",,,"08,99,1,08,1,05,1,02250,1,99,9,99,9",,"999,N,+0155,1","99999,9,09699,1","7,1,008,1,+999,9","00,1",SYN088AAXX  02061 57328 11875 81105 10175 20114 39699 40099 57008 69901 70060 885// 333 20155;,
04-02T09:00:00,4,31.2,107.5,344.0,"DA XIAN, CH",FM-12,99999,V020,"140,1,N,0020,1","02100,1,9,N","030000,1,N,1","+0173,1","+0120,1","10089,1",,,"6,1,03,1",,,"08,99,1,08,1,05,1,02250,1,99,9,99,9",,,,"7,1,011,1,+999,9","00,1",SYN066AAXX  02091 57328 41880 81402 10173 20120 40089 57011 70060 885//;,
04-02T12:00:00,4,31.2,107.5,344.0,"DA XIAN, CH",FM-12,99999,V020,"070,1,N,0020,1","02100,1,9,N","020000,1,N,1","+0168,1","+0128,1","10107,1","06,9999,9,9",,"6,1,06,1",,,"08,99,1,08,1,05,1,02250,1,99,9,99,9",,,"99999,9,09706,1","2,1,018,1,+999,9","00,1",SYN078AAXX  02121 57328 11870 80702 10168 20128 39706 40107 52018 69901 70060 885//;,
04-02T15:00:00,4,31.2,107.5,344.0,"DA XIAN, CH",FM-12,99999,V020,"999,9,C,0000,1","02100,1,9,N","020000,1,N,1","+0166,1","+0121,1","10114,1",,,,,,"08,99,1,08,1,05,1,02250,1,99,9,99,9",,,,"2,1,007,1,+999,9",,SYN060AAXX  02151 57328 42870 80000 10166 20121 40114 52007 885//;,
04-02T18:00:00,4,31.2,107.5,344.0,"DA XIAN, CH",FM-12,99999,V020,"040,1,N,0020,1","02100,1,9,N","015000,1,N,1","+0161,1","+0122,1","10102,1","06,0000,9,1",,,,,"08,99,1,08,1,05,1,02250,1,99,9,99,9",,"999,M,+0186,1","99999,9,09701,1","7,1,012,1,+999,9",,SYN076AAXX  02181 57328 32865 80402 10161 20122 39701 40102 57012 885// 333 10186;,Q01  00002PRCP06
04-02T21:00:00,4,31.2,107.5,344.0,"DA XIAN, CH",FM-12,99999,V020,"040,1,N,0010,1","02100,1,9,N","018000,1,N,1","+0147,1","+0131,1","10094,1","24,0015,9,1",,"6,1,03,1",,,"08,99,1,08,1,05,1,02250,1,99,9,99,9",,,,"7,1,008,1,+999,9","60,1",SYN076AAXX  02211 57328 41868 80401 10147 20131 40094 57008 76060 885// 333 70016;,
04-03T00:00:00,4,31.2,107.5,344.0,"DA XIAN, CH",FM-12,99999,V020,"040,1,N,0020,1","02100,1,9,N","004000,1,N,1","+0143,1","+0136,1","10112,1","06,0051,9,2","24,0048,9,2","6,1,06,1",,,"08,99,1,08,1,05,1,02250,1,99,9,99,9",,,"99999,9,09709,1","2,1,016,1,+020,1","60,1",SYN094AAXX  03001 57328 11840 80402 10143 20136 39709 40112 52016 60051 76060 885// 333 00252 70049;,
04-03T03:00:00,4,31.2,107.5,344.0,"DA XIAN, CH",FM-12,99999,V020,"020,1,N,0010,1","02100,1,9,N","006000,1,N,1","+0131,1","+0120,1","10127,1",,,"6,1,03,1","6,1,03,1",,"08,99,1,08,1,05,1,02250,1,99,9,99,9",,,,"2,1,014,1,+999,9","60,1",SYN066AAXX  03031 57328 41856 80201 10131 20120 40127 52014 76066 885//;,
04-03T06:00:00,4,31.2,107.5,344.0,"DA XIAN, CH",FM-12,99999,V020,"040,1,N,0010,1","02100,1,9,N","010000,1,N,1","+0134,1","+0121,1","10114,1","06,0041,9,1",,"6,1,06,1","6,1,06,1",,"08,99,1,08,1,05,1,02250,1,99,9,99,9",,"999,N,+0128,1","99999,9,09710,1","7,1,013,1,+999,9","60,1",SYN088AAXX  03061 57328 11860 80401 10134 20121 39710 40114 57013 60041 76066 885// 333 20128;,
04-03T09:00:00,4,31.2,107.5,344.0,"DA XIAN, CH",FM-12,99999,V020,"040,1,N,0010,1","00420,1,9,N","012000,1,N,1","+0133,1","+0122,1","10104,1",,,"6,1,03,1","6,1,03,1",,"08,99,1,08,1,05,1,00450,1,99,9,99,9",,,,"7,1,011,1,+999,9","60,1",SYN066AAXX  03091 57328 41462 80401 10133 20122 40104 57011 76066 885//;,
04-03T12:00:00,4,31.2,107.5,344.0,"DA XIAN, CH",FM-12,99999,V020,"040,1,N,0020,1","02100,1,9,N","020000,1,N,1","+0137,1","+0121,1","10127,1","06,0010,9,1",,"6,1,06,1",,,"08,99,1,08,1,05,1,02250,1,99,9,99,9",,,"99999,9,09722,1","2,1,023,1,+999,9","00,1",SYN078AAXX  03121 57328 11870 80402 10137 20121 39722 40127 52023 60011 70060 885//;,
04-03T15:00:00,4,31.2,107.5,344.0,"DA XIAN, CH",FM-12,99999,V020,"040,1,N,0010,1","02100,1,9,N","008000,1,N,1","+0136,1","+0114,1","10146,1",,,,,,"08,99,1,08,1,05,1,02250,1,99,9,99,9",,,,"2,1,017,1,+999,9","10,1",SYN066AAXX  03151 57328 41858 80401 10136 20114 40146 52017 71000 885//;,
04-03T18:00:00,4,31.2,107.5,344.0,"DA XIAN, CH",FM-12,99999,V020,"040,1,N,0010,1","02100,1,9,N","008000,1,N,1","+0134,1","+0104,1","10154,1","06,0000,9,1",,,,,"08,99,1,08,1,05,1,02250,1,99,9,99,9",,"999,M,+0162,1","99999,9,09747,1","2,1,008,1,+999,9","10,1",SYN082AAXX  03181 57328 31858 80401 10134 20104 39747 40154 52008 71000 885// 333 10162;,Q01  00002PRCP06
04-03T21:00:00,4,31.2,107.5,344.0,"DA XIAN, CH",FM-12,99999,V020,"090,1,N,0010,1","02100,1,9,N","008000,1,N,1","+0133,1","+0103,1","10152,1","24,0089,9,1",,,,,"08,99,1,08,1,05,1,02250,1,99,9,99,9",,,,"7,1,002,1,+999,9","10,1",SYN076AAXX  03211 57328 41858 80901 10133 20103 40152 57002 71000 885// 333 70089;,
04-04T00:00:00,4,31.2,107.5,344.0,"DA XIAN, CH",FM-12,99999,V020,"070,1,N,0020,1","99999,9,9,N","030000,1,N,1","+0134,1","+0098,1","10172,1","06,0000,9,1","24,0056,9,1",,,,"08,99,1,08,1,00,1,99999,9,07,1,99,9",,,"99999,9,09764,1","2,1,019,1,+060,1",,SYN082AAXX  04001 57328 32980 80702 10134 20098 39764 40172 52019 8807/ 333 00651 70056;,Q01  00002PRCP06
04-04T03:00:00,4,31.2,107.5,344.0,"DA XIAN, CH",FM-12,99999,V020,"070,1,N,0010,1","03600,1,9,N","030000,1,N,1","+0185,1","+0117,1","10184,1",,,,,,"07,99,1,01,1,01,1,00800,1,04,1,99,9",,,,"2,1,015,1,+999,9",,SYN060AAXX  04031 57328 42580 70701 10185 20117 40184 52015 8114/;,
04-04T06:00:00,4,31.2,107.5,344.0,"DA XIAN, CH",FM-12,99999,V020,"070,1,N,0020,1","02100,1,9,N","030000,1,N,1","+0191,1","+0104,1","10174,1","06,0000,9,1",,,,,"07,99,1,07,1,05,1,02250,1,99,9,99,9",,"999,N,+0128,1","99999,9,09770,1","7,1,009,1,+999,9",,SYN076AAXX  04061 57328 32880 70702 10191 20104 39770 40174 57009 875// 333 20128;,Q01  00002PRCP06
04-04T09:00:00,4,31.2,107.5,344.0,"DA XIAN, CH",FM-12,99999,V020,"090,1,N,0020,1","02100,1,9,N","030000,1,N,1","+0196,1","+0103,1","10158,1",,,,,,"07,99,1,07,1,05,1,02250,1,99,9,99,9",,,,"7,1,015,1,+999,9",,SYN060AAXX  04091 57328 42880 70902 10196 20103 40158 57015 875//;,
04-04T12:00:00,4,31.2,107.5,344.0,"DA XIAN, CH",FM-12,99999,V020,"140,1,N,0010,1","02100,1,9,N","020000,1,N,1","+0182,1","+0099,1","10167,1","06,0000,9,1",,,,,"07,99,1,07,1,05,1,02250,1,99,9,99,9",,,"99999,9,09762,1","2,1,007,1,+999,9",,SYN066AAXX  04121 57328 32870 71401 10182 20099 39762 40167 52007 875//;,Q01  00002PRCP06
04-04T15:00:00,4,31.2,107.5,344.0,"DA XIAN, CH",FM-12,99999,V020,"040,1,N,0010,1","02100,1,9,N","012000,1,N,1","+0165,1","+0122,1","10182,1",,,,,,"08,99,1,08,1,05,1,02250,1,99,9,99,9",,,,"2,1,017,1,+999,9",,SYN060AAXX  04151 57328 42862 80401 10165 20122 40182 52017 885//;,
04-04T18:00:00,4,31.2,107.5,344.0,"DA XIAN, CH",FM-12,99999,V020,"040,1,N,0020,1","02100,1,9,N","007000,1,N,1","+0154,1","+0122,1","10172,1","06,0000,9,1",,,,,"08,99,1,08,1,05,1,02250,1,99,9,99,9",,"999,M,+0199,1","99999,9,09769,1","7,1,010,1,+999,9","10,1",SYN082AAXX  04181 57328 31857 80402 10154 20122 39769 40172 57010 71000 885// 333 10199;,Q01  00002PRCP06
04-04T21:00:00,4,31.2,107.5,344.0,"DA XIAN, CH",FM-12,99999,V020,"040,1,N,0010,1","02100,1,9,N","006000,1,N,1","+0149,1","+0116,1","10162,1",,,,,,"07,99,1,07,1,05,1,02250,1,99,9,99,9",,,,"7,1,009,1,+999,9","10,1",SYN066AAXX  04211 57328 41856 70401 10149 20116 40162 57009 71000 875//;,
04-05T00:00:00,4,31.2,107.5,344.0,"DA XIAN, CH",FM-12,99999,V020,"090,1,N,0020,1","99999,9,9,N","008000,1,N,1","+0145,1","+0116,1","10169,1","06,9999,9,9","24,0000,9,1","6,1,06,1",,,"08,99,1,08,1,00,1,99999,9,07,1,99,9",,,"99999,9,09765,1","2,1,005,1,+000,1","10,1",SYN094AAXX  05001 57328 11958 80902 10145 20116 39765 40169 52005 69901 71060 8807/ 333 00001 79999;,Q01  00002PRCP24
04-05T03:00:00,4,31.2,107.5,344.0,"DA XIAN, CH",FM-12,99999,V020,"110,1,N,0020,1","02100,1,9,N","008000,1,N,1","+0166,1","+0101,1","10177,1",,,,,,"08,99,1,08,1,05,1,02250,1,99,9,99,9",,,,"2,1,008,1,+999,9","10,1",SYN066AAXX  05031 57328 41858 81102 10166 20101 40177 52008 71000 885//;,
04-05T06:00:00,4,31.2,107.5,344.0,"DA XIAN, CH",FM-12,99999,V020,"140,1,N,0010,1","02100,1,9,N","018000,1,N,1","+0185,1","+0082,1","10159,1","06,9999,9,9",,"6,1,06,1",,,"08,99,1,08,1,05,1,02250,1,99,9,99,9",,"999,N,+0140,1","99999,9,09756,1","7,1,017,1,+999,9","00,1",SYN088AAXX  05061 57328 11868 81401 10185 20082 39756 40159 57017 69901 70060 885// 333 20140;,
04-05T09:00:00,4,31.2,107.5,344.0,"DA XIAN, CH",FM-12,99999,V020,"070,1,N,0020,1","03600,1,9,N","030000,1,N,1","+0196,1","+0092,1","10124,1",,,,,,"06,99,1,01,1,01,1,01250,1,04,1,00,1",,,,"7,1,033,1,+999,9",,SYN060AAXX  05091 57328 42680 60702 10196 20092 40124 57033 81140;,
04-05T12:00:00,4,31.2,107.5,344.0,"DA XIAN, CH",FM-12,99999,V020,"999,9,C,0000,1","99999,9,9,N","016000,1,N,1","+0179,1","+0112,1","10131,1","06,0000,9,1",,,,,"08,99,1,08,1,00,1,99999,9,07,1,99,9",,,"99999,9,09728,1","2,1,005,1,+999,9",,SYN066AAXX  05121 57328 32966 80000 10179 20112 39728 40131 52005 8807/;,Q01  00002PRCP06
04-05T15:00:00,4,31.2,107.5,344.0,"DA XIAN, CH",FM-12,99999,V020,"040,1,N,0020,1","99999,9,9,N","014000,1,N,1","+0162,1","+0115,1","10136,1",,,,,,"08,99,1,08,1,00,1,99999,9,07,1,99,9",,,,"2,1,005,1,+999,9",,SYN060AAXX  05151 57328 42964 80402 10162 20115 40136 52005 8807/;,
04-05T18:00:00,4,31.2,107.5,344.0,"DA XIAN, CH",FM-12,99999,V020,"040,1,N,0020,1","02100,1,9,N","008000,1,N,1","+0155,1","+0117,1","10124,1","06,0000,9,1",,,,,"08,99,1,08,1,05,1,02250,1,99,9,99,9",,"999,M,+0203,1","99999,9,09723,1","7,1,010,1,+999,9","10,1",SYN082AAXX  05181 57328 31858 80402 10155 20117 39723 40124 57010 71000 885// 333 10203;,Q01  00002PRCP06
04-05T21:00:00,4,31.2,107.5,344.0,"DA XIAN, CH",FM-12,99999,V020,"040,1,N,0020,1","02100,1,9,N","008000,1,N,1","+0155,1","+0099,1","10104,1","24,0000,9,1",,,,,"08,99,1,08,1,05,1,02250,1,99,9,99,9",,,,"7,1,019,1,+999,9","10,1",SYN076AAXX  05211 57328 41858 80402 10155 20099 40104 57019 71000 885// 333 79999;,Q01  00002PRCP24
04-06T00:00:00,4,31.2,107.5,344.0,"DA XIAN, CH",FM-12,99999,V020,"999,9,C,0000,1","02100,1,9,N","011000,1,N,1","+0157,1","+0074,1","10110,1","06,0000,9,1","24,0000,9,1",,,,"08,99,1,08,1,05,1,02250,1,99,9,99,9",,,"99999,9,09709,1","2,1,005,1,-060,1",,SYN082AAXX  06001 57328 32861 80000 10157 20074 39709 40110 52005 885// 333 05601 79999;,Q01  00002PRCP06Q02  00002PRCP24
04-06T03:00:00,4,31.2,107.5,344.0,"DA XIAN, CH",FM-12,99999,V020,"040,1,N,0020,1","99999,9,9,N","010000,1,N,1","+0161,1","+0099,1","10125,1",,,,,,"08,99,1,08,1,00,1,99999,9,07,1,99,9",,,,"2,1,014,1,+999,9",,SYN060AAXX  06031 57328 42960 80402 10161 20099 40125 52014 8807/;,
04-06T06:00:00,4,31.2,107.5,344.0,"DA XIAN, CH",FM-12,99999,V020,"160,1,N,0020,1","99999,9,9,N","012000,1,N,1","+0165,1","+0089,1","10114,1","06,0000,9,1",,,,,"08,99,1,08,1,00,1,99999,9,07,1,99,9",,"999,N,+0146,1","99999,9,09712,1","7,1,011,1,+999,9",,SYN076AAXX  06061 57328 32962 81602 10165 20089 39712 40114 57011 8807/ 333 20146;,Q01  00002PRCP06
04-06T09:00:00,4,31.2,107.5,344.0,"DA XIAN, CH",FM-12,99999,V020,"160,1,N,0020,1","99999,9,9,N","015000,1,N,1","+0165,1","+0093,1","10115,1",,,,,,"08,99,1,08,1,00,1,99999,9,07,1,99,9",,,,"2,1,001,1,+999,9",,SYN060AAXX  06091 57328 42965 81602 10165 20093 40115 52001 8807/;,
04-06T12:00:00,4,31.2,107.5,344.0,"DA XIAN, CH",FM-12,99999,V020,"180,1,N,0020,1","99999,9,9,N","015000,1,N,1","+0154,1","+0110,1","10143,1","06,0000,9,1",,,,,"07,99,1,07,1,00,1,99999,9,01,1,99,9",,,"99999,9,09739,1","2,1,026,1,+999,9",,SYN066AAXX  06121 57328 32965 71802 10154 20110 39739 40143 52026 8701/;,Q01  00002PRCP06
04-06T15:00:00,4,31.2,107.5,344.0,"DA XIAN, CH",FM-12,99999,V020,"180,1,N,0010,1","99999,9,9,N","008000,1,N,1","+0141,1","+0107,1","10170,1",,,,,,"08,99,1,08,1,00,1,99999,9,02,1,99,9",,,,"2,1,025,1,+999,9","10,1",SYN066AAXX  06151 57328 41958 81801 10141 20107 40170 52025 71000 8802/;,
04-06T18:00:00,4,31.2,107.5,344.0,"DA XIAN, CH",FM-12,99999,V020,"999,9,C,0000,1","99999,9,9,N","008000,1,N,1","+0133,1","+0109,1","10174,1","06,0000,9,1",,,,,"07,99,1,07,1,00,1,99999,9,04,1,99,9",,"999,M,+0173,1","99999,9,09768,1","2,1,004,1,+999,9","10,1",SYN082AAXX  06181 57328 31958 70000 10133 20109 39768 40174 52004 71000 8704/ 333 10173;,Q01  00002PRCP06
04-06T21:00:00,4,31.2,107.5,344.0,"DA XIAN, CH",FM-12,99999,V020,"040,1,N,0020,1","22000,1,9,N","006000,1,N,1","+0113,1","+0107,1","10176,1",,,,,"00,1,+99999,9,99,9","00,99,1,00,1,00,1,99999,9,00,1,00,1",,,,"4,1,000,1,+999,9","10,1",SYN060AAXX  06211 57328 41956 00402 10113 20107 40176 54000 71000;,
04-07T00:00:00,4,31.2,107.5,344.0,"DA XIAN, CH",FM-12,99999,V020,"040,1,N,0030,1","22000,1,9,N","001500,1,N,1","+0105,1","+0101,1","10182,1","06,0000,9,1",,,,"00,1,+99999,9,99,9","00,99,1,00,1,00,1,99999,9,00,1,00,1",,,"99999,9,09773,1","2,1,005,1,+006,1","10,1",SYN076AAXX  07001 57328 31915 00403 10105 20101 39773 40182 52005 71000 333 00655;,Q01  00002PRCP06
04-07T03:00:00,4,31.2,107.5,344.0,"DA XIAN, CH",FM-12,99999,V020,"020,1,N,0020,1","22000,1,9,N","012000,1,N,1","+0167,1","+0112,1","10181,1",,,"4,1,03,1",,"00,1,+99999,9,99,9","00,99,1,00,1,00,1,99999,9,00,1,00,1",,,,"2,1,002,1,+999,9","00,1",SYN060AAXX  07031 57328 41962 00202 10167 20112 40181 52002 70040;,
04-07T06:00:00,4,31.2,107.5,344.0,"DA XIAN, CH",FM-12,99999,V020,"040,1,N,0020,1","03600,1,9,N","020000,1,N,1","+0217,1","+0115,1","10146,1","06,0000,9,1",,"4,1,06,1",,,"06,99,1,01,1,01,1,01250,1,04,1,00,1",,"999,N,+0104,1","99999,9,09745,1","7,1,030,1,+999,9","00,1",SYN082AAXX  07061 57328 31670 60402 10217 20115 39745 40146 57030 70040 81140 333 20104;,Q01  00002PRCP06
04-07T09:00:00,4,31.2,107.5,344.0,"DA XIAN, CH",FM-12,99999,V020,"999,9,C,0000,1","22000,1,9,N","025000,1,N,1","+0227,1","+0115,1","10120,1",,,,,"00,1,+99999,9,99,9","00,99,1,00,1,00,1,99999,9,00,1,00,1",,,,"7,1,026,1,+999,9",,SYN054AAXX  07091 57328 42975 00000 10227 20115 40120 57026;,
04-07T12:00:00,4,31.2,107.5,344.0,"DA XIAN, CH",FM-12,99999,V020,"999,9,C,0000,1","22000,1,9,N","015000,1,N,1","+0200,1","+0129,1","10138,1","06,0000,9,1",,,,"00,1,+99999,9,99,9","00,99,1,00,1,00,1,99999,9,00,1,00,1",,,"99999,9,09734,1","2,1,015,1,+999,9",,SYN060AAXX  07121 57328 32965 00000 10200 20129 39734 40138 52015;,Q01  00002PRCP06
04-07T15:00:00,4,31.2,107.5,344.0,"DA XIAN, CH",FM-12,99999,V020,"040,1,N,0020,1","22000,1,9,N","007000,1,N,1","+0168,1","+0129,1","10153,1",,,,,"00,1,+99999,9,99,9","00,99,1,00,1,00,1,99999,9,00,1,00,1",,,,"2,1,016,1,+999,9","10,1",SYN060AAXX  07151 57328 41957 00402 10168 20129 40153 52016 71000;,
04-07T18:00:00,4,31.2,107.5,344.0,"DA XIAN, CH",FM-12,99999,V020,"070,1,N,0010,1","22000,1,9,N","005000,1,N,1","+0159,1","+0129,1","10152,1","06,0000,9,1",,,,"00,1,+99999,9,99,9","00,99,1,00,1,00,1,99999,9,00,1,00,1",,"999,M,+0235,1","99999,9,09752,1","2,1,002,1,+999,9","10,1",SYN076AAXX  07181 57328 31950 00701 10159 20129 39752 40152 52002 71000 333 10235;,Q01  00002PRCP06
04-07T21:00:00,4,31.2,107.5,344.0,"DA XIAN, CH",FM-12,99999,V020,"160,1,N,0020,1","02100,1,9,N","004000,1,N,1","+0157,1","+0136,1","10154,1","24,0005,9,1",,,,,"08,99,1,08,1,05,1,02250,1,99,9,99,9",,,,"2,1,003,1,+999,9","60,1",SYN076AAXX  07211 57328 41840 81602 10157 20136 40154 52003 76000 885// 333 70004;,
04-08T00:00:00,4,31.2,107.5,344.0,"DA XIAN, CH",FM-12,99999,V020,"070,1,N,0020,1","02100,1,9,N","005000,1,N,1","+0147,1","+0140,1","10171,1","06,0051,9,2","24,0046,9,2","6,1,06,1",,,"08,99,1,08,1,05,1,02250,1,99,9,99,9",,,"99999,9,09768,1","2,1,013,1,-010,1","60,1",SYN094AAXX  08001 57328 11850 80702 10147 20140 39768 40171 52013 60051 76060 885// 333 05104 70046;,
04-08T03:00:00,4,31.2,107.5,344.0,"DA XIAN, CH",FM-12,99999,V020,"040,1,N,0010,1","02100,1,9,N","006000,1,N,1","+0162,1","+0145,1","10174,1",,,"6,1,03,1","6,1,03,1",,"08,99,1,08,1,05,1,02250,1,99,9,99,9",,,,"2,1,002,1,+999,9","60,1",SYN066AAXX  08031 57328 41856 80401 10162 20145 40174 52002 76066 885//;,
04-08T06:00:00,4,31.2,107.5,344.0,"DA XIAN, CH",FM-12,99999,V020,"999,9,C,0000,1","02100,1,9,N","007000,1,N,1","+0173,1","+0149,1","10158,1","06,0041,9,1",,"6,1,06,1",,,"08,99,1,08,1,05,1,02250,1,99,9,99,9",,"999,N,+0144,1","99999,9,09755,1","7,1,015,1,+999,9","10,1",SYN088AAXX  08061 57328 11857 80000 10173 20149 39755 40158 57015 60041 71060 885// 333 20144;,
04-08T09:00:00,4,31.2,107.5,344.0,"DA XIAN, CH",FM-12,99999,V020,"999,9,C,0000,1","99999,9,9,N","007000,1,N,1","+0179,1","+0152,1","10143,1",,,,,,"08,99,1,08,1,00,1,99999,9,02,1,99,9",,,,"7,1,014,1,+999,9","10,1",SYN066AAXX  08091 57328 41957 80000 10179 20152 40143 57014 71000 8802/;,
04-08T12:00:00,4,31.2,107.5,344.0,"DA XIAN, CH",FM-12,99999,V020,"020,1,N,0020,1","02100,1,9,N","006000,1,N,1","+0172,1","+0157,1","10150,1","06,0000,9,1",,,,,"08,99,1,08,1,05,1,02250,1,99,9,99,9",,,"99999,9,09746,1","2,1,005,1,+999,9","10,1",SYN072AAXX  08121 57328 31856 80202 10172 20157 39746 40150 52005 71000 885//;,Q01  00002PRCP06
04-08T15:00:00,4,31.2,107.5,344.0,"DA XIAN, CH",FM-12,99999,V020,"040,1,N,0020,1","99999,9,9,N","006000,1,N,1","+0163,1","+0155,1","10163,1",,,,,,"08,99,1,08,1,00,1,99999,9,07,1,99,9",,,,"2,1,013,1,+999,9","10,1",SYN066AAXX  08151 57328 41956 80402 10163 20155 40163 52013 71000 8807/;,
04-08T18:00:00,4,31.2,107.5,344.0,"DA XIAN, CH",FM-12,99999,V020,"999,9,C,0000,1","02100,1,9,N","005000,1,N,1","+0156,1","+0144,1","10160,1","06,0000,9,1",,,,,"08,99,1,08,1,05,1,02250,1,99,9,99,9",,"999,M,+0179,1","99999,9,09757,1","7,1,002,1,+999,9","10,1",SYN082AAXX  08181 57328 31850 80000 10156 20144 39757 40160 57002 71000 885// 333 10179;,Q01  00002PRCP06
04-08T21:00:00,4,31.2,107.5,344.0,"DA XIAN, CH",FM-12,99999,V020,"999,9,C,0000,1","02100,1,9,N","004000,1,N,1","+0153,1","+0146,1","10152,1","24,0076,9,1",,,,,"08,99,1,08,1,05,1,02250,1,99,9,99,9",,,,"7,1,008,1,+999,9","10,1",SYN076AAXX  08211 57328 41840 80000 10153 20146 40152 57008 71000 885// 333 70077;,
04-09T00:00:00,4,31.2,107.5,344.0,"DA XIAN, CH",FM-12,99999,V020,"110,1,N,0010,1","99999,9,9,N","001200,1,N,1","+0152,1","+0143,1","10152,1","06,0000,9,1","24,0036,9,1",,,,"08,99,1,08,1,00,1,99999,9,02,1,99,9",,,"99999,9,09749,1","4,1,000,1,-020,1","10,1",SYN088AAXX  09001 57328 31912 81101 10152 20143 39749 40152 54000 71000 8802/ 333 05201 70035;,Q01  00002PRCP06
04-09T03:00:00,4,31.2,107.5,344.0,"DA XIAN, CH",FM-12,99999,V020,"020,1,N,0010,1","99999,9,9,N","006000,1,N,1","+0171,1","+0147,1","10148,1",,,,,,"08,99,1,08,1,00,1,99999,9,07,1,99,9",,,,"7,1,004,1,+999,9","10,1",SYN066AAXX  09031 57328 41956 80201 10171 20147 40148 57004 71000 8807/;,
04-09T06:00:00,4,31.2,107.5,344.0,"DA XIAN, CH",FM-12,99999,V020,"040,1,N,0020,1","99999,9,9,N","013000,1,N,1","+0202,1","+0122,1","10107,1","06,0000,9,1",,,,,"08,99,1,08,1,00,1,99999,9,07,1,99,9",,"999,N,+0147,1","99999,9,09708,1","7,1,037,1,+999,9",,SYN076AAXX  09061 57328 32963 80402 10202 20122 39708 40107 57037 8807/ 333 20147;,Q01  00002PRCP06
04-09T09:00:00,4,31.2,107.5,344.0,"DA XIAN, CH",FM-12,99999,V020,"040,1,N,0020,1","22000,1,9,N","020000,1,N,1","+0223,1","+0108,1","10069,1",,,,,,"01,99,1,01,1,00,1,99999,9,04,1,00,1",,,,"7,1,036,1,+999,9",,SYN060AAXX  09091 57328 42970 10402 10223 20108 40069 57036 81040;,
04-09T12:00:00,4,31.2,107.5,344.0,"DA XIAN, CH",FM-12,99999,V020,"999,9,C,0000,1","99999,9,9,N","020000,1,N,1","+0197,1","+0124,1","10067,1","06,0000,9,1",,,,,"08,99,1,08,1,00,1,99999,9,07,1,99,9",,,"99999,9,09669,1","7,1,003,1,+999,9",,SYN066AAXX  09121 57328 32970 80000 10197 20124 39669 40067 57003 8807/;,Q01  00002PRCP06
04-09T15:00:00,4,31.2,107.5,344.0,"DA XIAN, CH",FM-12,99999,V020,"040,1,N,0030,1","99999,9,9,N","012000,1,N,1","+0176,1","+0125,1","10088,1",,,,,,"08,99,1,08,1,00,1,99999,9,07,1,99,9",,,,"2,1,020,1,+999,9",,SYN060AAXX  09151 57328 42962 80403 10176 20125 40088 52020 8807/;,
04-09T18:00:00,4,31.2,107.5,344.0,"DA XIAN, CH",FM-12,99999,V020,"140,1,N,0010,1","02100,1,9,N","008000,1,N,1","+0177,1","+0126,1","10077,1","06,9999,9,9",,"6,1,06,1",,,"08,99,1,08,1,05,1,02250,1,99,9,99,9",,"999,M,+0223,1","99999,9,09680,1","7,1,009,1,+999,9","10,1",SYN088AAXX  09181 57328 11858 81401 10177 20126 39680 40077 57009 69901 71060 885// 333 10223;,
04-09T21:00:00,4,31.2,107.5,344.0,"DA XIAN, CH",FM-12,99999,V020,"040,1,N,0010,1","02100,1,9,N","005000,1,N,1","+0169,1","+0127,1","10095,1","24,0000,2,1",,"6,1,03,1",,,"08,99,1,08,1,05,1,02250,1,99,9,99,9",,,,"2,1,018,1,+999,9","60,1",SYN076AAXX  09211 57328 41850 80401 10169 20127 40095 52018 76060 885// 333 79999;,
04-10T03:00:00,4,31.2,107.5,344.0,"DA XIAN, CH",FM-12,99999,V020,"220,1,N,0020,1","22000,1,9,N","025000,1,N,1","+0205,1","+0139,1","10135,1",,,,,,"02,99,1,01,1,01,1,01250,1,04,1,00,1",,,,"2,1,023,1,+999,9",,SYN060AAXX  10031 57328 42675 22202 10205 20139 40135 52023 81140;,
04-10T06:00:00,4,31.2,107.5,344.0,"DA XIAN, CH",FM-12,99999,V020,"140,1,N,0020,1","22000,1,9,N","025000,1,N,1","+0235,1","+0142,1","10115,1","06,0000,9,1",,,,,"02,99,1,02,1,01,1,01250,1,00,1,00,1",,"999,N,+0146,1","99999,9,09719,1","7,1,017,1,+999,9",,SYN076AAXX  10061 57328 32675 21402 10235 20142 39719 40115 57017 82100 333 20146;,Q01  00002PRCP06
04-10T09:00:00,4,31.2,107.5,344.0,"DA XIAN, CH",FM-12,99999,V020,"250,1,N,0020,1","22000,1,9,N","025000,1,N,1","+0241,1","+0142,1","10093,1",,,,,,"03,99,1,03,1,01,1,01250,1,00,1,00,1",,,,"7,1,021,1,+999,9",,SYN060AAXX  10091 57328 42675 32502 10241 20142 40093 57021 83100;,
04-10T12:00:00,4,31.2,107.5,344.0,"DA XIAN, CH",FM-12,99999,V020,"999,9,C,0000,1","22000,1,9,N","020000,1,N,1","+0213,1","+0144,1","10114,1","06,0000,9,1",,,,"00,1,+99999,9,99,9","00,99,1,00,1,00,1,99999,9,00,1,00,1",,,"99999,9,09715,1","2,1,017,1,+999,9",,SYN060AAXX  10121 57328 32970 00000 10213 20144 39715 40114 52017;,Q01  00002PRCP06
04-10T15:00:00,4,31.2,107.5,344.0,"DA XIAN, CH",FM-12,99999,V020,"140,1,N,0010,1","99999,9,9,N","007000,1,N,1","+0185,1","+0152,1","10126,1",,,,,,"07,99,1,07,1,00,1,99999,9,04,1,99,9",,,,"2,1,013,1,+999,9","10,1",SYN066AAXX  10151 57328 41957 71401 10185 20152 40126 52013 71000 8704/;,
04-10T18:00:00,4,31.2,107.5,344.0,"DA XIAN, CH",FM-12,99999,V020,"999,9,C,0000,1","22000,1,9,N","007000,1,N,1","+0171,1","+0151,1","10106,1","06,0000,9,1",,,,,"01,99,1,01,1,00,1,99999,9,04,1,00,1",,"999,M,+0242,1","99999,9,09710,1","7,1,018,1,+999,9","10,1",SYN082AAXX  10181 57328 31957 10000 10171 20151 39710 40106 57018 71000 81040 333 10242;,Q01  00002PRCP06
04-10T21:00:00,4,31.2,107.5,344.0,"DA XIAN, CH",FM-12,99999,V020,"020,1,N,0030,1","02100,1,9,N","005000,1,N,1","+0163,1","+0149,1","10095,1","24,0015,9,1",,,,,"07,99,1,07,1,05,1,02250,1,99,9,99,9",,,,"7,1,011,1,+999,9","10,1",SYN076AAXX  10211 57328 41850 70203 10163 20149 40095 57011 71000 875// 333 70016;,
04-11T00:00:00,4,31.2,107.5,344.0,"DA XIAN, CH",FM-12,99999,V020,"040,1,N,0010,1","02100,1,9,N","006000,1,N,1","+0162,1","+0154,1","10106,1","06,9999,9,9","24,0003,9,1","6,1,06,1",,,"08,99,1,08,1,05,1,02250,1,99,9,99,9",,,"99999,9,09708,1","2,1,009,1,-010,1","21,1",SYN094AAXX  11001 57328 11856 80401 10162 20154 39708 40106 52009 69921 72160 885// 333 05101 70002;,
04-11T03:00:00,4,31.2,107.5,344.0,"DA XIAN, CH",FM-12,99999,V020,"040,1,N,0020,1","02100,1,9,N","007000,1,N,1","+0173,1","+0146,1","10116,1",,,,,,"08,99,1,08,1,05,1,02250,1,99,9,99,9",,,,"2,1,008,1,+999,9","10,1",SYN066AAXX  11031 57328 41857 80402 10173 20146 40116 52008 71000 885//;,
04-11T06:00:00,4,31.2,107.5,344.0,"DA XIAN, CH",FM-12,99999,V020,"020,1,N,0030,1","03600,1,9,N","015000,1,N,1","+0215,1","+0141,1","10088,1","06,9999,9,9",,"6,1,06,1",,,"08,99,1,01,1,01,1,01250,1,07,1,99,9",,"999,N,+0157,1","99999,9,09691,1","7,1,025,1,+999,9","00,1",SYN088AAXX  11061 57328 11665 80203 10215 20141 39691 40088 57025 69901 70060 8117/ 333 20157;,
04-11T09:00:00,4,31.2,107.5,344.0,"DA XIAN, CH",FM-12,99999,V020,"040,1,N,0010,1","03600,1,9,N","025000,1,N,1","+0228,1","+0143,1","10064,1",,,,,,"07,99,1,01,1,01,1,01250,1,04,1,99,9",,,,"7,1,022,1,+999,9",,SYN060AAXX  11091 57328 42675 70401 10228 20143 40064 57022 8114/;,
04-11T12:00:00,4,31.2,107.5,344.0,"DA XIAN, CH",FM-12,99999,V020,"070,1,N,0020,1","99999,9,9,N","020000,1,N,1","+0204,1","+0155,1","10082,1","06,0000,9,1",,,,,"07,99,1,07,1,00,1,99999,9,04,1,99,9",,,"99999,9,09684,1","2,1,015,1,+999,9",,SYN066AAXX  11121 57328 32970 70702 10204 20155 39684 40082 52015 8704/;,Q01  00002PRCP06
04-11T15:00:00,4,31.2,107.5,344.0,"DA XIAN, CH",FM-12,99999,V020,"040,1,N,0020,1","99999,9,9,N","008000,1,N,1","+0178,1","+0155,1","10101,1",,,,,,"08,99,1,08,1,00,1,99999,9,02,1,99,9",,,,"2,1,017,1,+999,9","10,1",SYN066AAXX  11151 57328 41958 80402 10178 20155 40101 52017 71000 8802/;,
04-11T18:00:00,4,31.2,107.5,344.0,"DA XIAN, CH",FM-12,99999,V020,"070,1,N,0020,1","99999,9,9,N","008000,1,N,1","+0171,1","+0151,1","10095,1","06,0000,9,1",,,,,"08,99,1,08,1,00,1,99999,9,07,1,99,9",,"999,M,+0229,1","99999,9,09698,1","7,1,003,1,+999,9","10,1",SYN082AAXX  11181 57328 31958 80702 10171 20151 39698 40095 57003 71000 8807/ 333 10229;,Q01  00002PRCP06
04-11T21:00:00,4,31.2,107.5,344.0,"DA XIAN, CH",FM-12,99999,V020,"040,1,N,0010,1","99999,9,9,N","008000,1,N,1","+0169,1","+0143,1","10079,1","24,0003,9,1",,,,,"08,99,1,08,1,00,1,99999,9,07,1,99,9",,,,"7,1,015,1,+999,9","10,1",SYN076AAXX  11211 57328 41958 80401 10169 20143 40079 57015 71000 8807/ 333 70002;,
04-12T00:00:00,4,31.2,107.5,344.0,"DA XIAN, CH",FM-12,99999,V020,"040,1,N,0020,1","99999,9,9,N","008000,1,N,1","+0169,1","+0138,1","10090,1","06,0000,9,1","24,0000,2,1",,,,"08,99,1,08,1,00,1,99999,9,07,1,99,9",,,"99999,9,09692,1","2,1,009,1,-020,1","10,1",SYN088AAXX  12001 57328 31958 80402 10169 20138 39692 40090 52009 71000 8807/ 333 05201 79999;,Q01  00002PRCP06
04-12T06:00:00,4,31.2,107.5,344.0,"DA XIAN, CH",FM-12,99999,V020,"040,1,N,0030,1","99999,9,9,N","012000,1,N,1","+0212,1","+0136,1","10085,1","06,0000,9,1",,,,,"08,99,1,08,1,00,1,99999,9,07,1,99,9",,"999,N,+0162,1","99999,9,09688,1","7,1,014,1,+999,9",,SYN076AAXX  12061 57328 32962 80403 10212 20136 39688 40085 57014 8807/ 333 20162;,Q01  00002PRCP06
04-12T09:00:00,4,31.2,107.5,344.0,"DA XIAN, CH",FM-12,99999,V020,"070,1,N,0040,1","99999,9,9,N","018000,1,N,1","+0226,1","+0121,1","10068,1",,,,,,"08,99,1,08,1,00,1,99999,9,07,1,99,9",,,,"7,1,015,1,+999,9",,SYN060AAXX  12091 57328 42968 80704 10226 20121 40068 57015 8807/;,
04-12T12:00:00,4,31.2,107.5,344.0,"DA XIAN, CH",FM-12,99999,V020,"040,1,N,0030,1","02100,1,9,N","015000,1,N,1","+0203,1","+0102,1","10099,1","06,0000,9,1",,,,,"08,99,1,08,1,05,1,02250,1,99,9,99,9",,,"99999,9,09701,1","2,1,028,1,+999,9",,SYN066AAXX  12121 57328 32865 80403 10203 20102 39701 40099 52028 885//;,Q01  00002PRCP06
04-12T15:00:00,4,31.2,107.5,344.0,"DA XIAN, CH",FM-12,99999,V020,"040,1,N,0040,1","02100,1,9,N","015000,1,N,1","+0192,1","+0089,1","10124,1",,,,,,"08,99,1,08,1,05,1,02250,1,99,9,99,9",,,,"2,1,024,1,+999,9",,SYN060AAXX  12151 57328 42865 80404 10192 20089 40124 52024 885//;,
04-12T18:00:00,4,31.2,107.5,344.0,"DA XIAN, CH",FM-12,99999,V020,"020,1,N,0060,1","02100,1,9,N","015000,1,N,1","+0165,1","+0087,1","10123,1","06,0000,9,1",,,,,"08,99,1,08,1,05,1,02250,1,99,9,99,9",,"999,M,+0230,1","99999,9,09724,1","7,1,001,1,+999,9",,SYN076AAXX  12181 57328 32865 80206 10165 20087 39724 40123 57001 885// 333 10230;,Q01  00002PRCP06
04-12T21:00:00,4,31.2,107.5,344.0,"DA XIAN, CH",FM-12,99999,V020,"040,1,N,0060,1","02100,1,9,N","008000,1,N,1","+0141,1","+0084,1","10148,1","24,0003,9,1",,"6,1,03,1",,,"08,99,1,08,1,05,1,02250,1,99,9,99,9",,,,"2,1,024,1,+999,9","60,1",SYN076AAXX  12211 57328 41858 80406 10141 20084 40148 52024 76060 885// 333 70002;,
04-13T00:00:00,4,31.2,107.5,344.0,"DA XIAN, CH",FM-12,99999,V020,"040,1,N,0030,1","99999,9,9,N","008000,1,N,1","+0111,1","+0083,1","10198,1","06,0030,9,2","24,0025,9,2","6,1,06,1",,,"08,99,1,08,1,00,1,99999,9,02,1,99,9",,,"99999,9,09792,1","2,1,044,1,+100,1","60,1",SYN094AAXX  13001 57328 11958 80403 10111 20083 39792 40198 52044 60031 76060 8802/ 333 01056 70025;,
04-13T03:00:00,4,31.2,107.5,344.0,"DA XIAN, CH",FM-12,99999,V020,"020,1,N,0030,1","99999,9,9,N","015000,1,N,1","+0117,1","+0091,1","10233,1",,,"6,1,03,1","6,1,03,1",,"08,99,1,08,1,00,1,99999,9,02,1,99,9",,,,"2,1,033,1,+999,9","60,1",SYN066AAXX  13031 57328 41965 80203 10117 20091 40233 52033 76066 8802/;,
04-13T06:00:00,4,31.2,107.5,344.0,"DA XIAN, CH",FM-12,99999,V020,"360,1,N,0030,1","99999,9,9,N","025000,1,N,1","+0142,1","+0085,1","10223,1","06,0020,9,1",,"6,1,06,1","6,1,06,1",,"07,99,1,07,1,00,1,99999,9,04,1,99,9",,"999,N,+0106,1","99999,9,09816,1","7,1,009,1,+999,9","21,1",SYN088AAXX  13061 57328 11975 73603 10142 20085 39816 40223 57009 60021 72166 8704/ 333 20106;,
04-13T09:00:00,4,31.2,107.5,344.0,"DA XIAN, CH",FM-12,99999,V020,"040,1,N,0020,1","99999,9,9,N","030000,1,N,1","+0139,1","+0080,1","10208,1",,,,,,"08,99,1,08,1,00,1,99999,9,07,1,99,9",,,,"7,1,017,1,+999,9",,SYN060AAXX  13091 57328 42980 80402 10139 20080 40208 57017 8807/;,
04-13T12:00:00,4,31.2,107.5,344.0,"DA XIAN, CH",FM-12,99999,V020,"110,1,N,0010,1","99999,9,9,N","020000,1,N,1","+0135,1","+0086,1","10215,1","06,0000,2,1",,,,,"06,99,1,06,1,00,1,99999,9,04,1,00,1",,,"99999,9,09804,1","2,1,005,1,+999,9",,SYN066AAXX  13121 57328 32970 61101 10135 20086 39804 40215 52005 86040;,
04-13T15:00:00,4,31.2,107.5,344.0,"DA XIAN, CH",FM-12,99999,V020,"040,1,N,0020,1","22000,1,9,N","007000,1,N,1","+0107,1","+0095,1","10238,1",,,,,"00,1,+99999,9,99,9","00,99,1,00,1,00,1,99999,9,00,1,00,1",,,,"2,1,020,1,+999,9","10,1",SYN060AAXX  13151 57328 41957 00402 10107 20095 40238 52020 71000;,
04-13T18:00:00,4,31.2,107.5,344.0,"DA XIAN, CH",FM-12,99999,V020,"110,1,N,0010,1","22000,1,9,N","000500,1,N,1","+0093,1","+0089,1","10230,1","06,0000,9,1",,,,"00,1,+99999,9,99,9","00,99,1,00,1,00,1,99999,9,00,1,00,1",,"999,M,+0168,1","99999,9,09817,1","7,1,007,1,+999,9","46,1",SYN076AAXX  13181 57328 31905 01101 10093 20089 39817 40230 57007 74600 333 10168;,Q01  00002PRCP06
04-13T21:00:00,4,31.2,107.5,344.0,"DA XIAN, CH",FM-12,99999,V020,"040,1,N,0030,1","00015,1,9,N","000000,1,N,1","+0088,1","+0086,1","10226,1","24,0041,9,1",,"4,1,03,1","4,1,03,1","09,1,+99999,9,99,9","09,99,1,09,1,99,9,99999,9,99,9,99,9",,,,"7,1,004,1,+999,9","45,1",SYN070AAXX  13211 57328 41/00 90403 10088 20086 40226 57004 74544 333 70040;,
04-14T00:00:00,4,31.2,107.5,344.0,"DA XIAN, CH",FM-12,99999,V020,"040,1,N,0020,1","99999,9,9,N","004000,1,N,1","+0101,1","+0091,1","10222,1","06,0000,9,1","24,0018,9,1","4,1,06,1",,,"07,99,1,07,1,00,1,99999,9,04,1,99,9",,,"99999,9,09810,1","7,1,003,1,+020,1","10,1",SYN088AAXX  14001 57328 31940 70402 10101 20091 39810 40222 57003 71040 8704/ 333 00251 70017;,Q01  00002PRCP06
04-14T03:00:00,4,31.2,107.5,344.0,"DA XIAN, CH",FM-12,99999,V020,"110,1,N,0010,1","01200,1,9,N","008000,1,N,1","+0159,1","+0103,1","10225,1",,,,,,"06,99,1,06,1,01,1,01250,1,00,1,00,1",,,,"2,1,005,1,+999,9","10,1",SYN066AAXX  14031 57328 41658 61101 10159 20103 40225 52005 71000 86100;,
04-14T06:00:00,4,31.2,107.5,344.0,"DA XIAN, CH",FM-12,99999,V020,"999,9,C,0000,1","01200,1,9,N","007000,1,N,1","+0186,1","+0076,1","10189,1","06,0000,9,1",,,,,"05,99,1,05,1,01,1,01250,1,00,1,00,1",,"999,N,+0087,1","99999,9,09781,1","7,1,034,1,+999,9","10,1",SYN082AAXX  14061 57328 31657 50000 10186 20076 39781 40189 57034 71000 85100 333 20087;,Q01  00002PRCP06
04-14T09:00:00,4,31.2,107.5,344.0,"DA XIAN, CH",FM-12,99999,V020,"180,1,N,0020,1","22000,1,9,N","011000,1,N,1","+0205,1","+0076,1","10151,1",,,,,,"01,99,1,01,1,01,1,01250,1,00,1,00,1",,,,"7,1,036,1,+999,9",,SYN060AAXX  14091 57328 42661 11802 10205 20076 40151 57036 81100;,
04-14T12:00:00,4,31.2,107.5,344.0,"DA XIAN, CH",FM-12,99999,V020,"070,1,N,0020,1","22000,1,9,N","012000,1,N,1","+0171,1","+0094,1","10147,1","06,0000,9,1",,,,"00,1,+99999,9,99,9","00,99,1,00,1,00,1,99999,9,00,1,00,1",,,"99999,9,09740,1","7,1,005,1,+999,9",,SYN060AAXX  14121 57328 32962 00702 10171 20094 39740 40147 57005;,Q01  00002PRCP06
04-14T15:00:00,4,31.2,107.5,344.0,"DA XIAN, CH",FM-12,99999,V020,"040,1,N,0020,1","22000,1,9,N","008000,1,N,1","+0129,1","+0102,1","10155,1",,,,,"00,1,+99999,9,99,9","00,99,1,00,1,00,1,99999,9,00,1,00,1",,,,"2,1,009,1,+999,9","10,1",SYN060AAXX  14151 57328 41958 00402 10129 20102 40155 52009 71000;,
04-14T18:00:00,4,31.2,107.5,344.0,"DA XIAN, CH",FM-12,99999,V020,"070,1,N,0020,1","22000,1,9,N","008000,1,N,1","+0113,1","+0098,1","10139,1","06,0000,9,1",,,,"00,1,+99999,9,99,9","00,99,1,00,1,00,1,99999,9,00,1,00,1",,"999,M,+0208,1","99999,9,09734,1","7,1,015,1,+999,9","10,1",SYN076AAXX  14181 57328 31958 00702 10113 20098 39734 40139 57015 71000 333 10208;,Q01  00002PRCP06
04-14T21:00:00,4,31.2,107.5,344.0,"DA XIAN, CH",FM-12,99999,V020,"040,1,N,0030,1","22000,1,9,N","006000,1,N,1","+0106,1","+0092,1","10120,1",,,,,"00,1,+99999,9,99,9","00,99,1,00,1,00,1,99999,9,00,1,00,1",,,,"7,1,017,1,+999,9","10,1",SYN060AAXX  14211 57328 41956 00403 10106 20092 40120 57017 71000;,
04-15T00:00:00,4,31.2,107.5,344.0,"DA XIAN, CH",FM-12,99999,V020,"040,1,N,0010,1","22000,1,9,N","007000,1,N,1","+0115,1","+0092,1","10127,1","06,0000,9,1",,,,"00,1,+99999,9,99,9","00,99,1,00,1,00,1,99999,9,00,1,00,1",,,"99999,9,09722,1","2,1,005,1,+009,1","10,1",SYN076AAXX  15001 57328 31957 00401 10115 20092 39722 40127 52005 71000 333 05901;,Q01  00002PRCP06
04-15T03:00:00,4,31.2,107.5,344.0,"DA XIAN, CH",FM-12,99999,V020,"040,1,N,0010,1","22000,1,9,N","015000,1,N,1","+0196,1","+0090,1","10121,1",,,,,"00,1,+99999,9,99,9","00,99,1,00,1,00,1,99999,9,00,1,00,1",,,,"7,1,003,1,+999,9",,SYN054AAXX  15031 57328 42965 00401 10196 20090 40121 57003;,
04-15T06:00:00,4,31.2,107.5,344.0,"DA XIAN, CH",FM-12,99999,V020,"270,1,N,0020,1","22000,1,9,N","030000,1,N,1","+0256,1","+0096,1","10082,1","06,0000,9,1",,,,"00,1,+99999,9,99,9","00,99,1,00,1,00,1,99999,9,00,1,00,1",,"999,N,+0102,1","99999,9,09684,1","7,1,035,1,+999,9",,SYN070AAXX  15061 57328 32980 02702 10256 20096 39684 40082 57035 333 20102;,Q01  00002PRCP06
04-15T09:00:00,4,31.2,107.5,344.0,"DA XIAN, CH",FM-12,99999,V020,"270,1,N,0020,1","22000,1,9,N","030000,1,N,1","+0275,1","+0101,1","10051,1",,,,,"00,1,+99999,9,99,9","00,99,1,00,1,00,1,99999,9,00,1,00,1",,,,"7,1,029,1,+999,9",,SYN054AAXX  15091 57328 42980 02702 10275 20101 40051 57029;,
04-15T12:00:00,4,31.2,107.5,344.0,"DA XIAN, CH",FM-12,99999,V020,"040,1,N,0020,1","99999,9,9,N","030000,1,N,1","+0233,1","+0128,1","10049,1","06,0000,9,1",,,,,"07,99,1,07,1,00,1,99999,9,04,1,99,9",,,"99999,9,09651,1","7,1,004,1,+999,9",,SYN066AAXX  15121 57328 32980 70402 10233 20128 39651 40049 57004 8704/;,Q01  00002PRCP06
04-15T15:00:00,4,31.2,107.5,344.0,"DA XIAN, CH",FM-12,99999,V020,"040,1,N,0030,1","22000,1,9,N","020000,1,N,1","+0179,1","+0140,1","10059,1",,,,,"00,1,+99999,9,99,9","00,99,1,00,1,00,1,99999,9,00,1,00,1",,,,"2,1,012,1,+999,9",,SYN054AAXX  15151 57328 42970 00403 10179 20140 40059 52012;,
04-15T18:00:00,4,31.2,107.5,344.0,"DA XIAN, CH",FM-12,99999,V020,"040,1,N,0030,1","22000,1,9,N","020000,1,N,1","+0161,1","+0135,1","10053,1","06,0000,9,1",,,,,"03,99,1,00,1,00,1,99999,9,00,1,01,1",,"999,M,+0279,1","99999,9,09660,1","7,1,003,1,+999,9",,SYN076AAXX  15181 57328 32970 30403 10161 20135 39660 40053 57003 80001 333 10279;,Q01  00002PRCP06
04-15T21:00:00,4,31.2,107.5,344.0,"DA XIAN, CH",FM-12,99999,V020,"040,1,N,0020,1","22000,1,9,N","015000,1,N,1","+0147,1","+0129,1","10038,1",,,,,"00,1,+99999,9,99,9","00,99,1,00,1,00,1,99999,9,00,1,00,1",,,,"7,1,014,1,+999,9",,SYN054AAXX  15211 57328 42965 00402 10147 20129 40038 57014;,
04-16T00:00:00,4,31.2,107.5,344.0,"DA XIAN, CH",FM-12,99999,V020,"040,1,N,0020,1","99999,9,9,N","020000,1,N,1","+0155,1","+0127,1","10046,1","06,0000,9,1",,,,,"06,99,1,00,1,00,1,99999,9,00,1,01,1",,,"99999,9,09651,1","2,1,005,1,+007,1",,SYN076AAXX  16001 57328 32970 60402 10155 20127 39651 40046 52005 80001 333 05704;,Q01  00002PRCP06
04-16T03:00:00,4,31.2,107.5,344.0,"DA XIAN, CH",FM-12,99999,V020,"040,1,N,0020,1","99999,9,9,N","015000,1,N,1","+0237,1","+0141,1","10052,1",,,,,,"07,99,1,00,1,00,1,99999,9,00,1,01,1",,,,"2,1,008,1,+999,9",,SYN060AAXX  16031 57328 42965 70402 10237 20141 40052 52008 80001;,
04-16T06:00:00,4,31.2,107.5,344.0,"DA XIAN, CH",FM-12,99999,V020,"110,1,N,0030,1","22000,1,9,N","025000,1,N,1","+0291,1","+0142,1","10015,1","06,0000,9,1",,,,,"02,99,1,02,1,00,1,99999,9,04,1,00,1",,"999,N,+0144,1","99999,9,09625,1","7,1,034,1,+999,9",,SYN076AAXX  16061 57328 32975 21103 10291 20142 39625 40015 57034 82040 333 20144;,Q01  00002PRCP06
04-16T09:00:00,4,31.2,107.5,344.0,"DA XIAN, CH",FM-12,99999,V020,"200,1,N,0010,1","22000,1,9,N","025000,1,N,1","+0301,1","+0148,1","09987,1",,,,,"00,1,+99999,9,99,9","00,99,1,00,1,00,1,99999,9,00,1,00,1",,,,"7,1,027,1,+999,9",,SYN054AAXX  16091 57328 42975 02001 10301 20148 49987 57027;,
04-16T12:00:00,4,31.2,107.5,344.0,"DA XIAN, CH",FM-12,99999,V020,"090,1,N,0030,1","22000,1,9,N","020000,1,N,1","+0274,1","+0150,1","09989,1","06,0000,9,1",,,,"00,1,+99999,9,99,9","00,99,1,00,1,00,1,99999,9,00,1,00,1",,,"99999,9,09599,1","2,1,001,1,+999,9",,SYN060AAXX  16121 57328 32970 00903 10274 20150 39599 49989 52001;,Q01  00002PRCP06
04-16T15:00:00,4,31.2,107.5,344.0,"DA XIAN, CH",FM-12,99999,V020,"040,1,N,0040,1","22000,1,9,N","015000,1,N,1","+0225,1","+0160,1","10003,1",,,,,"00,1,+99999,9,99,9","00,99,1,00,1,00,1,99999,9,00,1,00,1",,,,"2,1,016,1,+999,9",,SYN054AAXX  16151 57328 42965 00404 10225 20160 40003 52016;,
04-16T18:00:00,4,31.2,107.5,344.0,"DA XIAN, CH",FM-12,99999,V020,"999,9,C,0000,1","99999,9,9,N","012000,1,N,1","+0214,1","+0166,1","09996,1","06,0000,9,1",,,,,"08,99,1,08,1,00,1,99999,9,07,1,99,9",,"999,M,+0309,1","99999,9,09611,1","7,1,004,1,+999,9",,SYN076AAXX  16181 57328 32962 80000 10214 20166 39611 49996 57004 8807/ 333 10309;,Q01  00002PRCP06
04-16T21:00:00,4,31.2,107.5,344.0,"DA XIAN, CH",FM-12,99999,V020,"040,1,N,0020,1","99999,9,9,N","012000,1,N,1","+0208,1","+0168,1","09981,1","24,0000,9,1",,"6,1,03,1",,,"08,99,1,08,1,00,1,99999,9,07,1,99,9",,,,"7,1,015,1,+999,9","00,1",SYN076AAXX  16211 57328 41962 80402 10208 20168 49981 57015 70060 8807/ 333 79999;,Q01  00002PRCP24
04-17T00:00:00,4,31.2,107.5,344.0,"DA XIAN, CH",FM-12,99999,V020,"040,1,N,0010,1","02100,1,9,N","007000,1,N,1","+0207,1","+0172,1","10003,1","06,9999,9,9","24,0000,9,1","6,1,06,1",,,"08,99,1,08,1,05,1,02250,1,99,9,99,9",,,"99999,9,09616,1","2,1,020,1,-040,1","10,1",SYN094AAXX  17001 57328 11857 80401 10207 20172 39616 40003 52020 69901 71060 885// 333 05405 79999;,Q01  00002PRCP24
04-17T03:00:00,4,31.2,107.5,344.0,"DA XIAN, CH",FM-12,99999,V020,"020,1,N,0030,1","22000,1,9,N","007000,1,N,1","+0271,1","+0175,1","10012,1",,,,,"00,1,+99999,9,99,9","00,99,1,00,1,00,1,99999,9,00,1,00,1",,,,"2,1,009,1,+999,9","10,1",SYN060AAXX  17031 57328 41957 00203 10271 20175 40012 52009 71000;,
04-17T06:00:00,4,31.2,107.5,344.0,"DA XIAN, CH",FM-12,99999,V020,"999,9,C,0000,1","22000,1,9,N","015000,1,N,1","+0312,1","+0185,1","09999,1","06,0000,9,1",,,,,"02,99,1,02,1,01,1,01250,1,00,1,00,1",,"999,N,+0202,1","99999,9,09615,1","7,1,010,1,+999,9",,SYN076AAXX  17061 57328 32665 20000 10312 20185 39615 49999 57010 82100 333 20202;,Q01  00002PRCP06
04-17T09:00:00,4,31.2,107.5,344.0,"DA XIAN, CH",FM-12,99999,V020,"140,1,N,0020,1","22000,1,9,N","015000,1,N,1","+0311,1","+0177,1","09986,1",,,,,,"02,99,1,02,1,01,1,01250,1,00,1,00,1",,,,"7,1,013,1,+999,9",,SYN060AAXX  17091 57328 42665 21402 10311 20177 49986 57013 82100;,
04-17T12:00:00,4,31.2,107.5,344.0,"DA XIAN, CH",FM-12,99999,V020,"040,1,N,0020,1","22000,1,9,N","020000,1,N,1","+0273,1","+0195,1","09998,1","06,0000,9,1",,,,,"01,99,1,01,1,00,1,99999,9,04,1,00,1",,,"99999,9,09611,1","2,1,009,1,+999,9",,SYN066AAXX  17121 57328 32970 10402 10273 20195 39611 49998 52009 81040;,Q01  00002PRCP06
04-17T15:00:00,4,31.2,107.5,344.0,"DA XIAN, CH",FM-12,99999,V020,"040,1,N,0030,1","99999,9,9,N","017000,1,N,1","+0242,1","+0195,1","10025,1",,,,,,"07,99,1,07,1,00,1,99999,9,04,1,99,9",,,,"2,1,028,1,+999,9",,SYN059AAXX  17151 57328 42967 70403 1024220195 40025 52028 8704/;,
04-17T18:00:00,4,31.2,107.5,344.0,"DA XIAN, CH",FM-12,99999,V020,"040,1,N,0020,1","22000,1,9,N","013000,1,N,1","+0225,1","+0188,1","10024,1","06,0000,9,1",,,,"00,1,+99999,9,99,9","00,99,1,00,1,00,1,99999,9,00,1,00,1",,"999,M,+0319,1","99999,9,09639,1","4,1,000,1,+999,9",,SYN070AAXX  17181 57328 32963 00402 10225 20188 39639 40024 54000 333 10319;,Q01  00002PRCP06
04-17T21:00:00,4,31.2,107.5,344.0,"DA XIAN, CH",FM-12,99999,V020,"070,1,N,0050,1","99999,9,9,N","012000,1,N,1","+0222,1","+0176,1","10018,1",,,,,,"08,99,1,08,1,00,1,99999,9,02,1,99,9",,,,"7,1,006,1,+999,9",,SYN060AAXX  17211 57328 42962 80705 10222 20176 40018 57006 8802/;,
04-18T00:00:00,4,31.2,107.5,344.0,"DA XIAN, CH",FM-12,99999,V020,"020,1,N,0020,1","01500,1,9,N","005000,1,N,1","+0221,1","+0156,1","10047,1","06,0003,9,1","24,0003,9,1",,,,"08,99,1,08,1,09,1,01750,1,99,9,99,9",,,"99999,9,09659,1","2,1,026,1,+040,1","95,1",SYN094AAXX  18001 57328 11750 80202 10221 20156 39659 40047 52026 69931 79500 889// 333 00401 70003;,
04-18T03:00:00,4,31.2,107.5,344.0,"DA XIAN, CH",FM-12,99999,V020,"360,1,N,0040,1","01500,1,9,N","006000,1,N,1","+0169,1","+0129,1","10090,1",,,"9,1,03,1","8,1,03,1",,"08,99,1,08,1,09,1,01750,1,99,9,99,9",,,,"2,1,036,1,+999,9","95,1",SYN066AAXX  18031 57328 41756 83604 10169 20129 40090 52036 79598 889//;,
04-18T06:00:00,4,31.2,107.5,344.0,"DA XIAN, CH",FM-12,99999,V020,"020,1,N,0040,1","01500,1,9,N","004000,1,N,1","+0143,1","+0127,1","10085,1","06,0231,9,1",,"9,1,06,1","8,1,06,1",,"08,99,1,08,1,09,1,01750,1,99,9,99,9",,"999,N,+0133,1","99999,9,09687,1","7,1,008,1,+999,9","80,1",SYN088AAXX  18061 57328 11740 80204 10143 20127 39687 40085 57008 60231 78098 889// 333 20133;,
04-18T09:00:00,4,31.2,107.5,344.0,"DA XIAN, CH",FM-12,99999,V020,"320,1,N,0010,1","02100,1,9,N","006000,1,N,1","+0149,1","+0114,1","10091,1",,,"8,1,03,1","6,1,03,1",,"08,99,1,08,1,05,1,02250,1,99,9,99,9",,,,"2,1,006,1,+999,9","60,1",SYN066AAXX  18091 57328 41856 83201 10149 20114 40091 52006 76086 885//;,
04-18T12:00:00,4,31.2,107.5,344.0,"DA XIAN, CH",FM-12,99999,V020,"040,1,N,0010,1","02100,1,9,N","005000,1,N,1","+0134,1","+0125,1","10111,1","06,0051,9,1",,"8,1,06,1","6,1,06,1",,"08,99,1,08,1,05,1,02250,1,99,9,99,9",,,"99999,9,09711,1","2,1,018,1,+999,9","60,1",SYN078AAXX  18121 57328 11850 80401 10134 20125 39711 40111 52018 60051 76086 885//;,
04-18T15:00:00,4,31.2,107.5,344.0,"DA XIAN, CH",FM-12,99999,V020,"180,1,N,0020,1","02100,1,9,N","008000,1,N,1","+0137,1","+0123,1","10127,1",,,"6,1,03,1","6,1,03,1",,"08,99,1,08,1,05,1,02250,1,99,9,99,9",,,,"2,1,012,1,+999,9","60,1",SYN066AAXX  18151 57328 41858 81802 10137 20123 40127 52012 76066 885//;,
04-18T18:00:00,4,31.2,107.5,344.0,"DA XIAN, CH",FM-12,99999,V020,"999,9,C,0000,1","02100,1,9,N","008000,1,N,1","+0138,1","+0124,1","10122,1","06,0061,9,1",,"6,1,06,1",,,"08,99,1,08,1,05,1,02250,1,99,9,99,9",,"999,M,+0232,1","99999,9,09717,1","7,1,006,1,+999,9","60,1",SYN088AAXX  18181 57328 11858 80000 10138 20124 39717 40122 57006 60061 76060 885// 333 10232;,
04-18T21:00:00,4,31.2,107.5,344.0,"DA XIAN, CH",FM-12,99999,V020,"090,1,N,0010,1","02100,1,9,N","006000,1,N,1","+0133,1","+0122,1","10110,1","24,0348,9,1",,"6,1,03,1",,,"08,99,1,08,1,05,1,02250,1,99,9,99,9",,,,"7,1,012,1,+999,9","10,1",SYN076AAXX  18211 57328 41856 80901 10133 20122 40110 57012 71060 885// 333 70347;,
04-19T00:00:00,4,31.2,107.5,344.0,"DA XIAN, CH",FM-12,99999,V020,"040,1,N,0020,1","02100,1,9,N","008000,1,N,1","+0139,1","+0125,1","10108,1","06,9999,9,9","24,0343,9,1","6,1,06,1",,,"08,99,1,08,1,05,1,02250,1,99,9,99,9",,,"99999,9,09703,1","7,1,002,1,+040,1","10,1",SYN094AAXX  19001 57328 11858 80402 10139 20125 39703 40108 57002 69911 71060 885// 333 00458 70344;,
04-19T03:00:00,4,31.2,107.5,344.0,"DA XIAN, CH",FM-12,99999,V020,"999,9,C,0000,1","02100,1,9,N","012000,1,N,1","+0173,1","+0135,1","10109,1",,,,,,"08,99,1,08,1,05,1,02250,1,99,9,99,9",,,,"2,1,003,1,+999,9",,SYN060AAXX  19031 57328 42862 80000 10173 20135 40109 52003 885//;,
04-19T06:00:00,4,31.2,107.5,344.0,"DA XIAN, CH",FM-12,99999,V020,"250,1,N,0020,1","99999,9,9,N","020000,1,N,1","+0193,1","+0140,1","10085,1","06,0000,9,1",,,,,"08,99,1,08,1,00,1,99999,9,07,1,99,9",,"999,N,+0127,1","99999,9,09685,1","7,1,021,1,+999,9",,SYN076AAXX  19061 57328 32970 82502 10193 20140 39685 40085 57021 8807/ 333 20127;,Q01  00002PRCP06
04-19T09:00:00,4,31.2,107.5,344.0,"DA XIAN, CH",FM-12,99999,V020,"999,9,C,0000,1","99999,9,9,N","025000,1,N,1","+0193,1","+0139,1","10070,1",,,,,,"08,99,1,08,1,00,1,99999,9,07,1,99,9",,,,"7,1,015,1,+999,9",,SYN060AAXX  19091 57328 42975 80000 10193 20139 40070 57015 8807/;,
04-19T12:00:00,4,31.2,107.5,344.0,"DA XIAN, CH",FM-12,99999,V020,"040,1,N,0020,1","02100,1,9,N","020000,1,N,1","+0180,1","+0146,1","10074,1","06,0000,9,1",,,,,"07,99,1,07,1,05,1,02250,1,99,9,99,9",,,"99999,9,09673,1","2,1,003,1,+999,9",,SYN066AAXX  19121 57328 32870 70402 10180 20146 39673 40074 52003 875//;,Q01  00002PRCP06
04-19T15:00:00,4,31.2,107.5,344.0,"DA XIAN, CH",FM-12,99999,V020,"040,1,N,0030,1","22000,1,9,N","007000,1,N,1","+0154,1","+0144,1","10102,1",,,,,"00,1,+99999,9,99,9","00,99,1,00,1,00,1,99999,9,00,1,00,1",,,,"2,1,028,1,+999,9","10,1",SYN060AAXX  19151 57328 41957 00403 10154 20144 40102 52028 71000;,
04-19T18:00:00,4,31.2,107.5,344.0,"DA XIAN, CH",FM-12,99999,V020,"040,1,N,0030,1","22000,1,9,N","008000,1,N,1","+0148,1","+0139,1","10108,1","06,0000,9,1",,,,"00,1,+99999,9,99,9","00,99,1,00,1,00,1,99999,9,00,1,00,1",,"999,M,+0197,1","99999,9,09707,1","2,1,006,1,+999,9","10,1",SYN076AAXX  19181 57328 31958 00403 10148 20139 39707 40108 52006 71000 333 10197;,Q01  00002PRCP06
04-19T21:00:00,4,31.2,107.5,344.0,"DA XIAN, CH",FM-12,99999,V020,"040,1,N,0020,1","22000,1,9,N","004000,1,N,1","+0137,1","+0130,1","10110,1",,,,,"00,1,+99999,9,99,9","00,99,1,00,1,00,1,99999,9,00,1,00,1",,,,"2,1,002,1,+999,9","10,1",SYN060AAXX  19211 57328 41940 00402 10137 20130 40110 52002 71000;,
04-20T00:00:00,4,31.2,107.5,344.0,"DA XIAN, CH",FM-12,99999,V020,"020,1,N,0020,1","22000,1,9,N","020000,1,N,1","+0143,1","+0132,1","10128,1","06,0000,9,1",,,,"00,1,+99999,9,99,9","00,99,1,00,1,00,1,99999,9,00,1,00,1",,,"99999,9,09725,1","2,1,016,1,+002,1",,SYN070AAXX  20001 57328 32970 00202 10143 20132 39725 40128 52016 333 00200;,Q01  00002PRCP06
04-20T03:00:00,4,31.2,107.5,344.0,"DA XIAN, CH",FM-12,99999,V020,"020,1,N,0020,1","22000,1,9,N","030000,1,N,1","+0213,1","+0127,1","10134,1",,,,,,"01,99,1,01,1,01,1,01250,1,00,1,00,1",,,,"2,1,009,1,+999,9",,SYN060AAXX  20031 57328 42680 10202 10213 20127 40134 52009 81100;,
04-20T06:00:00,4,31.2,107.5,344.0,"DA XIAN, CH",FM-12,99999,V020,"290,1,N,0010,1","01200,1,9,N","030000,1,N,1","+0252,1","+0133,1","10107,1","06,0000,9,1",,,,,"06,99,1,06,1,01,1,01250,1,00,1,00,1",,"999,N,+0127,1","99999,9,09710,1","7,1,024,1,+999,9",,SYN076AAXX  20061 57328 32680 62901 10252 20133 39710 40107 57024 86100 333 20127;,Q01  00002PRCP06
04-20T09:00:00,4,31.2,107.5,344.0,"DA XIAN, CH",FM-12,99999,V020,"180,1,N,0010,1","01200,1,9,N","030000,1,N,1","+0257,1","+0138,1","10091,1",,,,,,"06,99,1,06,1,01,1,01250,1,00,1,00,1",,,,"7,1,015,1,+999,9",,SYN060AAXX  20091 57328 42680 61801 10257 20138 40091 57015 86100;,
04-20T12:00:00,4,31.2,107.5,344.0,"DA XIAN, CH",FM-12,99999,V020,"999,9,C,0000,1","99999,9,9,N","030000,1,N,1","+0233,1","+0162,1","10094,1","06,0000,9,1",,,,,"06,99,1,06,1,00,1,99999,9,04,1,00,1",,,"99999,9,09696,1","2,1,001,1,+999,9",,SYN066AAXX  20121 57328 32980 60000 10233 20162 39696 40094 52001 86040;,Q01  00002PRCP06
04-20T15:00:00,4,31.2,107.5,344.0,"DA XIAN, CH",FM-12,99999,V020,"110,1,N,0030,1","22000,1,9,N","030000,1,N,1","+0223,1","+0127,1","10109,1",,,,,,"01,99,1,01,1,00,1,99999,9,04,1,00,1",,,,"2,1,019,1,+999,9",,SYN060AAXX  20151 57328 42980 11103 10223 20127 40109 52019 81040;,
04-20T18:00:00,4,31.2,107.5,344.0,"DA XIAN, CH",FM-12,99999,V020,"160,1,N,0030,1","99999,9,9,N","030000,1,N,1","+0211,1","+0112,1","10105,1","06,0000,9,1",,,,,"07,99,1,07,1,00,1,99999,9,04,1,99,9",,"999,M,+0264,1","99999,9,09713,1","7,1,002,1,+999,9",,SYN076AAXX  20181 57328 32980 71603 10211 20112 39713 40105 57002 8704/ 333 10264;,Q01  00002PRCP06
04-20T21:00:00,4,31.2,107.5,344.0,"DA XIAN, CH",FM-12,99999,V020,"160,1,N,0020,1","99999,9,9,N","015000,1,N,1","+0201,1","+0108,1","10095,1",,,,,,"08,99,1,08,1,00,1,99999,9,07,1,99,9",,,,"7,1,010,1,+999,9",,SYN060AAXX  20211 57328 42965 81602 10201 20108 40095 57010 8807/;,
04-21T00:00:00,4,31.2,107.5,344.0,"DA XIAN, CH",FM-12,99999,V020,"090,1,N,0020,1","02100,1,9,N","030000,1,N,1","+0193,1","+0111,1","10107,1","06,0000,9,1",,,,,"08,99,1,08,1,05,1,02250,1,99,9,99,9",,,"99999,9,09712,1","2,1,009,1,+001,1",,SYN076AAXX  21001 57328 32880 80902 10193 20111 39712 40107 52009 885// 333 05105;,Q01  00002PRCP06
04-21T03:00:00,4,31.2,107.5,344.0,"DA XIAN, CH",FM-12,99999,V020,"999,9,C,0000,1","02100,1,9,N","030000,1,N,1","+0193,1","+0115,1","10110,1",,,,,,"08,99,1,08,1,05,1,02250,1,99,9,99,9",,,,"2,1,002,1,+999,9",,SYN060AAXX  21031 57328 42880 80000 10193 20115 40110 52002 885//;,
04-21T06:00:00,4,31.2,107.5,344.0,"DA XIAN, CH",FM-12,99999,V020,"040,1,N,0020,1","99999,9,9,N","030000,1,N,1","+0190,1","+0121,1","10088,1","06,0000,9,1",,,,,"08,99,1,08,1,00,1,99999,9,07,1,99,9",,"999,N,+0189,1","99999,9,09692,1","7,1,022,1,+999,9",,SYN076AAXX  21061 57328 32980 80402 10190 20121 39692 40088 57022 8807/ 333 20189;,Q01  00002PRCP06
04-21T09:00:00,4,31.2,107.5,344.0,"DA XIAN, CH",FM-12,99999,V020,"020,1,N,0030,1","99999,9,9,N","030000,1,N,1","+0195,1","+0121,1","10069,1",,,,,,"08,99,1,08,1,00,1,99999,9,07,1,99,9",,,,"7,1,018,1,+999,9",,SYN060AAXX  21091 57328 42980 80203 10195 20121 40069 57018 8807/;,
04-21T12:00:00,4,31.2,107.5,344.0,"DA XIAN, CH",FM-12,99999,V020,"040,1,N,0020,1","99999,9,9,N","030000,1,N,1","+0191,1","+0125,1","10081,1","06,0000,9,1",,,,,"08,99,1,08,1,00,1,99999,9,07,1,99,9",,,"99999,9,09684,1","2,1,010,1,+999,9",,SYN066AAXX  21121 57328 32980 80402 10191 20125 39684 40081 52010 8807/;,Q01  00002PRCP06
04-21T15:00:00,4,31.2,107.5,344.0,"DA XIAN, CH",FM-12,99999,V020,"070,1,N,0030,1","01500,1,9,N","008000,1,N,1","+0163,1","+0146,1","10109,1",,,"9,1,03,1","8,1,03,1",,"08,99,1,08,1,09,1,01750,1,99,9,99,9",,,,"2,1,025,1,+999,9","95,1",SYN066AAXX  21151 57328 41758 80703 10163 20146 40109 52025 79598 889//;,
04-21T18:00:00,4,31.2,107.5,344.0,"DA XIAN, CH",FM-12,99999,V020,"040,1,N,0030,1","02100,1,9,N","006000,1,N,1","+0153,1","+0143,1","10107,1","06,0030,9,1",,"9,1,06,1","8,1,06,1",,"08,99,1,08,1,05,1,02250,1,99,9,99,9",,"999,M,+0212,1","99999,9,09707,1","7,1,002,1,+999,9","60,1",SYN088AAXX  21181 57328 11856 80403 10153 20143 39707 40107 57002 60031 76098 885// 333 10212;,
04-21T21:00:00,4,31.2,107.5,344.0,"DA XIAN, CH",FM-12,99999,V020,"040,1,N,0030,1","02100,1,9,N","003000,1,N,1","+0140,1","+0133,1","10114,1","24,0046,9,1",,"6,1,03,1","6,1,03,1",,"08,99,1,08,1,05,1,02250,1,99,9,99,9",,,,"2,1,006,1,+999,9","60,1",SYN076AAXX  21211 57328 41830 80403 10140 20133 40114 52006 76066 885// 333 70046;,
04-22T00:00:00,4,31.2,107.5,344.0,"DA XIAN, CH",FM-12,99999,V020,"040,1,N,0030,1","00420,1,9,N","007000,1,N,1","+0133,1","+0122,1","10141,1","06,0020,9,1","24,0051,9,1","6,1,06,1","6,1,06,1",,"08,99,1,08,1,05,1,00450,1,99,9,99,9",,,"99999,9,09738,1","2,1,025,1,+030,1","60,1",SYN094AAXX  22001 57328 11457 80403 10133 20122 39738 40141 52025 60021 76066 885// 333 00356 70052;,
04-22T03:00:00,4,31.2,107.5,344.0,"DA XIAN, CH",FM-12,99999,V020,"040,1,N,0030,1","02100,1,9,N","030000,1,N,1","+0139,1","+0123,1","10158,1",,,"6,1,03,1",,,"08,99,1,08,1,05,1,02250,1,99,9,99,9",,,,"2,1,015,1,+999,9","00,1",SYN066AAXX  22031 57328 41880 80403 10139 20123 40158 52015 70060 885//;,
04-22T06:00:00,4,31.2,107.5,344.0,"DA XIAN, CH",FM-12,99999,V020,"040,1,N,0020,1","02100,1,9,N","030000,1,N,1","+0157,1","+0113,1","10147,1","06,9999,9,9",,"6,1,06,1",,,"08,99,1,08,1,05,1,02250,1,99,9,99,9",,"999,N,+0130,1","99999,9,09743,1","7,1,010,1,+999,9","00,1",SYN088AAXX  22061 57328 11880 80402 10157 20113 39743 40147 57010 69921 70060 885// 333 20130;,
04-22T09:00:00,4,31.2,107.5,344.0,"DA XIAN, CH",FM-12,99999,V020,"040,1,N,0030,1","02100,1,9,N","030000,1,N,1","+0167,1","+0115,1","10139,1",,,,,,"08,99,1,08,1,05,1,02250,1,99,9,99,9",,,,"7,1,008,1,+999,9",,SYN060AAXX  22091 57328 42880 80403 10167 20115 40139 57008 885//;,
04-22T12:00:00,4,31.2,107.5,344.0,"DA XIAN, CH",FM-12,99999,V020,"090,1,N,0010,1","02100,1,9,N","030000,1,N,1","+0162,1","+0117,1","10149,1","06,0000,9,1",,,,,"08,99,1,08,1,05,1,02250,1,99,9,99,9",,,"99999,9,09744,1","2,1,009,1,+999,9",,SYN066AAXX  22121 57328 32880 80901 10162 20117 39744 40149 52009 885//;,Q01  00002PRCP06
04-22T15:00:00,4,31.2,107.5,344.0,"DA XIAN, CH",FM-12,99999,V020,"040,1,N,0020,1","02100,1,9,N","015000,1,N,1","+0159,1","+0119,1","10156,1",,,,,,"08,99,1,08,1,05,1,02250,1,99,9,99,9",,,,"2,1,007,1,+999,9",,SYN060AAXX  22151 57328 42865 80402 10159 20119 40156 52007 885//;,
04-22T18:00:00,4,31.2,107.5,344.0,"DA XIAN, CH",FM-12,99999,V020,"999,9,C,0000,1","02100,1,9,N","012000,1,N,1","+0153,1","+0134,1","10146,1","06,9999,9,9",,"6,1,06,1",,,"08,99,1,08,1,05,1,02250,1,99,9,99,9",,"999,M,+0167,1","99999,9,09742,1","7,1,009,1,+999,9","21,1",SYN088AAXX  22181 57328 11862 80000 10153 20134 39742 40146 57009 69911 72160 885// 333 10167;,
04-22T21:00:00,4,31.2,107.5,344.0,"DA XIAN, CH",FM-12,99999,V020,"140,1,N,0010,1","02100,1,9,N","012000,1,N,1","+0147,1","+0129,1","10148,1","24,0010,9,1",,"6,1,03,1",,,"08,99,1,08,1,05,1,02250,1,99,9,99,9",,,,"2,1,002,1,+999,9","60,1",SYN076AAXX  22211 57328 41862 81401 10147 20129 40148 52002 76060 885// 333 70009;,
04-23T00:00:00,4,31.2,107.5,344.0,"DA XIAN, CH",FM-12,99999,V020,"110,1,N,0010,1","02100,1,9,N","020000,1,N,1","+0147,1","+0126,1","10157,1","06,9999,9,9","24,0003,9,1","6,1,06,1",,,"08,99,1,08,1,05,1,02250,1,99,9,99,9",,,"99999,9,09752,1","2,1,008,1,+010,1","60,1",SYN094AAXX  23001 57328 11870 81101 10147 20126 39752 40157 52008 69901 76060 885// 333 00101 70003;,
04-23T03:00:00,4,31.2,107.5,344.0,"DA XIAN, CH",FM-12,99999,V020,"999,9,C,0000,1","02100,1,9,N","007000,1,N,1","+0153,1","+0128,1","10172,1",,,"6,1,03,1",,,"08,99,1,08,1,05,1,02250,1,99,9,99,9",,,,"2,1,015,1,+999,9","60,1",SYN066AAXX  23031 57328 41857 80000 10153 20128 40172 52015 76060 885//;,
04-23T06:00:00,4,31.2,107.5,344.0,"DA XIAN, CH",FM-12,99999,V020,"020,1,N,0030,1","00750,1,9,N","012000,1,N,1","+0141,1","+0125,1","10163,1","06,0010,9,1",,"6,1,06,1",,,"08,99,1,08,1,05,1,00800,1,99,9,99,9",,"999,N,+0132,1","99999,9,09757,1","7,1,010,1,+999,9","60,1",SYN088AAXX  23061 57328 11562 80203 10141 20125 39757 40163 57010 60011 76060 885// 333 20132;,
04-23T09:00:00,4,31.2,107.5,344.0,"DA XIAN, CH",FM-12,99999,V020,"090,1,N,0030,1","00750,1,9,N","020000,1,N,1","+0150,1","+0115,1","10149,1",,,"6,1,03,1",,,"08,99,1,08,1,05,1,00800,1,99,9,99,9",,,,"7,1,013,1,+999,9","00,1",SYN066AAXX  23091 57328 41570 80903 10150 20115 40149 57013 70060 885//;,
04-23T12:00:00,4,31.2,107.5,344.0,"DA XIAN, CH",FM-12,99999,V020,"040,1,N,0030,1","02100,1,9,N","018000,1,N,1","+0145,1","+0116,1","10162,1","06,9999,9,9",,"6,1,06,1",,,"08,99,1,08,1,05,1,02250,1,99,9,99,9",,,"99999,9,09756,1","2,1,012,1,+999,9","60,1",SYN078AAXX  23121 57328 11868 80403 10145 20116 39756 40162 52012 69901 76060 885//;,
04-23T15:00:00,4,31.2,107.5,344.0,"DA XIAN, CH",FM-12,99999,V020,"040,1,N,0020,1","02100,1,9,N","020000,1,N,1","+0139,1","+0113,1","10177,1",,,"6,1,03,1",,,"08,99,1,08,1,05,1,02250,1,99,9,99,9",,,,"2,1,014,1,+999,9","00,1",SYN066AAXX  23151 57328 41870 80402 10139 20113 40177 52014 70060 885//;,
04-23T18:00:00,4,31.2,107.5,344.0,"DA XIAN, CH",FM-12,99999,V020,"999,9,C,0000,1","02100,1,9,N","020000,1,N,1","+0133,1","+0122,1","10162,1","06,0010,9,1",,"6,1,06,1",,,"08,99,1,08,1,05,1,02250,1,99,9,99,9",,"999,M,+0154,1","99999,9,09755,1","7,1,015,1,+999,9","60,1",SYN088AAXX  23181 57328 11870 80000 10133 20122 39755 40162 57015 60011 76060 885// 333 10154;,
04-23T21:00:00,4,31.2,107.5,344.0,"DA XIAN, CH",FM-12,99999,V020,"999,9,C,0000,1","02100,1,9,N","007000,1,N,1","+0135,1","+0122,1","10156,1","24,0038,9,1",,"6,1,03,1","6,1,03,1",,"08,99,1,08,1,05,1,02250,1,99,9,99,9",,,,"7,1,005,1,+999,9","60,1",SYN076AAXX  23211 57328 41857 80000 10135 20122 40156 57005 76066 885// 333 70037;,
04-24T00:00:00,4,31.2,107.5,344.0,"DA XIAN, CH",FM-12,99999,V020,"200,1,N,0020,1","02100,1,9,N","015000,1,N,1","+0135,1","+0120,1","10170,1","06,0020,9,1","24,0046,9,1","6,1,06,1","6,1,06,1",,"08,99,1,08,1,05,1,02250,1,99,9,99,9",,,"99999,9,09763,1","2,1,013,1,+010,1","60,1",SYN094AAXX  24001 57328 11865 82002 10135 20120 39763 40170 52013 60021 76066 885// 333 00151 70045;,
04-24T03:00:00,4,31.2,107.5,344.0,"DA XIAN, CH",FM-12,99999,V020,"070,1,N,0020,1","99999,9,9,N","015000,1,N,1","+0155,1","+0130,1","10175,1",,,"6,1,03,1",,,"07,99,1,07,1,00,1,99999,9,04,1,99,9",,,,"2,1,006,1,+999,9","00,1",SYN066AAXX  24031 57328 41965 70702 10155 20130 40175 52006 70060 8704/;,
04-24T06:00:00,4,31.2,107.5,344.0,"DA XIAN, CH",FM-12,99999,V020,"180,1,N,0010,1","22000,1,9,N","018000,1,N,1","+0207,1","+0119,1","10147,1","06,9999,9,9",,"6,1,06,1",,,"02,99,1,02,1,00,1,99999,9,04,1,00,1",,"999,N,+0127,1","99999,9,09745,1","7,1,024,1,+999,9","00,1",SYN088AAXX  24061 57328 11968 21801 10207 20119 39745 40147 57024 69901 70060 82040 333 20127;,
04-24T09:00:00,4,31.2,107.5,344.0,"DA XIAN, CH",FM-12,99999,V020,"250,1,N,0020,1","99999,9,9,N","020000,1,N,1","+0211,1","+0116,1","10124,1",,,,,,"07,99,1,00,1,00,1,99999,9,00,1,01,1",,,,"7,1,022,1,+999,9",,SYN060AAXX  24091 57328 42970 72502 10211 20116 40124 57022 80001;,
04-24T12:00:00,4,31.2,107.5,344.0,"DA XIAN, CH",FM-12,99999,V020,"160,1,N,0020,1","22000,1,9,N","020000,1,N,1","+0190,1","+0127,1","10134,1","06,0000,9,1",,,,"00,1,+99999,9,99,9","00,99,1,00,1,00,1,99999,9,00,1,00,1",,,"99999,9,09731,1","2,1,008,1,+999,9",,SYN060AAXX  24121 57328 32970 01602 10190 20127 39731 40134 52008;,Q01  00002PRCP06
04-24T15:00:00,4,31.2,107.5,344.0,"DA XIAN, CH",FM-12,99999,V020,"040,1,N,0020,1","22000,1,9,N","012000,1,N,1","+0160,1","+0130,1","10147,1",,,,,"00,1,+99999,9,99,9","00,99,1,00,1,00,1,99999,9,00,1,00,1",,,,"2,1,012,1,+999,9",,SYN054AAXX  24151 57328 42962 00402 10160 20130 40147 52012;,
04-24T18:00:00,4,31.2,107.5,344.0,"DA XIAN, CH",FM-12,99999,V020,"040,1,N,0030,1","22000,1,9,N","011000,1,N,1","+0137,1","+0126,1","10133,1","06,0000,9,1",,,,"00,1,+99999,9,99,9","00,99,1,00,1,00,1,99999,9,00,1,00,1",,"999,M,+0222,1","99999,9,09732,1","7,1,011,1,+999,9",,SYN070AAXX  24181 57328 32961 00403 10137 20126 39732 40133 57011 333 10222;,Q01  00002PRCP06
04-24T21:00:00,4,31.2,107.5,344.0,"DA XIAN, CH",FM-12,99999,V020,"040,1,N,0040,1","22000,1,9,N","008000,1,N,1","+0123,1","+0119,1","10128,1","24,0008,9,1",,,,"00,1,+99999,9,99,9","00,99,1,00,1,00,1,99999,9,00,1,00,1",,,,"7,1,006,1,+999,9","10,1",SYN070AAXX  24211 57328 41958 00404 10123 20119 40128 57006 71000 333 70008;,
04-25T00:00:00,4,31.2,107.5,344.0,"DA XIAN, CH",FM-12,99999,V020,"020,1,N,0050,1","22000,1,9,N","008000,1,N,1","+0129,1","+0120,1","10134,1","06,0000,9,1","24,0000,2,1",,,,"03,99,1,00,1,00,1,99999,9,00,1,02,1",,,"99999,9,09731,1","2,1,005,1,-030,1","10,1",SYN088AAXX  25001 57328 31958 30205 10129 20120 39731 40134 52005 71000 80002 333 05351 79999;,Q01  00002PRCP06
04-25T03:00:00,4,31.2,107.5,344.0,"DA XIAN, CH",FM-12,99999,V020,"020,1,N,0020,1","22000,1,9,N","020000,1,N,1","+0199,1","+0136,1","10130,1",,,,,"00,1,+99999,9,99,9","00,99,1,00,1,00,1,99999,9,00,1,00,1",,,,"7,1,001,1,+999,9",,SYN054AAXX  25031 57328 42970 00202 10199 20136 40130 57001;,
04-25T06:00:00,4,31.2,107.5,344.0,"DA XIAN, CH",FM-12,99999,V020,"340,1,N,0020,1","22000,1,9,N","030000,1,N,1","+0244,1","+0131,1","10094,1","06,0000,9,1",,,,"00,1,+99999,9,99,9","00,99,1,00,1,00,1,99999,9,00,1,00,1",,"999,N,+0119,1","99999,9,09697,1","7,1,033,1,+999,9",,SYN070AAXX  25061 57328 32980 03402 10244 20131 39697 40094 57033 333 20119;,Q01  00002PRCP06
04-25T09:00:00,4,31.2,107.5,344.0,"DA XIAN, CH",FM-12,99999,V020,"140,1,N,0020,1","99999,9,9,N","030000,1,N,1","+0259,1","+0124,1","10076,1",,,,,,"06,99,1,00,1,00,1,99999,9,00,1,02,1",,,,"7,1,018,1,+999,9",,SYN060AAXX  25091 57328 42980 61402 10259 20124 40076 57018 80002;,
04-25T12:00:00,4,31.2,107.5,344.0,"DA XIAN, CH",FM-12,99999,V020,"090,1,N,0020,1","99999,9,9,N","020000,1,N,1","+0226,1","+0125,1","10089,1","06,0000,9,1",,,,,"07,99,1,07,1,00,1,99999,9,04,1,99,9",,,"99999,9,09690,1","2,1,011,1,+999,9",,SYN066AAXX  25121 57328 32970 70902 10226 20125 39690 40089 52011 8704/;,Q01  00002PRCP06
04-25T15:00:00,4,31.2,107.5,344.0,"DA XIAN, CH",FM-12,99999,V020,"040,1,N,0020,1","22000,1,9,N","007000,1,N,1","+0182,1","+0148,1","10113,1",,,,,,"01,99,1,01,1,00,1,99999,9,04,1,00,1",,,,"2,1,025,1,+999,9","10,1",SYN066AAXX  25151 57328 41957 10402 10182 20148 40113 52025 71000 81040;,
04-25T18:00:00,4,31.2,107.5,344.0,"DA XIAN, CH",FM-12,99999,V020,"040,1,N,0020,1","22000,1,9,N","004000,1,N,1","+0171,1","+0144,1","10112,1","06,0000,9,1",,,,"00,1,+99999,9,99,9","00,99,1,00,1,00,1,99999,9,00,1,00,1",,"999,M,+0262,1","99999,9,09716,1","2,1,001,1,+999,9","10,1",SYN076AAXX  25181 57328 31940 00402 10171 20144 39716 40112 52001 71000 333 10262;,Q01  00002PRCP06
04-25T21:00:00,4,31.2,107.5,344.0,"DA XIAN, CH",FM-12,99999,V020,"040,1,N,0040,1","99999,9,9,N","007000,1,N,1","+0157,1","+0136,1","10099,1",,,,,,"07,99,1,07,1,00,1,99999,9,04,1,99,9",,,,"7,1,012,1,+999,9","10,1",SYN066AAXX  25211 57328 41957 70404 10157 20136 40099 57012 71000 8704/;,
04-26T00:00:00,4,31.2,107.5,344.0,"DA XIAN, CH",FM-12,99999,V020,"090,1,N,0020,1","01500,1,9,N","015000,1,N,1","+0158,1","+0132,1","10126,1","06,9999,9,9","24,0000,2,1",,,,"08,99,1,08,1,09,1,01750,1,99,9,99,9",,,"99999,9,09728,1","2,1,024,1,+000,1","95,1",SYN094AAXX  26001 57328 11765 80902 10158 20132 39728 40126 52024 69901 79500 889// 333 00003 79999;,
04-26T03:00:00,4,31.2,107.5,344.0,"DA XIAN, CH",FM-12,99999,V020,"110,1,N,0020,1","01500,1,9,N","010000,1,N,1","+0160,1","+0143,1","10142,1",,,"9,1,03,1","8,1,03,1",,"08,99,1,08,1,09,1,01750,1,99,9,99,9",,,,"2,1,012,1,+999,9","29,1",SYN066AAXX  26031 57328 41760 81102 10160 20143 40142 52012 72998 889//;,
04-26T06:00:00,4,31.2,107.5,344.0,"DA XIAN, CH",FM-12,99999,V020,"040,1,N,0020,1","02100,1,9,N","007000,1,N,1","+0169,1","+0142,1","10124,1","06,0020,9,1",,"9,1,06,1","8,1,06,1",,"08,99,1,08,1,05,1,02250,1,99,9,99,9",,"999,N,+0153,1","99999,9,09723,1","7,1,017,1,+999,9","60,1",SYN088AAXX  26061 57328 11857 80402 10169 20142 39723 40124 57017 60021 76098 885// 333 20153;,
04-26T09:00:00,4,31.2,107.5,344.0,"DA XIAN, CH",FM-12,99999,V020,"999,9,C,0000,1","02100,1,9,N","012000,1,N,1","+0185,1","+0137,1","10111,1",,,,,,"08,99,1,08,1,05,1,02250,1,99,9,99,9",,,,"7,1,013,1,+999,9",,SYN060AAXX  26091 57328 42862 80000 10185 20137 40111 57013 885//;,
04-26T12:00:00,4,31.2,107.5,344.0,"DA XIAN, CH",FM-12,99999,V020,"110,1,N,0020,1","02100,1,9,N","008000,1,N,1","+0181,1","+0145,1","10120,1","06,0000,2,1",,,,,"08,99,1,08,1,05,1,02250,1,99,9,99,9",,,"99999,9,09719,1","2,1,009,1,+999,9","10,1",SYN072AAXX  26121 57328 31858 81102 10181 20145 39719 40120 52009 71000 885//;,
04-26T15:00:00,4,31.2,107.5,344.0,"DA XIAN, CH",FM-12,99999,V020,"040,1,N,0020,1","02100,1,9,N","008000,1,N,1","+0173,1","+0148,1","10136,1",,,,,,"08,99,1,08,1,05,1,02250,1,99,9,99,9",,,,"2,1,015,1,+999,9","10,1",SYN066AAXX  26151 57328 41858 80402 10173 20148 40136 52015 71000 885//;,
04-26T18:00:00,4,31.2,107.5,344.0,"DA XIAN, CH",FM-12,99999,V020,"090,1,N,0010,1","02100,1,9,N","007000,1,N,1","+0171,1","+0147,1","10126,1","06,0000,9,1",,,,,"08,99,1,08,1,05,1,02250,1,99,9,99,9",,"999,M,+0186,1","99999,9,09725,1","7,1,009,1,+999,9","10,1",SYN082AAXX  26181 57328 31857 80901 10171 20147 39725 40126 57009 71000 885// 333 10186;,Q01  00002PRCP06
04-26T21:00:00,4,31.2,107.5,344.0,"DA XIAN, CH",FM-12,99999,V020,"999,9,C,0000,1","02100,1,9,N","006000,1,N,1","+0169,1","+0149,1","10123,1","24,0015,9,1",,,,,"08,99,1,08,1,05,1,02250,1,99,9,99,9",,,,"7,1,002,1,+999,9","10,1",SYN076AAXX  26211 57328 41856 80000 10169 20149 40123 57002 71000 885// 333 70016;,
04-27T00:00:00,4,31.2,107.5,344.0,"DA XIAN, CH",FM-12,99999,V020,"040,1,N,0020,1","99999,9,9,N","004000,1,N,1","+0168,1","+0149,1","10148,1","06,9999,9,9","24,0015,9,1",,,,"08,99,1,08,1,00,1,99999,9,02,1,99,9",,,"99999,9,09746,1","2,1,023,1,+020,1","60,1",SYN094AAXX  27001 57328 11940 80402 10168 20149 39746 40148 52023 69901 76000 8802/ 333 00201 70016;,
04-27T03:00:00,4,31.2,107.5,344.0,"DA XIAN, CH",FM-12,99999,V020,"999,9,C,0000,1","99999,9,9,N","004000,1,N,1","+0178,1","+0158,1","10153,1",,,"6,1,03,1",,,"08,99,1,08,1,00,1,99999,9,02,1,99,9",,,,"2,1,005,1,+999,9","10,1",SYN066AAXX  27031 57328 41940 80000 10178 20158 40153 52005 71060 8802/;,
04-27T06:00:00,4,31.2,107.5,344.0,"DA XIAN, CH",FM-12,99999,V020,"040,1,N,0020,1","99999,9,9,N","012000,1,N,1","+0205,1","+0157,1","10135,1","06,9999,9,9",,"6,1,06,1",,,"07,99,1,07,1,00,1,99999,9,04,1,99,9",,"999,N,+0165,1","99999,9,09736,1","7,1,015,1,+999,9","00,1",SYN088AAXX  27061 57328 11962 70402 10205 20157 39736 40135 57015 69901 70060 8704/ 333 20165;,
04-27T09:00:00,4,31.2,107.5,344.0,"DA XIAN, CH",FM-12,99999,V020,"090,1,N,0030,1","03600,1,9,N","018000,1,N,1","+0211,1","+0155,1","10117,1",,,,,,"07,99,1,01,1,01,1,01250,1,04,1,99,9",,,,"7,1,017,1,+999,9",,SYN060AAXX  27091 57328 42668 70903 10211 20155 40117 57017 8114/;,
04-27T12:00:00,4,31.2,107.5,344.0,"DA XIAN, CH",FM-12,99999,V020,"999,9,C,0000,1","99999,9,9,N","018000,1,N,1","+0199,1","+0158,1","10119,1","06,0000,9,1",,,,,"07,99,1,07,1,00,1,99999,9,04,1,99,9",,,"99999,9,09720,1","2,1,001,1,+999,9",,SYN066AAXX  27121 57328 32968 70000 10199 20158 39720 40119 52001 8704/;,Q01  00002PRCP06
04-27T15:00:00,4,31.2,107.5,344.0,"DA XIAN, CH",FM-12,99999,V020,"040,1,N,0030,1","99999,9,9,N","008000,1,N,1","+0177,1","+0159,1","10142,1",,,,,,"07,99,1,07,1,00,1,99999,9,04,1,99,9",,,,"2,1,021,1,+999,9","10,1",SYN066AAXX  27151 57328 41958 70403 10177 20159 40142 52021 71000 8704/;,
04-27T18:00:00,4,31.2,107.5,344.0,"DA XIAN, CH",FM-12,99999,V020,"040,1,N,0030,1","99999,9,9,N","004000,1,N,1","+0171,1","+0158,1","10135,1","06,0000,9,1",,,,,"08,99,1,08,1,00,1,99999,9,07,1,99,9",,"999,M,+0219,1","99999,9,09736,1","7,1,005,1,+999,9","10,1",SYN082AAXX  27181 57328 31940 80403 10171 20158 39736 40135 57005 71000 8807/ 333 10219;,Q01  00002PRCP06
04-27T21:00:00,4,31.2,107.5,344.0,"DA XIAN, CH",FM-12,99999,V020,"040,1,N,0020,1","99999,9,9,N","005000,1,N,1","+0168,1","+0155,1","10120,1","24,0000,2,1",,,,,"08,99,1,08,1,00,1,99999,9,07,1,99,9",,,,"7,1,014,1,+999,9","10,1",SYN076AAXX  27211 57328 41950 80402 10168 20155 40120 57014 71000 8807/ 333 79999;,
04-28T00:00:00,4,31.2,107.5,344.0,"DA XIAN, CH",FM-12,99999,V020,"040,1,N,0020,1","99999,9,9,N","007000,1,N,1","+0173,1","+0156,1","10131,1","06,0000,9,1","24,0000,2,1",,,,"07,99,1,07,1,00,1,99999,9,04,1,99,9",,,"99999,9,09732,1","2,1,010,1,-010,1","10,1",SYN088AAXX  28001 57328 31957 70402 10173 20156 39732 40131 52010 71000 8704/ 333 05101 79999;,Q01  00002PRCP06
04-28T03:00:00,4,31.2,107.5,344.0,"DA XIAN, CH",FM-12,99999,V020,"360,1,N,0030,1","99999,9,9,N","025000,1,N,1","+0223,1","+0162,1","10128,1",,,,,,"07,99,1,07,1,00,1,99999,9,04,1,99,9",,,,"7,1,001,1,+999,9",,SYN060AAXX  28031 57328 42975 73603 10223 20162 40128 57001 8704/;,
04-28T06:00:00,4,31.2,107.5,344.0,"DA XIAN, CH",FM-12,99999,V020,"040,1,N,0030,1","99999,9,9,N","025000,1,N,1","+0247,1","+0164,1","10118,1","06,0000,9,1",,,,,"07,99,1,07,1,00,1,99999,9,04,1,99,9",,"999,N,+0166,1","99999,9,09722,1","7,1,009,1,+999,9",,SYN076AAXX  28061 57328 32975 70403 10247 20164 39722 40118 57009 8704/ 333 20166;,Q01  00002PRCP06
04-28T09:00:00,4,31.2,107.5,344.0,"DA XIAN, CH",FM-12,99999,V020,"020,1,N,0030,1","99999,9,9,N","025000,1,N,1","+0243,1","+0152,1","10108,1",,,,,,"07,99,1,07,1,00,1,99999,9,04,1,99,9",,,,"7,1,010,1,+999,9",,SYN060AAXX  28091 57328 42975 70203 10243 20152 40108 57010 8704/;,
04-28T12:00:00,4,31.2,107.5,344.0,"DA XIAN, CH",FM-12,99999,V020,"040,1,N,0010,1","99999,9,9,N","025000,1,N,1","+0225,1","+0167,1","10131,1","06,0000,9,1",,,,,"08,99,1,08,1,00,1,99999,9,07,1,99,9",,,"99999,9,09733,1","2,1,021,1,+999,9",,SYN066AAXX  28121 57328 32975 80401 10225 20167 39733 40131 52021 8807/;,Q01  00002PRCP06
04-28T15:00:00,4,31.2,107.5,344.0,"DA XIAN, CH",FM-12,99999,V020,"160,1,N,0010,1","99999,9,9,N","015000,1,N,1","+0204,1","+0153,1","10153,1",,,,,,"07,99,1,07,1,00,1,99999,9,04,1,99,9",,,,"2,1,023,1,+999,9",,SYN060AAXX  28151 57328 42965 71601 10204 20153 40153 52023 8704/;,
04-28T18:00:00,4,31.2,107.5,344.0,"DA XIAN, CH",FM-12,99999,V020,"040,1,N,0030,1","99999,9,9,N","015000,1,N,1","+0194,1","+0130,1","10164,1","06,0000,9,1",,,,,"07,99,1,07,1,00,1,99999,9,04,1,99,9",,"999,M,+0255,1","99999,9,09768,1","2,1,012,1,+999,9",,SYN076AAXX  28181 57328 32965 70403 10194 20130 39768 40164 52012 8704/ 333 10255;,Q01  00002PRCP06
04-28T21:00:00,4,31.2,107.5,344.0,"DA XIAN, CH",FM-12,99999,V020,"160,1,N,0010,1","99999,9,9,N","012000,1,N,1","+0179,1","+0130,1","10186,1",,,,,,"07,99,1,07,1,00,1,99999,9,04,1,99,9",,,,"2,1,020,1,+999,9",,SYN060AAXX  28211 57328 42962 71601 10179 20130 40186 52020 8704/;,
04-29T00:00:00,4,31.2,107.5,344.0,"DA XIAN, CH",FM-12,99999,V020,"999,9,C,0000,1","99999,9,9,N","015000,1,N,1","+0172,1","+0128,1","10216,1","06,0000,9,1",,,,,"07,99,1,07,1,00,1,99999,9,04,1,99,9",,,"99999,9,09815,1","2,1,027,1,+008,1",,SYN076AAXX  29001 57328 32965 70000 10172 20128 39815 40216 52027 8704/ 333 00800;,Q01  00002PRCP06
04-29T03:00:00,4,31.2,107.5,344.0,"DA XIAN, CH",FM-12,99999,V020,"360,1,N,0020,1","99999,9,9,N","012000,1,N,1","+0237,1","+0076,1","10224,1",,,,,,"07,99,1,07,1,00,1,99999,9,04,1,99,9",,,,"2,1,011,1,+999,9",,SYN060AAXX  29031 57328 42962 73602 10237 20076 40224 52011 8704/;,
04-29T06:00:00,4,31.2,107.5,344.0,"DA XIAN, CH",FM-12,99999,V020,"340,1,N,0050,1","99999,9,9,N","020000,1,N,1","+0272,1","+0049,1","10210,1","06,0000,9,1",,,,,"07,99,1,06,1,00,1,99999,9,04,1,02,1",,"999,N,+0166,1","99999,9,09814,1","7,1,012,1,+999,9",,SYN076AAXX  29061 57328 32970 73405 10272 20049 39814 40210 57012 86042 333 20166;,Q01  00002PRCP06
04-29T09:00:00,4,31.2,107.5,344.0,"DA XIAN, CH",FM-12,99999,V020,"340,1,N,0040,1","22000,1,9,N","030000,1,N,1","+0275,1","+0014,1","10194,1",,,,,,"03,99,1,02,1,00,1,99999,9,04,1,02,1",,,,"7,1,016,1,+999,9",,SYN060AAXX  29091 57328 42980 33404 10275 20014 40194 57016 82042;,
04-29T12:00:00,4,31.2,107.5,344.0,"DA XIAN, CH",FM-12,99999,V020,"070,1,N,0010,1","22000,1,9,N","030000,1,N,1","+0246,1","+0072,1","10208,1","06,0000,9,1",,,,,"01,99,1,00,1,00,1,99999,9,00,1,02,1",,,"99999,9,09809,1","2,1,011,1,+999,9",,SYN066AAXX  29121 57328 32980 10701 10246 20072 39809 40208 52011 80002;,Q01  00002PRCP06
04-29T15:00:00,4,31.2,107.5,344.0,"DA XIAN, CH",FM-12,99999,V020,"040,1,N,0020,1","22000,1,9,N","030000,1,N,1","+0180,1","+0103,1","10229,1",,,,,"00,1,+99999,9,99,9","00,99,1,00,1,00,1,99999,9,00,1,00,1",,,,"2,1,020,1,+999,9",,SYN054AAXX  29151 57328 42980 00402 10180 20103 40229 52020;,
04-29T18:00:00,4,31.2,107.5,344.0,"DA XIAN, CH",FM-12,99999,V020,"070,1,N,0030,1","22000,1,9,N","013000,1,N,1","+0149,1","+0104,1","10229,1","06,0000,9,1",,,,"00,1,+99999,9,99,9","00,99,1,00,1,00,1,99999,9,00,1,00,1",,"999,M,+0279,1","99999,9,09829,1","4,1,000,1,+999,9",,SYN070AAXX  29181 57328 32963 00703 10149 20104 39829 40229 54000 333 10279;,Q01  00002PRCP06
04-29T21:00:00,4,31.2,107.5,344.0,"DA XIAN, CH",FM-12,99999,V020,"040,1,N,0030,1","22000,1,9,N","012000,1,N,1","+0131,1","+0105,1","10225,1",,,,,"00,1,+99999,9,99,9","00,99,1,00,1,00,1,99999,9,00,1,00,1",,,,"7,1,005,1,+999,9",,SYN054AAXX  29211 57328 42962 00403 10131 20105 40225 57005;,
04-30T00:00:00,4,31.2,107.5,344.0,"DA XIAN, CH",FM-12,99999,V020,"040,1,N,0030,1","22000,1,9,N","015000,1,N,1","+0145,1","+0100,1","10244,1","06,0000,9,1",,,,"00,1,+99999,9,99,9","00,99,1,00,1,00,1,99999,9,00,1,00,1",,,"99999,9,09841,1","2,1,017,1,+003,1",,SYN070AAXX  30001 57328 32965 00403 10145 20100 39841 40244 52017 333 00353;,Q01  00002PRCP06
04-30T03:00:00,4,31.2,107.5,344.0,"DA XIAN, CH",FM-12,99999,V020,"040,1,N,0030,1","22000,1,9,N","020000,1,N,1","+0233,1","+0109,1","10241,1",,,,,"00,1,+99999,9,99,9","00,99,1,00,1,00,1,99999,9,00,1,00,1",,,,"7,1,001,1,+999,9",,SYN054AAXX  30031 57328 42970 00403 10233 20109 40241 57001;,
04-30T06:00:00,4,31.2,107.5,344.0,"DA XIAN, CH",FM-12,99999,V020,"200,1,N,0020,1","22000,1,9,N","030000,1,N,1","+0285,1","+0049,1","10199,1","06,0000,9,1",,,,"00,1,+99999,9,99,9","00,99,1,00,1,00,1,99999,9,00,1,00,1",,"999,N,+0124,1","99999,9,09801,1","7,1,039,1,+999,9",,SYN070AAXX  30061 57328 32980 02002 10285 20049 39801 40199 57039 333 20124;,Q01  00002PRCP06
04-30T09:00:00,4,31.2,107.5,344.0,"DA XIAN, CH",FM-12,99999,V020,"220,1,N,0020,1","22000,1,9,N","030000,1,N,1","+0283,1","+0028,1","10161,1",,,,,"00,1,+99999,9,99,9","00,99,1,00,1,00,1,99999,9,00,1,00,1",,,,"7,1,038,1,+999,9",,SYN054AAXX  30091 57328 42980 02202 10283 20028 40161 57038;,
04-30T12:00:00,4,31.2,107.5,344.0,"DA XIAN, CH",FM-12,99999,V020,"040,1,N,0020,1","22000,1,9,N","025000,1,N,1","+0239,1","+0080,1","10150,1","06,0000,9,1",,,,,"01,99,1,01,1,00,1,99999,9,04,1,00,1",,,"99999,9,09751,1","7,1,012,1,+999,9",,SYN066AAXX  30121 57328 32975 10402 10239 20080 39751 40150 57012 81040;,Q01  00002PRCP06
04-30T15:00:00,4,31.2,107.5,344.0,"DA XIAN, CH",FM-12,99999,V020,"040,1,N,0020,1","22000,1,9,N","015000,1,N,1","+0177,1","+0104,1","10149,1",,,,,"00,1,+99999,9,99,9","00,99,1,00,1,00,1,99999,9,00,1,00,1",,,,"4,1,000,1,+999,9",,SYN054AAXX  30151 57328 42965 00402 10177 20104 40149 54000;,
04-30T18:00:00,4,31.2,107.5,344.0,"DA XIAN, CH",FM-12,99999,V020,"040,1,N,0030,1","22000,1,9,N","012000,1,N,1","+0149,1","+0108,1","10133,1","06,0000,9,1",,,,"00,1,+99999,9,99,9","00,99,1,00,1,00,1,99999,9,00,1,00,1",,"999,M,+0293,1","99999,9,09738,1","7,1,013,1,+999,9",,SYN070AAXX  30181 57328 32962 00403 10149 20108 39738 40133 57013 333 10293;,Q01  00002PRCP06
04-30T21:00:00,4,31.2,107.5,344.0,"DA XIAN, CH",FM-12,99999,V020,"040,1,N,0040,1","22000,1,9,N","012000,1,N,1","+0131,1","+0105,1","10120,1",,,,,"00,1,+99999,9,99,9","00,99,1,00,1,00,1,99999,9,00,1,00,1",,,,"7,1,014,1,+999,9",,SYN054AAXX  30211 57328 42962 00404 10131 20105 40120 57014;,
05-01T00:00:00,4,31.2,107.5,344.0,"DA XIAN, CH",FM-12,99999,V020,"070,1,N,0030,1","99999,9,9,N","020000,1,N,1","+0155,1","+0099,1","10119,1","06,0000,9,1",,,,,"06,99,1,00,1,00,1,99999,9,00,1,01,1",,,"99999,9,09722,1","7,1,002,1,+012,1",,SYN076AAXX  01001 57328 32970 60703 10155 20099 39722 40119 57002 80001 333 06201;,Q01  00002PRCP06
05-01T03:00:00,4,31.2,107.5,344.0,"DA XIAN, CH",FM-12,99999,V020,"040,1,N,0020,1","22000,1,9,N","030000,1,N,1","+0242,1","+0118,1","10116,1",,,,,,"03,99,1,00,1,00,1,99999,9,00,1,01,1",,,,"7,1,002,1,+999,9",,SYN060AAXX  01031 57328 42980 30402 10242 20118 40116 57002 80001;,
05-01T06:00:00,4,31.2,107.5,344.0,"DA XIAN, CH",FM-12,99999,V020,"090,1,N,0020,1","22000,1,9,N","030000,1,N,1","+0289,1","+0102,1","10078,1","06,0000,9,1",,,,,"01,99,1,00,1,00,1,99999,9,00,1,01,1",,"999,N,+0128,1","99999,9,09685,1","7,1,035,1,+999,9",,SYN076AAXX  01061 57328 32980 10902 10289 20102 39685 40078 57035 80001 333 20128;,Q01  00002PRCP06
05-01T12:00:00,4,31.2,107.5,344.0,"DA XIAN, CH",FM-12,99999,V020,"070,1,N,0020,1","22000,1,9,N","030000,1,N,1","+0253,1","+0120,1","10040,1","06,0000,9,1",,,,,"02,99,1,02,1,00,1,99999,9,04,1,00,1",,,"99999,9,09647,1","7,1,005,1,+999,9",,SYN066AAXX  01121 57328 32980 20702 10253 20120 39647 40040 57005 82040;,Q01  00002PRCP06
05-01T15:00:00,4,31.2,107.5,344.0,"DA XIAN, CH",FM-12,99999,V020,"040,1,N,0030,1","22000,1,9,N","020000,1,N,1","+0201,1","+0133,1","10048,1",,,,,"00,1,+99999,9,99,9","00,99,1,00,1,00,1,99999,9,00,1,00,1",,,,"2,1,010,1,+999,9",,SYN054AAXX  01151 57328 42970 00403 10201 20133 40048 52010;,
05-01T18:00:00,4,31.2,107.5,344.0,"DA XIAN, CH",FM-12,99999,V020,"070,1,N,0030,1","02100,1,9,N","015000,1,N,1","+0185,1","+0135,1","10029,1","06,0000,9,1",,,,,"07,99,1,07,1,05,1,02250,1,99,9,99,9",,"999,M,+0300,1","99999,9,09640,1","7,1,017,1,+999,9",,SYN076AAXX  01181 57328 32865 70703 10185 20135 39640 40029 57017 875// 333 10300;,Q01  00002PRCP06
05-01T21:00:00,4,31.2,107.5,344.0,"DA XIAN, CH",FM-12,99999,V020,"040,1,N,0030,1","99999,9,9,N","015000,1,N,1","+0185,1","+0133,1","10016,1",,,,,,"08,99,1,08,1,00,1,99999,9,07,1,99,9",,,,"7,1,012,1,+999,9",,SYN060AAXX  01211 57328 42965 80403 10185 20133 40016 57012 8807/;,
05-02T00:00:00,4,31.2,107.5,344.0,"DA XIAN, CH",FM-12,99999,V020,"070,1,N,0010,1","99999,9,9,N","018000,1,N,1","+0195,1","+0126,1","10025,1","06,0000,9,1",,,,,"07,99,1,07,1,00,1,99999,9,04,1,99,9",,,"99999,9,09635,1","2,1,007,1,+009,1",,SYN076AAXX  02001 57328 32968 70701 10195 20126 39635 40025 52007 8704/ 333 05904;,Q01  00002PRCP06
05-02T03:00:00,4,31.2,107.5,344.0,"DA XIAN, CH",FM-12,99999,V020,"070,1,N,0020,1","99999,9,9,N","025000,1,N,1","+0246,1","+0130,1","10025,1",,,,,,"07,99,1,07,1,00,1,99999,9,04,1,00,1",,,,"4,1,000,1,+999,9",,SYN060AAXX  02031 57328 42975 70702 10246 20130 40025 54000 87040;,
05-02T06:00:00,4,31.2,107.5,344.0,"DA XIAN, CH",FM-12,99999,V020,"090,1,N,0030,1","99999,9,9,N","030000,1,N,1","+0279,1","+0130,1","10002,1","06,0000,9,1",,,,,"07,99,1,07,1,00,1,99999,9,04,1,99,9",,"999,N,+0182,1","99999,9,09614,1","7,1,021,1,+999,9",,SYN076AAXX  02061 57328 32980 70903 10279 20130 39614 40002 57021 8704/ 333 20182;,Q01  00002PRCP06
05-02T09:00:00,4,31.2,107.5,344.0,"DA XIAN, CH",FM-12,99999,V020,"040,1,N,0020,1","99999,9,9,N","030000,1,N,1","+0285,1","+0147,1","09980,1",,,,,,"07,99,1,07,1,00,1,99999,9,04,1,99,9",,,,"7,1,021,1,+999,9",,SYN060AAXX  02091 57328 42980 70402 10285 20147 49980 57021 8704/;,
05-02T12:00:00,4,31.2,107.5,344.0,"DA XIAN, CH",FM-12,99999,V020,"040,1,N,0020,1","99999,9,9,N","030000,1,N,1","+0257,1","+0154,1","09993,1","06,0000,9,1",,,,,"07,99,1,07,1,00,1,99999,9,04,1,99,9",,,"99999,9,09604,1","2,1,011,1,+999,9",,SYN066AAXX  02121 57328 32980 70402 10257 20154 39604 49993 52011 8704/;,Q01  00002PRCP06
05-02T15:00:00,4,31.2,107.5,344.0,"DA XIAN, CH",FM-12,99999,V020,"040,1,N,0020,1","22000,1,9,N","018000,1,N,1","+0225,1","+0155,1","10015,1",,,,,,"02,99,1,02,1,00,1,99999,9,04,1,00,1",,,,"2,1,023,1,+999,9",,SYN060AAXX  02151 57328 42968 20402 10225 20155 40015 52023 82040;,
05-02T18:00:00,4,31.2,107.5,344.0,"DA XIAN, CH",FM-12,99999,V020,"040,1,N,0030,1","99999,9,9,N","015000,1,N,1","+0206,1","+0160,1","10008,1","06,0000,9,1",,,,,"06,99,1,06,1,00,1,99999,9,04,1,00,1",,"999,M,+0294,1","99999,9,09621,1","7,1,006,1,+999,9",,SYN076AAXX  02181 57328 32965 60403 10206 20160 39621 40008 57006 86040 333 10294;,Q01  00002PRCP06
05-02T21:00:00,4,31.2,107.5,344.0,"DA XIAN, CH",FM-12,99999,V020,"070,1,N,0020,1","99999,9,9,N","012000,1,N,1","+0196,1","+0165,1","10005,1",,,,,,"08,99,1,08,1,00,1,99999,9,07,1,99,9",,,,"7,1,003,1,+999,9",,SYN060AAXX  02211 57328 42962 80702 10196 20165 40005 57003 8807/;,
05-03T00:00:00,4,31.2,107.5,344.0,"DA XIAN, CH",FM-12,99999,V020,"070,1,N,0030,1","99999,9,9,N","020000,1,N,1","+0203,1","+0169,1","10019,1","06,0000,9,1",,,,,"07,99,1,07,1,00,1,99999,9,04,1,99,9",,,"99999,9,09630,1","2,1,012,1,+001,1",,SYN076AAXX  03001 57328 32970 70703 10203 20169 39630 40019 52012 8704/ 333 05101;,Q01  00002PRCP06
05-03T03:00:00,4,31.2,107.5,344.0,"DA XIAN, CH",FM-12,99999,V020,"220,1,N,0010,1","22000,1,9,N","030000,1,N,1","+0265,1","+0169,1","10020,1",,,,,"00,1,+99999,9,99,9","00,99,1,00,1,00,1,99999,9,00,1,00,1",,,,"2,1,003,1,+999,9",,SYN054AAXX  03031 57328 42980 02201 10265 20169 40020 52003;,
05-03T06:00:00,4,31.2,107.5,344.0,"DA XIAN, CH",FM-12,99999,V020,"320,1,N,0020,1","22000,1,9,N","015000,1,N,1","+0305,1","+0165,1","09997,1","06,0000,9,1",,,,,"01,99,1,01,1,01,1,01250,1,00,1,00,1",,"999,N,+0194,1","99999,9,09612,1","7,1,021,1,+999,9",,SYN076AAXX  03061 57328 32665 13202 10305 20165 39612 49997 57021 81100 333 20194;,Q01  00002PRCP06
05-03T09:00:00,4,31.2,107.5,344.0,"DA XIAN, CH",FM-12,99999,V020,"200,1,N,0030,1","02100,1,9,N","015000,1,N,1","+0299,1","+0173,1","09985,1",,,,,,"07,99,1,07,1,05,1,02250,1,99,9,99,9",,,,"7,1,013,1,+999,9",,SYN060AAXX  03091 57328 42865 72003 10299 20173 49985 57013 875//;,
05-03T12:00:00,4,31.2,107.5,344.0,"DA XIAN, CH",FM-12,99999,V020,"200,1,N,0020,1","99999,9,9,N","012000,1,N,1","+0265,1","+0185,1","09997,1","06,0000,9,1",,,,,"08,99,1,08,1,00,1,99999,9,07,1,99,9",,,"99999,9,09609,1","2,1,010,1,+999,9",,SYN066AAXX  03121 57328 32962 82002 10265 20185 39609 49997 52010 8807/;,Q01  00002PRCP06
05-03T15:00:00,4,31.2,107.5,344.0,"DA XIAN, CH",FM-12,99999,V020,"040,1,N,0020,1","99999,9,9,N","012000,1,N,1","+0244,1","+0190,1","10013,1",,,,,,"08,99,1,08,1,00,1,99999,9,07,1,99,9",,,,"2,1,018,1,+999,9",,SYN060AAXX  03151 57328 42962 80402 10244 20190 40013 52018 8807/;,
05-03T18:00:00,4,31.2,107.5,344.0,"DA XIAN, CH",FM-12,99999,V020,"040,1,N,0030,1","02100,1,9,N","012000,1,N,1","+0234,1","+0172,1","10007,1","06,0000,9,1",,,,,"08,99,1,08,1,05,1,02250,1,99,9,99,9",,"999,M,+0318,1","99999,9,09623,1","7,1,004,1,+999,9",,SYN076AAXX  03181 57328 32862 80403 10234 20172 39623 40007 57004 885// 333 10318;,Q01  00002PRCP06
05-03T21:00:00,4,31.2,107.5,344.0,"DA XIAN, CH",FM-12,99999,V020,"070,1,N,0030,1","02100,1,9,N","011000,1,N,1","+0203,1","+0191,1","10007,1","24,0020,9,1",,"9,1,03,1","8,1,03,1",,"08,99,1,08,1,05,1,02250,1,99,9,99,9",,,,"7,1,002,1,+999,9","60,1",SYN076AAXX  03211 57328 41861 80703 10203 20191 40007 57002 76098 885// 333 70020;,
05-04T00:00:00,4,31.2,107.5,344.0,"DA XIAN, CH",FM-12,99999,V020,"040,1,N,0040,1","01500,1,9,N","011000,1,N,1","+0195,1","+0186,1","10021,1","06,0119,9,2","24,0114,9,2","9,1,06,1","6,1,06,1",,"08,99,1,08,1,09,1,01750,1,99,9,99,9",,,"99999,9,09632,1","2,1,011,1,+000,1","95,1",SYN094AAXX  04001 57328 11761 80404 10195 20186 39632 40021 52011 60121 79596 889// 333 00051 70115;,
05-04T03:00:00,4,31.2,107.5,344.0,"DA XIAN, CH",FM-12,99999,V020,"040,1,N,0030,1","02100,1,9,N","015000,1,N,1","+0217,1","+0186,1","10030,1",,,"9,1,03,1","8,1,03,1",,"08,99,1,08,1,05,1,02250,1,99,9,99,9",,,,"2,1,008,1,+999,9","00,1",SYN066AAXX  04031 57328 41865 80403 10217 20186 40030 52008 70098 885//;,
05-04T06:00:00,4,31.2,107.5,344.0,"DA XIAN, CH",FM-12,99999,V020,"040,1,N,0030,1","02100,1,9,N","020000,1,N,1","+0229,1","+0186,1","10018,1","06,9999,9,9",,"9,1,06,1","8,1,06,1",,"08,99,1,08,1,05,1,02250,1,99,9,99,9",,"999,N,+0195,1","99999,9,09629,1","7,1,011,1,+999,9","00,1",SYN088AAXX  04061 57328 11870 80403 10229 20186 39629 40018 57011 69921 70098 885// 333 20195;,
05-04T09:00:00,4,31.2,107.5,344.0,"DA XIAN, CH",FM-12,99999,V020,"040,1,N,0030,1","99999,9,9,N","020000,1,N,1","+0259,1","+0201,1","09993,1",,,,,,"07,99,1,07,1,00,1,99999,9,04,1,00,1",,,,"7,1,024,1,+999,9",,SYN060AAXX  04091 57328 42970 70403 10259 20201 49993 57024 87040;,
05-04T12:00:00,4,31.2,107.5,344.0,"DA XIAN, CH",FM-12,99999,V020,"090,1,N,0030,1","99999,9,9,N","025000,1,N,1","+0252,1","+0194,1","10000,1","06,0000,9,1",,,,,"06,99,1,06,1,00,1,99999,9,04,1,00,1",,,"99999,9,09611,1","2,1,006,1,+999,9",,SYN066AAXX  04121 57328 32975 60903 10252 20194 39611 40000 52006 86040;,Q01  00002PRCP06
05-04T15:00:00,4,31.2,107.5,344.0,"DA XIAN, CH",FM-12,99999,V020,"090,1,N,0050,1","22000,1,9,N","025000,1,N,1","+0247,1","+0161,1","10016,1",,,,,,"04,99,1,04,1,00,1,99999,9,04,1,00,1",,,,"2,1,016,1,+999,9",,SYN060AAXX  04151 57328 42975 40905 10247 20161 40016 52016 84040;,
05-04T18:00:00,4,31.2,107.5,344.0,"DA XIAN, CH",FM-12,99999,V020,"040,1,N,0040,1","22000,1,9,N","020000,1,N,1","+0221,1","+0167,1","10013,1","06,0000,9,1",,,,"00,1,+99999,9,99,9","00,99,1,00,1,00,1,99999,9,00,1,00,1",,"999,M,+0261,1","99999,9,09623,1","7,1,004,1,+999,9",,SYN070AAXX  04181 57328 32970 00404 10221 20167 39623 40013 57004 333 10261;,Q01  00002PRCP06
05-04T21:00:00,4,31.2,107.5,344.0,"DA XIAN, CH",FM-12,99999,V020,"020,1,N,0020,1","22000,1,9,N","020000,1,N,1","+0222,1","+0155,1","09995,1","24,0097,9,1",,,,,"03,99,1,03,1,00,1,99999,9,04,1,00,1",,,,"7,1,015,1,+999,9",,SYN070AAXX  04211 57328 42970 30202 10222 20155 49995 57015 83040 333 70097;,
05-05T00:00:00,4,31.2,107.5,344.0,"DA XIAN, CH",FM-12,99999,V020,"040,1,N,0030,1","02100,1,9,N","030000,1,N,1","+0221,1","+0160,1","10000,1","06,0000,9,1","24,0003,9,1",,,,"07,99,1,07,1,05,1,02250,1,99,9,99,9",,,"99999,9,09612,1","2,1,004,1,-020,1",,SYN082AAXX  05001 57328 32880 70403 10221 20160 39612 40000 52004 875// 333 05203 70002;,Q01  00002PRCP06
05-05T03:00:00,4,31.2,107.5,344.0,"DA XIAN, CH",FM-12,99999,V020,"070,1,N,0020,1","03600,1,9,N","020000,1,N,1","+0225,1","+0181,1","10000,1",,,"8,1,03,1",,,"08,99,1,04,1,04,1,01750,1,02,1,99,9",,,,"4,1,000,1,+999,9","80,1",SYN066AAXX  05031 57328 41770 80702 10225 20181 40000 54000 78080 8442/;,
05-05T06:00:00,4,31.2,107.5,344.0,"DA XIAN, CH",FM-12,99999,V020,"999,9,C,0000,1","02100,1,9,N","025000,1,N,1","+0221,1","+0193,1","09978,1","06,0010,9,1",,"8,1,06,1",,,"08,99,1,08,1,05,1,02250,1,99,9,99,9",,"999,N,+0213,1","99999,9,09589,1","7,1,023,1,+999,9","00,1",SYN088AAXX  05061 57328 11875 80000 10221 20193 39589 49978 57023 60011 70080 885// 333 20213;,
05-05T09:00:00,4,31.2,107.5,344.0,"DA XIAN, CH",FM-12,99999,V020,"040,1,N,0020,1","01500,1,9,N","030000,1,N,1","+0248,1","+0193,1","09956,1",,,,,,"07,99,1,07,1,08,1,01250,1,99,9,99,9",,,,"7,1,019,1,+999,9",,SYN060AAXX  05091 57328 42680 70402 10248 20193 49956 57019 878//;,
05-05T12:00:00,4,31.2,107.5,344.0,"DA XIAN, CH",FM-12,99999,V020,"040,1,N,0020,1","02100,1,9,N","030000,1,N,1","+0235,1","+0189,1","09964,1","06,0000,9,1",,,,,"08,99,1,08,1,05,1,02250,1,99,9,99,9",,,"99999,9,09577,1","2,1,007,1,+999,9",,SYN066AAXX  05121 57328 32880 80402 10235 20189 39577 49964 52007 885//;,Q01  00002PRCP06
05-05T15:00:00,4,31.2,107.5,344.0,"DA XIAN, CH",FM-12,99999,V020,"040,1,N,0020,1","22000,1,9,N","016000,1,N,1","+0215,1","+0184,1","09979,1",,,,,,"04,99,1,04,1,05,1,02250,1,00,1,00,1",,,,"2,1,013,1,+999,9",,SYN060AAXX  05151 57328 42866 40402 10215 20184 49979 52013 84500;,
05-05T18:00:00,4,31.2,107.5,344.0,"DA XIAN, CH",FM-12,99999,V020,"040,1,N,0020,1","02100,1,9,N","014000,1,N,1","+0209,1","+0181,1","09963,1","06,0000,9,1",,,,,"07,99,1,07,1,05,1,02250,1,99,9,99,9",,"999,M,+0251,1","99999,9,09574,1","7,1,016,1,+999,9",,SYN076AAXX  05181 57328 32864 70402 10209 20181 39574 49963 57016 875// 333 10251;,Q01  00002PRCP06
05-05T21:00:00,4,31.2,107.5,344.0,"DA XIAN, CH",FM-12,99999,V020,"090,1,N,0020,1","01500,1,9,N","003000,1,N,1","+0193,1","+0190,1","09976,1","24,0206,9,1",,"9,1,03,1","8,1,03,1",,"08,99,1,08,1,09,1,01750,1,99,9,99,9",,,,"2,1,013,1,+999,9","91,1",SYN076AAXX  05211 57328 41730 80902 10193 20190 49976 52013 79198 889// 333 70207;,
05-06T00:00:00,4,31.2,107.5,344.0,"DA XIAN, CH",FM-12,99999,V020,"040,1,N,0020,1","02100,1,9,N","005000,1,N,1","+0193,1","+0187,1","09994,1","06,0239,9,1","24,0249,9,1","9,1,06,1","8,1,06,1",,"08,99,1,08,1,05,1,02250,1,99,9,99,9",,,"99999,9,09604,1","2,1,017,1,-010,1","60,1",SYN094AAXX  06001 57328 11850 80402 10193 20187 39604 49994 52017 60241 76098 885// 333 05153 70249;,
05-06T03:00:00,4,31.2,107.5,344.0,"DA XIAN, CH",FM-12,99999,V020,"020,1,N,0020,1","02100,1,9,N","030000,1,N,1","+0195,1","+0176,1","10016,1",,,"6,1,03,1","6,1,03,1",,"08,99,1,08,1,05,1,02250,1,99,9,99,9",,,,"2,1,020,1,+999,9","21,1",SYN066AAXX  06031 57328 41880 80202 10195 20176 40016 52020 72166 885//;,
05-06T06:00:00,4,31.2,107.5,344.0,"DA XIAN, CH",FM-12,99999,V020,"200,1,N,0010,1","01200,1,9,N","030000,1,N,1","+0233,1","+0177,1","10008,1","06,0071,9,1",,"6,1,06,1",,,"07,99,1,07,1,01,1,01250,1,00,1,00,1",,"999,N,+0188,1","99999,9,09618,1","7,1,006,1,+999,9","00,1",SYN088AAXX  06061 57328 11680 72001 10233 20177 39618 40008 57006 60071 70060 87100 333 20188;,
05-06T09:00:00,4,31.2,107.5,344.0,"DA XIAN, CH",FM-12,99999,V020,"320,1,N,0030,1","03600,1,9,N","030000,1,N,1","+0249,1","+0144,1","10011,1",,,,,,"07,99,1,04,1,01,1,01250,1,04,1,00,1",,,,"2,1,003,1,+999,9",,SYN060AAXX  06091 57328 42680 73203 10249 20144 40011 52003 84140;,
05-06T12:00:00,4,31.2,107.5,344.0,"DA XIAN, CH",FM-12,99999,V020,"360,1,N,0030,1","03600,1,9,N","030000,1,N,1","+0223,1","+0143,1","10035,1","06,0000,9,1",,,,,"06,99,1,04,1,04,1,01750,1,04,1,00,1",,,"99999,9,09642,1","2,1,021,1,+999,9",,SYN066AAXX  06121 57328 32780 63603 10223 20143 39642 40035 52021 84440;,Q01  00002PRCP06
05-06T15:00:00,4,31.2,107.5,344.0,"DA XIAN, CH",FM-12,99999,V020,"040,1,N,0030,1","99999,9,9,N","030000,1,N,1","+0209,1","+0110,1","10054,1",,,,,,"05,99,1,05,1,00,1,99999,9,04,1,00,1",,,,"2,1,018,1,+999,9",,SYN060AAXX  06151 57328 42980 50403 10209 20110 40054 52018 85040;,
05-06T18:00:00,4,31.2,107.5,344.0,"DA XIAN, CH",FM-12,99999,V020,"360,1,N,0010,1","02100,1,9,N","015000,1,N,1","+0202,1","+0103,1","10069,1","06,0000,9,1",,,,,"07,99,1,07,1,05,1,02250,1,99,9,99,9",,"999,M,+0254,1","99999,9,09676,1","2,1,016,1,+999,9",,SYN076AAXX  06181 57328 32865 73601 10202 20103 39676 40069 52016 875// 333 10254;,Q01  00002PRCP06
05-06T21:00:00,4,31.2,107.5,344.0,"DA XIAN, CH",FM-12,99999,V020,"999,9,C,0000,1","99999,9,9,N","012000,1,N,1","+0193,1","+0117,1","10080,1","24,0109,9,1",,,,,"08,99,1,08,1,00,1,99999,9,07,1,99,9",,,,"2,1,011,1,+999,9",,SYN070AAXX  06211 57328 42962 80000 10193 20117 40080 52011 8807/ 333 70110;,
05-07T00:00:00,4,31.2,107.5,344.0,"DA XIAN, CH",FM-12,99999,V020,"090,1,N,0010,1","02100,1,9,N","030000,1,N,1","+0168,1","+0135,1","10105,1","06,0008,9,1","24,0076,9,1","6,1,06,1",,,"08,99,1,08,1,05,1,02250,1,99,9,99,9",,,"99999,9,09708,1","2,1,021,1,+100,1","60,1",SYN094AAXX  07001 57328 11880 80901 10168 20135 39708 40105 52021 69971 76060 885// 333 01053 70075;,
05-07T03:00:00,4,31.2,107.5,344.0,"DA XIAN, CH",FM-12,99999,V020,"180,1,N,0010,1","99999,9,9,N","020000,1,N,1","+0189,1","+0145,1","10120,1",,,"6,1,03,1",,,"08,99,1,08,1,00,1,99999,9,07,1,99,9",,,,"2,1,015,1,+999,9","00,1",SYN066AAXX  07031 57328 41970 81801 10189 20145 40120 52015 70060 8807/;,
05-07T06:00:00,4,31.2,107.5,344.0,"DA XIAN, CH",FM-12,99999,V020,"140,1,N,0010,1","99999,9,9,N","030000,1,N,1","+0225,1","+0149,1","10114,1","06,9999,9,9",,"6,1,06,1",,,"07,99,1,07,1,00,1,99999,9,04,1,99,9",,"999,N,+0163,1","99999,9,09719,1","7,1,004,1,+999,9","00,1",SYN088AAXX  07064 57328 11980 71402 10225 20149 39719 40114 57004 69901 70060 8704/ 333 20163;,
05-07T09:00:00,4,31.2,107.5,344.0,"DA XIAN, CH",FM-12,99999,V020,"160,1,N,0020,1","99999,9,9,N","030000,1,N,1","+0229,1","+0135,1","10108,1",,,,,,"07,99,1,07,1,00,1,99999,9,04,1,99,9",,,,"7,1,006,1,+999,9",,SYN060AAXX  07091 57328 42980 71602 10229 20135 40108 57006 8704/;,
05-07T12:00:00,4,31.2,107.5,344.0,"DA XIAN, CH",FM-12,99999,V020,"999,9,C,0000,1","02100,1,9,N","030000,1,N,1","+0217,1","+0149,1","10121,1","06,0000,9,1",,,,,"07,99,1,07,1,05,1,02250,1,99,9,99,9",,,"99999,9,09723,1","2,1,010,1,+999,9",,SYN066AAXX  07121 57328 32880 70000 10217 20149 39723 40121 52010 875//;,Q01  00002PRCP06
05-07T15:00:00,4,31.2,107.5,344.0,"DA XIAN, CH",FM-12,99999,V020,"040,1,N,0030,1","02100,1,9,N","015000,1,N,1","+0193,1","+0162,1","10141,1",,,,,,"07,99,1,07,1,05,1,02250,1,99,9,99,9",,,,"2,1,019,1,+999,9",,SYN060AAXX  07151 57328 42865 70403 10193 20162 40141 52019 875//;,
05-07T18:00:00,4,31.2,107.5,344.0,"DA XIAN, CH",FM-12,99999,V020,"999,9,C,0000,1","02100,1,9,N","012000,1,N,1","+0189,1","+0163,1","10140,1","06,0000,9,1",,,,,"07,99,1,07,1,05,1,02250,1,99,9,99,9",,"999,M,+0236,1","99999,9,09743,1","2,1,001,1,+999,9",,SYN076AAXX  07181 57328 32862 70000 10189 20163 39743 40140 52001 875// 333 10236;,Q01  00002PRCP06
05-07T21:00:00,4,31.2,107.5,344.0,"DA XIAN, CH",FM-12,99999,V020,"999,9,C,0000,1","02100,1,9,N","006000,1,N,1","+0184,1","+0166,1","10144,1","24,0008,9,1",,,,,"08,99,1,08,1,05,1,02250,1,99,9,99,9",,,,"2,1,004,1,+999,9","10,1",SYN076AAXX  07211 57328 41856 80000 10184 20166 40144 52004 71000 885// 333 70007;,
05-08T00:00:00,4,31.2,107.5,344.0,"DA XIAN, CH",FM-12,99999,V020,"070,1,N,0030,1","02100,1,9,N","015000,1,N,1","+0194,1","+0151,1","10164,1","06,0000,9,1","24,0000,2,1",,,,"08,99,1,08,1,05,1,02250,1,99,9,99,9",,,"99999,9,09766,1","2,1,019,1,+060,1",,SYN082AAXX  08001 57328 32865 80703 10194 20151 39766 40164 52019 885// 333 00603 79999;,Q01  00002PRCP06
05-08T03:00:00,4,31.2,107.5,344.0,"DA XIAN, CH",FM-12,99999,V020,"040,1,N,0030,1","02100,1,9,N","030000,1,N,1","+0197,1","+0141,1","10183,1",,,,,,"08,99,1,08,1,05,1,02250,1,99,9,99,9",,,,"2,1,017,1,+999,9",,SYN060AAXX  08031 57328 42880 80403 10197 20141 40183 52017 885//;,
05-08T06:00:00,4,31.2,107.5,344.0,"DA XIAN, CH",FM-12,99999,V020,"040,1,N,0030,1","02100,1,9,N","030000,1,N,1","+0189,1","+0145,1","10177,1","06,9999,9,9",,,,,"08,99,1,08,1,05,1,02250,1,99,9,99,9",,"999,N,+0182,1","99999,9,09776,1","7,1,007,1,+999,9","60,1",SYN088AAXX  08061 57328 11880 80403 10189 20145 39776 40177 57007 69901 76000 885// 333 20182;,
05-08T09:00:00,4,31.2,107.5,344.0,"DA XIAN, CH",FM-12,99999,V020,"040,1,N,0030,1","02100,1,9,N","030000,1,N,1","+0192,1","+0143,1","10163,1",,,"6,1,03,1",,,"08,99,1,08,1,05,1,02250,1,99,9,99,9",,,,"7,1,013,1,+999,9","00,1",SYN066AAXX  08091 57328 41880 80403 10192 20143 40163 57013 70060 885//;,
05-08T12:00:00,4,31.2,107.5,344.0,"DA XIAN, CH",FM-12,99999,V020,"070,1,N,0020,1","99999,9,9,N","030000,1,N,1","+0193,1","+0149,1","10165,1","06,9999,9,9",,"6,1,06,1",,,"07,99,1,07,1,00,1,99999,9,04,1,99,9",,,"99999,9,09765,1","2,1,002,1,+999,9","00,1",SYN078AAXX  08121 57328 11980 70702 10193 20149 39765 40165 52002 69901 70060 8704/;,
05-08T15:00:00,4,31.2,107.5,344.0,"DA XIAN, CH",FM-12,99999,V020,"090,1,N,0020,1","02100,1,9,N","020000,1,N,1","+0183,1","+0149,1","10175,1",,,,,,"08,99,1,08,1,05,1,02250,1,99,9,99,9",,,,"2,1,009,1,+999,9",,SYN060AAXX  08151 57328 42870 80902 10183 20149 40175 52009 885//;,
05-08T18:00:00,4,31.2,107.5,344.0,"DA XIAN, CH",FM-12,99999,V020,"040,1,N,0030,1","02100,1,9,N","008000,1,N,1","+0170,1","+0153,1","10168,1","06,0005,9,1",,"6,1,06,1",,,"08,99,1,08,1,05,1,02250,1,99,9,99,9",,"999,M,+0201,1","99999,9,09766,1","7,1,008,1,+999,9","60,1",SYN088AAXX  08181 57328 11858 80403 10170 20153 39766 40168 57008 69961 76060 885// 333 10201;,
05-08T21:00:00,4,31.2,107.5,344.0,"DA XIAN, CH",FM-12,99999,V020,"070,1,N,0040,1","02100,1,9,N","007000,1,N,1","+0165,1","+0141,1","10169,1","24,0010,9,1",,"6,1,03,1",,,"08,99,1,08,1,05,1,02250,1,99,9,99,9",,,,"2,1,001,1,+999,9","10,1",SYN076AAXX  08211 57328 41857 80704 10165 20141 40169 52001 71060 885// 333 70009;,
05-09T00:00:00,4,31.2,107.5,344.0,"DA XIAN, CH",FM-12,99999,V020,"090,1,N,0020,1","02100,1,9,N","015000,1,N,1","+0157,1","+0147,1","10190,1","06,0030,9,1","24,0038,9,1","6,1,06,1",,,"08,99,1,08,1,05,1,02250,1,99,9,99,9",,,"99999,9,09787,1","2,1,020,1,+020,1","60,1",SYN094AAXX  09001 57328 11865 80902 10157 20147 39787 40190 52020 60031 76060 885// 333 00254 70038;,
05-09T03:00:00,4,31.2,107.5,344.0,"DA XIAN, CH",FM-12,99999,V020,"020,1,N,0030,1","02100,1,9,N","008000,1,N,1","+0156,1","+0147,1","10201,1",,,"6,1,03,1","6,1,03,1",,"08,99,1,08,1,05,1,02250,1,99,9,99,9",,,,"2,1,010,1,+999,9","60,1",SYN066AAXX  09031 57328 41858 80203 10156 20147 40201 52010 76066 885//;,
05-09T06:00:00,4,31.2,107.5,344.0,"DA XIAN, CH",FM-12,99999,V020,"040,1,N,0020,1","99999,9,9,N","004000,1,N,1","+0154,1","+0144,1","10191,1","06,0020,9,1",,"6,1,06,1","6,1,06,1",,"08,99,1,08,1,00,1,99999,9,02,1,99,9",,"999,N,+0152,1","99999,9,09786,1","7,1,011,1,+999,9","60,1",SYN088AAXX  09061 57328 11940 80402 10154 20144 39786 40191 57011 60021 76066 8802/ 333 20152;,
05-09T09:00:00,4,31.2,107.5,344.0,"DA XIAN, CH",FM-12,99999,V020,"090,1,N,0010,1","02100,1,9,N","012000,1,N,1","+0162,1","+0152,1","10183,1",,,"6,1,03,1","6,1,03,1",,"08,99,1,08,1,05,1,02250,1,99,9,99,9",,,,"7,1,007,1,+999,9","21,1",SYN066AAXX  09091 57328 41862 80901 10162 20152 40183 57007 72166 885//;,
05-09T12:00:00,4,31.2,107.5,344.0,"DA XIAN, CH",FM-12,99999,V020,"999,9,C,0000,1","02100,1,9,N","006000,1,N,1","+0169,1","+0152,1","10187,1","06,0010,9,1",,"6,1,06,1",,,"08,99,1,08,1,05,1,02250,1,99,9,99,9",,,"99999,9,09782,1","2,1,003,1,+999,9","10,1",SYN078AAXX  09121 57328 11856 80000 10169 20152 39782 40187 52003 60011 71060 885//;,
05-09T15:00:00,4,31.2,107.5,344.0,"DA XIAN, CH",FM-12,99999,V020,"999,9,C,0000,1","99999,9,9,N","007000,1,N,1","+0161,1","+0154,1","10203,1",,,"6,1,03,1",,,"08,99,1,08,1,00,1,99999,9,07,1,99,9",,,,"2,1,015,1,+999,9","10,1",SYN066AAXX  09151 57328 41957 80000 10161 20154 40203 52015 71060 8807/;,
05-09T18:00:00,4,31.2,107.5,344.0,"DA XIAN, CH",FM-12,99999,V020,"999,9,C,0000,1","99999,9,9,N","006000,1,N,1","+0155,1","+0152,1","10193,1","06,9999,9,9",,"6,1,06,1",,,"08,99,1,08,1,00,1,99999,9,07,1,99,9",,"999,M,+0171,1","99999,9,09787,1","7,1,010,1,+999,9","10,1",SYN088AAXX  09181 57328 11956 80000 10155 20152 39787 40193 57010 69901 71060 8807/ 333 10171;,
05-09T21:00:00,4,31.2,107.5,344.0,"DA XIAN, CH",FM-12,99999,V020,"020,1,N,0020,1","02100,1,9,N","005000,1,N,1","+0154,1","+0138,1","10183,1","24,0061,9,1",,,,,"07,99,1,07,1,05,1,02250,1,99,9,99,9",,,,"7,1,009,1,+999,9","10,1",SYN076AAXX  09211 57328 41850 70202 10154 20138 40183 57009 71000 875// 333 70061;,
05-10T00:00:00,4,31.2,107.5,344.0,"DA XIAN, CH",FM-12,99999,V020,"040,1,N,0010,1","02100,1,9,N","003000,1,N,1","+0157,1","+0148,1","10190,1","06,0000,9,1","24,0033,9,1",,,,"08,99,1,08,1,05,1,02250,1,99,9,99,9",,,"99999,9,09785,1","2,1,007,1,+000,1","10,1",SYN088AAXX  10001 57328 31830 80401 10157 20148 39785 40190 52007 71000 885// 333 00000 70032;,Q01  00002PRCP06
05-10T03:00:00,4,31.2,107.5,344.0,"DA XIAN, CH",FM-12,99999,V020,"200,1,N,0010,1","03600,1,9,N","015000,1,N,1","+0205,1","+0170,1","10179,1",,,,,,"06,99,1,01,1,01,1,01250,1,04,1,00,1",,,,"7,1,008,1,+999,9",,SYN060AAXX  10031 57328 42665 62001 10205 20170 40179 57008 81140;,
05-10T06:00:00,4,31.2,107.5,344.0,"DA XIAN, CH",FM-12,99999,V020,"270,1,N,0010,1","22000,1,9,N","020000,1,N,1","+0238,1","+0159,1","10143,1","06,0000,9,1",,,,,"02,99,1,02,1,01,1,01250,1,00,1,00,1",,"999,N,+0151,1","99999,9,09745,1","7,1,032,1,+999,9",,SYN076AAXX  10061 57328 32670 22701 10238 20159 39745 40143 57032 82100 333 20151;,Q01  00002PRCP06
05-10T12:00:00,4,31.2,107.5,344.0,"DA XIAN, CH",FM-12,99999,V020,"999,9,C,0000,1","22000,1,9,N","020000,1,N,1","+0231,1","+0158,1","10128,1","06,0000,9,1",,,,,"01,99,1,01,1,00,1,99999,9,04,1,00,1",,,"99999,9,09730,1","2,1,007,1,+999,9",,SYN066AAXX  10121 57328 32970 10000 10231 20158 39730 40128 52007 81040;,Q01  00002PRCP06
05-10T15:00:00,4,31.2,107.5,344.0,"DA XIAN, CH",FM-12,99999,V020,"999,9,C,0000,1","22000,1,9,N","012000,1,N,1","+0195,1","+0169,1","10151,1",,,,,"00,1,+99999,9,99,9","00,99,1,00,1,00,1,99999,9,00,1,00,1",,,,"2,1,023,1,+999,9",,SYN054AAXX  10151 57328 42962 00000 10195 20169 40151 52023;,
05-10T18:00:00,4,31.2,107.5,344.0,"DA XIAN, CH",FM-12,99999,V020,"040,1,N,0030,1","22000,1,9,N","004000,1,N,1","+0171,1","+0161,1","10138,1","06,0000,9,1",,,,"00,1,+99999,9,99,9","00,99,1,00,1,00,1,99999,9,00,1,00,1",,"999,M,+0261,1","99999,9,09741,1","7,1,012,1,+999,9","10,1",SYN076AAXX  10181 57328 31940 00403 10171 20161 39741 40138 57012 71000 333 10261;,Q01  00002PRCP06
05-10T21:00:00,4,31.2,107.5,344.0,"DA XIAN, CH",FM-12,99999,V020,"040,1,N,0050,1","22000,1,9,N","003000,1,N,1","+0159,1","+0157,1","10122,1",,,,,"00,1,+99999,9,99,9","00,99,1,00,1,00,1,99999,9,00,1,00,1",,,,"7,1,015,1,+999,9","10,1",SYN060AAXX  10211 57328 41930 00405 10159 20157 40122 57015 71000;,
05-11T00:00:00,4,31.2,107.5,344.0,"DA XIAN, CH",FM-12,99999,V020,"040,1,N,0030,1","22000,1,9,N","005000,1,N,1","+0169,1","+0159,1","10125,1","06,0000,9,1",,"4,1,06,1",,,"04,99,1,00,1,00,1,99999,9,00,1,02,1",,,"99999,9,09728,1","2,1,002,1,+006,1","10,1",SYN082AAXX  11001 57328 31950 40403 10169 20159 39728 40125 52002 71040 80002 333 05601;,Q01  00002PRCP06
05-11T03:00:00,4,31.2,107.5,344.0,"DA XIAN, CH",FM-12,99999,V020,"040,1,N,0020,1","99999,9,9,N","007000,1,N,1","+0233,1","+0173,1","10119,1",,,,,,"07,99,1,07,1,00,1,99999,9,04,1,99,9",,,,"7,1,004,1,+999,9","10,1",SYN066AAXX  11031 57328 41957 70402 10233 20173 40119 57004 71000 8704/;,
05-11T06:00:00,4,31.2,107.5,344.0,"DA XIAN, CH",FM-12,99999,V020,"090,1,N,0010,1","02100,1,9,N","013000,1,N,1","+0249,1","+0165,1","10098,1","06,9999,9,9",,"6,1,06,1",,,"08,99,1,08,1,05,1,02250,1,99,9,99,9",,"999,N,+0153,1","99999,9,09703,1","7,1,021,1,+999,9","00,1",SYN088AAXX  11061 57328 11863 80901 10249 20165 39703 40098 57021 69901 70060 885// 333 20153;,
05-11T09:00:00,4,31.2,107.5,344.0,"DA XIAN, CH",FM-12,99999,V020,"110,1,N,0030,1","01500,1,9,N","012000,1,N,1","+0228,1","+0184,1","10081,1",,,"9,1,03,1","8,1,03,1",,"08,99,1,08,1,09,1,01750,1,99,9,99,9",,,,"7,1,018,1,+999,9","95,1",SYN066AAXX  11091 57328 41762 81103 10228 20184 40081 57018 79598 889//;,
05-11T12:00:00,4,31.2,107.5,344.0,"DA XIAN, CH",FM-12,99999,V020,"040,1,N,0030,1","01500,1,9,N","012000,1,N,1","+0207,1","+0175,1","10091,1","06,0020,9,1",,"9,1,06,1","8,1,06,1",,"08,99,1,08,1,09,1,01750,1,99,9,99,9",,,"99999,9,09693,1","2,1,008,1,+999,9","80,1",SYN078AAXX  11121 57328 11762 80403 10207 20175 39693 40091 52008 60021 78098 889//;,
05-11T15:00:00,4,31.2,107.5,344.0,"DA XIAN, CH",FM-12,99999,V020,"040,1,N,0020,1","99999,9,9,N","006000,1,N,1","+0197,1","+0178,1","10098,1",,,"8,1,03,1",,,"07,99,1,07,1,00,1,99999,9,04,1,99,9",,,,"2,1,011,1,+999,9","10,1",SYN066AAXX  11151 57328 41956 70402 10197 20178 40098 52011 71080 8704/;,
05-11T18:00:00,4,31.2,107.5,344.0,"DA XIAN, CH",FM-12,99999,V020,"040,1,N,0020,1","99999,9,9,N","003000,1,N,1","+0189,1","+0176,1","10093,1","06,9999,9,9",,"8,1,06,1",,,"07,99,1,07,1,00,1,99999,9,04,1,99,9",,"999,M,+0254,1","99999,9,09699,1","7,1,005,1,+999,9","10,1",SYN088AAXX  11181 57328 11930 70402 10189 20176 39699 40093 57005 69901 71080 8704/ 333 10254;,
05-11T21:00:00,4,31.2,107.5,344.0,"DA XIAN, CH",FM-12,99999,V020,"040,1,N,0010,1","99999,9,9,N","005000,1,N,1","+0183,1","+0177,1","10090,1","24,0020,9,1",,,,,"06,99,1,06,1,00,1,99999,9,04,1,00,1",,,,"7,1,004,1,+999,9","10,1",SYN076AAXX  11211 57328 41950 60401 10183 20177 40090 57004 71000 86040 333 70020;,
05-12T00:00:00,4,31.2,107.5,344.0,"DA XIAN, CH",FM-12,99999,V020,"070,1,N,0010,1","22000,1,9,N","003000,1,N,1","+0191,1","+0178,1","10103,1","06,0000,9,1","24,0020,9,1",,,,"02,99,1,02,1,00,1,99999,9,04,1,00,1",,,"99999,9,09706,1","2,1,011,1,-020,1","10,1",SYN088AAXX  12001 57328 31930 20701 10191 20178 39706 40103 52011 71000 82040 333 05202 70020;,Q01  00002PRCP06
05-12T03:00:00,4,31.2,107.5,344.0,"DA XIAN, CH",FM-12,99999,V020,"040,1,N,0020,1","22000,1,9,N","015000,1,N,1","+0243,1","+0174,1","10105,1",,,,,,"03,99,1,02,1,01,1,01250,1,04,1,00,1",,,,"2,1,005,1,+999,9",,SYN060AAXX  12031 57328 42665 30402 10243 20174 40105 52005 82140;,
05-12T06:00:00,4,31.2,107.5,344.0,"DA XIAN, CH",FM-12,99999,V020,"360,1,N,0010,1","03600,1,9,N","030000,1,N,1","+0266,1","+0185,1","10084,1","06,0000,9,1",,,,,"06,99,1,03,1,01,1,01250,1,04,1,00,1",,"999,N,+0181,1","99999,9,09692,1","7,1,019,1,+999,9",,SYN076AAXX  12061 57328 32680 63601 10266 20185 39692 40084 57019 83140 333 20181;,Q01  00002PRCP06
05-12T09:00:00,4,31.2,107.5,344.0,"DA XIAN, CH",FM-12,99999,V020,"040,1,N,0020,1","22000,1,9,N","030000,1,N,1","+0274,1","+0185,1","10066,1",,,,,,"03,99,1,03,1,01,1,01250,1,00,1,00,1",,,,"7,1,017,1,+999,9",,SYN060AAXX  12091 57328 42680 30402 10274 20185 40066 57017 83100;,
05-12T12:00:00,4,31.2,107.5,344.0,"DA XIAN, CH",FM-12,99999,V020,"090,1,N,0010,1","22000,1,9,N","020000,1,N,1","+0245,1","+0181,1","10078,1","06,9999,9,9",,"8,1,06,1",,,"04,99,1,04,1,00,1,99999,9,04,1,00,1",,,"99999,9,09685,1","2,1,010,1,+999,9","25,1",SYN078AAXX  12121 57328 11970 40901 10245 20181 39685 40078 52010 69911 72580 84040;,
05-12T15:00:00,4,31.2,107.5,344.0,"DA XIAN, CH",FM-12,99999,V020,"040,1,N,0020,1","22000,1,9,N","012000,1,N,1","+0214,1","+0181,1","10097,1",,,,,,"02,99,1,02,1,00,1,99999,9,04,1,00,1",,,,"2,1,020,1,+999,9",,SYN060AAXX  12151 57328 42962 20402 10214 20181 40097 52020 82040;,
05-12T18:00:00,4,31.2,107.5,344.0,"DA XIAN, CH",FM-12,99999,V020,"040,1,N,0020,1","22000,1,9,N","005000,1,N,1","+0196,1","+0177,1","10090,1","06,0000,2,1",,,,,"01,99,1,01,1,00,1,99999,9,04,1,00,1",,"999,M,+0281,1","99999,9,09698,1","7,1,007,1,+999,9","10,1",SYN082AAXX  12181 57328 31950 10402 10196 20177 39698 40090 57007 71000 81040 333 10281;,
05-12T21:00:00,4,31.2,107.5,344.0,"DA XIAN, CH",FM-12,99999,V020,"040,1,N,0020,1","99999,9,9,N","004000,1,N,1","+0193,1","+0170,1","10078,1","24,0000,2,1",,,,,"08,99,1,08,1,00,1,99999,9,07,1,99,9",,,,"7,1,011,1,+999,9","10,1",SYN076AAXX  12211 57328 41940 80402 10193 20170 40078 57011 71000 8807/ 333 70001;,
05-13T00:00:00,4,31.2,107.5,344.0,"DA XIAN, CH",FM-12,99999,V020,"070,1,N,0020,1","99999,9,9,N","015000,1,N,1","+0198,1","+0169,1","10088,1","06,0000,9,1","24,0000,2,1",,,,"08,99,1,08,1,00,1,99999,9,07,1,99,9",,,"99999,9,09695,1","2,1,008,1,-010,1",,SYN082AAXX  13001 57328 32965 80702 10198 20169 39695 40088 52008 8807/ 333 05101 70001;,Q01  00002PRCP06
05-13T03:00:00,4,31.2,107.5,344.0,"DA XIAN, CH",FM-12,99999,V020,"040,1,N,0020,1","99999,9,9,N","015000,1,N,1","+0213,1","+0171,1","10094,1",,,,,,"08,99,1,08,1,00,1,99999,9,07,1,99,9",,,,"2,1,005,1,+999,9",,SYN060AAXX  13031 57328 42965 80402 10213 20171 40094 52005 8807/;,
05-13T06:00:00,4,31.2,107.5,344.0,"DA XIAN, CH",FM-12,99999,V020,"040,1,N,0030,1","01500,1,9,N","025000,1,N,1","+0213,1","+0183,1","10078,1","06,9999,9,9",,"9,1,06,1","6,1,06,1",,"08,99,1,05,1,09,1,01750,1,07,1,99,9",,"999,N,+0190,1","99999,9,09683,1","7,1,017,1,+999,9","95,1",SYN088AAXX  13061 57328 11775 80403 10213 20183 39683 40078 57017 69901 79596 8597/ 333 20190;,
05-13T09:00:00,4,31.2,107.5,344.0,"DA XIAN, CH",FM-12,99999,V020,"180,1,N,0030,1","99999,9,9,N","028000,1,N,1","+0231,1","+0184,1","10070,1",,,"9,1,03,1","8,1,03,1",,"08,99,1,08,1,00,1,99999,9,07,1,99,9",,,,"7,1,007,1,+999,9","00,1",SYN066AAXX  13091 57328 41978 81803 10231 20184 40070 57007 70098 8807/;,
05-13T12:00:00,4,31.2,107.5,344.0,"DA XIAN, CH",FM-12,99999,V020,"360,1,N,0010,1","99999,9,9,N","015000,1,N,1","+0217,1","+0189,1","10078,1","06,9999,9,9",,"9,1,06,1","8,1,06,1",,"08,99,1,08,1,00,1,99999,9,07,1,99,9",,,"99999,9,09684,1","2,1,008,1,+999,9","60,1",SYN078AAXX  13121 57328 11965 83601 10217 20189 39684 40078 52008 69901 76098 8807/;,
05-13T15:00:00,4,31.2,107.5,344.0,"DA XIAN, CH",FM-12,99999,V020,"070,1,N,0010,1","22000,1,9,N","012000,1,N,1","+0201,1","+0189,1","10094,1",,,"6,1,03,1",,"00,1,+99999,9,99,9","00,99,1,00,1,00,1,99999,9,00,1,00,1",,,,"2,1,015,1,+999,9","00,1",SYN060AAXX  13151 57328 41962 00701 10201 20189 40094 52015 70060;,
05-13T18:00:00,4,31.2,107.5,344.0,"DA XIAN, CH",FM-12,99999,V020,"070,1,N,0020,1","22000,1,9,N","008000,1,N,1","+0185,1","+0180,1","10091,1","06,9999,9,9",,"6,1,06,1",,"00,1,+99999,9,99,9","00,99,1,00,1,00,1,99999,9,00,1,00,1",,"999,M,+0233,1","99999,9,09695,1","7,1,004,1,+999,9","10,1",SYN082AAXX  13181 57328 11958 00702 10185 20180 39695 40091 57004 69901 71060 333 10233;,
05-13T21:00:00,4,31.2,107.5,344.0,"DA XIAN, CH",FM-12,99999,V020,"999,9,C,0000,1","00015,1,9,N","000000,1,N,1","+0177,1","+0175,1","10089,1","24,0000,2,1",,"4,1,03,1",,"09,1,+99999,9,99,9","09,99,1,09,1,99,9,99999,9,99,9,99,9",,,,"7,1,001,1,+999,9","45,1",SYN070AAXX  13211 57328 41/00 90000 10177 20175 40089 57001 74540 333 79999;,
05-14T00:00:00,4,31.2,107.5,344.0,"DA XIAN, CH",FM-12,99999,V020,"040,1,N,0010,1","00030,1,9,N","000500,1,N,1","+0179,1","+0177,1","10098,1","06,9999,9,9","24,0000,2,1","5,1,06,1","4,1,06,1","09,1,+99999,9,99,9","09,99,1,09,1,99,9,99999,9,99,9,99,9",,,"99999,9,09702,1","2,1,008,1,+010,1","45,1",SYN088AAXX  14001 57328 11/05 90401 10179 20177 39702 40098 52008 69901 74554 333 00152 79999;,
05-14T03:00:00,4,31.2,107.5,344.0,"DA XIAN, CH",FM-12,99999,V020,"020,1,N,0020,1","99999,9,9,N","008000,1,N,1","+0229,1","+0182,1","10088,1",,,"4,1,03,1",,,"07,99,1,00,1,00,1,99999,9,00,1,02,1",,,"99999,9,09696,1","7,1,008,1,+999,9","10,1",SYN066AAXX  14031 57328 41958 70202 10229 20182 40088 57008 71040 80002;,Q01+999990APOSP 
05-14T06:00:00,4,31.2,107.5,344.0,"DA XIAN, CH",FM-12,99999,V020,"160,1,N,0020,1","22000,1,9,N","014000,1,N,1","+0275,1","+0172,1","10069,1","06,0000,9,1",,"4,1,06,1",,,"03,99,1,03,1,01,1,01250,1,00,1,00,1",,"999,N,+0174,1","99999,9,09678,1","7,1,016,1,+999,9","00,1",SYN082AAXX  14061 57328 31664 31602 10275 20172 39678 40069 57016 70040 83100 333 20174;,Q01  00002PRCP06
05-14T12:00:00,4,31.2,107.5,344.0,"DA XIAN, CH",FM-12,99999,V020,"040,1,N,0020,1","99999,9,9,N","018000,1,N,1","+0259,1","+0185,1","10040,1","06,0000,9,1",,,,,"06,99,1,00,1,00,1,99999,9,00,1,02,1",,,"99999,9,09649,1","7,1,002,1,+999,9",,SYN066AAXX  14121 57328 32968 60402 10259 20185 39649 40040 57002 80002;,Q01  00002PRCP06
05-14T15:00:00,4,31.2,107.5,344.0,"DA XIAN, CH",FM-12,99999,V020,"040,1,N,0020,1","99999,9,9,N","012000,1,N,1","+0222,1","+0191,1","10052,1",,,,,,"07,99,1,00,1,00,1,99999,9,00,1,02,1",,,"99999,9,09661,1","2,1,012,1,+999,9",,SYN060AAXX  14151 57328 42962 70402 10222 20191 40052 52012 80002;,Q01+999990APOSP 
05-14T18:00:00,4,31.2,107.5,344.0,"DA XIAN, CH",FM-12,99999,V020,"070,1,N,0010,1","99999,9,9,N","012000,1,N,1","+0225,1","+0180,1","10037,1","06,0000,9,1",,,,,"07,99,1,00,1,00,1,99999,9,00,1,02,1",,"999,M,+0297,1","99999,9,09650,1","7,1,011,1,+999,9",,SYN076AAXX  14181 57328 32962 70701 10225 20180 39650 40037 57011 80002 333 10297;,Q01  00002PRCP06
05-14T21:00:00,4,31.2,107.5,344.0,"DA XIAN, CH",FM-12,99999,V020,"090,1,N,0020,1","01500,1,9,N","008000,1,N,1","+0207,1","+0195,1","10025,1","24,0094,9,1",,"9,1,03,1","8,1,03,1",,"08,99,1,08,1,09,1,01750,1,99,9,99,9",,,,"7,1,013,1,+999,9","95,1",SYN076AAXX  14211 57328 41758 80902 10207 20195 40025 57013 79598 889// 333 70094;,
05-15T00:00:00,4,31.2,107.5,344.0,"DA XIAN, CH",FM-12,99999,V020,"070,1,N,0030,1","01500,1,9,N","003000,1,N,1","+0199,1","+0191,1","10037,1","06,0221,9,1","24,0221,9,1","9,1,06,1","8,1,06,1",,"08,99,1,08,1,09,1,01750,1,99,9,99,9",,,"99999,9,09647,1","2,1,010,1,-060,1","95,1",SYN094AAXX  15001 57328 11730 80703 10199 20191 39647 40037 52010 60221 79598 889// 333 05602 70222;,
05-15T03:00:00,4,31.2,107.5,344.0,"DA XIAN, CH",FM-12,99999,V020,"040,1,N,0030,1","01500,1,9,N","003000,1,N,1","+0191,1","+0185,1","10061,1",,,"9,1,03,1","8,1,03,1",,"08,99,1,08,1,09,1,01750,1,99,9,99,9",,,,"2,1,020,1,+999,9","81,1",SYN066AAXX  15031 57328 41730 80403 10191 20185 40061 52020 78198 889//;,
05-15T06:00:00,4,31.2,107.5,344.0,"DA XIAN, CH",FM-12,99999,V020,"070,1,N,0030,1","02100,1,9,N","008000,1,N,1","+0196,1","+0182,1","10060,1","06,0399,9,1",,"9,1,06,1","8,1,06,1",,"08,99,1,08,1,05,1,02250,1,99,9,99,9",,"999,N,+0190,1","99999,9,09667,1","4,1,000,1,+999,9","60,1",SYN088AAXX  15061 57328 11858 80703 10196 20182 39667 40060 54000 60401 76098 885// 333 20190;,
05-15T09:00:00,4,31.2,107.5,344.0,"DA XIAN, CH",FM-12,99999,V020,"040,1,N,0040,1","02100,1,9,N","011000,1,N,1","+0190,1","+0171,1","10060,1",,,"6,1,03,1","6,1,03,1",,"08,99,1,08,1,05,1,02250,1,99,9,99,9",,,,"7,1,002,1,+999,9","60,1",SYN066AAXX  15091 57328 41861 80404 10190 20171 40060 57002 76066 885//;,
05-15T12:00:00,4,31.2,107.5,344.0,"DA XIAN, CH",FM-12,99999,V020,"040,1,N,0030,1","02100,1,9,N","030000,1,N,1","+0191,1","+0163,1","10075,1","06,0005,9,1",,"6,1,06,1","6,1,06,1",,"08,99,1,08,1,05,1,02250,1,99,9,99,9",,,"99999,9,09679,1","2,1,014,1,+999,9","21,1",SYN078AAXX  15121 57328 11880 80403 10191 20163 39679 40075 52014 69941 72166 885//;,
05-15T15:00:00,4,31.2,107.5,344.0,"DA XIAN, CH",FM-12,99999,V020,"040,1,N,0030,1","02100,1,9,N","020000,1,N,1","+0189,1","+0163,1","10086,1",,,"6,1,03,1",,,"08,99,1,08,1,05,1,02250,1,99,9,99,9",,,"99999,9,09689,1","2,1,010,1,+999,9","00,1",SYN066AAXX  15151 57328 41870 80403 10189 20163 40086 52010 70060 885//;,Q01+999990APOSP 
05-15T18:00:00,4,31.2,107.5,344.0,"DA XIAN, CH",FM-12,99999,V020,"110,1,N,0010,1","02100,1,9,N","015000,1,N,1","+0185,1","+0172,1","10069,1","06,0010,9,1",,"6,1,06,1",,,"08,99,1,08,1,05,1,02250,1,99,9,99,9",,"999,M,+0230,1","99999,9,09673,1","7,1,016,1,+999,9","60,1",SYN088AAXX  15181 57328 11865 81101 10185 20172 39673 40069 57016 69991 76060 885// 333 10230;,
05-15T21:00:00,4,31.2,107.5,344.0,"DA XIAN, CH",FM-12,99999,V020,"040,1,N,0030,1","03600,1,9,N","008000,1,N,1","+0175,1","+0170,1","10078,1","24,0630,9,1",,"6,1,03,1","6,1,03,1",,"08,99,1,01,1,07,1,00450,1,02,1,99,9",,,"99999,9,09679,1","2,1,007,1,+999,9","60,1",SYN076AAXX  15211 57328 41458 80403 10175 20170 40078 52007 76066 8172/ 333 70629;,Q01+999990APOSP 
05-16T00:00:00,4,31.2,107.5,344.0,"DA XIAN, CH",FM-12,99999,V020,"040,1,N,0020,1","00210,1,9,N","006000,1,N,1","+0171,1","+0168,1","10096,1","06,0160,9,1","24,0579,9,1","6,1,06,1","6,1,06,1",,"08,99,1,08,1,05,1,00250,1,99,9,99,9",,,"99999,9,09697,1","2,1,017,1,+050,1","60,1",SYN094AAXX  16001 57328 11356 80402 10171 20168 39697 40096 52017 60161 76066 885// 333 00553 70578;,
05-16T03:00:00,4,31.2,107.5,344.0,"DA XIAN, CH",FM-12,99999,V020,"040,1,N,0020,1","00210,1,9,N","004000,1,N,1","+0178,1","+0173,1","10105,1",,,"6,1,03,1","6,1,03,1",,"08,99,1,08,1,05,1,00250,1,99,9,99,9",,,"99999,9,09706,1","2,1,009,1,+999,9","60,1",SYN066AAXX  16031 57328 41340 80402 10178 20173 40105 52009 76066 885//;,Q01+999990APOSP 
05-16T06:00:00,4,31.2,107.5,344.0,"DA XIAN, CH",FM-12,99999,V020,"040,1,N,0010,1","00210,1,9,N","007000,1,N,1","+0184,1","+0178,1","10097,1","06,0020,9,1",,"6,1,06,1","6,1,06,1",,"08,99,1,08,1,05,1,00250,1,99,9,99,9",,"999,N,+0171,1","99999,9,09699,1","7,1,007,1,+999,9","60,1",SYN088AAXX  16061 57328 11357 80401 10184 20178 39699 40097 57007 60021 76066 885// 333 20171;,
05-16T09:00:00,4,31.2,107.5,344.0,"DA XIAN, CH",FM-12,99999,V020,"140,1,N,0010,1","00420,1,9,N","030000,1,N,1","+0194,1","+0173,1","10085,1",,,"6,1,03,1","6,1,03,1",,"08,99,1,08,1,05,1,00450,1,99,9,99,9",,,"99999,9,09689,1","7,1,012,1,+999,9","21,1",SYN066AAXX  16091 57328 41480 81401 10194 20173 40085 57012 72166 885//;,Q01+999990APOSP 
05-16T12:00:00,4,31.2,107.5,344.0,"DA XIAN, CH",FM-12,99999,V020,"999,9,C,0000,1","99999,9,9,N","030000,1,N,1","+0195,1","+0166,1","10090,1","06,0005,9,1",,"6,1,06,1",,,"08,99,1,08,1,00,1,99999,9,07,1,99,9",,,"99999,9,09692,1","2,1,005,1,+999,9","00,1",SYN078AAXX  16121 57328 11980 80000 10195 20166 39692 40090 52005 69951 70060 8807/;,
05-16T15:00:00,4,31.2,107.5,344.0,"DA XIAN, CH",FM-12,99999,V020,"040,1,N,0010,1","99999,9,9,N","020000,1,N,1","+0185,1","+0169,1","10099,1",,,,,,"07,99,1,07,1,00,1,99999,9,04,1,99,9",,,"99999,9,09701,1","2,1,008,1,+999,9",,SYN060AAXX  16151 57328 42970 70401 10185 20169 40099 52008 8704/;,Q01+999990APOSP 
05-16T18:00:00,4,31.2,107.5,344.0,"DA XIAN, CH",FM-12,99999,V020,"040,1,N,0010,1","99999,9,9,N","015000,1,N,1","+0185,1","+0172,1","10093,1","06,0000,9,1",,,,,"08,99,1,08,1,00,1,99999,9,07,1,99,9",,"999,M,+0198,1","99999,9,09695,1","7,1,005,1,+999,9",,SYN076AAXX  16181 57328 32965 80401 10185 20172 39695 40093 57005 8807/ 333 10198;,Q01  00002PRCP06
05-16T21:00:00,4,31.2,107.5,344.0,"DA XIAN, CH",FM-12,99999,V020,"040,1,N,0020,1","02100,1,9,N","007000,1,N,1","+0176,1","+0171,1","10089,1","24,0140,9,1",,"6,1,03,1",,,"08,99,1,08,1,05,1,02250,1,99,9,99,9",,,"99999,9,09690,1","7,1,004,1,+999,9","60,1",SYN076AAXX  16211 57328 41857 80402 10176 20171 40089 57004 76060 885// 333 70140;,Q01+999990APOSP 
05-17T00:00:00,4,31.2,107.5,344.0,"DA XIAN, CH",FM-12,99999,V020,"040,1,N,0020,1","99999,9,9,N","012000,1,N,1","+0169,1","+0162,1","10099,1","06,0071,9,1","24,0099,9,1","6,1,06,1",,,"08,99,1,08,1,00,1,99999,9,02,1,99,9",,,"99999,9,09700,1","2,1,009,1,+000,1","60,1",SYN094AAXX  17001 57328 11962 80402 10169 20162 39700 40099 52009 60071 76060 8802/ 333 00000 70100;,
05-17T03:00:00,4,31.2,107.5,344.0,"DA XIAN, CH",FM-12,99999,V020,"070,1,N,0030,1","03600,1,9,N","008000,1,N,1","+0173,1","+0166,1","10116,1",,,"6,1,03,1","6,1,03,1",,"08,99,1,02,1,07,1,00450,1,02,1,99,9",,,"99999,9,09716,1","2,1,016,1,+999,9","60,1",SYN066AAXX  17031 57328 41458 80703 10173 20166 40116 52016 76066 8272/;,Q01+999990APOSP 
05-17T06:00:00,4,31.2,107.5,344.0,"DA XIAN, CH",FM-12,99999,V020,"040,1,N,0020,1","01500,1,9,N","020000,1,N,1","+0191,1","+0170,1","10108,1","06,0030,9,1",,"6,1,06,1","6,1,06,1",,"08,99,1,08,1,08,1,01250,1,99,9,99,9",,"999,N,+0168,1","99999,9,09710,1","7,1,006,1,+999,9","60,1",SYN088AAXX  17061 57328 11670 80402 10191 20170 39710 40108 57006 60031 76066 888// 333 20168;,
05-17T09:00:00,4,31.2,107.5,344.0,"DA XIAN, CH",FM-12,99999,V020,"040,1,N,0010,1","02100,1,9,N","030000,1,N,1","+0198,1","+0167,1","10088,1",,,"6,1,03,1",,,"08,99,1,08,1,05,1,02250,1,99,9,99,9",,,"99999,9,09692,1","7,1,020,1,+999,9","00,1",SYN066AAXX  17091 57328 41880 80401 10198 20167 40088 57020 70060 885//;,Q01+999990APOSP 
05-17T12:00:00,4,31.2,107.5,344.0,"DA XIAN, CH",FM-12,99999,V020,"040,1,N,0020,1","02100,1,9,N","030000,1,N,1","+0191,1","+0172,1","10102,1","06,9999,9,9",,"6,1,06,1",,,"08,99,1,08,1,05,1,02250,1,99,9,99,9",,,"99999,9,09703,1","2,1,013,1,+999,9","00,1",SYN078AAXX  17121 57328 11880 80402 10191 20172 39703 40102 52013 69921 70060 885//;,
05-17T15:00:00,4,31.2,107.5,344.0,"DA XIAN, CH",FM-12,99999,V020,"090,1,N,0010,1","02100,1,9,N","005000,1,N,1","+0185,1","+0172,1","10119,1",,,,,,"07,99,1,07,1,05,1,02250,1,99,9,99,9",,,"99999,9,09720,1","2,1,016,1,+999,9","10,1",SYN066AAXX  17151 57328 41850 70901 10185 20172 40119 52016 71000 875//;,Q01+999990APOSP 
05-17T18:00:00,4,31.2,107.5,344.0,"DA XIAN, CH",FM-12,99999,V020,"999,9,C,0000,1","99999,9,9,N","004000,1,N,1","+0181,1","+0171,1","10117,1","06,0000,9,1",,,,,"07,99,1,07,1,00,1,99999,9,04,1,99,9",,"999,M,+0198,1","99999,9,09718,1","7,1,001,1,+999,9","10,1",SYN082AAXX  17181 57328 31940 70000 10181 20171 39718 40117 57001 71000 8704/ 333 10198;,Q01  00002PRCP06
05-17T21:00:00,4,31.2,107.5,344.0,"DA XIAN, CH",FM-12,99999,V020,"070,1,N,0010,1","02100,1,9,N","008000,1,N,1","+0176,1","+0171,1","10118,1","24,0069,9,1",,"6,1,03,1",,,"08,99,1,08,1,05,1,02250,1,99,9,99,9",,,"99999,9,09718,1","2,1,001,1,+999,9","60,1",SYN076AAXX  17211 57328 41858 80701 10176 20171 40118 52001 76060 885// 333 70068;,Q01+999990APOSP 
05-18T00:00:00,4,31.2,107.5,344.0,"DA XIAN, CH",FM-12,99999,V020,"999,9,C,0000,1","99999,9,9,N","002500,1,N,1","+0179,1","+0173,1","10135,1","06,9999,9,9","24,0030,9,1","6,1,06,1",,,"08,99,1,08,1,00,1,99999,9,07,1,99,9",,,"99999,9,09735,1","2,1,016,1,+040,1","10,1",SYN094AAXX  18001 57328 11925 80000 10179 20173 39735 40135 52016 69901 71060 8807/ 333 00401 70031;,
05-18T03:00:00,4,31.2,107.5,344.0,"DA XIAN, CH",FM-12,99999,V020,"320,1,N,0010,1","99999,9,9,N","011000,1,N,1","+0214,1","+0176,1","10136,1",,,"6,1,03,1",,,"07,99,1,07,1,00,1,99999,9,04,1,99,9",,,"99999,9,09740,1","2,1,003,1,+999,9","00,1",SYN066AAXX  18031 57328 41961 73201 10214 20176 40136 52003 70060 8704/;,Q01+999990APOSP 
05-18T06:00:00,4,31.2,107.5,344.0,"DA XIAN, CH",FM-12,99999,V020,"160,1,N,0010,1","03600,1,9,N","020000,1,N,1","+0243,1","+0159,1","10122,1","06,9999,9,9",,"6,1,06,1",,,"07,99,1,01,1,01,1,01250,1,04,1,99,9",,"999,N,+0173,1","99999,9,09726,1","7,1,012,1,+999,9","00,1",SYN088AAXX  18061 57328 11670 71601 10243 20159 39726 40122 57012 69901 70060 8114/ 333 20173;,
05-18T09:00:00,4,31.2,107.5,344.0,"DA XIAN, CH",FM-12,99999,V020,"220,1,N,0010,1","99999,9,9,N","030000,1,N,1","+0253,1","+0169,1","10108,1",,,,,,"07,99,1,07,1,00,1,99999,9,04,1,99,9",,,"99999,9,09718,1","7,1,013,1,+999,9",,SYN060AAXX  18091 57328 42980 72201 10253 20169 40108 57013 8704/;,Q01+999990APOSP 
05-18T12:00:00,4,31.2,107.5,344.0,"DA XIAN, CH",FM-12,99999,V020,"180,1,N,0010,1","99999,9,9,N","010000,1,N,1","+0227,1","+0170,1","10118,1","06,0000,9,1",,,,,"08,99,1,08,1,00,1,99999,9,07,1,99,9",,,"99999,9,09721,1","2,1,008,1,+999,9",,SYN066AAXX  18121 57328 32960 81801 10227 20170 39721 40118 52008 8807/;,Q01  00002PRCP06
05-18T15:00:00,4,31.2,107.5,344.0,"DA XIAN, CH",FM-12,99999,V020,"040,1,N,0010,1","99999,9,9,N","012000,1,N,1","+0203,1","+0178,1","10141,1",,,,,,"08,99,1,08,1,00,1,99999,9,07,1,99,9",,,"99999,9,09744,1","2,1,023,1,+999,9",,SYN060AAXX  18151 57328 42962 80401 10203 20178 40141 52023 8807/;,Q01+999990APOSP 
05-18T18:00:00,4,31.2,107.5,344.0,"DA XIAN, CH",FM-12,99999,V020,"999,9,C,0000,1","99999,9,9,N","008000,1,N,1","+0197,1","+0176,1","10143,1","06,0000,9,1",,,,,"08,99,1,08,1,00,1,99999,9,07,1,99,9",,"999,M,+0254,1","99999,9,09748,1","2,1,004,1,+999,9","10,1",SYN082AAXX  18181 57328 31958 80000 10197 20176 39748 40143 52004 71000 8807/ 333 10254;,Q01  00002PRCP06
05-18T21:00:00,4,31.2,107.5,344.0,"DA XIAN, CH",FM-12,99999,V020,"070,1,N,0010,1","99999,9,9,N","002000,1,N,1","+0187,1","+0174,1","10143,1","24,0000,2,1",,,,,"08,99,1,08,1,00,1,99999,9,07,1,99,9",,,"99999,9,09743,1","4,1,000,1,+999,9","10,1",SYN076AAXX  18211 57328 41920 80701 10187 20174 40143 54000 71000 8807/ 333 79999;,Q01+999990APOSP 
05-19T00:00:00,4,31.2,107.5,344.0,"DA XIAN, CH",FM-12,99999,V020,"070,1,N,0010,1","99999,9,9,N","004000,1,N,1","+0197,1","+0180,1","10161,1","06,0000,9,1","24,0000,9,1",,,,"06,99,1,06,1,00,1,99999,9,04,1,00,1",,,"99999,9,09764,1","2,1,016,1,+030,1","10,1",SYN088AAXX  19001 57328 31940 60701 10197 20180 39764 40161 52016 71000 86040 333 00302 79999;,Q01  00002PRCP06Q02  00002PRCP24
05-19T03:00:00,4,31.2,107.5,344.0,"DA XIAN, CH",FM-12,99999,V020,"180,1,N,0020,1","22000,1,9,N","006000,1,N,1","+0238,1","+0182,1","10164,1",,,,,,"03,99,1,03,1,00,1,99999,9,04,1,00,1",,,"99999,9,09770,1","2,1,004,1,+999,9","10,1",SYN066AAXX  19031 57328 41956 31802 10238 20182 40164 52004 71000 83040;,Q01+999990APOSP 
05-19T06:00:00,4,31.2,107.5,344.0,"DA XIAN, CH",FM-12,99999,V020,"999,9,C,0000,1","99999,9,9,N","015000,1,N,1","+0262,1","+0187,1","10149,1","06,0000,9,1",,,,,"07,99,1,07,1,00,1,99999,9,04,1,99,9",,"999,N,+0183,1","99999,9,09755,1","7,1,013,1,+999,9",,SYN076AAXX  19061 57328 32965 70000 10262 20187 39755 40149 57013 8704/ 333 20183;,Q01  00002PRCP06
05-19T09:00:00,4,31.2,107.5,344.0,"DA XIAN, CH",FM-12,99999,V020,"180,1,N,0030,1","99999,9,9,N","020000,1,N,1","+0257,1","+0190,1","10131,1",,,,,,"07,99,1,07,1,00,1,99999,9,04,1,99,9",,,"99999,9,09741,1","7,1,019,1,+999,9",,SYN060AAXX  19091 57328 42970 71803 10257 20190 40131 57019 8704/;,Q01+999990APOSP 
05-19T12:00:00,4,31.2,107.5,344.0,"DA XIAN, CH",FM-12,99999,V020,"220,1,N,0010,1","99999,9,9,N","012000,1,N,1","+0241,1","+0180,1","10146,1","06,0000,9,1",,,,,"06,99,1,06,1,00,1,99999,9,04,1,00,1",,,"99999,9,09750,1","2,1,014,1,+999,9",,SYN066AAXX  19121 57328 32962 62201 10241 20180 39750 40146 52014 86040;,Q01  00002PRCP06
05-19T15:00:00,4,31.2,107.5,344.0,"DA XIAN, CH",FM-12,99999,V020,"999,9,C,0000,1","22000,1,9,N","008000,1,N,1","+0218,1","+0193,1","10158,1",,,,,"00,1,+99999,9,99,9","00,99,1,00,1,00,1,99999,9,00,1,00,1",,,"99999,9,09762,1","2,1,013,1,+999,9","10,1",SYN060AAXX  19151 57328 41958 00000 10218 20193 40158 52013 71000;,Q01+999990APOSP 
05-19T18:00:00,4,31.2,107.5,344.0,"DA XIAN, CH",FM-12,99999,V020,"999,9,C,0000,1","99999,9,9,N","005000,1,N,1","+0213,1","+0194,1","10155,1","06,0000,9,1",,,,,"08,99,1,08,1,00,1,99999,9,07,1,99,9",,"999,M,+0264,1","99999,9,09761,1","7,1,002,1,+999,9","10,1",SYN082AAXX  19181 57328 31950 80000 10213 20194 39761 40155 57002 71000 8807/ 333 10264;,Q01  00002PRCP06
05-19T21:00:00,4,31.2,107.5,344.0,"DA XIAN, CH",FM-12,99999,V020,"999,9,C,0000,1","02100,1,9,N","005000,1,N,1","+0210,1","+0193,1","10151,1","24,0000,2,1",,"6,1,03,1",,,"08,99,1,08,1,05,1,02250,1,99,9,99,9",,,"99999,9,09754,1","7,1,004,1,+999,9","60,1",SYN076AAXX  19211 57328 41850 80000 10210 20193 40151 57004 76060 885// 333 79999;,Q01+999990APOSP 
05-20T00:00:00,4,31.2,107.5,344.0,"DA XIAN, CH",FM-12,99999,V020,"070,1,N,0020,1","02100,1,9,N","002000,1,N,1","+0200,1","+0191,1","10167,1","06,0010,9,1","24,0013,9,1","6,1,06,1",,,"08,99,1,08,1,05,1,02250,1,99,9,99,9",,,"99999,9,09771,1","2,1,014,1,+010,1","60,1",SYN094AAXX  20001 57328 11820 80702 10200 20191 39771 40167 52014 60011 76060 885// 333 00100 70013;,
05-20T03:00:00,4,31.2,107.5,344.0,"DA XIAN, CH",FM-12,99999,V020,"070,1,N,0050,1","02100,1,9,N","006000,1,N,1","+0201,1","+0188,1","10164,1",,,"6,1,03,1","6,1,03,1",,"08,99,1,08,1,05,1,02250,1,99,9,99,9",,,,"7,1,005,1,+999,9","60,1",SYN066AAXX  20031 57328 41856 80705 10201 20188 40164 57005 76066 885//;,
05-20T06:00:00,4,31.2,107.5,344.0,"DA XIAN, CH",FM-12,99999,V020,"040,1,N,0020,1","02100,1,9,N","010000,1,N,1","+0203,1","+0171,1","10160,1","06,0005,9,1",,"6,1,06,1","6,1,06,1",,"08,99,1,08,1,05,1,02250,1,99,9,99,9",,"999,N,+0196,1","99999,9,09762,1","7,1,004,1,+999,9","60,1",SYN088AAXX  20061 57328 11860 80402 10203 20171 39762 40160 57004 69961 76066 885// 333 20196;,
05-20T09:00:00,4,31.2,107.5,344.0,"DA XIAN, CH",FM-12,99999,V020,"040,1,N,0030,1","03600,1,9,N","015000,1,N,1","+0181,1","+0140,1","10150,1",,,"6,1,03,1","6,1,03,1",,"08,99,1,01,1,07,1,00450,1,02,1,99,9",,,,"7,1,011,1,+999,9","60,1",SYN066AAXX  20091 57328 41465 80403 10181 20140 40150 57011 76066 8172/;,
05-20T12:00:00,4,31.2,107.5,344.0,"DA XIAN, CH",FM-12,99999,V020,"090,1,N,0010,1","02100,1,9,N","012000,1,N,1","+0164,1","+0154,1","10159,1","06,0051,9,1",,"6,1,06,1","6,1,06,1",,"08,99,1,08,1,05,1,02250,1,99,9,99,9",,,"99999,9,09758,1","2,1,007,1,+999,9","60,1",SYN078AAXX  20121 57328 11862 80901 10164 20154 39758 40159 52007 60051 76066 885//;,
05-20T15:00:00,4,31.2,107.5,344.0,"DA XIAN, CH",FM-12,99999,V020,"040,1,N,0020,1","00420,1,9,N","008000,1,N,1","+0164,1","+0159,1","10165,1",,,"6,1,03,1","6,1,03,1",,"08,99,1,08,1,05,1,00450,1,99,9,99,9",,,,"2,1,006,1,+999,9","60,1",SYN066AAXX  20151 57328 41458 80402 10164 20159 40165 52006 76066 885//;,
05-20T18:00:00,4,31.2,107.5,344.0,"DA XIAN, CH",FM-12,99999,V020,"040,1,N,0010,1","03600,1,9,N","006000,1,N,1","+0164,1","+0159,1","10152,1","06,0140,9,1",,"6,1,06,1","6,1,06,1",,"08,99,1,02,1,07,1,00450,1,02,1,99,9",,"999,M,+0213,1","99999,9,09751,1","7,1,013,1,+999,9","61,1",SYN088AAXX  20181 57328 11456 80401 10164 20159 39751 40152 57013 60141 76166 8272/ 333 10213;,
05-20T21:00:00,4,31.2,107.5,344.0,"DA XIAN, CH",FM-12,99999,V020,"020,1,N,0030,1","03600,1,9,N","006000,1,N,1","+0163,1","+0156,1","10141,1","24,0259,9,1",,"6,1,03,1","6,1,03,1",,"08,99,1,03,1,07,1,00450,1,02,1,99,9",,,"99999,9,09738,1","7,1,012,1,+999,9","61,1",SYN076AAXX  20211 57328 41456 80203 10163 20156 40141 57012 76166 8372/ 333 70259;,Q01+999990APOSP 
05-21T00:00:00,4,31.2,107.5,344.0,"DA XIAN, CH",FM-12,99999,V020,"040,1,N,0010,1","02100,1,9,N","008000,1,N,1","+0165,1","+0158,1","10150,1","06,0071,9,1","24,0257,9,1","6,1,06,1","6,1,06,1",,"08,99,1,08,1,05,1,02250,1,99,9,99,9",,,"99999,9,09747,1","2,1,008,1,-020,1","60,1",SYN094AAXX  21001 57328 11858 80401 10165 20158 39747 40150 52008 60071 76066 885// 333 05254 70256;,
05-21T03:00:00,4,31.2,107.5,344.0,"DA XIAN, CH",FM-12,99999,V020,"090,1,N,0010,1","02100,1,9,N","008000,1,N,1","+0173,1","+0163,1","10159,1",,,"6,1,03,1","6,1,03,1",,"08,99,1,08,1,05,1,02250,1,99,9,99,9",,,"99999,9,09757,1","2,1,009,1,+999,9","60,1",SYN066AAXX  21031 57328 41858 80901 10173 20163 40159 52009 76066 885//;,Q01+999990APOSP 
05-21T06:00:00,4,31.2,107.5,344.0,"DA XIAN, CH",FM-12,99999,V020,"360,1,N,0010,1","02100,1,9,N","011000,1,N,1","+0182,1","+0161,1","10149,1","06,0020,9,1",,"6,1,06,1","6,1,06,1",,"08,99,1,08,1,05,1,02250,1,99,9,99,9",,"999,N,+0161,1","99999,9,09747,1","7,1,009,1,+999,9","60,1",SYN088AAXX  21061 57328 11861 83601 10182 20161 39747 40149 57009 60021 76066 885// 333 20161;,
05-21T09:00:00,4,31.2,107.5,344.0,"DA XIAN, CH",FM-12,99999,V020,"999,9,C,0000,1","02100,1,9,N","020000,1,N,1","+0196,1","+0158,1","10133,1",,,"6,1,03,1",,,"08,99,1,08,1,05,1,02250,1,99,9,99,9",,,"99999,9,09735,1","7,1,014,1,+999,9","00,1",SYN066AAXX  21091 57328 41870 80000 10196 20158 40133 57014 70060 885//;,Q01+999990APOSP 
05-21T12:00:00,4,31.2,107.5,344.0,"DA XIAN, CH",FM-12,99999,V020,"040,1,N,0010,1","99999,9,9,N","015000,1,N,1","+0192,1","+0161,1","10142,1","06,9999,9,9",,"6,1,06,1",,,"07,99,1,07,1,00,1,99999,9,04,1,99,9",,,"99999,9,09741,1","2,1,008,1,+999,9","00,1",SYN078AAXX  21121 57328 11965 70401 10192 20161 39741 40142 52008 69901 70060 8704/;,
05-21T15:00:00,4,31.2,107.5,344.0,"DA XIAN, CH",FM-12,99999,V020,"140,1,N,0010,1","99999,9,9,N","012000,1,N,1","+0184,1","+0168,1","10156,1",,,,,,"08,99,1,08,1,00,1,99999,9,07,1,99,9",,,"99999,9,09755,1","2,1,014,1,+999,9",,SYN060AAXX  21151 57328 42962 81401 10184 20168 40156 52014 8807/;,Q01+999990APOSP 
05-21T18:00:00,4,31.2,107.5,344.0,"DA XIAN, CH",FM-12,99999,V020,"220,1,N,0010,1","99999,9,9,N","008000,1,N,1","+0179,1","+0169,1","10147,1","06,0000,9,1",,,,,"08,99,1,08,1,00,1,99999,9,07,1,99,9",,"999,M,+0199,1","99999,9,09746,1","7,1,009,1,+999,9","10,1",SYN082AAXX  21181 57328 31958 82201 10179 20169 39746 40147 57009 71000 8807/ 333 10199;,Q01  00002PRCP06
05-21T21:00:00,4,31.2,107.5,344.0,"DA XIAN, CH",FM-12,99999,V020,"999,9,C,0000,1","02100,1,9,N","008000,1,N,1","+0174,1","+0164,1","10132,1","24,0028,9,1",,,,,"08,99,1,08,1,05,1,02250,1,99,9,99,9",,,"99999,9,09731,1","7,1,014,1,+999,9","10,1",SYN076AAXX  21211 57328 41858 80000 10174 20164 40132 57014 71000 885// 333 70028;,Q01+999990APOSP 
05-22T00:00:00,4,31.2,107.5,344.0,"DA XIAN, CH",FM-12,99999,V020,"180,1,N,0020,1","99999,9,9,N","003000,1,N,1","+0175,1","+0168,1","10137,1","06,0000,9,1","24,0018,9,1",,,,"08,99,1,08,1,00,1,99999,9,07,1,99,9",,,"99999,9,09737,1","2,1,005,1,-010,1","10,1",SYN088AAXX  22001 57328 31930 81802 10175 20168 39737 40137 52005 71000 8807/ 333 05101 70018;,Q01  00002PRCP06
05-22T03:00:00,4,31.2,107.5,344.0,"DA XIAN, CH",FM-12,99999,V020,"220,1,N,0020,1","99999,9,9,N","011000,1,N,1","+0189,1","+0179,1","10131,1",,,,,,"08,99,1,08,1,00,1,99999,9,07,1,99,9",,,"99999,9,09732,1","7,1,005,1,+999,9",,SYN060AAXX  22031 57328 42961 82202 10189 20179 40131 57005 8807/;,Q01+999990APOSP 
05-22T06:00:00,4,31.2,107.5,344.0,"DA XIAN, CH",FM-12,99999,V020,"200,1,N,0010,1","03600,1,9,N","015000,1,N,1","+0218,1","+0172,1","10114,1","06,0000,9,1",,,,,"08,99,1,04,1,05,1,02250,1,07,1,99,9",,"999,N,+0172,1","99999,9,09717,1","7,1,015,1,+999,9",,SYN076AAXX  22061 57328 32865 82001 10218 20172 39717 40114 57015 8457/ 333 20172;,Q01  00002PRCP06
05-22T09:00:00,4,31.2,107.5,344.0,"DA XIAN, CH",FM-12,99999,V020,"270,1,N,0010,1","99999,9,9,N","020000,1,N,1","+0231,1","+0174,1","10092,1",,,,,,"07,99,1,07,1,00,1,99999,9,04,1,99,9",,,"99999,9,09700,1","7,1,021,1,+999,9",,SYN060AAXX  22091 57328 42970 72701 10231 20174 40092 57021 8704/;,Q01+999990APOSP 
05-22T12:00:00,4,31.2,107.5,344.0,"DA XIAN, CH",FM-12,99999,V020,"999,9,C,0000,1","99999,9,9,N","015000,1,N,1","+0220,1","+0179,1","10089,1","06,0000,9,1",,,,,"08,99,1,08,1,00,1,99999,9,07,1,99,9",,,"99999,9,09693,1","7,1,003,1,+999,9",,SYN066AAXX  22121 57328 32965 80000 10220 20179 39693 40089 57003 8807/;,Q01  00002PRCP06
05-22T15:00:00,4,31.2,107.5,344.0,"DA XIAN, CH",FM-12,99999,V020,"040,1,N,0020,1","99999,9,9,N","005000,1,N,1","+0197,1","+0181,1","10096,1",,,,,,"08,99,1,08,1,00,1,99999,9,07,1,99,9",,,"99999,9,09700,1","2,1,006,1,+999,9","10,1",SYN066AAXX  22151 57328 41950 80402 10197 20181 40096 52006 71000 8807/;,Q01+999990APOSP 
05-22T18:00:00,4,31.2,107.5,344.0,"DA XIAN, CH",FM-12,99999,V020,"040,1,N,0010,1","02100,1,9,N","004000,1,N,1","+0193,1","+0179,1","10090,1","06,9999,9,9",,,,,"08,99,1,08,1,05,1,02250,1,99,9,99,9",,"999,M,+0237,1","99999,9,09695,1","7,1,004,1,+999,9","60,1",SYN088AAXX  22181 57328 11840 80401 10193 20179 39695 40090 57004 69901 76000 885// 333 10237;,
05-22T21:00:00,4,31.2,107.5,344.0,"DA XIAN, CH",FM-12,99999,V020,"040,1,N,0010,1","02100,1,9,N","003000,1,N,1","+0187,1","+0181,1","10086,1","24,0010,9,1",,"6,1,03,1","6,1,03,1",,"08,99,1,08,1,05,1,02250,1,99,9,99,9",,,"99999,9,09689,1","7,1,004,1,+999,9","21,1",SYN076AAXX  22211 57328 41830 80401 10187 20181 40086 57004 72166 885// 333 70009;,Q01+999990APOSP 
05-23T00:00:00,4,31.2,107.5,344.0,"DA XIAN, CH",FM-12,99999,V020,"040,1,N,0010,1","99999,9,9,N","005000,1,N,1","+0198,1","+0184,1","10100,1","06,0010,9,1","24,0010,9,1","6,1,06,1",,,"07,99,1,07,1,00,1,99999,9,04,1,99,9",,,"99999,9,09705,1","2,1,014,1,-030,1","10,1",SYN094AAXX  23001 57328 11950 70401 10198 20184 39705 40100 52014 69991 71060 8704/ 333 05302 70009;,
05-23T03:00:00,4,31.2,107.5,344.0,"DA XIAN, CH",FM-12,99999,V020,"160,1,N,0010,1","03600,1,9,N","007000,1,N,1","+0229,1","+0180,1","10103,1",,,,,,"07,99,1,01,1,01,1,01250,1,04,1,99,9",,,"99999,9,09710,1","2,1,003,1,+999,9","10,1",SYN066AAXX  23031 57328 41657 71601 10229 20180 40103 52003 71000 8114/;,Q01+999990APOSP 
05-23T06:00:00,4,31.2,107.5,344.0,"DA XIAN, CH",FM-12,99999,V020,"200,1,N,0020,1","01200,1,9,N","013000,1,N,1","+0271,1","+0171,1","10080,1","06,0000,9,1",,,,,"06,99,1,06,1,01,1,01250,1,00,1,00,1",,"999,N,+0185,1","99999,9,09689,1","7,1,019,1,+999,9",,SYN076AAXX  23061 57328 32663 62002 10271 20171 39689 40080 57019 86100 333 20185;,Q01  00002PRCP06
05-23T09:00:00,4,31.2,107.5,344.0,"DA XIAN, CH",FM-12,99999,V020,"200,1,N,0020,1","22000,1,9,N","020000,1,N,1","+0280,1","+0180,1","10065,1",,,,,,"03,99,1,03,1,01,1,01250,1,00,1,00,1",,,"99999,9,09680,1","7,1,015,1,+999,9",,SYN060AAXX  23091 57328 42670 32002 10280 20180 40065 57015 83100;,Q01+999990APOSP 
05-23T12:00:00,4,31.2,107.5,344.0,"DA XIAN, CH",FM-12,99999,V020,"250,1,N,0020,1","22000,1,9,N","020000,1,N,1","+0259,1","+0178,1","10071,1","06,0000,9,1",,,,,"01,99,1,01,1,00,1,99999,9,04,1,00,1",,,"99999,9,09680,1","2,1,006,1,+999,9",,SYN066AAXX  23121 57328 32970 12502 10259 20178 39680 40071 52006 81040;,Q01  00002PRCP06
05-23T15:00:00,4,31.2,107.5,344.0,"DA XIAN, CH",FM-12,99999,V020,"040,1,N,0020,1","22000,1,9,N","014000,1,N,1","+0215,1","+0190,1","10091,1",,,,,"00,1,+99999,9,99,9","00,99,1,00,1,00,1,99999,9,00,1,00,1",,,"99999,9,09697,1","2,1,018,1,+999,9",,SYN054AAXX  23151 57328 42964 00402 10215 20190 40091 52018;,Q01+999990APOSP 
05-23T18:00:00,4,31.2,107.5,344.0,"DA XIAN, CH",FM-12,99999,V020,"040,1,N,0020,1","22000,1,9,N","007000,1,N,1","+0200,1","+0186,1","10091,1","06,0000,9,1",,,,"00,1,+99999,9,99,9","00,99,1,00,1,00,1,99999,9,00,1,00,1",,"999,M,+0284,1","99999,9,09700,1","2,1,002,1,+999,9","10,1",SYN076AAXX  23181 57328 31957 00402 10200 20186 39700 40091 52002 71000 333 10284;,Q01  00002PRCP06
05-23T21:00:00,4,31.2,107.5,344.0,"DA XIAN, CH",FM-12,99999,V020,"040,1,N,0030,1","22000,1,9,N","006000,1,N,1","+0190,1","+0185,1","10090,1",,,,,"00,1,+99999,9,99,9","00,99,1,00,1,00,1,99999,9,00,1,00,1",,,"99999,9,09693,1","7,1,001,1,+999,9","10,1",SYN060AAXX  23211 57328 41956 00403 10190 20185 40090 57001 71000;,Q01+999990APOSP 
05-24T00:00:00,4,31.2,107.5,344.0,"DA XIAN, CH",FM-12,99999,V020,"040,1,N,0030,1","22000,1,9,N","003000,1,N,1","+0199,1","+0186,1","10104,1","06,0000,9,1",,,,,"02,99,1,02,1,00,1,99999,9,04,1,00,1",,,"99999,9,09711,1","2,1,012,1,+001,1","10,1",SYN082AAXX  24001 57328 31930 20403 10199 20186 39711 40104 52012 71000 82040 333 00100;,Q01  00002PRCP06
05-24T03:00:00,4,31.2,107.5,344.0,"DA XIAN, CH",FM-12,99999,V020,"040,1,N,0020,1","99999,9,9,N","008000,1,N,1","+0255,1","+0194,1","10109,1",,,,,,"07,99,1,07,1,00,1,99999,9,04,1,99,9",,,"99999,9,09720,1","2,1,006,1,+999,9","05,1",SYN066AAXX  24031 57328 41958 70402 10255 20194 40109 52006 70500 8704/;,Q01+999990APOSP 
05-24T06:00:00,4,31.2,107.5,344.0,"DA XIAN, CH",FM-12,99999,V020,"040,1,N,0030,1","03600,1,9,N","012000,1,N,1","+0273,1","+0189,1","10092,1","06,0000,9,1",,,,,"07,99,1,01,1,01,1,01250,1,04,1,00,1",,"999,N,+0187,1","99999,9,09701,1","7,1,016,1,+999,9",,SYN076AAXX  24061 57328 32662 70403 10273 20189 39701 40092 57016 81140 333 20187;,Q01  00002PRCP06
05-24T09:00:00,4,31.2,107.5,344.0,"DA XIAN, CH",FM-12,99999,V020,"040,1,N,0010,1","99999,9,9,N","012000,1,N,1","+0279,1","+0193,1","10075,1",,,,,,"07,99,1,07,1,00,1,99999,9,04,1,99,9",,,"99999,9,09690,1","7,1,017,1,+999,9",,SYN060AAXX  24091 57328 42962 70401 10279 20193 40075 57017 8704/;,Q01+999990APOSP 
05-24T12:00:00,4,31.2,107.5,344.0,"DA XIAN, CH",FM-12,99999,V020,"040,1,N,0020,1","99999,9,9,N","008000,1,N,1","+0261,1","+0206,1","10075,1","06,0000,9,1",,,,,"07,99,1,07,1,00,1,99999,9,04,1,99,9",,,"99999,9,09684,1","4,1,000,1,+999,9","10,1",SYN072AAXX  24121 57328 31958 70402 10261 20206 39684 40075 54000 71000 8704/;,Q01  00002PRCP06
05-24T15:00:00,4,31.2,107.5,344.0,"DA XIAN, CH",FM-12,99999,V020,"040,1,N,0010,1","22000,1,9,N","005000,1,N,1","+0227,1","+0206,1","10093,1",,,,,,"02,99,1,02,1,00,1,99999,9,04,1,00,1",,,"99999,9,09701,1","2,1,018,1,+999,9","10,1",SYN066AAXX  24151 57328 41950 20401 10227 20206 40093 52018 71000 82040;,Q01+999990APOSP 
05-24T18:00:00,4,31.2,107.5,344.0,"DA XIAN, CH",FM-12,99999,V020,"040,1,N,0030,1","22000,1,9,N","003000,1,N,1","+0207,1","+0196,1","10091,1","06,0000,9,1",,,,"00,1,+99999,9,99,9","00,99,1,00,1,00,1,99999,9,00,1,00,1",,"999,M,+0284,1","99999,9,09700,1","7,1,002,1,+999,9","10,1",SYN076AAXX  24181 57328 31930 00403 10207 20196 39700 40091 57002 71000 333 10284;,Q01  00002PRCP06
05-24T21:00:00,4,31.2,107.5,344.0,"DA XIAN, CH",FM-12,99999,V020,"040,1,N,0010,1","22000,1,9,N","003000,1,N,1","+0199,1","+0190,1","10087,1",,,,,"00,1,+99999,9,99,9","00,99,1,00,1,00,1,99999,9,00,1,00,1",,,"99999,9,09691,1","7,1,004,1,+999,9","10,1",SYN060AAXX  24211 57328 41930 00401 10199 20190 40087 57004 71000;,Q01+999990APOSP 
05-25T03:00:00,4,31.2,107.5,344.0,"DA XIAN, CH",FM-12,99999,V020,"040,1,N,0030,1","99999,9,9,N","008000,1,N,1","+0241,1","+0194,1","10093,1",,,"6,1,03,1",,,"06,99,1,06,1,00,1,99999,9,04,1,00,1",,,"99999,9,09702,1","7,1,007,1,+999,9","10,1",SYN066AAXX  25031 57328 41958 60403 10241 20194 40093 57007 71060 86040;,Q01+999990APOSP 
05-25T06:00:00,4,31.2,107.5,344.0,"DA XIAN, CH",FM-12,99999,V020,"180,1,N,0030,1","22000,1,9,N","025000,1,N,1","+0301,1","+0163,1","10063,1","06,9999,9,9",,"6,1,06,1",,,"01,99,1,01,1,01,1,01250,1,00,1,00,1",,"999,N,+0193,1","99999,9,09675,1","7,1,026,1,+999,9","00,1",SYN088AAXX  25061 57328 11675 11803 10301 20163 39675 40063 57026 69901 70060 81100 333 20193;,
05-25T09:00:00,4,31.2,107.5,344.0,"DA XIAN, CH",FM-12,99999,V020,"140,1,N,0030,1","03600,1,9,N","030000,1,N,1","+0315,1","+0137,1","10032,1",,,,,,"07,99,1,01,1,01,1,01250,1,04,1,99,9",,,"99999,9,09653,1","7,1,029,1,+999,9",,SYN060AAXX  25091 57328 42680 71403 10315 20137 40032 57029 8114/;,Q01+999990APOSP 
05-25T12:00:00,4,31.2,107.5,344.0,"DA XIAN, CH",FM-12,99999,V020,"070,1,N,0010,1","02100,1,9,N","012000,1,N,1","+0273,1","+0203,1","10034,1","06,0000,9,1",,,,,"08,99,1,08,1,05,1,02250,1,99,9,99,9",,,"99999,9,09645,1","7,1,001,1,+999,9",,SYN066AAXX  25121 57328 32862 80701 10273 20203 39645 40034 57001 885//;,Q01  00002PRCP06
05-25T15:00:00,4,31.2,107.5,344.0,"DA XIAN, CH",FM-12,99999,V020,"070,1,N,0020,1","02100,1,9,N","012000,1,N,1","+0248,1","+0206,1","10050,1",,,,,,"08,99,1,08,1,05,1,02250,1,99,9,99,9",,,"99999,9,09662,1","2,1,016,1,+999,9","60,1",SYN066AAXX  25151 57328 41862 80702 10248 20206 40050 52016 76000 885//;,Q01+999990APOSP 
05-25T18:00:00,4,31.2,107.5,344.0,"DA XIAN, CH",FM-12,99999,V020,"110,1,N,0040,1","02100,1,9,N","015000,1,N,1","+0255,1","+0170,1","10038,1","06,9999,9,9",,"6,1,06,1",,,"08,99,1,08,1,05,1,02250,1,99,9,99,9",,"999,M,+0315,1","99999,9,09654,1","7,1,007,1,+999,9","00,1",SYN088AAXX  25181 57328 11865 81104 10255 20170 39654 40038 57007 69901 70060 885// 333 10315;,
05-25T21:00:00,4,31.2,107.5,344.0,"DA XIAN, CH",FM-12,99999,V020,"999,9,C,0000,1","02100,1,9,N","015000,1,N,1","+0236,1","+0171,1","10041,1","24,0000,2,1",,,,,"08,99,1,08,1,05,1,02250,1,99,9,99,9",,,"99999,9,09652,1","2,1,003,1,+999,9",,SYN070AAXX  25211 57328 42865 80000 10236 20171 40041 52003 885// 333 79999;,Q01+999990APOSP 
05-26T00:00:00,4,31.2,107.5,344.0,"DA XIAN, CH",FM-12,99999,V020,"040,1,N,0020,1","02100,1,9,N","004000,1,N,1","+0198,1","+0190,1","10063,1","06,0051,9,2","24,0046,9,2","6,1,06,1",,,"08,99,1,08,1,05,1,02250,1,99,9,99,9",,,"99999,9,09673,1","2,1,016,1,-040,1","60,1",SYN094AAXX  26001 57328 11840 80402 10198 20190 39673 40063 52016 60051 76060 885// 333 05400 70046;,
05-26T03:00:00,4,31.2,107.5,344.0,"DA XIAN, CH",FM-12,99999,V020,"020,1,N,0040,1","02100,1,9,N","003000,1,N,1","+0191,1","+0183,1","10065,1",,,"6,1,03,1","6,1,03,1",,"08,99,1,08,1,05,1,02250,1,99,9,99,9",,,"99999,9,09669,1","4,1,000,1,+999,9","60,1",SYN066AAXX  26031 57328 41830 80204 10191 20183 40065 54000 76066 885//;,Q01+999990APOSP 
05-26T06:00:00,4,31.2,107.5,344.0,"DA XIAN, CH",FM-12,99999,V020,"040,1,N,0030,1","00420,1,9,N","003000,1,N,1","+0179,1","+0173,1","10053,1","06,0170,9,1",,"6,1,06,1","6,1,06,1",,"08,99,1,08,1,07,1,00450,1,99,9,99,9",,"999,N,+0179,1","99999,9,09661,1","7,1,012,1,+999,9","60,1",SYN088AAXX  26061 57328 11430 80403 10179 20173 39661 40053 57012 60171 76066 887// 333 20179;,
05-26T09:00:00,4,31.2,107.5,344.0,"DA XIAN, CH",FM-12,99999,V020,"020,1,N,0030,1","00420,1,9,N","002000,1,N,1","+0177,1","+0174,1","10039,1",,,"6,1,03,1","6,1,03,1",,"08,99,1,08,1,05,1,00450,1,99,9,99,9",,,"99999,9,09642,1","7,1,015,1,+999,9","60,1",SYN066AAXX  26091 57328 41420 80203 10177 20174 40039 57015 76066 885//;,Q01+999990APOSP 
05-26T12:00:00,4,31.2,107.5,344.0,"DA XIAN, CH",FM-12,99999,V020,"999,9,C,0000,1","02100,1,9,N","005000,1,N,1","+0181,1","+0176,1","10042,1","06,0020,9,1",,"6,1,06,1",,,"08,99,1,08,1,05,1,02250,1,99,9,99,9",,,"99999,9,09647,1","2,1,001,1,+999,9","10,1",SYN078AAXX  26121 57328 11850 80000 10181 20176 39647 40042 52001 60021 71060 885//;,
05-26T15:00:00,4,31.2,107.5,344.0,"DA XIAN, CH",FM-12,99999,V020,"999,9,C,0000,1","02100,1,9,N","005000,1,N,1","+0183,1","+0177,1","10055,1",,,"6,1,03,1",,,"08,99,1,08,1,05,1,02250,1,99,9,99,9",,,"99999,9,09658,1","2,1,012,1,+999,9","60,1",SYN066AAXX  26151 57328 41850 80000 10183 20177 40055 52012 76060 885//;,Q01+999990APOSP 
05-26T18:00:00,4,31.2,107.5,344.0,"DA XIAN, CH",FM-12,99999,V020,"020,1,N,0010,1","02100,1,9,N","004000,1,N,1","+0183,1","+0180,1","10049,1","06,9999,9,9",,"6,1,06,1",,,"08,99,1,08,1,05,1,02250,1,99,9,99,9",,"999,M,+0258,1","99999,9,09652,1","7,1,007,1,+999,9","60,1",SYN088AAXX  26181 57328 11840 80201 10183 20180 39652 40049 57007 69911 76060 885// 333 10258;,
05-26T21:00:00,4,31.2,107.5,344.0,"DA XIAN, CH",FM-12,99999,V020,"040,1,N,0020,1","02100,1,9,N","012000,1,N,1","+0183,1","+0180,1","10039,1","24,0246,9,1",,"6,1,03,1","6,1,03,1",,"08,99,1,08,1,05,1,02250,1,99,9,99,9",,,"99999,9,09643,1","7,1,010,1,+999,9","21,1",SYN076AAXX  26211 57328 41862 80402 10183 20180 40039 57010 72166 885// 333 70247;,
05-27T00:00:00,4,31.2,107.5,344.0,"DA XIAN, CH",FM-12,99999,V020,"110,1,N,0010,1","02100,1,9,N","008000,1,N,1","+0191,1","+0182,1","10050,1","06,0005,9,1","24,0201,9,1","6,1,06,1",,,"08,99,1,08,1,05,1,02250,1,99,9,99,9",,,"99999,9,09654,1","2,1,012,1,-020,1","10,1",SYN094AAXX  27001 57328 11858 81101 10191 20182 39654 40050 52012 69951 71060 885// 333 05251 70201;,
05-27T03:00:00,4,31.2,107.5,344.0,"DA XIAN, CH",FM-12,99999,V020,"999,9,C,0000,1","99999,9,9,N","020000,1,N,1","+0215,1","+0187,1","10063,1",,,,,,"08,99,1,08,1,00,1,99999,9,07,1,99,9",,,"99999,9,09670,1","2,1,014,1,+999,9",,SYN060AAXX  27031 57328 42970 80000 10215 20187 40063 52014 8807/;,Q01+999990APOSP 
05-27T06:00:00,4,31.2,107.5,344.0,"DA XIAN, CH",FM-12,99999,V020,"180,1,N,0010,1","99999,9,9,N","012000,1,N,1","+0223,1","+0187,1","10054,1","06,0000,9,1",,,,,"08,99,1,08,1,00,1,99999,9,07,1,99,9",,"999,N,+0177,1","99999,9,09660,1","7,1,008,1,+999,9",,SYN076AAXX  27061 57328 32962 81801 10223 20187 39660 40054 57008 8807/ 333 20177;,Q01  00002PRCP06
05-27T09:00:00,4,31.2,107.5,344.0,"DA XIAN, CH",FM-12,99999,V020,"180,1,N,0020,1","02100,1,9,N","015000,1,N,1","+0229,1","+0177,1","10038,1",,,"8,1,03,1",,,"08,99,1,08,1,05,1,02250,1,99,9,99,9",,,"99999,9,09648,1","7,1,015,1,+999,9","25,1",SYN066AAXX  27091 57328 41865 81802 10229 20177 40038 57015 72580 885//;,Q01+999990APOSP 
05-27T12:00:00,4,31.2,107.5,344.0,"DA XIAN, CH",FM-12,99999,V020,"999,9,C,0000,1","02100,1,9,N","015000,1,N,1","+0207,1","+0179,1","10058,1","06,9999,9,9",,"8,1,06,1","6,1,06,1",,"08,99,1,08,1,05,1,02250,1,99,9,99,9",,,"99999,9,09663,1","2,1,018,1,+999,9","60,1",SYN078AAXX  27121 57328 11865 80000 10207 20179 39663 40058 52018 69901 76086 885//;,
05-27T15:00:00,4,31.2,107.5,344.0,"DA XIAN, CH",FM-12,99999,V020,"999,9,C,0000,1","02100,1,9,N","008000,1,N,1","+0197,1","+0188,1","10075,1",,,"6,1,03,1","6,1,03,1",,"08,99,1,08,1,05,1,02250,1,99,9,99,9",,,"99999,9,09679,1","2,1,017,1,+999,9","60,1",SYN066AAXX  27151 57328 41858 80000 10197 20188 40075 52017 76066 885//;,Q01+999990APOSP 
05-27T18:00:00,4,31.2,107.5,344.0,"DA XIAN, CH",FM-12,99999,V020,"040,1,N,0010,1","02100,1,9,N","008000,1,N,1","+0193,1","+0187,1","10066,1","06,0005,9,1",,"6,1,06,1",,,"08,99,1,08,1,05,1,02250,1,99,9,99,9",,"999,M,+0235,1","99999,9,09672,1","7,1,008,1,+999,9","10,1",SYN088AAXX  27181 57328 11858 80401 10193 20187 39672 40066 57008 69951 71060 885// 333 10235;,
05-27T21:00:00,4,31.2,107.5,344.0,"DA XIAN, CH",FM-12,99999,V020,"070,1,N,0010,1","02100,1,9,N","005000,1,N,1","+0189,1","+0183,1","10060,1","24,0005,9,1",,"6,1,03,1",,,"08,99,1,08,1,05,1,02250,1,99,9,99,9",,,"99999,9,09664,1","7,1,006,1,+999,9","10,1",SYN076AAXX  27211 57328 41850 80701 10189 20183 40060 57006 71060 885// 333 70006;,Q01+999990APOSP 
05-28T00:00:00,4,31.2,107.5,344.0,"DA XIAN, CH",FM-12,99999,V020,"360,1,N,0010,1","02100,1,9,N","005000,1,N,1","+0193,1","+0184,1","10073,1","06,9999,9,9","24,0005,9,1","6,1,06,1","4,1,06,1",,"08,99,1,08,1,05,1,02250,1,99,9,99,9",,,"99999,9,09678,1","2,1,012,1,+020,1","10,1",SYN094AAXX  28001 57328 11850 83601 10193 20184 39678 40073 52012 69911 71064 885// 333 00200 70006;,
05-28T06:00:00,4,31.2,107.5,344.0,"DA XIAN, CH",FM-12,99999,V020,"140,1,N,0010,1","22000,1,9,N","030000,1,N,1","+0265,1","+0165,1","10066,1","06,0000,9,1",,,,,"05,99,1,04,1,01,1,01250,1,00,1,01,1",,"999,N,+0186,1","99999,9,09675,1","7,1,015,1,+999,9",,SYN076AAXX  28061 57328 32680 51401 10265 20165 39675 40066 57015 84101 333 20186;,Q01  00002PRCP06
05-28T09:00:00,4,31.2,107.5,344.0,"DA XIAN, CH",FM-12,99999,V020,"180,1,N,0010,1","22000,1,9,N","030000,1,N,1","+0275,1","+0181,1","10048,1",,,,,,"02,99,1,02,1,01,1,01250,1,00,1,00,1",,,"99999,9,09663,1","7,1,017,1,+999,9",,SYN060AAXX  28091 57328 42680 21801 10275 20181 40048 57017 82100;,Q01+999990APOSP 
05-28T12:00:00,4,31.2,107.5,344.0,"DA XIAN, CH",FM-12,99999,V020,"180,1,N,0010,1","22000,1,9,N","030000,1,N,1","+0257,1","+0186,1","10059,1","06,0000,9,1",,,,"00,1,+99999,9,99,9","00,99,1,00,1,00,1,99999,9,00,1,00,1",,,"99999,9,09668,1","2,1,010,1,+999,9",,SYN060AAXX  28121 57328 32980 01801 10257 20186 39668 40059 52010;,Q01  00002PRCP06
05-28T15:00:00,4,31.2,107.5,344.0,"DA XIAN, CH",FM-12,99999,V020,"999,9,C,0000,1","22000,1,9,N","012000,1,N,1","+0223,1","+0195,1","10080,1",,,,,"00,1,+99999,9,99,9","00,99,1,00,1,00,1,99999,9,00,1,00,1",,,"99999,9,09688,1","2,1,020,1,+999,9",,SYN054AAXX  28151 57328 42962 00000 10223 20195 40080 52020;,Q01+999990APOSP 
05-28T18:00:00,4,31.2,107.5,344.0,"DA XIAN, CH",FM-12,99999,V020,"999,9,C,0000,1","99999,9,9,N","005000,1,N,1","+0207,1","+0195,1","10081,1","06,0000,9,1",,,,,"07,99,1,07,1,00,1,99999,9,04,1,99,9",,"999,M,+0281,1","99999,9,09690,1","2,1,002,1,+999,9","10,1",SYN082AAXX  28181 57328 31950 70000 10207 20195 39690 40081 52002 71000 8704/ 333 10281;,Q01  00002PRCP06
05-28T21:00:00,4,31.2,107.5,344.0,"DA XIAN, CH",FM-12,99999,V020,"040,1,N,0020,1","22000,1,9,N","004000,1,N,1","+0199,1","+0193,1","10083,1","24,0000,9,1",,,,"00,1,+99999,9,99,9","00,99,1,00,1,00,1,99999,9,00,1,00,1",,,"99999,9,09687,1","2,1,002,1,+999,9","10,1",SYN070AAXX  28211 57328 41940 00402 10199 20193 40083 52002 71000 333 79999;,Q01+999990APOSP Q02  00002PRCP24
05-29T00:00:00,4,31.2,107.5,344.0,"DA XIAN, CH",FM-12,99999,V020,"040,1,N,0020,1","22000,1,9,N","000400,1,N,1","+0206,1","+0192,1","10100,1","06,0000,9,1",,"4,1,06,1",,"00,1,+99999,9,99,9","00,99,1,00,1,00,1,99999,9,00,1,00,1",,,"99999,9,09708,1","2,1,016,1,+003,1","42,1",SYN076AAXX  29001 57328 31904 00402 10206 20192 39708 40100 52016 74240 333 00301;,Q01  00002PRCP06
05-29T03:00:00,4,31.2,107.5,344.0,"DA XIAN, CH",FM-12,99999,V020,"220,1,N,0020,1","22000,1,9,N","007000,1,N,1","+0269,1","+0203,1","10101,1",,,"4,1,03,1",,,"02,99,1,02,1,01,1,01250,1,00,1,00,1",,,"99999,9,09714,1","2,1,003,1,+999,9","10,1",SYN066AAXX  29031 57328 41657 22202 10269 20203 40101 52003 71040 82100;,Q01+999990APOSP 
05-29T06:00:00,4,31.2,107.5,344.0,"DA XIAN, CH",FM-12,99999,V020,"270,1,N,0010,1","22000,1,9,N","010000,1,N,1","+0304,1","+0198,1","10088,1","06,0000,9,1",,"4,1,06,1",,,"01,99,1,01,1,01,1,01250,1,00,1,00,1",,"999,N,+0192,1","99999,9,09699,1","7,1,012,1,+999,9","00,1",SYN082AAXX  29061 57328 31660 12701 10304 20198 39699 40088 57012 70040 81100 333 20192;,Q01  00002PRCP06
05-29T09:00:00,4,31.2,107.5,344.0,"DA XIAN, CH",FM-12,99999,V020,"270,1,N,0020,1","22000,1,9,N","020000,1,N,1","+0314,1","+0171,1","10064,1",,,,,"00,1,+99999,9,99,9","00,99,1,00,1,00,1,99999,9,00,1,00,1",,,"99999,9,09684,1","7,1,023,1,+999,9",,SYN054AAXX  29091 57328 42970 02702 10314 20171 40064 57023;,Q01+999990APOSP 
05-29T12:00:00,4,31.2,107.5,344.0,"DA XIAN, CH",FM-12,99999,V020,"999,9,C,0000,1","22000,1,9,N","030000,1,N,1","+0288,1","+0188,1","10011,1","06,0000,9,1",,,,"00,1,+99999,9,99,9","00,99,1,00,1,00,1,99999,9,00,1,00,1",,,"99999,9,09624,2","7,1,052,1,+999,9",,SYN060AAXX  29121 57328 32980 00000 10288 20188 39624 40011 57052;,Q01+096243APOSP Q02  00002PRCP06
05-29T15:00:00,4,31.2,107.5,344.0,"DA XIAN, CH",FM-12,99999,V020,"040,1,N,0020,1","22000,1,9,N","008000,1,N,1","+0229,1","+0192,1","10086,2",,,,,"00,1,+99999,9,99,9","00,99,1,00,1,00,1,99999,9,00,1,00,1",,,,"2,1,018,1,+999,9","10,1",SYN060AAXX  29151 57328 41958 00402 10229 20192 40086 52018 71000;,Q01+100863APOSLP
05-29T18:00:00,4,31.2,107.5,344.0,"DA XIAN, CH",FM-12,99999,V020,"040,1,N,0010,1","22000,1,9,N","004000,1,N,1","+0210,1","+0193,1","10085,1","06,0000,9,1",,,,"00,1,+99999,9,99,9","00,99,1,00,1,00,1,99999,9,00,1,00,1",,"999,M,+0317,1","99999,9,09697,1","4,1,000,1,+999,9","10,1",SYN076AAXX  29181 57328 31940 00401 10210 20193 39697 40085 54000 71000 333 10317;,Q01  00002PRCP06
05-29T21:00:00,4,31.2,107.5,344.0,"DA XIAN, CH",FM-12,99999,V020,"070,1,N,0020,1","22000,1,9,N","004000,1,N,1","+0203,1","+0191,1","10090,1",,,,,"00,1,+99999,9,99,9","00,99,1,00,1,00,1,99999,9,00,1,00,1",,,"99999,9,09695,1","2,1,005,1,+999,9","10,1",SYN060AAXX  29211 57328 41940 00702 10203 20191 40090 52005 71000;,Q01+999990APOSP 
05-30T00:00:00,4,31.2,107.5,344.0,"DA XIAN, CH",FM-12,99999,V020,"040,1,N,0020,1","22000,1,9,N","006000,1,N,1","+0225,1","+0193,1","10099,1","06,0000,9,1",,,,,"04,99,1,04,1,00,1,99999,9,04,1,00,1",,,"99999,9,09710,1","2,1,008,1,+000,1","10,1",SYN082AAXX  30001 57328 31956 40402 10225 20193 39710 40099 52008 71000 84040 333 00002;,Q01  00002PRCP06
05-30T03:00:00,4,31.2,107.5,344.0,"DA XIAN, CH",FM-12,99999,V020,"160,1,N,0010,1","22000,1,9,N","012000,1,N,1","+0281,1","+0204,1","10103,1",,,,,,"02,99,1,02,1,00,1,99999,9,04,1,00,1",,,"99999,9,09717,1","2,1,004,1,+999,9",,SYN060AAXX  30031 57328 42962 21601 10281 20204 40103 52004 82040;,Q01+999990APOSP 
05-30T06:00:00,4,31.2,107.5,344.0,"DA XIAN, CH",FM-12,99999,V020,"160,1,N,0030,1","99999,9,9,N","020000,1,N,1","+0320,1","+0150,1","10078,1","06,0000,9,1",,,,,"06,99,1,06,1,00,1,99999,9,04,1,00,1",,"999,N,+0200,1","99999,9,09691,1","7,1,023,1,+999,9",,SYN076AAXX  30061 57328 32970 61603 10320 20150 39691 40078 57023 86040 333 20200;,Q01  00002PRCP06
05-30T09:00:00,4,31.2,107.5,344.0,"DA XIAN, CH",FM-12,99999,V020,"110,1,N,0010,1","03600,1,9,N","030000,1,N,1","+0311,1","+0157,1","10063,1",,,,,,"07,99,1,01,1,01,1,01250,1,04,1,99,9",,,"99999,9,09682,1","7,1,015,1,+999,9",,SYN060AAXX  30091 57328 42680 71101 10311 20157 40063 57015 8114/;,Q01+999990APOSP 
05-30T12:00:00,4,31.2,107.5,344.0,"DA XIAN, CH",FM-12,99999,V020,"070,1,N,0010,1","99999,9,9,N","015000,1,N,1","+0279,1","+0210,1","10068,1","06,0000,9,1",,,,,"07,99,1,07,1,00,1,99999,9,04,1,99,9",,,"99999,9,09680,1","2,1,004,1,+999,9",,SYN066AAXX  30121 57328 32965 70701 10279 20210 39680 40068 52004 8704/;,Q01  00002PRCP06
05-30T15:00:00,4,31.2,107.5,344.0,"DA XIAN, CH",FM-12,99999,V020,"040,1,N,0020,1","99999,9,9,N","008000,1,N,1","+0245,1","+0204,1","10080,1",,,,,,"07,99,1,07,1,00,1,99999,9,04,1,99,9",,,"99999,9,09690,1","2,1,013,1,+999,9","10,1",SYN066AAXX  30151 57328 41958 70402 10245 20204 40080 52013 71000 8704/;,Q01+999990APOSP 
05-30T18:00:00,4,31.2,107.5,344.0,"DA XIAN, CH",FM-12,99999,V020,"040,1,N,0030,1","99999,9,9,N","005000,1,N,1","+0234,1","+0201,1","10082,1","06,0000,9,1",,,,,"08,99,1,08,1,00,1,99999,9,07,1,99,9",,"999,M,+0326,1","99999,9,09696,1","2,1,003,1,+999,9","10,1",SYN082AAXX  30181 57328 31950 80403 10234 20201 39696 40082 52003 71000 8807/ 333 10326;,Q01  00002PRCP06
05-30T21:00:00,4,31.2,107.5,344.0,"DA XIAN, CH",FM-12,99999,V020,"040,1,N,0020,1","99999,9,9,N","005000,1,N,1","+0230,1","+0183,1","10083,1",,,,,,"08,99,1,08,1,00,1,99999,9,07,1,99,9",,,"99999,9,09691,1","4,1,000,1,+999,9","10,1",SYN066AAXX  30211 57328 41950 80402 10230 20183 40083 54000 71000 8807/;,Q01+999990APOSP 
05-31T00:00:00,4,31.2,107.5,344.0,"DA XIAN, CH",FM-12,99999,V020,"070,1,N,0030,1","99999,9,9,N","015000,1,N,1","+0227,1","+0185,1","10103,1","06,0000,9,1",,,,,"07,99,1,07,1,00,1,99999,9,04,1,99,9",,,"99999,9,09713,1","2,1,017,1,+000,1",,SYN076AAXX  31001 57328 32965 70703 10227 20185 39713 40103 52017 8704/ 333 00000;,Q01  00002PRCP06
05-31T03:00:00,4,31.2,107.5,344.0,"DA XIAN, CH",FM-12,99999,V020,"070,1,N,0020,1","99999,9,9,N","025000,1,N,1","+0284,1","+0181,1","10099,1",,,,,,"07,99,1,07,1,00,1,99999,9,04,1,00,1",,,"99999,9,09714,1","7,1,002,1,+999,9",,SYN060AAXX  31031 57328 42975 70702 10284 20181 40099 57002 87040;,Q01+999990APOSP 
05-31T06:00:00,4,31.2,107.5,344.0,"DA XIAN, CH",FM-12,99999,V020,"290,1,N,0020,1","99999,9,9,N","030000,1,N,1","+0315,1","+0154,1","10086,1","06,0000,9,1",,,,,"07,99,1,07,1,00,1,99999,9,04,1,99,9",,"999,N,+0225,1","99999,9,09700,1","7,1,011,1,+999,9",,SYN076AAXX  31061 57328 32980 72902 10315 20154 39700 40086 57011 8704/ 333 20225;,Q01  00002PRCP06
05-31T09:00:00,4,31.2,107.5,344.0,"DA XIAN, CH",FM-12,99999,V020,"040,1,N,0020,1","99999,9,9,N","030000,1,N,1","+0303,1","+0181,1","10073,1",,,,,,"08,99,1,08,1,00,1,99999,9,07,1,99,9",,,"99999,9,09691,1","7,1,014,1,+999,9",,SYN060AAXX  31091 57328 42980 80402 10303 20181 40073 57014 8807/;,Q01+999990APOSP 
05-31T12:00:00,4,31.2,107.5,344.0,"DA XIAN, CH",FM-12,99999,V020,"090,1,N,0010,1","99999,9,9,N","030000,1,N,1","+0277,1","+0202,1","10074,1","06,0000,9,1",,,,,"06,99,1,00,1,00,1,99999,9,00,1,02,1",,,"99999,9,09685,1","7,1,001,1,+999,9",,SYN066AAXX  31121 57328 32980 60901 10277 20202 39685 40074 57001 80002;,Q01  00002PRCP06
05-31T15:00:00,4,31.2,107.5,344.0,"DA XIAN, CH",FM-12,99999,V020,"040,1,N,0020,1","22000,1,9,N","015000,1,N,1","+0242,1","+0201,1","10089,1",,,,,,"03,99,1,00,1,00,1,99999,9,00,1,02,1",,,"99999,9,09699,1","2,1,016,1,+999,9",,SYN060AAXX  31151 57328 42965 30402 10242 20201 40089 52016 80002;,Q01+999990APOSP 
05-31T18:00:00,4,31.2,107.5,344.0,"DA XIAN, CH",FM-12,99999,V020,"070,1,N,0020,1","99999,9,9,N","012000,1,N,1","+0227,1","+0201,1","10083,1","06,0000,9,1",,,,,"06,99,1,00,1,00,1,99999,9,00,1,02,1",,"999,M,+0318,1","99999,9,09697,1","7,1,004,1,+999,9",,SYN076AAXX  31181 57328 32962 60702 10227 20201 39697 40083 57004 80002 333 10318;,Q01  00002PRCP06
05-31T21:00:00,4,31.2,107.5,344.0,"DA XIAN, CH",FM-12,99999,V020,"040,1,N,0030,1","99999,9,9,N","005000,1,N,1","+0215,1","+0200,1","10083,1",,,,,,"08,99,1,08,1,00,1,99999,9,07,1,99,9",,,"99999,9,09689,1","7,1,002,1,+999,9","10,1",SYN066AAXX  31211 57328 41950 80403 10215 20200 40083 57002 71000 8807/;,Q01+999990APOSP 
06-01T00:00:00,4,31.2,107.5,344.0,"DA XIAN, CH",FM-12,99999,V020,"070,1,N,0030,1","99999,9,9,N","007000,1,N,1","+0225,1","+0199,1","10090,1","06,0000,9,1",,,,,"07,99,1,07,1,00,1,99999,9,04,1,00,1",,,"99999,9,09701,1","2,1,006,1,+001,1","10,1",SYN082AAXX  01001 57328 31957 70703 10225 20199 39701 40090 52006 71000 87040 333 05100;,Q01  00002PRCP06
06-01T03:00:00,4,31.2,107.5,344.0,"DA XIAN, CH",FM-12,99999,V020,"040,1,N,0020,1","99999,9,9,N","011000,1,N,1","+0267,1","+0204,1","10085,1",,,,,,"07,99,1,07,1,00,1,99999,9,01,1,99,9",,,"99999,9,09698,1","7,1,005,1,+999,9",,SYN060AAXX  01031 57328 42961 70402 10267 20204 40085 57005 8701/;,Q01+999990APOSP 
06-01T06:00:00,4,31.2,107.5,344.0,"DA XIAN, CH",FM-12,99999,V020,"220,1,N,0020,1","99999,9,9,N","006000,1,N,1","+0283,1","+0216,1","10079,1","06,0000,9,1",,,,,"07,99,1,07,1,00,1,99999,9,04,1,99,9",,"999,N,+0211,1","99999,9,09691,1","7,1,005,1,+999,9","10,1",SYN082AAXX  01061 57328 31956 72202 10283 20216 39691 40079 57005 71000 8704/ 333 20211;,Q01  00002PRCP06
06-01T09:00:00,4,31.2,107.5,344.0,"DA XIAN, CH",FM-12,99999,V020,"250,1,N,0040,1","99999,9,9,N","004000,1,N,1","+0273,1","+0217,1","10066,1",,,,,,"08,99,1,08,1,00,1,99999,9,02,1,99,9",,,"99999,9,09680,1","7,1,014,1,+999,9","10,1",SYN066AAXX  01091 57328 41940 82504 10273 20217 40066 57014 71000 8802/;,Q01+999990APOSP 
06-01T12:00:00,4,31.2,107.5,344.0,"DA XIAN, CH",FM-12,99999,V020,"250,1,N,0010,1","99999,9,9,N","004000,1,N,1","+0257,1","+0211,1","10074,1","06,9999,9,9",,,,,"08,99,1,08,1,00,1,99999,9,02,1,99,9",,,"99999,9,09684,1","2,1,007,1,+999,9","60,1",SYN078AAXX  01121 57328 11940 82501 10257 20211 39684 40074 52007 69901 76000 8802/;,
06-01T15:00:00,4,31.2,107.5,344.0,"DA XIAN, CH",FM-12,99999,V020,"250,1,N,0040,1","99999,9,9,N","004000,1,N,1","+0247,1","+0208,1","10093,1",,,"6,1,03,1",,,"08,99,1,08,1,00,1,99999,9,02,1,99,9",,,"99999,9,09703,1","2,1,020,1,+999,9","10,1",SYN066AAXX  01151 57328 41940 82504 10247 20208 40093 52020 71060 8802/;,Q01+999990APOSP 
06-01T18:00:00,4,31.2,107.5,344.0,"DA XIAN, CH",FM-12,99999,V020,"999,9,C,0000,1","99999,9,9,N","004000,1,N,1","+0239,1","+0214,1","10082,1","06,9999,9,9",,"6,1,06,1",,,"08,99,1,08,1,00,1,99999,9,02,1,99,9",,"999,M,+0292,1","99999,9,09694,1","7,1,010,1,+999,9","10,1",SYN088AAXX  01181 57328 11940 80000 10239 20214 39694 40082 57010 69901 71060 8802/ 333 10292;,
06-01T21:00:00,4,31.2,107.5,344.0,"DA XIAN, CH",FM-12,99999,V020,"180,1,N,0020,1","99999,9,9,N","002000,1,N,1","+0226,1","+0206,1","10076,1","24,0005,9,1",,"8,1,03,1",,,"08,99,1,08,1,00,1,99999,9,02,1,99,9",,,"99999,9,09684,1","7,1,007,1,+999,9","10,1",SYN076AAXX  01211 57328 41920 81802 10226 20206 40076 57007 71080 8802/ 333 70006;,Q01+999990APOSP 
06-02T00:00:00,4,31.2,107.5,344.0,"DA XIAN, CH",FM-12,99999,V020,"040,1,N,0010,1","99999,9,9,N","004000,1,N,1","+0223,1","+0194,1","10096,1","06,0005,9,1","24,0005,9,1","8,1,06,1","6,1,06,1",,"08,99,1,08,1,00,1,99999,9,02,1,99,9",,,"99999,9,09705,1","2,1,018,1,+000,1","21,1",SYN094AAXX  02001 57328 11940 80401 10223 20194 39705 40096 52018 69961 72186 8802/ 333 00000 70006;,
06-02T03:00:00,4,31.2,107.5,344.0,"DA XIAN, CH",FM-12,99999,V020,"250,1,N,0010,1","01200,1,9,N","008000,1,N,1","+0253,1","+0202,1","10093,1",,,,,,"06,99,1,06,1,01,1,01250,1,00,1,00,1",,,"99999,9,09704,1","7,1,002,1,+999,9","10,1",SYN066AAXX  02031 57328 41658 62501 10253 20202 40093 57002 71000 86100;,Q01+999990APOSP 
06-02T06:00:00,4,31.2,107.5,344.0,"DA XIAN, CH",FM-12,99999,V020,"160,1,N,0020,1","01200,1,9,N","012000,1,N,1","+0286,1","+0184,1","10068,1","06,0000,2,1",,,,,"05,99,1,05,1,01,1,01250,1,00,1,00,1",,"999,N,+0220,1","99999,9,09681,1","7,1,022,1,+999,9",,SYN076AAXX  02061 57328 32662 51602 10286 20184 39681 40068 57022 85100 333 20220;,
06-02T09:00:00,4,31.2,107.5,344.0,"DA XIAN, CH",FM-12,99999,V020,"250,1,N,0030,1","22000,1,9,N","011000,1,N,1","+0295,1","+0198,1","10052,1",,,,,,"01,99,1,01,1,01,1,01250,1,00,1,00,1",,,"99999,9,09670,1","7,1,016,1,+999,9",,SYN060AAXX  02091 57328 42661 12503 10295 20198 40052 57016 81100;,Q01+999990APOSP 
06-02T12:00:00,4,31.2,107.5,344.0,"DA XIAN, CH",FM-12,99999,V020,"250,1,N,0020,1","22000,1,9,N","012000,1,N,1","+0273,1","+0196,1","10056,1","06,0000,9,1",,,,"00,1,+99999,9,99,9","00,99,1,00,1,00,1,99999,9,00,1,00,1",,,"99999,9,09668,1","2,1,003,1,+999,9",,SYN060AAXX  02121 57328 32962 02502 10273 20196 39668 40056 52003;,Q01  00002PRCP06
06-02T15:00:00,4,31.2,107.5,344.0,"DA XIAN, CH",FM-12,99999,V020,"999,9,C,0000,1","99999,9,9,N","003000,1,N,1","+0249,1","+0210,1","10074,1",,,,,,"07,99,1,07,1,00,1,99999,9,02,1,99,9",,,"99999,9,09685,1","2,1,017,1,+999,9","10,1",SYN066AAXX  02151 57328 41930 70000 10249 20210 40074 52017 71000 8702/;,Q01+999990APOSP 
06-02T18:00:00,4,31.2,107.5,344.0,"DA XIAN, CH",FM-12,99999,V020,"140,1,N,0010,1","22000,1,9,N","003000,1,N,1","+0236,1","+0211,1","10075,1","06,0000,9,1",,,,"00,1,+99999,9,99,9","00,99,1,00,1,00,1,99999,9,00,1,00,1",,"999,M,+0297,1","99999,9,09688,1","2,1,003,1,+999,9","10,1",SYN076AAXX  02181 57328 31930 01401 10236 20211 39688 40075 52003 71000 333 10297;,Q01  00002PRCP06
06-02T21:00:00,4,31.2,107.5,344.0,"DA XIAN, CH",FM-12,99999,V020,"999,9,C,0000,1","99999,9,9,N","003000,1,N,1","+0221,1","+0209,1","10072,1","24,0000,2,1",,,,,"08,99,1,08,1,00,1,99999,9,07,1,99,9",,,"99999,9,09680,1","7,1,004,1,+999,9","10,1",SYN076AAXX  02211 57328 41930 80000 10221 20209 40072 57004 71000 8807/ 333 79999;,Q01+999990APOSP 
06-03T00:00:00,4,31.2,107.5,344.0,"DA XIAN, CH",FM-12,99999,V020,"999,9,C,0000,1","22000,1,9,N","005000,1,N,1","+0231,1","+0207,1","10083,1","06,0000,9,1",,,,,"01,99,1,01,1,00,1,99999,9,04,1,00,1",,,"99999,9,09694,1","2,1,010,1,+001,1","10,1",SYN082AAXX  03001 57328 31950 10000 10231 20207 39694 40083 52010 71000 81040 333 05101;,Q01  00002PRCP06
06-03T03:00:00,4,31.2,107.5,344.0,"DA XIAN, CH",FM-12,99999,V020,"110,1,N,0030,1","22000,1,9,N","008000,1,N,1","+0283,1","+0216,1","10081,1",,,,,"00,1,+99999,9,99,9","00,99,1,00,1,00,1,99999,9,00,1,00,1",,,"99999,9,09696,1","4,1,000,1,+999,9","10,1",SYN060AAXX  03031 57328 41958 01103 10283 20216 40081 54000 71000;,Q01+999990APOSP 
06-03T06:00:00,4,31.2,107.5,344.0,"DA XIAN, CH",FM-12,99999,V020,"320,1,N,0010,1","22000,1,9,N","015000,1,N,1","+0307,1","+0202,1","10063,1","06,0000,9,1",,,,,"04,99,1,04,1,01,1,01250,1,00,1,00,1",,"999,N,+0219,1","99999,9,09677,1","7,1,017,1,+999,9",,SYN076AAXX  03061 57328 32665 43201 10307 20202 39677 40063 57017 84100 333 20219;,Q01  00002PRCP06
06-03T09:00:00,4,31.2,107.5,344.0,"DA XIAN, CH",FM-12,99999,V020,"250,1,N,0020,1","22000,1,9,N","015000,1,N,1","+0316,1","+0192,1","10042,1",,,,,,"01,99,1,01,1,01,1,01250,1,00,1,00,1",,,"99999,9,09663,1","7,1,020,1,+999,9",,SYN060AAXX  03091 57328 42665 12502 10316 20192 40042 57020 81100;,Q01+999990APOSP 
06-03T12:00:00,4,31.2,107.5,344.0,"DA XIAN, CH",FM-12,99999,V020,"999,9,C,0000,1","22000,1,9,N","020000,1,N,1","+0294,1","+0217,1","10048,1","06,0000,9,1",,,,,"01,99,1,01,1,00,1,99999,9,04,1,00,1",,,"99999,9,09662,1","2,1,005,1,+999,9",,SYN066AAXX  03121 57328 32970 10000 10294 20217 39662 40048 52005 81040;,Q01  00002PRCP06
06-03T15:00:00,4,31.2,107.5,344.0,"DA XIAN, CH",FM-12,99999,V020,"040,1,N,0050,1","22000,1,9,N","005000,1,N,1","+0252,1","+0215,1","10061,1",,,,,,"01,99,1,01,1,00,1,99999,9,04,1,00,1",,,"99999,9,09673,1","2,1,013,1,+999,9","10,1",SYN066AAXX  03151 57328 41950 10405 10252 20215 40061 52013 71000 81040;,Q01+999990APOSP 
06-03T18:00:00,4,31.2,107.5,344.0,"DA XIAN, CH",FM-12,99999,V020,"070,1,N,0030,1","22000,1,9,N","005000,1,N,1","+0240,1","+0218,1","10062,1","06,0000,9,1",,,,"00,1,+99999,9,99,9","00,99,1,00,1,00,1,99999,9,00,1,00,1",,"999,M,+0322,1","99999,9,09677,1","2,1,002,1,+999,9","10,1",SYN076AAXX  03181 57328 31950 00703 10240 20218 39677 40062 52002 71000 333 10322;,Q01  00002PRCP06
06-03T21:00:00,4,31.2,107.5,344.0,"DA XIAN, CH",FM-12,99999,V020,"040,1,N,0030,1","99999,9,9,N","004000,1,N,1","+0238,1","+0216,1","10061,1",,,,,,"08,99,1,08,1,00,1,99999,9,07,1,99,9",,,"99999,9,09671,1","7,1,001,1,+999,9","10,1",SYN066AAXX  03211 57328 41940 80403 10238 20216 40061 57001 71000 8807/;,Q01+999990APOSP 
06-04T00:00:00,4,31.2,107.5,344.0,"DA XIAN, CH",FM-12,99999,V020,"070,1,N,0020,1","99999,9,9,N","007000,1,N,1","+0245,1","+0215,1","10067,1","06,0000,9,1",,,,,"07,99,1,07,1,00,1,99999,9,04,1,99,9",,,"99999,9,09681,1","2,1,005,1,+001,1","10,1",SYN082AAXX  04001 57328 31957 70702 10245 20215 39681 40067 52005 71000 8704/ 333 05101;,Q01  00002PRCP06
06-04T03:00:00,4,31.2,107.5,344.0,"DA XIAN, CH",FM-12,99999,V020,"070,1,N,0030,1","99999,9,9,N","008000,1,N,1","+0269,1","+0203,1","10076,1",,,,,,"08,99,1,08,1,00,1,99999,9,07,1,99,9",,,"99999,9,09690,1","2,1,007,1,+999,9","10,1",SYN066AAXX  04031 57328 41958 80703 10269 20203 40076 52007 71000 8807/;,Q01+999990APOSP 
06-04T06:00:00,4,31.2,107.5,344.0,"DA XIAN, CH",FM-12,99999,V020,"020,1,N,0020,1","02100,1,9,N","014000,1,N,1","+0272,1","+0198,1","10069,1","06,0000,9,1",,,,,"08,99,1,08,1,05,1,02250,1,99,9,99,9",,"999,N,+0235,1","99999,9,09681,1","7,1,007,1,+999,9",,SYN076AAXX  04061 57328 32864 80202 10272 20198 39681 40069 57007 885// 333 20235;,Q01  00002PRCP06
06-04T09:00:00,4,31.2,107.5,344.0,"DA XIAN, CH",FM-12,99999,V020,"040,1,N,0040,1","02100,1,9,N","015000,1,N,1","+0271,1","+0202,1","10051,1",,,,,,"08,99,1,08,1,05,1,02250,1,99,9,99,9",,,"99999,9,09666,1","7,1,017,1,+999,9",,SYN060AAXX  04091 57328 42865 80404 10271 20202 40051 57017 885//;,Q01+999990APOSP 
06-04T12:00:00,4,31.2,107.5,344.0,"DA XIAN, CH",FM-12,99999,V020,"040,1,N,0030,1","99999,9,9,N","015000,1,N,1","+0261,1","+0170,1","10059,1","06,0000,9,1",,,,,"07,99,1,07,1,00,1,99999,9,04,1,99,9",,,"99999,9,09671,1","2,1,007,1,+999,9",,SYN066AAXX  04121 57328 32965 70403 10261 20170 39671 40059 52007 8704/;,Q01  00002PRCP06
06-04T15:00:00,4,31.2,107.5,344.0,"DA XIAN, CH",FM-12,99999,V020,"040,1,N,0030,1","99999,9,9,N","013000,1,N,1","+0249,1","+0163,1","10059,1",,,,,,"08,99,1,08,1,00,1,99999,9,07,1,99,9",,,"99999,9,09671,1","2,1,001,1,+999,9",,SYN060AAXX  04151 57328 42963 80403 10249 20163 40059 52001 8807/;,Q01+999990APOSP 
06-04T18:00:00,4,31.2,107.5,344.0,"DA XIAN, CH",FM-12,99999,V020,"999,9,C,0000,1","99999,9,9,N","007000,1,N,1","+0228,1","+0183,1","10065,1","06,0005,9,1",,"6,1,06,1",,,"08,99,1,08,1,00,1,99999,9,02,1,99,9",,"999,M,+0274,1","99999,9,09677,1","2,1,005,1,+999,9","60,1",SYN088AAXX  04181 57328 11957 80000 10228 20183 39677 40065 52005 69961 76060 8802/ 333 10274;,
06-04T21:00:00,4,31.2,107.5,344.0,"DA XIAN, CH",FM-12,99999,V020,"040,1,N,0020,1","02100,1,9,N","005000,1,N,1","+0201,1","+0195,1","10071,1","24,0084,9,1",,"9,1,03,1","6,1,03,1",,"08,99,1,08,1,04,1,02250,1,99,9,99,9",,,"99999,9,09676,1","2,1,004,1,+999,9","80,1",SYN076AAXX  04211 57328 41850 80402 10201 20195 40071 52004 78096 884// 333 70085;,Q01+999990APOSP 
06-05T00:00:00,4,31.2,107.5,344.0,"DA XIAN, CH",FM-12,99999,V020,"040,1,N,0020,1","99999,9,9,N","006000,1,N,1","+0205,1","+0194,1","10078,1","06,0109,9,1","24,0114,9,1","9,1,06,1","8,1,06,1",,"08,99,1,08,1,00,1,99999,9,07,1,99,9",,,"99999,9,09687,1","2,1,006,1,+010,1","10,1",SYN094AAXX  05001 57328 11956 80402 10205 20194 39687 40078 52006 60111 71098 8807/ 333 00154 70115;,
06-05T03:00:00,4,31.2,107.5,344.0,"DA XIAN, CH",FM-12,99999,V020,"020,1,N,0010,1","99999,9,9,N","012000,1,N,1","+0242,1","+0200,1","10077,1",,,,,,"08,99,1,08,1,00,1,99999,9,07,1,99,9",,,"99999,9,09687,1","2,1,001,1,+999,9",,SYN060AAXX  05031 57328 42962 80201 10242 20200 40077 52001 8807/;,Q01+999990APOSP 
06-05T06:00:00,4,31.2,107.5,344.0,"DA XIAN, CH",FM-12,99999,V020,"999,9,C,0000,1","03600,1,9,N","020000,1,N,1","+0285,1","+0208,1","10058,1","06,0000,9,1",,,,,"07,99,1,02,1,01,1,01250,1,04,1,99,9",,"999,N,+0200,1","99999,9,09671,1","7,1,017,1,+999,9",,SYN076AAXX  05061 57328 32670 70000 10285 20208 39671 40058 57017 8214/ 333 20200;,Q01  00002PRCP06
06-05T09:00:00,4,31.2,107.5,344.0,"DA XIAN, CH",FM-12,99999,V020,"180,1,N,0010,1","99999,9,9,N","025000,1,N,1","+0283,1","+0213,1","10045,1",,,,,,"06,99,1,00,1,00,1,99999,9,00,1,01,1",,,"99999,9,09662,1","7,1,015,1,+999,9",,SYN060AAXX  05091 57328 42975 61801 10283 20213 40045 57015 80001;,Q01+999990APOSP 
06-05T12:00:00,4,31.2,107.5,344.0,"DA XIAN, CH",FM-12,99999,V020,"220,1,N,0010,1","99999,9,9,N","012000,1,N,1","+0262,1","+0217,1","10056,1","06,0000,9,1",,,,,"08,99,1,08,1,00,1,99999,9,07,1,99,9",,,"99999,9,09666,1","2,1,010,1,+999,9",,SYN066AAXX  05121 57328 32962 82201 10262 20217 39666 40056 52010 8807/;,Q01  00002PRCP06
06-05T15:00:00,4,31.2,107.5,344.0,"DA XIAN, CH",FM-12,99999,V020,"180,1,N,0010,1","03600,1,9,N","008000,1,N,1","+0246,1","+0213,1","10070,1",,,,,,"08,99,1,01,1,05,1,02250,1,07,1,99,9",,,"99999,9,09681,1","2,1,015,1,+999,9","10,1",SYN066AAXX  05151 57328 41858 81801 10246 20213 40070 52015 71000 8157/;,Q01+999990APOSP 
06-05T18:00:00,4,31.2,107.5,344.0,"DA XIAN, CH",FM-12,99999,V020,"180,1,N,0010,1","99999,9,9,N","006000,1,N,1","+0233,1","+0209,1","10066,1","06,0000,9,1",,,,,"08,99,1,08,1,00,1,99999,9,07,1,99,9",,"999,M,+0290,1","99999,9,09679,1","7,1,002,1,+999,9","10,1",SYN082AAXX  05181 57328 31956 81801 10233 20209 39679 40066 57002 71000 8807/ 333 10290;,Q01  00002PRCP06
06-05T21:00:00,4,31.2,107.5,344.0,"DA XIAN, CH",FM-12,99999,V020,"180,1,N,0010,1","99999,9,9,N","003000,1,N,1","+0227,1","+0212,1","10053,1","24,0030,9,1",,,,,"08,99,1,08,1,00,1,99999,9,07,1,99,9",,,"99999,9,09662,1","7,1,013,1,+999,9","10,1",SYN076AAXX  05211 57328 41930 81801 10227 20212 40053 57013 71000 8807/ 333 70030;,Q01+999990APOSP 
06-06T00:00:00,4,31.2,107.5,344.0,"DA XIAN, CH",FM-12,99999,V020,"180,1,N,0010,1","99999,9,9,N","005000,1,N,1","+0227,1","+0211,1","10064,1","06,0000,9,1",,,,,"08,99,1,08,1,00,1,99999,9,02,1,99,9",,,"99999,9,09675,1","2,1,009,1,+001,1","10,1",SYN082AAXX  06001 57328 31950 81801 10227 20211 39675 40064 52009 71000 8802/ 333 05102;,Q01  00002PRCP06
06-06T03:00:00,4,31.2,107.5,344.0,"DA XIAN, CH",FM-12,99999,V020,"160,1,N,0020,1","02100,1,9,N","004000,1,N,1","+0247,1","+0216,1","10066,1",,,,,,"08,99,1,08,1,05,1,02250,1,99,9,99,9",,,"99999,9,09677,1","2,1,002,1,+999,9","10,1",SYN066AAXX  06031 57328 41840 81602 10247 20216 40066 52002 71000 885//;,Q01+999990APOSP 
06-06T06:00:00,4,31.2,107.5,344.0,"DA XIAN, CH",FM-12,99999,V020,"270,1,N,0020,1","09000,1,9,N","012000,1,N,1","+0279,1","+0218,1","10049,1","06,0000,9,1",,,,,"07,99,1,01,1,01,1,00800,1,00,1,02,1",,"999,N,+0225,1","99999,9,09662,1","7,1,015,1,+999,9",,SYN076AAXX  06061 57328 32562 72702 10279 20218 39662 40049 57015 81102 333 20225;,Q01  00002PRCP06
06-06T09:00:00,4,31.2,107.5,344.0,"DA XIAN, CH",FM-12,99999,V020,"250,1,N,0030,1","99999,9,9,N","015000,1,N,1","+0285,1","+0212,1","10036,1",,,,,,"07,99,1,00,1,00,1,99999,9,00,1,02,1",,,"99999,9,09653,1","7,1,013,1,+999,9",,SYN060AAXX  06091 57328 42965 72503 10285 20212 40036 57013 80002;,Q01+999990APOSP 
06-06T12:00:00,4,31.2,107.5,344.0,"DA XIAN, CH",FM-12,99999,V020,"220,1,N,0020,1","99999,9,9,N","006000,1,N,1","+0263,1","+0214,1","10045,1","06,0000,9,1",,,,,"08,99,1,08,1,00,1,99999,9,02,1,99,9",,,"99999,9,09657,1","2,1,008,1,+999,9","10,1",SYN072AAXX  06121 57328 31956 82202 10263 20214 39657 40045 52008 71000 8802/;,Q01  00002PRCP06
06-06T15:00:00,4,31.2,107.5,344.0,"DA XIAN, CH",FM-12,99999,V020,"200,1,N,0020,1","02100,1,9,N","005000,1,N,1","+0247,1","+0216,1","10068,1",,,,,,"08,99,1,08,1,05,1,02250,1,99,9,99,9",,,"99999,9,09679,1","2,1,022,1,+999,9","10,1",SYN066AAXX  06151 57328 41850 82002 10247 20216 40068 52022 71000 885//;,Q01+999990APOSP 
06-06T18:00:00,4,31.2,107.5,344.0,"DA XIAN, CH",FM-12,99999,V020,"180,1,N,0020,1","02100,1,9,N","004000,1,N,1","+0237,1","+0204,1","10050,1","06,0000,9,1",,,,,"08,99,1,08,1,05,1,02250,1,99,9,99,9",,"999,M,+0293,1","99999,9,09663,1","7,1,016,1,+999,9","10,1",SYN082AAXX  06181 57328 31840 81802 10237 20204 39663 40050 57016 71000 885// 333 10293;,Q01  00002PRCP06
06-06T21:00:00,4,31.2,107.5,344.0,"DA XIAN, CH",FM-12,99999,V020,"999,9,C,0000,1","99999,9,9,N","005000,1,N,1","+0227,1","+0187,1","10055,1",,,,,,"08,99,1,08,1,00,1,99999,9,07,1,99,9",,,"99999,9,09664,1","2,1,005,1,+999,9","10,1",SYN066AAXX  06211 57328 41950 80000 10227 20187 40055 52005 71000 8807/;,Q01+999990APOSP 
06-07T00:00:00,4,31.2,107.5,344.0,"DA XIAN, CH",FM-12,99999,V020,"160,1,N,0010,1","02100,1,9,N","006000,1,N,1","+0229,1","+0192,1","10063,1","06,0000,9,1",,,,,"08,99,1,08,1,05,1,02250,1,99,9,99,9",,,"99999,9,09674,1","2,1,006,1,+000,1","10,1",SYN082AAXX  07001 57328 31856 81601 10229 20192 39674 40063 52006 71000 885// 333 00000;,Q01  00002PRCP06
06-07T03:00:00,4,31.2,107.5,344.0,"DA XIAN, CH",FM-12,99999,V020,"999,9,C,0000,1","99999,9,9,N","004000,1,N,1","+0243,1","+0212,1","10067,1",,,,,,"08,99,1,08,1,00,1,99999,9,07,1,99,9",,,"99999,9,09678,1","2,1,004,1,+999,9","10,1",SYN066AAXX  07031 57328 41940 80000 10243 20212 40067 52004 71000 8807/;,Q01+999990APOSP 
06-07T06:00:00,4,31.2,107.5,344.0,"DA XIAN, CH",FM-12,99999,V020,"270,1,N,0020,1","99999,9,9,N","007000,1,N,1","+0260,1","+0198,1","10053,1","06,9999,9,9",,"6,1,06,1",,,"08,99,1,08,1,00,1,99999,9,02,1,99,9",,"999,N,+0224,1","99999,9,09665,1","7,1,013,1,+999,9","10,1",SYN088AAXX  07061 57328 11957 82702 10260 20198 39665 40053 57013 69901 71060 8802/ 333 20224;,
06-07T09:00:00,4,31.2,107.5,344.0,"DA XIAN, CH",FM-12,99999,V020,"270,1,N,0020,1","99999,9,9,N","008000,1,N,1","+0261,1","+0204,1","10043,1",,,,,,"08,99,1,08,1,00,1,99999,9,07,1,99,9",,,"99999,9,09657,1","7,1,010,1,+999,9","10,1",SYN066AAXX  07091 57328 41958 82702 10261 20204 40043 57010 71000 8807/;,Q01+999990APOSP 
06-07T12:00:00,4,31.2,107.5,344.0,"DA XIAN, CH",FM-12,99999,V020,"110,1,N,0010,1","02100,1,9,N","013000,1,N,1","+0245,1","+0193,1","10055,1","06,9999,9,9",,"6,1,06,1",,,"08,99,1,08,1,05,1,02250,1,99,9,99,9",,,"99999,9,09665,1","2,1,010,1,+999,9","00,1",SYN078AAXX  07121 57328 11863 81101 10245 20193 39665 40055 52010 69901 70060 885//;,
06-07T15:00:00,4,31.2,107.5,344.0,"DA XIAN, CH",FM-12,99999,V020,"180,1,N,0020,1","02100,1,9,N","008000,1,N,1","+0236,1","+0204,1","10064,1",,,,,,"08,99,1,08,1,05,1,02250,1,99,9,99,9",,,"99999,9,09674,1","2,1,009,1,+999,9","60,1",SYN066AAXX  07151 57328 41858 81802 10236 20204 40064 52009 76000 885//;,Q01+999990APOSP 
06-07T18:00:00,4,31.2,107.5,344.0,"DA XIAN, CH",FM-12,99999,V020,"180,1,N,0020,1","02100,1,9,N","008000,1,N,1","+0226,1","+0200,1","10057,1","06,9999,9,9",,"6,1,06,1",,,"08,99,1,08,1,05,1,02250,1,99,9,99,9",,"999,M,+0266,1","99999,9,09668,1","7,1,006,1,+999,9","10,1",SYN088AAXX  07181 57328 11858 81802 10226 20200 39668 40057 57006 69901 71060 885// 333 10266;,
06-07T21:00:00,4,31.2,107.5,344.0,"DA XIAN, CH",FM-12,99999,V020,"070,1,N,0020,1","99999,9,9,N","004000,1,N,1","+0215,1","+0206,1","10058,1","24,0000,2,1",,,,,"08,99,1,08,1,00,1,99999,9,07,1,99,9",,,"99999,9,09665,1","4,1,000,1,+999,9","10,1",SYN076AAXX  07211 57328 41940 80702 10215 20206 40058 54000 71000 8807/ 333 79999;,Q01+999990APOSP 
06-08T00:00:00,4,31.2,107.5,344.0,"DA XIAN, CH",FM-12,99999,V020,"070,1,N,0010,1","99999,9,9,N","003000,1,N,1","+0225,1","+0205,1","10070,1","06,0000,9,1","24,0000,2,1",,,,"08,99,1,08,1,00,1,99999,9,07,1,99,9",,,"99999,9,09679,1","2,1,011,1,+010,1","10,1",SYN088AAXX  08001 57328 31930 80701 10225 20205 39679 40070 52011 71000 8807/ 333 00100 79999;,Q01  00002PRCP06
06-08T03:00:00,4,31.2,107.5,344.0,"DA XIAN, CH",FM-12,99999,V020,"040,1,N,0020,1","99999,9,9,N","008000,1,N,1","+0236,1","+0203,1","10068,1",,,,,,"08,99,1,08,1,00,1,99999,9,07,1,99,9",,,"99999,9,09678,1","7,1,001,1,+999,9","10,1",SYN066AAXX  08031 57328 41958 80402 10236 20203 40068 57001 71000 8807/;,Q01+999990APOSP 
06-08T06:00:00,4,31.2,107.5,344.0,"DA XIAN, CH",FM-12,99999,V020,"020,1,N,0020,1","99999,9,9,N","015000,1,N,1","+0263,1","+0190,1","10056,1","06,0000,9,1",,,,,"07,99,1,07,1,00,1,99999,9,04,1,99,9",,"999,N,+0214,1","99999,9,09667,1","7,1,011,1,+999,9",,SYN076AAXX  08061 57328 32965 70202 10263 20190 39667 40056 57011 8704/ 333 20214;,Q01  00002PRCP06
06-08T09:00:00,4,31.2,107.5,344.0,"DA XIAN, CH",FM-12,99999,V020,"020,1,N,0010,1","03600,1,9,N","020000,1,N,1","+0277,1","+0199,1","10032,1",,,,,,"07,99,1,02,1,01,1,01250,1,04,1,99,9",,,"99999,9,09648,1","7,1,023,1,+999,9",,SYN060AAXX  08091 57328 42670 70201 10277 20199 40032 57023 8214/;,Q01+999990APOSP 
06-08T12:00:00,4,31.2,107.5,344.0,"DA XIAN, CH",FM-12,99999,V020,"090,1,N,0010,1","99999,9,9,N","012000,1,N,1","+0260,1","+0205,1","10033,1","06,0000,9,1",,,,,"06,99,1,06,1,00,1,99999,9,04,1,00,1",,,"99999,9,09645,1","2,1,001,1,+999,9",,SYN066AAXX  08121 57328 32962 60901 10260 20205 39645 40033 52001 86040;,Q01  00002PRCP06
06-08T15:00:00,4,31.2,107.5,344.0,"DA XIAN, CH",FM-12,99999,V020,"040,1,N,0030,1","22000,1,9,N","011000,1,N,1","+0228,1","+0205,1","10050,1",,,,,,"01,99,1,01,1,00,1,99999,9,04,1,00,1",,,"99999,9,09659,1","2,1,015,1,+999,9",,SYN060AAXX  08151 57328 42961 10403 10228 20205 40050 52015 81040;,Q01+999990APOSP 
06-08T18:00:00,4,31.2,107.5,344.0,"DA XIAN, CH",FM-12,99999,V020,"070,1,N,0030,1","99999,9,9,N","008000,1,N,1","+0217,1","+0202,1","10040,1","06,0000,9,1",,,,,"07,99,1,07,1,00,1,99999,9,04,1,99,9",,"999,M,+0284,1","99999,9,09651,1","7,1,009,1,+999,9","10,1",SYN082AAXX  08181 57328 31958 70703 10217 20202 39651 40040 57009 71000 8704/ 333 10284;,Q01  00002PRCP06
06-08T21:00:00,4,31.2,107.5,344.0,"DA XIAN, CH",FM-12,99999,V020,"040,1,N,0030,1","99999,9,9,N","006000,1,N,1","+0210,1","+0199,1","10035,1",,,,,,"08,99,1,08,1,00,1,99999,9,07,1,99,9",,,"99999,9,09643,1","7,1,004,1,+999,9","10,1",SYN066AAXX  08211 57328 41956 80403 10210 20199 40035 57004 71000 8807/;,Q01+999990APOSP 
06-09T00:00:00,4,31.2,107.5,344.0,"DA XIAN, CH",FM-12,99999,V020,"040,1,N,0020,1","99999,9,9,N","005000,1,N,1","+0219,1","+0198,1","10046,1","06,0000,9,1",,,,,"07,99,1,00,1,00,1,99999,9,00,1,01,1",,,"99999,9,09657,1","2,1,010,1,+002,1","10,1",SYN082AAXX  09001 57328 31950 70402 10219 20198 39657 40046 52010 71000 80001 333 05251;,Q01  00002PRCP06
06-09T03:00:00,4,31.2,107.5,344.0,"DA XIAN, CH",FM-12,99999,V020,"090,1,N,0020,1","99999,9,9,N","015000,1,N,1","+0267,1","+0204,1","10042,1",,,,,,"07,99,1,07,1,00,1,99999,9,04,1,99,9",,,"99999,9,09657,1","7,1,003,1,+999,9",,SYN060AAXX  09031 57328 42965 70902 10267 20204 40042 57003 8704/;,Q01+999990APOSP 
06-09T06:00:00,4,31.2,107.5,344.0,"DA XIAN, CH",FM-12,99999,V020,"320,1,N,0010,1","99999,9,9,N","030000,1,N,1","+0305,1","+0184,1","10024,1","06,0000,9,1",,,,,"06,99,1,03,1,00,1,99999,9,04,1,01,1",,"999,N,+0208,1","99999,9,09639,1","7,1,015,1,+999,9",,SYN076AAXX  09061 57328 32980 63201 10305 20184 39639 40024 57015 83041 333 20208;,Q01  00002PRCP06
06-09T09:00:00,4,31.2,107.5,344.0,"DA XIAN, CH",FM-12,99999,V020,"200,1,N,0020,1","99999,9,9,N","030000,1,N,1","+0316,1","+0179,1","10006,1",,,,,,"06,99,1,00,1,00,1,99999,9,00,1,01,1",,,"99999,9,09628,1","7,1,018,1,+999,9",,SYN060AAXX  09091 57328 42980 62002 10316 20179 40006 57018 80001;,Q01+999990APOSP 
06-09T12:00:00,4,31.2,107.5,344.0,"DA XIAN, CH",FM-12,99999,V020,"999,9,C,0000,1","22000,1,9,N","030000,1,N,1","+0291,1","+0193,1","10017,1","06,0000,9,1",,,,,"01,99,1,01,1,00,1,99999,9,04,1,00,1",,,"99999,9,09631,1","2,1,010,1,+999,9",,SYN066AAXX  09121 57328 32980 10000 10291 20193 39631 40017 52010 81040;,Q01  00002PRCP06
06-09T15:00:00,4,31.2,107.5,344.0,"DA XIAN, CH",FM-12,99999,V020,"090,1,N,0020,1","22000,1,9,N","011000,1,N,1","+0242,1","+0201,1","10042,1",,,,,,"01,99,1,01,1,00,1,99999,9,04,1,00,1",,,"99999,9,09653,1","2,1,024,1,+999,9",,SYN060AAXX  09151 57328 42961 10902 10242 20201 40042 52024 81040;,Q01+999990APOSP 
06-09T18:00:00,4,31.2,107.5,344.0,"DA XIAN, CH",FM-12,99999,V020,"070,1,N,0020,1","99999,9,9,N","005000,1,N,1","+0240,1","+0202,1","10034,1","06,0000,9,1",,,,,"08,99,1,08,1,00,1,99999,9,07,1,99,9",,"999,M,+0321,1","99999,9,09650,1","7,1,005,1,+999,9","10,1",SYN082AAXX  09181 57328 31950 80702 10240 20202 39650 40034 57005 71000 8807/ 333 10321;,Q01  00002PRCP06
06-09T21:00:00,4,31.2,107.5,344.0,"DA XIAN, CH",FM-12,99999,V020,"040,1,N,0030,1","99999,9,9,N","005000,1,N,1","+0235,1","+0207,1","10030,1",,,,,,"08,99,1,08,1,00,1,99999,9,07,1,99,9",,,"99999,9,09641,1","7,1,004,1,+999,9","10,1",SYN066AAXX  09211 57328 41950 80403 10235 20207 40030 57004 71000 8807/;,Q01+999990APOSP 
06-10T00:00:00,4,31.2,107.5,344.0,"DA XIAN, CH",FM-12,99999,V020,"070,1,N,0040,1","99999,9,9,N","008000,1,N,1","+0237,1","+0207,1","10043,1","06,9999,9,9","24,0000,2,1",,,,"08,99,1,08,1,00,1,99999,9,02,1,99,9",,,"99999,9,09657,1","2,1,011,1,+000,1","60,1",SYN094AAXX  10001 57328 11958 80704 10237 20207 39657 40043 52011 69901 76000 8802/ 333 00002 79999;,
06-10T03:00:00,4,31.2,107.5,344.0,"DA XIAN, CH",FM-12,99999,V020,"040,1,N,0060,1","02100,1,9,N","008000,1,N,1","+0233,1","+0190,1","10050,1",,,"6,1,03,1",,,"08,99,1,08,1,05,1,02250,1,99,9,99,9",,,"99999,9,09660,1","2,1,004,1,+999,9","60,1",SYN066AAXX  10031 57328 41858 80406 10233 20190 40050 52004 76060 885//;,Q01+999990APOSP 
06-10T06:00:00,4,31.2,107.5,344.0,"DA XIAN, CH",FM-12,99999,V020,"070,1,N,0070,1","02100,1,9,N","014000,1,N,1","+0225,1","+0191,1","10047,1","06,0020,9,1",,"6,1,06,1",,,"08,99,1,08,1,05,1,02250,1,99,9,99,9",,"999,N,+0213,1","99999,9,09657,1","7,1,004,1,+999,9","21,1",SYN088AAXX  10061 57328 11864 80707 10225 20191 39657 40047 57004 60021 72160 885// 333 20213;,
06-10T09:00:00,4,31.2,107.5,344.0,"DA XIAN, CH",FM-12,99999,V020,"070,1,N,0050,1","02100,1,9,N","025000,1,N,1","+0225,1","+0149,1","10048,1",,,"6,1,03,1",,,"08,99,1,08,1,05,1,02250,1,99,9,99,9",,,"99999,9,09657,1","2,1,001,1,+999,9","60,1",SYN066AAXX  10091 57328 41875 80705 10225 20149 40048 52001 76060 885//;,Q01+999990APOSP 
06-10T12:00:00,4,31.2,107.5,344.0,"DA XIAN, CH",FM-12,99999,V020,"040,1,N,0020,1","02100,1,9,N","018000,1,N,1","+0193,1","+0177,1","10075,1","06,0020,9,1",,"6,1,06,1",,,"08,99,1,08,1,05,1,02250,1,99,9,99,9",,,"99999,9,09682,1","2,1,024,1,+999,9","60,1",SYN078AAXX  10121 57328 11868 80402 10193 20177 39682 40075 52024 60021 76060 885//;,
06-10T15:00:00,4,31.2,107.5,344.0,"DA XIAN, CH",FM-12,99999,V020,"070,1,N,0030,1","02100,1,9,N","016000,1,N,1","+0180,1","+0164,1","10096,1",,,"6,1,03,1","6,1,03,1",,"08,99,1,08,1,05,1,02250,1,99,9,99,9",,,"99999,9,09697,1","2,1,019,1,+999,9","60,1",SYN066AAXX  10151 57328 41866 80703 10180 20164 40096 52019 76066 885//;,Q01+999990APOSP 
06-10T18:00:00,4,31.2,107.5,344.0,"DA XIAN, CH",FM-12,99999,V020,"040,1,N,0030,1","02100,1,9,N","014000,1,N,1","+0175,1","+0157,1","10090,1","06,0051,9,1",,"6,1,06,1",,,"08,99,1,08,1,05,1,02250,1,99,9,99,9",,"999,M,+0241,1","99999,9,09694,1","7,1,007,1,+999,9","21,1",SYN088AAXX  10181 57328 11864 80403 10175 20157 39694 40090 57007 60051 72160 885// 333 10241;,
06-10T21:00:00,4,31.2,107.5,344.0,"DA XIAN, CH",FM-12,99999,V020,"040,1,N,0020,1","22000,1,9,N","012000,1,N,1","+0175,1","+0146,1","10085,1","24,0084,9,1",,,,,"01,99,1,01,1,00,1,99999,9,04,1,00,1",,,"99999,9,09686,1","7,1,005,1,+999,9",,SYN070AAXX  10211 57328 42962 10402 10175 20146 40085 57005 81040 333 70083;,Q01+999990APOSP 
06-11T00:00:00,4,31.2,107.5,344.0,"DA XIAN, CH",FM-12,99999,V020,"090,1,N,0020,1","22000,1,9,N","020000,1,N,1","+0195,1","+0150,1","10099,1","06,0000,2,1","24,0084,9,1",,,,"01,99,1,01,1,01,1,00800,1,00,1,00,1",,,"99999,9,09702,1","2,1,013,1,+050,1",,SYN082AAXX  11001 57328 32570 10902 10195 20150 39702 40099 52013 81100 333 00554 70083;,
06-11T03:00:00,4,31.2,107.5,344.0,"DA XIAN, CH",FM-12,99999,V020,"270,1,N,0020,1","22000,1,9,N","015000,1,N,1","+0231,1","+0145,1","10097,1",,,,,,"01,99,1,01,1,01,1,01250,1,00,1,00,1",,,"99999,9,09705,1","4,1,000,1,+999,9",,SYN060AAXX  11031 57328 42665 12702 10231 20145 40097 54000 81100;,Q01+999990APOSP 
06-11T06:00:00,4,31.2,107.5,344.0,"DA XIAN, CH",FM-12,99999,V020,"220,1,N,0020,1","22000,1,9,N","030000,1,N,1","+0266,1","+0159,1","10074,1","06,0000,9,1",,,,,"02,99,1,02,1,01,1,00800,1,00,1,00,1",,"999,N,+0167,1","99999,9,09681,1","7,1,021,1,+999,9",,SYN076AAXX  11061 57328 32580 22202 10266 20159 39681 40074 57021 82100 333 20167;,Q01  00002PRCP06
06-11T09:00:00,4,31.2,107.5,344.0,"DA XIAN, CH",FM-12,99999,V020,"180,1,N,0020,1","22000,1,9,N","030000,1,N,1","+0275,1","+0155,1","10052,1",,,,,"00,1,+99999,9,99,9","00,99,1,00,1,00,1,99999,9,00,1,00,1",,,"99999,9,09667,1","7,1,020,1,+999,9",,SYN054AAXX  11091 57328 42980 01802 10275 20155 40052 57020;,Q01+999990APOSP 
06-11T12:00:00,4,31.2,107.5,344.0,"DA XIAN, CH",FM-12,99999,V020,"250,1,N,0020,1","22000,1,9,N","030000,1,N,1","+0261,1","+0151,1","10061,1","06,0000,9,1",,,,,"02,99,1,00,1,00,1,99999,9,00,1,02,1",,,"99999,9,09670,1","2,1,009,1,+999,9",,SYN066AAXX  11121 57328 32980 22502 10261 20151 39670 40061 52009 80002;,Q01  00002PRCP06
06-11T15:00:00,4,31.2,107.5,344.0,"DA XIAN, CH",FM-12,99999,V020,"040,1,N,0020,1","22000,1,9,N","020000,1,N,1","+0216,1","+0180,1","10085,1",,,,,,"01,99,1,00,1,00,1,99999,9,00,1,01,1",,,"99999,9,09691,1","2,1,022,1,+999,9",,SYN060AAXX  11151 57328 42970 10402 10216 20180 40085 52022 80001;,Q01+999990APOSP 
06-11T18:00:00,4,31.2,107.5,344.0,"DA XIAN, CH",FM-12,99999,V020,"070,1,N,0020,1","99999,9,9,N","015000,1,N,1","+0198,1","+0177,1","10080,1","06,0000,9,1",,,,,"07,99,1,07,1,00,1,99999,9,04,1,99,9",,"999,M,+0278,1","99999,9,09689,1","7,1,003,1,+999,9",,SYN076AAXX  11181 57328 32965 70702 10198 20177 39689 40080 57003 8704/ 333 10278;,Q01  00002PRCP06
06-11T21:00:00,4,31.2,107.5,344.0,"DA XIAN, CH",FM-12,99999,V020,"040,1,N,0030,1","99999,9,9,N","008000,1,N,1","+0190,1","+0180,1","10068,1",,,,,,"07,99,1,07,1,00,1,99999,9,04,1,99,9",,,"99999,9,09672,1","7,1,012,1,+999,9","10,1",SYN066AAXX  11211 57328 41958 70403 10190 20180 40068 57012 71000 8704/;,Q01+999990APOSP 
06-12T00:00:00,4,31.2,107.5,344.0,"DA XIAN, CH",FM-12,99999,V020,"040,1,N,0020,1","99999,9,9,N","008000,1,N,1","+0195,1","+0178,1","10072,1","06,0000,9,1",,,,,"08,99,1,08,1,00,1,99999,9,02,1,99,9",,,"99999,9,09680,1","2,1,003,1,+002,1","10,1",SYN082AAXX  12001 57328 31958 80402 10195 20178 39680 40072 52003 71000 8802/ 333 05200;,Q01  00002PRCP06
06-12T03:00:00,4,31.2,107.5,344.0,"DA XIAN, CH",FM-12,99999,V020,"090,1,N,0010,1","99999,9,9,N","012000,1,N,1","+0220,1","+0181,1","10090,1",,,,,,"08,99,1,08,1,00,1,99999,9,07,1,99,9",,,"99999,9,09697,1","2,1,016,1,+999,9",,SYN060AAXX  12031 57328 42962 80901 10220 20181 40090 52016 8807/;,Q01+999990APOSP 
06-12T06:00:00,4,31.2,107.5,344.0,"DA XIAN, CH",FM-12,99999,V020,"999,9,C,0000,1","99999,9,9,N","007000,1,N,1","+0224,1","+0193,1","10087,1","06,0010,9,1",,"6,1,06,1",,,"08,99,1,08,1,00,1,99999,9,07,1,99,9",,"999,N,+0188,1","99999,9,09693,1","7,1,003,1,+999,9","60,1",SYN088AAXX  12061 57328 11957 80000 10224 20193 39693 40087 57003 60011 76060 8807/ 333 20188;,
06-12T09:00:00,4,31.2,107.5,344.0,"DA XIAN, CH",FM-12,99999,V020,"270,1,N,0010,1","99999,9,9,N","015000,1,N,1","+0233,1","+0185,1","10079,1",,,"6,1,03,1",,,"08,99,1,08,1,00,1,99999,9,07,1,99,9",,,"99999,9,09688,1","7,1,008,1,+999,9","00,1",SYN066AAXX  12091 57328 41965 82701 10233 20185 40079 57008 70060 8807/;,Q01+999990APOSP 
06-12T12:00:00,4,31.2,107.5,344.0,"DA XIAN, CH",FM-12,99999,V020,"200,1,N,0010,1","99999,9,9,N","007000,1,N,1","+0223,1","+0195,1","10087,1","06,9999,9,9",,"6,1,06,1",,,"08,99,1,08,1,00,1,99999,9,07,1,99,9",,,"99999,9,09692,1","2,1,007,1,+999,9","10,1",SYN078AAXX  12121 57328 11957 82001 10223 20195 39692 40087 52007 69911 71060 8807/;,
06-12T15:00:00,4,31.2,107.5,344.0,"DA XIAN, CH",FM-12,99999,V020,"220,1,N,0010,1","99999,9,9,N","005000,1,N,1","+0206,1","+0186,1","10105,1",,,,,,"07,99,1,07,1,00,1,99999,9,04,1,99,9",,,"99999,9,09709,1","2,1,018,1,+999,9","10,1",SYN066AAXX  12151 57328 41950 72201 10206 20186 40105 52018 71000 8704/;,Q01+999990APOSP 
06-12T18:00:00,4,31.2,107.5,344.0,"DA XIAN, CH",FM-12,99999,V020,"220,1,N,0030,1","22000,1,9,N","005000,1,N,1","+0193,1","+0158,1","10105,1","06,0000,9,1",,,,,"02,99,1,00,1,00,1,99999,9,00,1,01,1",,"999,M,+0236,1","99999,9,09710,1","4,1,000,1,+999,9","10,1",SYN082AAXX  12181 57328 31950 22203 10193 20158 39710 40105 54000 71000 80001 333 10236;,Q01  00002PRCP06
06-12T21:00:00,4,31.2,107.5,344.0,"DA XIAN, CH",FM-12,99999,V020,"180,1,N,0020,1","22000,1,9,N","004000,1,N,1","+0175,1","+0151,1","10106,1","24,0010,9,1",,,,"00,1,+99999,9,99,9","00,99,1,00,1,00,1,99999,9,00,1,00,1",,,"99999,9,09706,1","4,1,000,1,+999,9","10,1",SYN070AAXX  12211 57328 41940 01802 10175 20151 40106 54000 71000 333 70011;,Q01+999990APOSP 
06-13T00:00:00,4,31.2,107.5,344.0,"DA XIAN, CH",FM-12,99999,V020,"160,1,N,0010,1","22000,1,9,N","007000,1,N,1","+0186,1","+0151,1","10117,1","06,0000,9,1","24,0010,9,1",,,"00,1,+99999,9,99,9","00,99,1,00,1,00,1,99999,9,00,1,00,1",,,"99999,9,09721,1","2,1,011,1,+040,1","10,1",SYN082AAXX  13001 57328 31957 01601 10186 20151 39721 40117 52011 71000 333 00451 70011;,Q01  00002PRCP06
06-13T03:00:00,4,31.2,107.5,344.0,"DA XIAN, CH",FM-12,99999,V020,"220,1,N,0020,1","01200,1,9,N","008000,1,N,1","+0226,1","+0158,1","10116,1",,,,,,"07,99,1,07,1,01,1,01250,1,00,1,00,1",,,"99999,9,09723,1","4,1,000,1,+999,9","10,1",SYN066AAXX  13031 57328 41658 72202 10226 20158 40116 54000 71000 87100;,Q01+999990APOSP 
06-13T06:00:00,4,31.2,107.5,344.0,"DA XIAN, CH",FM-12,99999,V020,"220,1,N,0020,1","22000,1,9,N","020000,1,N,1","+0261,1","+0155,1","10097,1","06,0000,9,1",,,,,"02,99,1,02,1,01,1,01250,1,00,1,00,1",,"999,N,+0171,1","99999,9,09704,1","7,1,017,1,+999,9",,SYN076AAXX  13061 57328 32670 22202 10261 20155 39704 40097 57017 82100 333 20171;,Q01  00002PRCP06
06-13T09:00:00,4,31.2,107.5,344.0,"DA XIAN, CH",FM-12,99999,V020,"250,1,N,0030,1","22000,1,9,N","030000,1,N,1","+0269,1","+0157,1","10080,1",,,,,,"03,99,1,00,1,00,1,99999,9,00,1,02,1",,,"99999,9,09693,1","7,1,017,1,+999,9",,SYN060AAXX  13091 57328 42980 32503 10269 20157 40080 57017 80002;,Q01+999990APOSP 
06-13T12:00:00,4,31.2,107.5,344.0,"DA XIAN, CH",FM-12,99999,V020,"250,1,N,0020,1","22000,1,9,N","020000,1,N,1","+0252,1","+0166,1","10089,1","06,0000,9,1",,,,,"04,99,1,00,1,00,1,99999,9,00,1,02,1",,,"99999,9,09696,1","2,1,009,1,+999,9",,SYN066AAXX  13121 57328 32970 42502 10252 20166 39696 40089 52009 80002;,Q01  00002PRCP06
06-13T15:00:00,4,31.2,107.5,344.0,"DA XIAN, CH",FM-12,99999,V020,"180,1,N,0010,1","99999,9,9,N","020000,1,N,1","+0224,1","+0180,1","10115,1",,,,,,"05,99,1,00,1,00,1,99999,9,00,1,01,1",,,"99999,9,09721,1","2,1,025,1,+999,9",,SYN060AAXX  13151 57328 42970 51801 10224 20180 40115 52025 80001;,Q01+999990APOSP 
06-13T18:00:00,4,31.2,107.5,344.0,"DA XIAN, CH",FM-12,99999,V020,"040,1,N,0020,1","22000,1,9,N","008000,1,N,1","+0200,1","+0179,1","10114,1","06,0000,9,1",,,,"00,1,+99999,9,99,9","00,99,1,00,1,00,1,99999,9,00,1,00,1",,"999,M,+0276,1","99999,9,09721,1","4,1,000,1,+999,9","10,1",SYN076AAXX  13181 57328 31958 00402 10200 20179 39721 40114 54000 71000 333 10276;,Q01  00002PRCP06
06-13T21:00:00,4,31.2,107.5,344.0,"DA XIAN, CH",FM-12,99999,V020,"040,1,N,0020,1","22000,1,9,N","003000,1,N,1","+0186,1","+0178,1","10111,1",,,,,"00,1,+99999,9,99,9","00,99,1,00,1,00,1,99999,9,00,1,00,1",,,"99999,9,09712,1","7,1,003,1,+999,9","10,1",SYN060AAXX  13211 57328 41930 00402 10186 20178 40111 57003 71000;,Q01+999990APOSP 
06-14T00:00:00,4,31.2,107.5,344.0,"DA XIAN, CH",FM-12,99999,V020,"040,1,N,0020,1","22000,1,9,N","001200,1,N,1","+0193,1","+0180,1","10118,1","06,0000,9,1",,"4,1,06,1",,,"01,99,1,01,1,00,1,99999,9,04,1,00,1",,,"99999,9,09724,1","2,1,006,1,+000,1","28,1",SYN082AAXX  14001 57328 31912 10402 10193 20180 39724 40118 52006 72840 81040 333 00001;,Q01  00002PRCP06
06-14T03:00:00,4,31.2,107.5,344.0,"DA XIAN, CH",FM-12,99999,V020,"340,1,N,0010,1","99999,9,9,N","015000,1,N,1","+0258,1","+0186,1","10108,1",,,,,,"07,99,1,00,1,00,1,99999,9,00,1,02,1",,,"99999,9,09719,1","7,1,007,1,+999,9",,SYN060AAXX  14031 57328 42965 73401 10258 20186 40108 57007 80002;,Q01+999990APOSP 
06-14T06:00:00,4,31.2,107.5,344.0,"DA XIAN, CH",FM-12,99999,V020,"320,1,N,0020,1","99999,9,9,N","015000,1,N,1","+0282,1","+0193,1","10085,1","06,0000,9,1",,,,,"07,99,1,00,1,00,1,99999,9,00,1,02,1",,"999,N,+0179,1","99999,9,09695,1","7,1,022,1,+999,9",,SYN076AAXX  14061 57328 32965 73202 10282 20193 39695 40085 57022 80002 333 20179;,Q01  00002PRCP06
06-14T09:00:00,4,31.2,107.5,344.0,"DA XIAN, CH",FM-12,99999,V020,"220,1,N,0020,1","99999,9,9,N","015000,1,N,1","+0291,1","+0170,1","10072,1",,,,,,"06,99,1,06,1,00,1,99999,9,04,1,00,1",,,"99999,9,09689,1","7,1,013,1,+999,9",,SYN060AAXX  14091 57328 42965 62202 10291 20170 40072 57013 86040;,Q01+999990APOSP 
06-14T12:00:00,4,31.2,107.5,344.0,"DA XIAN, CH",FM-12,99999,V020,"180,1,N,0020,1","99999,9,9,N","020000,1,N,1","+0263,1","+0198,1","10074,1","06,0000,9,1",,,,,"07,99,1,00,1,00,1,99999,9,00,1,02,1",,,"99999,9,09682,1","4,1,000,1,+999,9",,SYN066AAXX  14121 57328 32970 71802 10263 20198 39682 40074 54000 80002;,Q01  00002PRCP06
06-14T15:00:00,4,31.2,107.5,344.0,"DA XIAN, CH",FM-12,99999,V020,"040,1,N,0010,1","22000,1,9,N","015000,1,N,1","+0233,1","+0196,1","10088,1",,,,,,"04,99,1,04,1,00,1,99999,9,04,1,00,1",,,"99999,9,09697,1","2,1,016,1,+999,9",,SYN060AAXX  14151 57328 42965 40401 10233 20196 40088 52016 84040;,Q01+999990APOSP 
06-14T18:00:00,4,31.2,107.5,344.0,"DA XIAN, CH",FM-12,99999,V020,"070,1,N,0010,1","99999,9,9,N","012000,1,N,1","+0214,1","+0199,1","10080,1","06,0000,9,1",,,,,"06,99,1,06,1,00,1,99999,9,04,1,00,1",,"999,M,+0299,1","99999,9,09691,1","7,1,007,1,+999,9",,SYN076AAXX  14181 57328 32962 60701 10214 20199 39691 40080 57007 86040 333 10299;,Q01  00002PRCP06
06-14T21:00:00,4,31.2,107.5,344.0,"DA XIAN, CH",FM-12,99999,V020,"090,1,N,0010,1","22000,1,9,N","008000,1,N,1","+0205,1","+0196,1","10080,1",,,,,"00,1,+99999,9,99,9","00,99,1,00,1,00,1,99999,9,00,1,00,1",,,"99999,9,09685,1","4,1,000,1,+999,9","10,1",SYN060AAXX  14211 57328 41958 00901 10205 20196 40080 54000 71000;,Q01+999990APOSP 
06-15T00:00:00,4,31.2,107.5,344.0,"DA XIAN, CH",FM-12,99999,V020,"040,1,N,0030,1","99999,9,9,N","004000,1,N,1","+0211,1","+0197,1","10092,1","06,0000,9,1",,,,,"07,99,1,07,1,00,1,99999,9,04,1,99,9",,,"99999,9,09701,1","2,1,010,1,+002,1","10,1",SYN082AAXX  15001 57328 31940 70403 10211 20197 39701 40092 52010 71000 8704/ 333 05202;,Q01  00002PRCP06
06-15T03:00:00,4,31.2,107.5,344.0,"DA XIAN, CH",FM-12,99999,V020,"999,9,C,0000,1","99999,9,9,N","007000,1,N,1","+0249,1","+0204,1","10098,1",,,,,,"08,99,1,08,1,00,1,99999,9,07,1,99,9",,,"99999,9,09708,1","2,1,006,1,+999,9","10,1",SYN066AAXX  15031 57328 41957 80000 10249 20204 40098 52006 71000 8807/;,Q01+999990APOSP 
06-15T06:00:00,4,31.2,107.5,344.0,"DA XIAN, CH",FM-12,99999,V020,"200,1,N,0020,1","99999,9,9,N","015000,1,N,1","+0287,1","+0199,1","10084,1","06,0000,9,1",,,,,"07,99,1,07,1,00,1,99999,9,04,1,00,1",,"999,N,+0203,1","99999,9,09695,1","7,1,012,1,+999,9",,SYN076AAXX  15061 57328 32965 72002 10287 20199 39695 40084 57012 87040 333 20203;,Q01  00002PRCP06
06-15T09:00:00,4,31.2,107.5,344.0,"DA XIAN, CH",FM-12,99999,V020,"250,1,N,0010,1","99999,9,9,N","025000,1,N,1","+0306,1","+0187,1","10066,1",,,,,,"07,99,1,07,1,00,1,99999,9,04,1,99,9",,,"99999,9,09685,1","7,1,017,1,+999,9",,SYN060AAXX  15091 57328 42975 72501 10306 20187 40066 57017 8704/;,Q01+999990APOSP 
06-15T12:00:00,4,31.2,107.5,344.0,"DA XIAN, CH",FM-12,99999,V020,"200,1,N,0020,1","99999,9,9,N","012000,1,N,1","+0274,1","+0192,1","10074,1","06,0000,9,1",,,,,"08,99,1,08,1,00,1,99999,9,07,1,99,9",,,"99999,9,09684,1","2,1,006,1,+999,9",,SYN066AAXX  15121 57328 32962 82002 10274 20192 39684 40074 52006 8807/;,Q01  00002PRCP06
06-15T15:00:00,4,31.2,107.5,344.0,"DA XIAN, CH",FM-12,99999,V020,"110,1,N,0010,1","99999,9,9,N","007000,1,N,1","+0249,1","+0201,1","10088,1",,,,,,"08,99,1,08,1,00,1,99999,9,07,1,99,9",,,"99999,9,09699,1","2,1,015,1,+999,9","10,1",SYN066AAXX  15151 57328 41957 81101 10249 20201 40088 52015 71000 8807/;,Q01+999990APOSP 
06-15T18:00:00,4,31.2,107.5,344.0,"DA XIAN, CH",FM-12,99999,V020,"040,1,N,0020,1","22000,1,9,N","006000,1,N,1","+0227,1","+0196,1","10087,1","06,0000,9,1",,,,,"01,99,1,01,1,00,1,99999,9,04,1,00,1",,"999,M,+0310,1","99999,9,09699,1","4,1,000,1,+999,9","10,1",SYN082AAXX  15181 57328 31956 10402 10227 20196 39699 40087 54000 71000 81040 333 10310;,Q01  00002PRCP06
06-15T21:00:00,4,31.2,107.5,344.0,"DA XIAN, CH",FM-12,99999,V020,"040,1,N,0010,1","99999,9,9,N","005000,1,N,1","+0215,1","+0193,1","10091,1",,,,,,"08,99,1,08,1,00,1,99999,9,07,1,99,9",,,"99999,9,09697,1","2,1,004,1,+999,9","10,1",SYN066AAXX  15211 57328 41950 80401 10215 20193 40091 52004 71000 8807/;,
06-16T00:00:00,4,31.2,107.5,344.0,"DA XIAN, CH",FM-12,99999,V020,"070,1,N,0020,1","99999,9,9,N","005000,1,N,1","+0221,1","+0193,1","10104,1","06,0000,9,1",,,,,"08,99,1,08,1,00,1,99999,9,07,1,99,9",,,"99999,9,09714,1","2,1,011,1,+001,1","10,1",SYN082AAXX  16001 57328 31950 80702 10221 20193 39714 40104 52011 71000 8807/ 333 00101;,Q01  00002PRCP06
06-16T03:00:00,4,31.2,107.5,344.0,"DA XIAN, CH",FM-12,99999,V020,"180,1,N,0010,1","99999,9,9,N","004000,1,N,1","+0253,1","+0195,1","10116,1",,,,,,"08,99,1,08,1,00,1,99999,9,02,1,99,9",,,"99999,9,09726,1","2,1,012,1,+999,9","10,1",SYN066AAXX  16031 57328 41940 81801 10253 20195 40116 52012 71000 8802/;,Q01+999990APOSP 
06-16T06:00:00,4,31.2,107.5,344.0,"DA XIAN, CH",FM-12,99999,V020,"250,1,N,0020,1","99999,9,9,N","006000,1,N,1","+0274,1","+0180,1","10111,1","06,9999,9,9",,"6,1,06,1",,,"08,99,1,08,1,00,1,99999,9,07,1,99,9",,"999,N,+0211,1","99999,9,09721,1","7,1,005,1,+999,9","10,1",SYN088AAXX  16061 57328 11956 82502 10274 20180 39721 40111 57005 69901 71060 8807/ 333 20211;,
06-16T09:00:00,4,31.2,107.5,344.0,"DA XIAN, CH",FM-12,99999,V020,"140,1,N,0010,1","03600,1,9,N","007000,1,N,1","+0251,1","+0183,1","10115,1",,,,,,"08,99,1,01,1,01,1,00800,1,02,1,99,9",,,"99999,9,09725,1","2,1,001,1,+999,9","10,1",SYN066AAXX  16091 57328 41557 81401 10251 20183 40115 52001 71000 8112/;,Q01+999990APOSP 
06-16T12:00:00,4,31.2,107.5,344.0,"DA XIAN, CH",FM-12,99999,V020,"180,1,N,0010,1","99999,9,9,N","007000,1,N,1","+0237,1","+0181,1","10115,1","06,0000,9,1",,,,,"08,99,1,08,1,00,1,99999,9,07,1,99,9",,,"99999,9,09722,1","4,1,000,1,+999,9","10,1",SYN072AAXX  16121 57328 31957 81801 10237 20181 39722 40115 54000 71000 8807/;,Q01  00002PRCP06
06-16T15:00:00,4,31.2,107.5,344.0,"DA XIAN, CH",FM-12,99999,V020,"999,9,C,0000,1","99999,9,9,N","004000,1,N,1","+0225,1","+0191,1","10129,1",,,,,,"08,99,1,08,1,00,1,99999,9,02,1,99,9",,,"99999,9,09735,1","2,1,015,1,+999,9","10,1",SYN066AAXX  16151 57328 41940 80000 10225 20191 40129 52015 71000 8802/;,Q01+999990APOSP 
06-16T18:00:00,4,31.2,107.5,344.0,"DA XIAN, CH",FM-12,99999,V020,"200,1,N,0020,1","99999,9,9,N","004000,1,N,1","+0219,1","+0181,1","10124,1","06,0000,9,1",,,,,"08,99,1,08,1,00,1,99999,9,07,1,99,9",,"999,M,+0279,1","99999,9,09733,1","7,1,004,1,+999,9","10,1",SYN082AAXX  16181 57328 31940 82002 10219 20181 39733 40124 57004 71000 8807/ 333 10279;,Q01  00002PRCP06
06-16T21:00:00,4,31.2,107.5,344.0,"DA XIAN, CH",FM-12,99999,V020,"090,1,N,0010,1","99999,9,9,N","004000,1,N,1","+0206,1","+0184,1","10121,1","24,0000,9,1",,,,,"08,99,1,08,1,00,1,99999,9,07,1,99,9",,,"99999,9,09725,1","7,1,005,1,+999,9","10,1",SYN076AAXX  16211 57328 41940 80901 10206 20184 40121 57005 71000 8807/ 333 79999;,Q01+999990APOSP Q02  00002PRCP24
06-17T00:00:00,4,31.2,107.5,344.0,"DA XIAN, CH",FM-12,99999,V020,"110,1,N,0010,1","99999,9,9,N","002000,1,N,1","+0211,1","+0189,1","10129,1","06,0000,9,1","24,0000,9,1",,,,"07,99,1,07,1,00,1,99999,9,04,1,99,9",,,"99999,9,09735,1","2,1,007,1,+020,1","10,1",SYN088AAXX  17001 57328 31920 71101 10211 20189 39735 40129 52007 71000 8704/ 333 00251 79999;,Q01  00002PRCP06Q02  00002PRCP24
06-17T03:00:00,4,31.2,107.5,344.0,"DA XIAN, CH",FM-12,99999,V020,"320,1,N,0010,1","22000,1,9,N","004000,1,N,1","+0255,1","+0180,1","10124,1",,,,,,"02,99,1,02,1,01,1,01250,1,00,1,00,1",,,"99999,9,09734,1","7,1,003,1,+999,9","10,1",SYN066AAXX  17031 57328 41640 23201 10255 20180 40124 57003 71000 82100;,Q01+999990APOSP 
06-17T06:00:00,4,31.2,107.5,344.0,"DA XIAN, CH",FM-12,99999,V020,"220,1,N,0020,1","99999,9,9,N","008000,1,N,1","+0291,1","+0190,1","10106,1","06,0000,9,1",,,,,"06,99,1,06,1,00,1,99999,9,04,1,00,1",,"999,N,+0205,1","99999,9,09717,1","7,1,015,1,+999,9","05,1",SYN082AAXX  17061 57328 31958 62202 10291 20190 39717 40106 57015 70500 86040 333 20205;,Q01  00002PRCP06
06-17T09:00:00,4,31.2,107.5,344.0,"DA XIAN, CH",FM-12,99999,V020,"220,1,N,0020,1","99999,9,9,N","012000,1,N,1","+0291,1","+0183,1","10089,1",,,,,,"06,99,1,00,1,00,1,99999,9,00,1,02,1",,,"99999,9,09705,1","7,1,018,1,+999,9",,SYN060AAXX  17091 57328 42962 62202 10291 20183 40089 57018 80002;,Q01+999990APOSP 
06-17T12:00:00,4,31.2,107.5,344.0,"DA XIAN, CH",FM-12,99999,V020,"200,1,N,0020,1","22000,1,9,N","012000,1,N,1","+0269,1","+0183,1","10089,1","06,0000,9,1",,,,,"02,99,1,00,1,00,1,99999,9,00,1,01,1",,,"99999,9,09698,1","7,1,001,1,+999,9",,SYN066AAXX  17121 57328 32962 22002 10269 20183 39698 40089 57001 80001;,Q01  00002PRCP06
06-17T15:00:00,4,31.2,107.5,344.0,"DA XIAN, CH",FM-12,99999,V020,"090,1,N,0010,1","22000,1,9,N","006000,1,N,1","+0235,1","+0192,1","10101,1",,,,,"00,1,+99999,9,99,9","00,99,1,00,1,00,1,99999,9,00,1,00,1",,,"99999,9,09709,1","2,1,013,1,+999,9","10,1",SYN060AAXX  17151 57328 41956 00901 10235 20192 40101 52013 71000;,Q01+999990APOSP 
06-17T18:00:00,4,31.2,107.5,344.0,"DA XIAN, CH",FM-12,99999,V020,"090,1,N,0010,1","22000,1,9,N","006000,1,N,1","+0213,1","+0191,1","10095,1","06,0000,9,1",,,,"00,1,+99999,9,99,9","00,99,1,00,1,00,1,99999,9,00,1,00,1",,"999,M,+0300,1","99999,9,09706,1","7,1,005,1,+999,9","10,1",SYN076AAXX  17181 57328 31956 00901 10213 20191 39706 40095 57005 71000 333 10300;,Q01  00002PRCP06
06-17T21:00:00,4,31.2,107.5,344.0,"DA XIAN, CH",FM-12,99999,V020,"040,1,N,0020,1","99999,9,9,N","005000,1,N,1","+0203,1","+0191,1","10090,1",,,,,,"07,99,1,07,1,00,1,99999,9,04,1,99,9",,,"99999,9,09695,1","7,1,006,1,+999,9","10,1",SYN066AAXX  17211 57328 41950 70402 10203 20191 40090 57006 71000 8704/;,Q01+999990APOSP 
06-18T00:00:00,4,31.2,107.5,344.0,"DA XIAN, CH",FM-12,99999,V020,"040,1,N,0010,1","22000,1,9,N","003000,1,N,1","+0217,1","+0196,1","10093,1","06,0000,9,1",,,,"00,1,+99999,9,99,9","00,99,1,00,1,00,1,99999,9,00,1,00,1",,,"99999,9,09703,1","2,1,003,1,+003,1","10,1",SYN076AAXX  18001 57328 31930 00401 10217 20196 39703 40093 52003 71000 333 05301;,Q01  00002PRCP06
06-18T03:00:00,4,31.2,107.5,344.0,"DA XIAN, CH",FM-12,99999,V020,"040,1,N,0010,1","22000,1,9,N","011000,1,N,1","+0280,1","+0192,1","10081,1",,,,,"00,1,+99999,9,99,9","00,99,1,00,1,00,1,99999,9,00,1,00,1",,,"99999,9,09696,1","7,1,010,1,+999,9",,SYN054AAXX  18031 57328 42961 00401 10280 20192 40081 57010;,Q01+999990APOSP 
06-18T06:00:00,4,31.2,107.5,344.0,"DA XIAN, CH",FM-12,99999,V020,"270,1,N,0030,1","22000,1,9,N","015000,1,N,1","+0310,1","+0177,1","10051,1","06,0000,9,1",,,,,"01,99,1,01,1,00,1,99999,9,04,1,00,1",,"999,N,+0201,1","99999,9,09665,1","7,1,028,1,+999,9",,SYN076AAXX  18061 57328 32965 12703 10310 20177 39665 40051 57028 81040 333 20201;,Q01  00002PRCP06
06-18T09:00:00,4,31.2,107.5,344.0,"DA XIAN, CH",FM-12,99999,V020,"220,1,N,0030,1","22000,1,9,N","030000,1,N,1","+0321,1","+0156,1","10030,1",,,,,"00,1,+99999,9,99,9","00,99,1,00,1,00,1,99999,9,00,1,00,1",,,"99999,9,09652,1","7,1,021,1,+999,9",,SYN054AAXX  18091 57328 42980 02203 10321 20156 40030 57021;,Q01+999990APOSP 
06-18T12:00:00,4,31.2,107.5,344.0,"DA XIAN, CH",FM-12,99999,V020,"250,1,N,0020,1","22000,1,9,N","015000,1,N,1","+0295,1","+0167,1","10028,1","06,0000,9,1",,,,"00,1,+99999,9,99,9","00,99,1,00,1,00,1,99999,9,00,1,00,1",,,"99999,9,09642,1","7,1,002,1,+999,9",,SYN060AAXX  18121 57328 32965 02502 10295 20167 39642 40028 57002;,Q01  00002PRCP06
06-18T15:00:00,4,31.2,107.5,344.0,"DA XIAN, CH",FM-12,99999,V020,"070,1,N,0010,1","22000,1,9,N","004000,1,N,1","+0248,1","+0192,1","10044,1",,,,,"00,1,+99999,9,99,9","00,99,1,00,1,00,1,99999,9,00,1,00,1",,,"99999,9,09656,1","2,1,016,1,+999,9","10,1",SYN060AAXX  18151 57328 41940 00701 10248 20192 40044 52016 71000;,Q01+999990APOSP 
06-18T18:00:00,4,31.2,107.5,344.0,"DA XIAN, CH",FM-12,99999,V020,"040,1,N,0020,1","22000,1,9,N","004000,1,N,1","+0226,1","+0194,1","10039,1","06,0000,9,1",,,,"00,1,+99999,9,99,9","00,99,1,00,1,00,1,99999,9,00,1,00,1",,"999,M,+0325,1","99999,9,09654,1","7,1,004,1,+999,9","10,1",SYN076AAXX  18181 57328 31940 00402 10226 20194 39654 40039 57004 71000 333 10325;,Q01  00002PRCP06
06-18T21:00:00,4,31.2,107.5,344.0,"DA XIAN, CH",FM-12,99999,V020,"040,1,N,0010,1","22000,1,9,N","004000,1,N,1","+0211,1","+0196,1","10031,1",,,,,"00,1,+99999,9,99,9","00,99,1,00,1,00,1,99999,9,00,1,00,1",,,"99999,9,09639,1","7,1,008,1,+999,9","10,1",SYN060AAXX  18211 57328 41940 00401 10211 20196 40031 57008 71000;,Q01+999990APOSP 
06-19T00:00:00,4,31.2,107.5,344.0,"DA XIAN, CH",FM-12,99999,V020,"070,1,N,0030,1","22000,1,9,N","005000,1,N,1","+0221,1","+0195,1","10035,1","06,0000,9,1",,,,"00,1,+99999,9,99,9","00,99,1,00,1,00,1,99999,9,00,1,00,1",,,"99999,9,09649,1","2,1,003,1,+005,1","10,1",SYN076AAXX  19001 57328 31950 00703 10221 20195 39649 40035 52003 71000 333 05500;,Q01  00002PRCP06
06-19T03:00:00,4,31.2,107.5,344.0,"DA XIAN, CH",FM-12,99999,V020,"020,1,N,0010,1","99999,9,9,N","006000,1,N,1","+0287,1","+0206,1","10029,1",,,,,,"07,99,1,00,1,00,1,99999,9,00,1,02,1",,,"99999,9,09647,1","7,1,005,1,+999,9","10,1",SYN066AAXX  19031 57328 41956 70201 10287 20206 40029 57005 71000 80002;,Q01+999990APOSP 
06-19T06:00:00,4,31.2,107.5,344.0,"DA XIAN, CH",FM-12,99999,V020,"270,1,N,0020,1","99999,9,9,N","012000,1,N,1","+0316,1","+0199,1","10011,1","06,0000,9,1",,,,,"07,99,1,00,1,00,1,99999,9,00,1,02,1",,"999,N,+0206,1","99999,9,09627,1","7,1,017,1,+999,9",,SYN076AAXX  19061 57328 32962 72702 10316 20199 39627 40011 57017 80002 333 20206;,Q01  00002PRCP06
06-19T09:00:00,4,31.2,107.5,344.0,"DA XIAN, CH",FM-12,99999,V020,"220,1,N,0020,1","99999,9,9,N","012000,1,N,1","+0320,1","+0194,1","09990,1",,,,,,"07,99,1,00,1,00,1,99999,9,00,1,02,1",,,"99999,9,09613,1","7,1,021,1,+999,9",,SYN060AAXX  19091 57328 42962 72202 10320 20194 49990 57021 80002;,Q01+999990APOSP 
06-19T12:00:00,4,31.2,107.5,344.0,"DA XIAN, CH",FM-12,99999,V020,"140,1,N,0010,1","99999,9,9,N","012000,1,N,1","+0294,1","+0202,1","09996,1","06,0000,9,1",,,,,"07,99,1,07,1,00,1,99999,9,04,1,99,9",,,"99999,9,09611,1","2,1,005,1,+999,9",,SYN066AAXX  19121 57328 32962 71401 10294 20202 39611 49996 52005 8704/;,Q01  00002PRCP06
06-19T15:00:00,4,31.2,107.5,344.0,"DA XIAN, CH",FM-12,99999,V020,"040,1,N,0020,1","99999,9,9,N","008000,1,N,1","+0261,1","+0211,1","10009,1",,,,,,"07,99,1,07,1,00,1,99999,9,04,1,99,9",,,"99999,9,09624,1","2,1,015,1,+999,9","10,1",SYN066AAXX  19151 57328 41958 70402 10261 20211 40009 52015 71000 8704/;,Q01+999990APOSP 
06-19T18:00:00,4,31.2,107.5,344.0,"DA XIAN, CH",FM-12,99999,V020,"040,1,N,0020,1","99999,9,9,N","007000,1,N,1","+0236,1","+0208,1","10002,1","06,0000,9,1",,,,,"07,99,1,07,1,00,1,99999,9,04,1,00,1",,"999,M,+0324,1","99999,9,09619,1","7,1,007,1,+999,9","10,1",SYN082AAXX  19181 57328 31957 70402 10236 20208 39619 40002 57007 71000 87040 333 10324;,Q01  00002PRCP06
06-19T21:00:00,4,31.2,107.5,344.0,"DA XIAN, CH",FM-12,99999,V020,"999,9,C,0000,1","99999,9,9,N","003000,1,N,1","+0227,1","+0209,1","10001,1",,,,,,"08,99,1,08,1,00,1,99999,9,07,1,99,9",,,"99999,9,09612,1","7,1,001,1,+999,9","10,1",SYN066AAXX  19211 57328 41930 80000 10227 20209 40001 57001 71000 8807/;,Q01+999990APOSP 
06-20T00:00:00,4,31.2,107.5,344.0,"DA XIAN, CH",FM-12,99999,V020,"040,1,N,0020,1","99999,9,9,N","005000,1,N,1","+0241,1","+0211,1","10012,1","06,0000,9,1",,,,,"08,99,1,08,1,00,1,99999,9,02,1,99,9",,,"99999,9,09628,1","2,1,010,1,+002,1","10,1",SYN082AAXX  20001 57328 31950 80402 10241 20211 39628 40012 52010 71000 8802/ 333 05202;,Q01  00002PRCP06
06-20T03:00:00,4,31.2,107.5,344.0,"DA XIAN, CH",FM-12,99999,V020,"040,1,N,0020,1","99999,9,9,N","008000,1,N,1","+0277,1","+0216,1","10018,1",,,,,,"08,99,1,08,1,00,1,99999,9,07,1,99,9",,,"99999,9,09635,1","2,1,006,1,+999,9","10,1",SYN066AAXX  20031 57328 41958 80402 10277 20216 40018 52006 71000 8807/;,Q01+999990APOSP 
06-20T06:00:00,4,31.2,107.5,344.0,"DA XIAN, CH",FM-12,99999,V020,"360,1,N,0010,1","99999,9,9,N","012000,1,N,1","+0324,1","+0207,1","09997,1","06,0000,9,1",,,,,"07,99,1,00,1,00,1,99999,9,00,1,01,1",,"999,N,+0225,1","99999,9,09615,1","7,1,019,1,+999,9",,SYN076AAXX  20061 57328 32962 73601 10324 20207 39615 49997 57019 80001 333 20225;,Q01  00002PRCP06
06-20T09:00:00,4,31.2,107.5,344.0,"DA XIAN, CH",FM-12,99999,V020,"320,1,N,0010,1","22000,1,9,N","015000,1,N,1","+0345,1","+0205,1","09972,1",,,,,"00,1,+99999,9,99,9","00,99,1,00,1,00,1,99999,9,00,1,00,1",,,"99999,9,09599,1","7,1,023,1,+999,9",,SYN054AAXX  20091 57328 42965 03201 10345 20205 49972 57023;,Q01+999990APOSP 
06-20T12:00:00,4,31.2,107.5,344.0,"DA XIAN, CH",FM-12,99999,V020,"180,1,N,0010,1","99999,9,9,N","011000,1,N,1","+0313,1","+0213,1","09976,1","06,0000,9,1",,,,,"07,99,1,00,1,00,1,99999,9,00,1,02,1",,,"99999,9,09594,1","2,1,002,1,+999,9",,SYN066AAXX  20121 57328 32961 71801 10313 20213 39594 49976 52002 80002;,Q01  00002PRCP06
06-20T15:00:00,4,31.2,107.5,344.0,"DA XIAN, CH",FM-12,99999,V020,"040,1,N,0020,1","99999,9,9,N","009000,1,N,1","+0272,1","+0226,1","09993,1",,,,,,"08,99,1,08,1,00,1,99999,9,07,1,99,9",,,"99999,9,09610,1","2,1,016,1,+999,9","10,1",SYN066AAXX  20151 57328 41959 80402 10272 20226 49993 52016 71000 8807/;,Q01+999990APOSP 
06-20T18:00:00,4,31.2,107.5,344.0,"DA XIAN, CH",FM-12,99999,V020,"040,1,N,0010,1","99999,9,9,N","005000,1,N,1","+0254,1","+0226,1","09993,1","06,0000,9,1",,,,,"07,99,1,07,1,00,1,99999,9,04,1,99,9",,"999,M,+0346,1","99999,9,09612,1","2,1,002,1,+999,9","10,1",SYN082AAXX  20181 57328 31950 70401 10254 20226 39612 49993 52002 71000 8704/ 333 10346;,Q01  00002PRCP06
06-20T21:00:00,4,31.2,107.5,344.0,"DA XIAN, CH",FM-12,99999,V020,"040,1,N,0020,1","99999,9,9,N","004000,1,N,1","+0243,1","+0226,1","09980,1",,,,,,"07,99,1,07,1,00,1,99999,9,04,1,99,9",,,"99999,9,09594,1","7,1,012,1,+999,9","10,1",SYN066AAXX  20211 57328 41940 70402 10243 20226 49980 57012 71000 8704/;,Q01+999990APOSP 
06-21T00:00:00,4,31.2,107.5,344.0,"DA XIAN, CH",FM-12,99999,V020,"070,1,N,0020,1","99999,9,9,N","007000,1,N,1","+0253,1","+0221,1","09990,1","06,0000,9,1",,,,,"07,99,1,07,1,00,1,99999,9,04,1,99,9",,,"99999,9,09609,1","2,1,009,1,+002,1","10,1",SYN082AAXX  21001 57328 31957 70702 10253 20221 39609 49990 52009 71000 8704/ 333 05201;,Q01  00002PRCP06
06-21T03:00:00,4,31.2,107.5,344.0,"DA XIAN, CH",FM-12,99999,V020,"040,1,N,0020,1","99999,9,9,N","012000,1,N,1","+0307,1","+0230,1","09990,1",,,,,,"07,99,1,07,1,00,1,99999,9,04,1,99,9",,,"99999,9,09612,1","4,1,000,1,+999,9",,SYN060AAXX  21031 57328 42962 70402 10307 20230 49990 54000 8704/;,Q01+999990APOSP 
06-21T06:00:00,4,31.2,107.5,344.0,"DA XIAN, CH",FM-12,99999,V020,"140,1,N,0010,1","99999,9,9,N","020000,1,N,1","+0333,1","+0223,1","09973,1","06,0000,9,1",,,,,"07,99,1,07,1,00,1,99999,9,04,1,99,9",,"999,N,+0243,1","99999,9,09594,1","7,1,015,1,+999,9",,SYN076AAXX  21061 57328 32970 71401 10333 20223 39594 49973 57015 8704/ 333 20243;,Q01  00002PRCP06
06-21T09:00:00,4,31.2,107.5,344.0,"DA XIAN, CH",FM-12,99999,V020,"070,1,N,0020,1","01500,1,9,N","025000,1,N,1","+0317,1","+0224,1","09969,1",,,,,,"08,99,1,08,1,05,1,01750,1,99,9,99,9",,,"99999,9,09593,1","7,1,006,1,+999,9","60,1",SYN066AAXX  21091 57328 41775 80702 10317 20224 49969 57006 76000 885//;,Q01+999990APOSP 
06-21T12:00:00,4,31.2,107.5,344.0,"DA XIAN, CH",FM-12,99999,V020,"999,9,C,0000,1","02100,1,9,N","012000,1,N,1","+0259,1","+0241,1","09991,1","06,0020,9,1",,"9,1,06,1","6,1,06,1",,"08,99,1,08,1,05,1,02250,1,99,9,99,9",,,"99999,9,09606,1","2,1,018,1,+999,9","25,1",SYN078AAXX  21121 57328 11862 80000 10259 20241 39606 49991 52018 60021 72596 885//;,
06-21T15:00:00,4,31.2,107.5,344.0,"DA XIAN, CH",FM-12,99999,V020,"040,1,N,0020,1","02100,1,9,N","006000,1,N,1","+0252,1","+0242,1","09998,1",,,"6,1,03,1",,,"08,99,1,08,1,05,1,02250,1,99,9,99,9",,,"99999,9,09612,1","2,1,010,1,+999,9","21,1",SYN066AAXX  21151 57328 41856 80402 10252 20242 49998 52010 72160 885//;,Q01+999990APOSP 
06-21T18:00:00,4,31.2,107.5,344.0,"DA XIAN, CH",FM-12,99999,V020,"070,1,N,0010,1","02100,1,9,N","005000,1,N,1","+0249,1","+0238,1","09986,1","06,9999,9,9",,"6,1,06,1",,,"08,99,1,08,1,05,1,02250,1,99,9,99,9",,"999,M,+0341,1","99999,9,09606,1","7,1,010,1,+999,9","10,1",SYN088AAXX  21181 57328 11850 80701 10249 20238 39606 49986 57010 69911 71060 885// 333 10341;,
06-21T21:00:00,4,31.2,107.5,344.0,"DA XIAN, CH",FM-12,99999,V020,"090,1,N,0020,1","02100,1,9,N","007000,1,N,1","+0250,1","+0231,1","09992,1","24,0025,9,1",,,,,"08,99,1,08,1,05,1,02250,1,99,9,99,9",,,"99999,9,09606,1","2,1,005,1,+999,9","60,1",SYN076AAXX  21211 57328 41857 80902 10250 20231 49992 52005 76000 885// 333 70025;,Q01+999990APOSP 
06-22T00:00:00,4,31.2,107.5,344.0,"DA XIAN, CH",FM-12,99999,V020,"999,9,C,0000,1","00750,1,9,N","002000,1,N,1","+0243,1","+0237,1","10009,1","06,0191,9,1","24,0211,9,1","9,1,06,1","6,1,06,1",,"08,99,1,08,1,09,1,00800,1,99,9,99,9",,,"99999,9,09623,1","2,1,012,1,+010,1","80,1",SYN094AAXX  22001 57328 11520 80000 10243 20237 39623 40009 52012 60191 78096 889// 333 00151 70212;,
06-22T03:00:00,4,31.2,107.5,344.0,"DA XIAN, CH",FM-12,99999,V020,"140,1,N,0020,1","02100,1,9,N","007000,1,N,1","+0255,1","+0241,1","10013,1",,,"8,1,03,1",,,"08,99,1,08,1,05,1,02250,1,99,9,99,9",,,"99999,9,09627,1","2,1,004,1,+999,9","10,1",SYN066AAXX  22031 57328 41857 81402 10255 20241 40013 52004 71080 885//;,Q01+999990APOSP 
06-22T06:00:00,4,31.2,107.5,344.0,"DA XIAN, CH",FM-12,99999,V020,"320,1,N,0010,1","03600,1,9,N","011000,1,N,1","+0298,1","+0243,1","10001,1","06,0005,9,1",,"8,1,06,1",,,"07,99,1,03,1,01,1,01250,1,04,1,00,1",,"999,N,+0241,1","99999,9,09618,1","7,1,009,1,+999,9","00,1",SYN088AAXX  22061 57328 11661 73201 10298 20243 39618 40001 57009 69951 70080 83140 333 20241;,
06-22T09:00:00,4,31.2,107.5,344.0,"DA XIAN, CH",FM-12,99999,V020,"220,1,N,0020,1","22000,1,9,N","015000,1,N,1","+0321,1","+0238,1","09989,1",,,,,,"03,99,1,01,1,01,1,01250,1,04,1,00,1",,,"99999,9,09612,1","7,1,010,1,+999,9",,SYN060AAXX  22091 57328 42665 32202 10321 20238 49989 57010 81140;,Q01+999990APOSP 
06-22T12:00:00,4,31.2,107.5,344.0,"DA XIAN, CH",FM-12,99999,V020,"200,1,N,0020,1","03600,1,9,N","012000,1,N,1","+0283,1","+0247,1","10009,1","06,0000,9,1",,,,,"07,99,1,04,1,09,1,01750,1,04,1,99,9",,,"99999,9,09624,1","2,1,016,1,+999,9",,SYN066AAXX  22121 57328 32762 72002 10283 20247 39624 40009 52016 8494/;,Q01  00002PRCP06
06-22T15:00:00,4,31.2,107.5,344.0,"DA XIAN, CH",FM-12,99999,V020,"180,1,N,0010,1","02100,1,9,N","008000,1,N,1","+0265,1","+0239,1","10029,1",,,,,,"07,99,1,07,1,05,1,02250,1,99,9,99,9",,,"99999,9,09644,1","2,1,019,1,+999,9","10,1",SYN066AAXX  22151 57328 41858 71801 10265 20239 40029 52019 71000 875//;,Q01+999990APOSP 
06-22T18:00:00,4,31.2,107.5,344.0,"DA XIAN, CH",FM-12,99999,V020,"290,1,N,0010,1","99999,9,9,N","004000,1,N,1","+0257,1","+0234,1","10024,1","06,9999,9,9",,,,,"08,99,1,08,1,00,1,99999,9,02,1,99,9",,"999,M,+0321,1","99999,9,09641,1","7,1,002,1,+999,9","60,1",SYN088AAXX  22181 57328 11940 82901 10257 20234 39641 40024 57002 69901 76000 8802/ 333 10321;,
06-22T21:00:00,4,31.2,107.5,344.0,"DA XIAN, CH",FM-12,99999,V020,"160,1,N,0010,1","99999,9,9,N","004000,1,N,1","+0246,1","+0233,1","10017,1","24,0193,9,1",,"6,1,03,1",,,"08,99,1,08,1,00,1,99999,9,02,1,99,9",,,"99999,9,09630,1","7,1,006,1,+999,9","60,1",SYN076AAXX  22211 57328 41940 81601 10246 20233 40017 57006 76060 8802/ 333 70192;,Q01+999990APOSP 
06-23T00:00:00,4,31.2,107.5,344.0,"DA XIAN, CH",FM-12,99999,V020,"999,9,C,0000,1","02100,1,9,N","002000,1,N,1","+0251,1","+0237,1","10029,1","06,9999,9,9","24,0005,9,1","6,1,06,1",,,"08,99,1,08,1,05,1,02250,1,99,9,99,9",,,"99999,9,09644,1","2,1,009,1,+020,1","10,1",SYN094AAXX  23001 57328 11820 80000 10251 20237 39644 40029 52009 69901 71060 885// 333 00201 70005;,
06-23T03:00:00,4,31.2,107.5,344.0,"DA XIAN, CH",FM-12,99999,V020,"140,1,N,0010,1","01200,1,9,N","004000,1,N,1","+0287,1","+0245,1","10029,1",,,,,,"07,99,1,07,1,01,1,01250,1,00,1,00,1",,,"99999,9,09647,1","2,1,001,1,+999,9","10,1",SYN066AAXX  23031 57328 41640 71401 10287 20245 40029 52001 71000 87100;,Q01+999990APOSP 
06-23T06:00:00,4,31.2,107.5,344.0,"DA XIAN, CH",FM-12,99999,V020,"290,1,N,0020,1","09000,1,9,N","012000,1,N,1","+0313,1","+0242,1","10009,1","06,0000,9,1",,,,,"06,99,1,01,1,01,1,01250,1,00,1,02,1",,"999,N,+0243,1","99999,9,09627,1","7,1,018,1,+999,9",,SYN076AAXX  23061 57328 32662 62902 10313 20242 39627 40009 57018 81102 333 20243;,Q01  00002PRCP06
06-23T09:00:00,4,31.2,107.5,344.0,"DA XIAN, CH",FM-12,99999,V020,"110,1,N,0020,1","09000,1,9,N","020000,1,N,1","+0331,1","+0226,1","09989,1",,,,,,"07,99,1,02,1,01,1,01250,1,00,1,02,1",,,"99999,9,09614,1","7,1,019,1,+999,9",,SYN060AAXX  23091 57328 42670 71102 10331 20226 49989 57019 82102;,Q01+999990APOSP 
06-23T12:00:00,4,31.2,107.5,344.0,"DA XIAN, CH",FM-12,99999,V020,"220,1,N,0020,1","03600,1,9,N","012000,1,N,1","+0309,1","+0239,1","09991,1","06,0000,9,1",,,,,"05,99,1,01,1,01,1,01250,1,04,1,00,1",,,"99999,9,09609,1","2,1,001,1,+999,9",,SYN066AAXX  23121 57328 32662 52202 10309 20239 39609 49991 52001 81140;,Q01  00002PRCP06
06-23T15:00:00,4,31.2,107.5,344.0,"DA XIAN, CH",FM-12,99999,V020,"999,9,C,0000,1","99999,9,9,N","012000,1,N,1","+0287,1","+0243,1","10001,1",,,,,,"07,99,1,07,1,00,1,99999,9,04,1,99,9",,,"99999,9,09620,1","2,1,011,1,+999,9",,SYN060AAXX  23151 57328 42962 70000 10287 20243 40001 52011 8704/;,Q01+999990APOSP 
06-23T18:00:00,4,31.2,107.5,344.0,"DA XIAN, CH",FM-12,99999,V020,"040,1,N,0020,1","99999,9,9,N","012000,1,N,1","+0271,1","+0250,1","09984,1","06,9999,9,9",,"6,1,06,1",,,"07,99,1,07,1,00,1,99999,9,04,1,99,9",,"999,M,+0338,1","99999,9,09604,1","7,1,016,1,+999,9","00,1",SYN088AAXX  23181 57328 11962 70402 10271 20250 39604 49984 57016 69901 70060 8704/ 333 10338;,
06-23T21:00:00,4,31.2,107.5,344.0,"DA XIAN, CH",FM-12,99999,V020,"999,9,C,0000,1","99999,9,9,N","008000,1,N,1","+0269,1","+0245,1","09977,1","24,0000,2,1",,,,,"08,99,1,08,1,00,1,99999,9,07,1,99,9",,,"99999,9,09594,1","7,1,006,1,+999,9","10,1",SYN076AAXX  23211 57328 41958 80000 10269 20245 49977 57006 71000 8807/ 333 79999;,Q01+999990APOSP 
06-24T00:00:00,4,31.2,107.5,344.0,"DA XIAN, CH",FM-12,99999,V020,"070,1,N,0010,1","02100,1,9,N","020000,1,N,1","+0275,1","+0244,1","09980,1","06,0000,9,1","24,0000,9,1",,,,"08,99,1,08,1,05,1,02250,1,99,9,99,9",,,"99999,9,09600,1","2,1,002,1,-040,1",,SYN082AAXX  24001 57328 32870 80701 10275 20244 39600 49980 52002 885// 333 05402 79999;,Q01  00002PRCP06Q02  00002PRCP24
06-24T03:00:00,4,31.2,107.5,344.0,"DA XIAN, CH",FM-12,99999,V020,"090,1,N,0010,1","02100,1,9,N","025000,1,N,1","+0299,1","+0237,1","09983,1",,,,,,"08,99,1,08,1,05,1,02250,1,99,9,99,9",,,"99999,9,09604,1","2,1,003,1,+999,9",,SYN060AAXX  24031 57328 42875 80901 10299 20237 49983 52003 885//;,Q01+999990APOSP 
06-24T06:00:00,4,31.2,107.5,344.0,"DA XIAN, CH",FM-12,99999,V020,"040,1,N,0020,1","99999,9,9,N","030000,1,N,1","+0293,1","+0233,1","09970,1","06,9999,9,9",,"6,1,06,1",,,"08,99,1,08,1,00,1,99999,9,07,1,99,9",,"999,N,+0263,1","99999,9,09589,1","7,1,014,1,+999,9","60,1",SYN088AAXX  24061 57328 11980 80402 10293 20233 39589 49970 57014 69901 76060 8807/ 333 20263;,
06-24T09:00:00,4,31.2,107.5,344.0,"DA XIAN, CH",FM-12,99999,V020,"040,1,N,0030,1","99999,9,9,N","025000,1,N,1","+0259,1","+0238,1","09965,1",,,"6,1,03,1","6,1,03,1",,"08,99,1,08,1,00,1,99999,9,07,1,99,9",,,"99999,9,09582,1","7,1,007,1,+999,9","60,1",SYN066AAXX  24091 57328 41975 80403 10259 20238 49965 57007 76066 8807/;,Q01+999990APOSP 
06-24T12:00:00,4,31.2,107.5,344.0,"DA XIAN, CH",FM-12,99999,V020,"040,1,N,0030,1","02100,1,9,N","025000,1,N,1","+0251,1","+0235,1","09960,1","06,0020,9,1",,"6,1,06,1","6,1,06,1",,"08,99,1,08,1,05,1,02250,1,99,9,99,9",,,"99999,9,09577,1","7,1,005,1,+999,9","60,1",SYN078AAXX  24121 57328 11875 80403 10251 20235 39577 49960 57005 60021 76066 885//;,
06-24T15:00:00,4,31.2,107.5,344.0,"DA XIAN, CH",FM-12,99999,V020,"070,1,N,0020,1","02100,1,9,N","015000,1,N,1","+0249,1","+0232,1","09961,1",,,"6,1,03,1",,,"08,99,1,08,1,05,1,02250,1,99,9,99,9",,,"99999,9,09577,1","2,1,003,1,+999,9","21,1",SYN066AAXX  24151 57328 41865 80702 10249 20232 49961 52003 72160 885//;,Q01+999990APOSP 
06-24T18:00:00,4,31.2,107.5,344.0,"DA XIAN, CH",FM-12,99999,V020,"110,1,N,0030,1","02100,1,9,N","012000,1,N,1","+0253,1","+0218,1","09946,1","06,9999,9,9",,"6,1,06,1",,,"08,99,1,08,1,05,1,02250,1,99,9,99,9",,"999,M,+0302,1","99999,9,09565,1","7,1,015,1,+999,9","00,1",SYN088AAXX  24181 57328 11862 81103 10253 20218 39565 49946 57015 69901 70060 885// 333 10302;,
06-24T21:00:00,4,31.2,107.5,344.0,"DA XIAN, CH",FM-12,99999,V020,"070,1,N,0040,1","02100,1,9,N","015000,1,N,1","+0245,1","+0183,1","09939,1","24,0018,9,1",,,,,"08,99,1,08,1,05,1,02250,1,99,9,99,9",,,"99999,9,09555,1","7,1,009,1,+999,9",,SYN070AAXX  24211 57328 42865 80704 10245 20183 49939 57009 885// 333 70017;,Q01+999990APOSP 
06-25T00:00:00,4,31.2,107.5,344.0,"DA XIAN, CH",FM-12,99999,V020,"040,1,N,0030,1","01500,1,9,N","008000,1,N,1","+0209,1","+0200,1","09954,1","06,0180,9,1","24,0201,9,1","9,1,06,1","6,1,06,1",,"08,99,1,08,1,09,1,01750,1,99,9,99,9",,,"99999,9,09567,1","2,1,011,1,-030,1","95,1",SYN094AAXX  25001 57328 11758 80403 10209 20200 39567 49954 52011 60181 79596 889// 333 05357 70201;,
06-25T03:00:00,4,31.2,107.5,344.0,"DA XIAN, CH",FM-12,99999,V020,"360,1,N,0030,1","02100,1,9,N","020000,1,N,1","+0218,1","+0193,1","09949,1",,,"9,1,03,1","8,1,03,1",,"08,99,1,08,1,05,1,02250,1,99,9,99,9",,,"99999,9,09561,1","7,1,004,1,+999,9","00,1",SYN066AAXX  25031 57328 41870 83603 10218 20193 49949 57004 70098 885//;,Q01+999990APOSP 
06-25T09:00:00,4,31.2,107.5,344.0,"DA XIAN, CH",FM-12,99999,V020,"999,9,C,0000,1","02100,1,9,N","015000,1,N,1","+0243,1","+0217,1","09945,1",,,"6,1,03,1",,,"08,99,1,08,1,05,1,02250,1,99,9,99,9",,,"99999,9,09560,1","2,1,003,1,+999,9","60,1",SYN066AAXX  25091 57328 41865 80000 10243 20217 49945 52003 76060 885//;,
06-25T12:00:00,4,31.2,107.5,344.0,"DA XIAN, CH",FM-12,99999,V020,"090,1,N,0020,1","03600,1,9,N","011000,1,N,1","+0235,1","+0219,1","09964,1","06,9999,9,9",,"6,1,06,1",,,"08,99,1,02,1,07,1,00800,1,02,1,99,9",,,"99999,9,09576,1","2,1,016,1,+999,9","60,1",SYN078AAXX  25121 57328 11561 80902 10235 20219 39576 49964 52016 69921 76060 8272/;,
06-25T15:00:00,4,31.2,107.5,344.0,"DA XIAN, CH",FM-12,99999,V020,"070,1,N,0030,1","02100,1,9,N","012000,1,N,1","+0238,1","+0186,1","09982,1",,,"6,1,03,1",,,"08,99,1,08,1,05,1,02250,1,99,9,99,9",,,"99999,9,09595,1","2,1,018,1,+999,9","00,1",SYN066AAXX  25151 57328 41862 80703 10238 20186 49982 52018 70060 885//;,Q01+999990APOSP 
06-25T18:00:00,4,31.2,107.5,344.0,"DA XIAN, CH",FM-12,99999,V020,"140,1,N,0010,1","99999,9,9,N","011000,1,N,1","+0223,1","+0184,1","09977,1","06,9999,9,9",,"6,1,06,1",,,"08,99,1,08,1,00,1,99999,9,02,1,99,9",,"999,M,+0265,1","99999,9,09590,1","7,1,004,1,+999,9","60,1",SYN088AAXX  25181 57328 11961 81401 10223 20184 39590 49977 57004 69921 76060 8802/ 333 10265;,
06-25T21:00:00,4,31.2,107.5,344.0,"DA XIAN, CH",FM-12,99999,V020,"999,9,C,0000,1","02100,1,9,N","012000,1,N,1","+0205,1","+0191,1","09982,1","24,0251,9,1",,"6,1,03,1","6,1,03,1",,"08,99,1,08,1,05,1,02250,1,99,9,99,9",,,"99999,9,09591,1","2,1,003,1,+999,9","60,1",SYN076AAXX  25211 57328 41862 80000 10205 20191 49982 52003 76066 885// 333 70251;,
06-26T00:00:00,4,31.2,107.5,344.0,"DA XIAN, CH",FM-12,99999,V020,"160,1,N,0010,1","99999,9,9,N","011000,1,N,1","+0213,1","+0199,1","09994,1","06,0005,9,1","24,0069,9,1","6,1,06,1",,,"08,99,1,08,1,00,1,99999,9,07,1,99,9",,,"99999,9,09605,1","2,1,012,1,+040,1","21,1",SYN094AAXX  26001 57328 11961 81601 10213 20199 39605 49994 52012 69941 72160 8807/ 333 00400 70068;,
06-26T03:00:00,4,31.2,107.5,344.0,"DA XIAN, CH",FM-12,99999,V020,"160,1,N,0010,1","99999,9,9,N","011000,1,N,1","+0232,1","+0199,1","10007,1",,,,,,"08,99,1,08,1,00,1,99999,9,07,1,99,9",,,"99999,9,09619,1","2,1,014,1,+999,9",,SYN060AAXX  26031 57328 42961 81601 10232 20199 40007 52014 8807/;,Q01+999990APOSP 
06-26T06:00:00,4,31.2,107.5,344.0,"DA XIAN, CH",FM-12,99999,V020,"180,1,N,0020,1","99999,9,9,N","020000,1,N,1","+0247,1","+0205,1","10007,1","06,9999,9,9",,"6,1,06,1",,,"08,99,1,08,1,00,1,99999,9,07,1,99,9",,"999,N,+0205,1","99999,9,09619,1","4,1,000,1,+999,9","60,1",SYN088AAXX  26061 57328 11970 81802 10247 20205 39619 40007 54000 69901 76060 8807/ 333 20205;,
06-26T09:00:00,4,31.2,107.5,344.0,"DA XIAN, CH",FM-12,99999,V020,"180,1,N,0030,1","99999,9,9,N","018000,1,N,1","+0251,1","+0206,1","10008,1",,,"6,1,03,1",,,"07,99,1,07,1,00,1,99999,9,04,1,99,9",,,"99999,9,09622,1","4,1,000,1,+999,9","60,1",SYN066AAXX  26091 57328 41968 71803 10251 20206 40008 54000 76060 8704/;,Q01+999990APOSP 
06-26T12:00:00,4,31.2,107.5,344.0,"DA XIAN, CH",FM-12,99999,V020,"180,1,N,0010,1","02100,1,9,N","025000,1,N,1","+0246,1","+0207,1","10021,1","06,9999,9,9",,"6,1,06,1",,,"07,99,1,07,1,05,1,02250,1,99,9,99,9",,,"99999,9,09632,1","2,1,013,1,+999,9","00,1",SYN078AAXX  26121 57328 11875 71801 10246 20207 39632 40021 52013 69901 70060 875//;,
06-26T15:00:00,4,31.2,107.5,344.0,"DA XIAN, CH",FM-12,99999,V020,"180,1,N,0010,1","22000,1,9,N","012000,1,N,1","+0227,1","+0206,1","10048,1",,,,,"00,1,+99999,9,99,9","00,99,1,00,1,00,1,99999,9,00,1,00,1",,,"99999,9,09657,1","2,1,026,1,+999,9",,SYN054AAXX  26151 57328 42962 01801 10227 20206 40048 52026;,Q01+999990APOSP 
06-26T18:00:00,4,31.2,107.5,344.0,"DA XIAN, CH",FM-12,99999,V020,"999,9,C,0000,1","22000,1,9,N","008000,1,N,1","+0219,1","+0202,1","10049,1","06,0000,9,1",,,,"00,1,+99999,9,99,9","00,99,1,00,1,00,1,99999,9,00,1,00,1",,"999,M,+0254,1","99999,9,09659,1","2,1,001,1,+999,9","10,1",SYN076AAXX  26181 57328 31958 00000 10219 20202 39659 40049 52001 71000 333 10254;,Q01  00002PRCP06
06-26T21:00:00,4,31.2,107.5,344.0,"DA XIAN, CH",FM-12,99999,V020,"040,1,N,0010,1","99999,9,9,N","002000,1,N,1","+0203,1","+0200,1","10048,1","24,0000,2,1",,,,,"08,99,1,08,1,00,1,99999,9,07,1,99,9",,,"99999,9,09654,1","7,1,002,1,+999,9","10,1",SYN076AAXX  26211 57328 41920 80401 10203 20200 40048 57002 71000 8807/ 333 70001;,Q01+999990APOSP 
06-27T00:00:00,4,31.2,107.5,344.0,"DA XIAN, CH",FM-12,99999,V020,"140,1,N,0010,1","02100,1,9,N","003000,1,N,1","+0213,1","+0199,1","10061,1","06,0000,9,1","24,0000,2,1",,,,"08,99,1,08,1,05,1,02250,1,99,9,99,9",,,"99999,9,09670,1","2,1,013,1,+070,1","10,1",SYN088AAXX  27001 57328 31830 81401 10213 20199 39670 40061 52013 71000 885// 333 00700 79999;,Q01  00002PRCP06
06-27T03:00:00,4,31.2,107.5,344.0,"DA XIAN, CH",FM-12,99999,V020,"140,1,N,0020,1","02100,1,9,N","007000,1,N,1","+0241,1","+0205,1","10056,1",,,,,,"08,99,1,08,1,05,1,02250,1,99,9,99,9",,,"99999,9,09667,1","7,1,004,1,+999,9","10,1",SYN066AAXX  27031 57328 41857 81402 10241 20205 40056 57004 71000 885//;,Q01+999990APOSP 
06-27T06:00:00,4,31.2,107.5,344.0,"DA XIAN, CH",FM-12,99999,V020,"110,1,N,0010,1","22000,1,9,N","015000,1,N,1","+0284,1","+0219,1","10038,1","06,0000,9,1",,,,,"04,99,1,04,1,05,1,02250,1,00,1,00,1",,"999,N,+0203,1","99999,9,09651,1","7,1,015,1,+999,9",,SYN076AAXX  27061 57328 32865 41101 10284 20219 39651 40038 57015 84500 333 20203;,Q01  00002PRCP06
06-27T09:00:00,4,31.2,107.5,344.0,"DA XIAN, CH",FM-12,99999,V020,"250,1,N,0020,1","22000,1,9,N","020000,1,N,1","+0305,1","+0225,1","10021,1",,,,,"00,1,+99999,9,99,9","00,99,1,00,1,00,1,99999,9,00,1,00,1",,,"99999,9,09641,1","7,1,016,1,+999,9",,SYN054AAXX  27091 57328 42970 02502 10305 20225 40021 57016;,Q01+999990APOSP 
06-27T12:00:00,4,31.2,107.5,344.0,"DA XIAN, CH",FM-12,99999,V020,"999,9,C,0000,1","22000,1,9,N","030000,1,N,1","+0287,1","+0220,1","10013,1","06,0000,9,1",,,,"00,1,+99999,9,99,9","00,99,1,00,1,00,1,99999,9,00,1,00,1",,,"99999,9,09627,1","7,1,008,1,+999,9",,SYN060AAXX  27121 57328 32980 00000 10287 20220 39627 40013 57008;,Q01  00002PRCP06
06-27T15:00:00,4,31.2,107.5,344.0,"DA XIAN, CH",FM-12,99999,V020,"999,9,C,0000,1","22000,1,9,N","007000,1,N,1","+0245,1","+0225,1","10038,1",,,,,"00,1,+99999,9,99,9","00,99,1,00,1,00,1,99999,9,00,1,00,1",,,"99999,9,09650,1","2,1,023,1,+999,9","10,1",SYN060AAXX  27151 57328 41957 00000 10245 20225 40038 52023 71000;,Q01+999990APOSP 
06-27T18:00:00,4,31.2,107.5,344.0,"DA XIAN, CH",FM-12,99999,V020,"040,1,N,0030,1","22000,1,9,N","004000,1,N,1","+0227,1","+0221,1","10032,1","06,0000,9,1",,,,"00,1,+99999,9,99,9","00,99,1,00,1,00,1,99999,9,00,1,00,1",,"999,M,+0311,1","99999,9,09646,1","7,1,004,1,+999,9","10,1",SYN076AAXX  27181 57328 31940 00403 10227 20221 39646 40032 57004 71000 333 10311;,Q01  00002PRCP06
06-27T21:00:00,4,31.2,107.5,344.0,"DA XIAN, CH",FM-12,99999,V020,"070,1,N,0030,1","22000,1,9,N","005000,1,N,1","+0221,1","+0217,1","10029,1",,,,,"00,1,+99999,9,99,9","00,99,1,00,1,00,1,99999,9,00,1,00,1",,,"99999,9,09638,1","7,1,002,1,+999,9","10,1",SYN060AAXX  27211 57328 41950 00703 10221 20217 40029 57002 71000;,Q01+999990APOSP 
06-28T00:00:00,4,31.2,107.5,344.0,"DA XIAN, CH",FM-12,99999,V020,"040,1,N,0020,1","99999,9,9,N","007000,1,N,1","+0243,1","+0223,1","10033,1","06,0000,9,1",,,,,"07,99,1,02,1,00,1,99999,9,04,1,02,1",,,"99999,9,09648,1","2,1,004,1,+002,1","10,1",SYN082AAXX  28001 57328 31957 70402 10243 20223 39648 40033 52004 71000 82042 333 05203;,Q01  00002PRCP06
06-28T03:00:00,4,31.2,107.5,344.0,"DA XIAN, CH",FM-12,99999,V020,"320,1,N,0020,1","99999,9,9,N","006000,1,N,1","+0289,1","+0221,1","10027,1",,,,,,"07,99,1,00,1,00,1,99999,9,00,1,02,1",,,"99999,9,09645,1","7,1,006,1,+999,9","10,1",SYN066AAXX  28031 57328 41956 73202 10289 20221 40027 57006 71000 80002;,Q01+999990APOSP 
06-28T06:00:00,4,31.2,107.5,344.0,"DA XIAN, CH",FM-12,99999,V020,"270,1,N,0010,1","22000,1,9,N","011000,1,N,1","+0316,1","+0226,1","10013,1","06,0000,9,1",,,,,"02,99,1,02,1,01,1,01250,1,00,1,02,1",,"999,N,+0218,1","99999,9,09629,1","7,1,013,1,+999,9",,SYN076AAXX  28061 57328 32661 22701 10316 20226 39629 40013 57013 82102 333 20218;,Q01  00002PRCP06
06-28T09:00:00,4,31.2,107.5,344.0,"DA XIAN, CH",FM-12,99999,V020,"250,1,N,0020,1","03600,1,9,N","030000,1,N,1","+0332,1","+0212,1","09988,1",,,,,,"06,99,1,01,1,01,1,01250,1,04,1,00,1",,,"99999,9,09613,1","7,1,023,1,+999,9",,SYN060AAXX  28091 57328 42680 62502 10332 20212 49988 57023 81140;,Q01+999990APOSP 
06-28T12:00:00,4,31.2,107.5,344.0,"DA XIAN, CH",FM-12,99999,V020,"999,9,C,0000,1","99999,9,9,N","018000,1,N,1","+0301,1","+0236,1","09982,1","06,0000,9,1",,,,,"07,99,1,01,1,00,1,99999,9,04,1,02,1",,,"99999,9,09600,1","7,1,006,1,+999,9",,SYN066AAXX  28121 57328 32968 70000 10301 20236 39600 49982 57006 81042;,Q01  00002PRCP06
06-28T15:00:00,4,31.2,107.5,344.0,"DA XIAN, CH",FM-12,99999,V020,"040,1,N,0020,1","99999,9,9,N","014000,1,N,1","+0267,1","+0230,1","09991,1",,,,,,"07,99,1,00,1,00,1,99999,9,00,1,02,1",,,"99999,9,09608,1","2,1,009,1,+999,9",,SYN060AAXX  28151 57328 42964 70402 10267 20230 49991 52009 80002;,Q01+999990APOSP 
06-28T18:00:00,4,31.2,107.5,344.0,"DA XIAN, CH",FM-12,99999,V020,"040,1,N,0030,1","22000,1,9,N","011000,1,N,1","+0253,1","+0233,1","09979,1","06,0000,9,1",,,,"00,1,+99999,9,99,9","00,99,1,00,1,00,1,99999,9,00,1,00,1",,"999,M,+0339,1","99999,9,09598,1","7,1,011,1,+999,9",,SYN070AAXX  28181 57328 32961 00403 10253 20233 39598 49979 57011 333 10339;,Q01  00002PRCP06
06-28T21:00:00,4,31.2,107.5,344.0,"DA XIAN, CH",FM-12,99999,V020,"040,1,N,0010,1","99999,9,9,N","008000,1,N,1","+0248,1","+0228,1","09967,1",,,,,,"08,99,1,08,1,00,1,99999,9,07,1,99,9",,,"99999,9,09582,1","7,1,011,1,+999,9","10,1",SYN066AAXX  28211 57328 41958 80401 10248 20228 49967 57011 71000 8807/;,Q01+999990APOSP 
06-29T00:00:00,4,31.2,107.5,344.0,"DA XIAN, CH",FM-12,99999,V020,"040,1,N,0020,1","99999,9,9,N","008000,1,N,1","+0253,1","+0227,1","09969,1","06,0000,9,1",,,,,"07,99,1,07,1,00,1,99999,9,04,1,99,9",,,"99999,9,09588,1","2,1,001,1,+006,1","10,1",SYN082AAXX  29001 57328 31958 70402 10253 20227 39588 49969 52001 71000 8704/ 333 05601;,Q01  00002PRCP06
06-29T03:00:00,4,31.2,107.5,344.0,"DA XIAN, CH",FM-12,99999,V020,"110,1,N,0010,1","99999,9,9,N","020000,1,N,1","+0299,1","+0215,1","09971,1",,,,,,"07,99,1,07,1,00,1,99999,9,04,1,99,9",,,"99999,9,09592,1","2,1,002,1,+999,9",,SYN060AAXX  29031 57328 42970 71101 10299 20215 49971 52002 8704/;,Q01+999990APOSP 
06-29T06:00:00,4,31.2,107.5,344.0,"DA XIAN, CH",FM-12,99999,V020,"020,1,N,0020,1","02100,1,9,N","020000,1,N,1","+0295,1","+0217,1","09969,1","06,9999,9,9",,,,,"08,99,1,08,1,05,1,02250,1,99,9,99,9",,"999,N,+0244,1","99999,9,09587,1","7,1,003,1,+999,9","60,1",SYN088AAXX  29061 57328 11870 80202 10295 20217 39587 49969 57003 69901 76000 885// 333 20244;,
06-29T09:00:00,4,31.2,107.5,344.0,"DA XIAN, CH",FM-12,99999,V020,"040,1,N,0020,1","02100,1,9,N","020000,1,N,1","+0262,1","+0232,1","09966,1",,,"6,1,03,1","6,1,03,1",,"08,99,1,08,1,05,1,02250,1,99,9,99,9",,,"99999,9,09583,1","7,1,005,1,+999,9","21,1",SYN066AAXX  29091 57328 41870 80402 10262 20232 49966 57005 72166 885//;,Q01+999990APOSP 
06-29T12:00:00,4,31.2,107.5,344.0,"DA XIAN, CH",FM-12,99999,V020,"040,1,N,0040,1","02100,1,9,N","015000,1,N,1","+0257,1","+0219,1","09976,1","06,0005,9,1",,"6,1,06,1",,,"08,99,1,08,1,05,1,02250,1,99,9,99,9",,,"99999,9,09592,1","2,1,010,1,+999,9","00,1",SYN078AAXX  29121 57328 11865 80404 10257 20219 39592 49976 52010 69941 70060 885//;,
06-29T15:00:00,4,31.2,107.5,344.0,"DA XIAN, CH",FM-12,99999,V020,"040,1,N,0020,1","02100,1,9,N","006000,1,N,1","+0249,1","+0217,1","09998,1",,,"6,1,03,1",,,"08,99,1,08,1,05,1,02250,1,99,9,99,9",,,"99999,9,09612,1","2,1,023,1,+999,9","21,1",SYN066AAXX  29151 57328 41856 80402 10249 20217 49998 52023 72160 885//;,Q01+999990APOSP 
06-29T18:00:00,4,31.2,107.5,344.0,"DA XIAN, CH",FM-12,99999,V020,"070,1,N,0040,1","02100,1,9,N","006000,1,N,1","+0241,1","+0217,1","09989,1","06,9999,9,9",,"6,1,06,1",,,"08,99,1,08,1,05,1,02250,1,99,9,99,9",,"999,M,+0304,1","99999,9,09606,1","7,1,009,1,+999,9","60,1",SYN088AAXX  29181 57328 11856 80704 10241 20217 39606 49989 57009 69901 76060 885// 333 10304;,
06-29T21:00:00,4,31.2,107.5,344.0,"DA XIAN, CH",FM-12,99999,V020,"070,1,N,0040,1","02100,1,9,N","008000,1,N,1","+0233,1","+0223,1","09990,1","24,0008,9,1",,"6,1,03,1",,,"08,99,1,08,1,05,1,02250,1,99,9,99,9",,,"99999,9,09602,1","7,1,002,1,+999,9","60,1",SYN076AAXX  29211 57328 41858 80704 10233 20223 49990 57002 76060 885// 333 70008;,Q01+999990APOSP 
06-30T00:00:00,4,31.2,107.5,344.0,"DA XIAN, CH",FM-12,99999,V020,"090,1,N,0020,1","02100,1,9,N","005000,1,N,1","+0230,1","+0226,1","10003,1","06,0041,9,1","24,0046,9,1","6,1,06,1",,,"08,99,1,08,1,05,1,02250,1,99,9,99,9",,,"99999,9,09616,1","2,1,012,1,+030,1","60,1",SYN094AAXX  30001 57328 11850 80902 10230 20226 39616 40003 52012 60041 76060 885// 333 00352 70046;,
06-30T03:00:00,4,31.2,107.5,344.0,"DA XIAN, CH",FM-12,99999,V020,"040,1,N,0020,1","02100,1,9,N","012000,1,N,1","+0238,1","+0231,1","10010,1",,,"6,1,03,1","6,1,03,1",,"08,99,1,08,1,05,1,02250,1,99,9,99,9",,,"99999,9,09622,1","2,1,007,1,+999,9","60,1",SYN066AAXX  30031 57328 41862 80402 10238 20231 40010 52007 76066 885//;,Q01+999990APOSP 
06-30T06:00:00,4,31.2,107.5,344.0,"DA XIAN, CH",FM-12,99999,V020,"040,1,N,0020,1","00210,1,9,N","012000,1,N,1","+0239,1","+0230,1","10010,1","06,0061,9,1",,"6,1,06,1","6,1,06,1",,"08,99,1,08,1,05,1,00250,1,99,9,99,9",,"999,N,+0228,1","99999,9,09622,1","7,1,001,1,+999,9","60,1",SYN088AAXX  30061 57328 11362 80402 10239 20230 39622 40010 57001 60061 76066 885// 333 20228;,
06-30T09:00:00,4,31.2,107.5,344.0,"DA XIAN, CH",FM-12,99999,V020,"040,1,N,0020,1","00210,1,9,N","025000,1,N,1","+0256,1","+0235,1","10004,1",,,"6,1,03,1","6,1,03,1",,"08,99,1,08,1,05,1,00250,1,99,9,99,9",,,"99999,9,09619,1","7,1,005,1,+999,9","21,1",SYN066AAXX  30091 57328 41375 80402 10256 20235 40004 57005 72166 885//;,Q01+999990APOSP 
06-30T12:00:00,4,31.2,107.5,344.0,"DA XIAN, CH",FM-12,99999,V020,"070,1,N,0020,1","02100,1,9,N","030000,1,N,1","+0255,1","+0236,1","10010,1","06,0008,9,1",,"6,1,06,1",,,"08,99,1,08,1,05,1,02250,1,99,9,99,9",,,"99999,9,09623,1","2,1,006,1,+999,9","00,1",SYN078AAXX  30121 57328 11880 80702 10255 20236 39623 40010 52006 69981 70060 885//;,
06-30T15:00:00,4,31.2,107.5,344.0,"DA XIAN, CH",FM-12,99999,V020,"160,1,N,0010,1","02100,1,9,N","012000,1,N,1","+0241,1","+0232,1","10029,1",,,"6,1,03,1",,,"08,99,1,08,1,05,1,02250,1,99,9,99,9",,,"99999,9,09641,1","2,1,018,1,+999,9","21,1",SYN066AAXX  30151 57328 41862 81601 10241 20232 40029 52018 72160 885//;,Q01+999990APOSP 
06-30T18:00:00,4,31.2,107.5,344.0,"DA XIAN, CH",FM-12,99999,V020,"040,1,N,0020,1","02100,1,9,N","004000,1,N,1","+0232,1","+0229,1","10025,1","06,0099,9,1",,"6,1,06,1",,,"08,99,1,08,1,05,1,02250,1,99,9,99,9",,"999,M,+0265,1","99999,9,09636,1","7,1,005,1,+999,9","60,1",SYN088AAXX  30181 57328 11840 80402 10232 20229 39636 40025 57005 60101 76060 885// 333 10265;,
06-30T21:00:00,4,31.2,107.5,344.0,"DA XIAN, CH",FM-12,99999,V020,"040,1,N,0020,1","00210,1,9,N","003000,1,N,1","+0231,1","+0228,1","10020,1","24,0201,9,1",,"6,1,03,1",,,"08,99,1,08,1,05,1,00250,1,99,9,99,9",,,"99999,9,09631,1","7,1,004,1,+999,9","10,1",SYN076AAXX  30211 57328 41330 80402 10231 20228 40020 57004 71060 885// 333 70200;,Q01+999990APOSP 
07-01T00:00:00,4,31.2,107.5,344.0,"DA XIAN, CH",FM-12,99999,V020,"040,1,N,0030,1","02100,1,9,N","006000,1,N,1","+0236,1","+0230,1","10023,1","06,9999,9,9","24,0163,9,1","6,1,06,1",,,"08,99,1,08,1,05,1,02250,1,99,9,99,9",,,"99999,9,09636,1","2,1,004,1,+020,1","10,1",SYN094AAXX  01001 57328 11856 80403 10236 20230 39636 40023 52004 69901 71060 885// 333 00201 70162;,
07-01T03:00:00,4,31.2,107.5,344.0,"DA XIAN, CH",FM-12,99999,V020,"040,1,N,0020,1","02100,1,9,N","004000,1,N,1","+0242,1","+0236,1","10025,1",,,"6,1,03,1",,,"08,99,1,08,1,05,1,02250,1,99,9,99,9",,,"99999,9,09637,1","2,1,001,1,+999,9","60,1",SYN066AAXX  01031 57328 41840 80402 10242 20236 40025 52001 76060 885//;,Q01+999990APOSP 
07-01T06:00:00,4,31.2,107.5,344.0,"DA XIAN, CH",FM-12,99999,V020,"040,1,N,0030,1","02100,1,9,N","008000,1,N,1","+0257,1","+0241,1","10015,1","06,0020,9,1",,"6,1,06,1",,,"08,99,1,08,1,05,1,02250,1,99,9,99,9",,"999,N,+0230,1","99999,9,09628,1","7,1,009,1,+999,9","10,1",SYN088AAXX  01061 57328 11858 80403 10257 20241 39628 40015 57009 60021 71060 885// 333 20230;,
07-01T09:00:00,4,31.2,107.5,344.0,"DA XIAN, CH",FM-12,99999,V020,"040,1,N,0030,1","02100,1,9,N","015000,1,N,1","+0265,1","+0242,1","10000,1",,,,,,"08,99,1,08,1,05,1,02250,1,99,9,99,9",,,"99999,9,09616,1","7,1,014,1,+999,9",,SYN060AAXX  01091 57328 42865 80403 10265 20242 40000 57014 885//;,Q01+999990APOSP 
07-01T12:00:00,4,31.2,107.5,344.0,"DA XIAN, CH",FM-12,99999,V020,"070,1,N,0020,1","99999,9,9,N","022000,1,N,1","+0259,1","+0236,1","10004,1","06,0000,9,1",,,,,"08,99,1,08,1,00,1,99999,9,07,1,99,9",,,"99999,9,09618,1","2,1,004,1,+999,9",,SYN066AAXX  01121 57328 32972 80702 10259 20236 39618 40004 52004 8807/;,Q01  00002PRCP06
07-01T15:00:00,4,31.2,107.5,344.0,"DA XIAN, CH",FM-12,99999,V020,"040,1,N,0020,1","02100,1,9,N","015000,1,N,1","+0252,1","+0233,1","10019,1",,,,,,"08,99,1,08,1,05,1,02250,1,99,9,99,9",,,"99999,9,09633,1","2,1,014,1,+999,9",,SYN060AAXX  01151 57328 42865 80402 10252 20233 40019 52014 885//;,Q01+999990APOSP 
07-01T18:00:00,4,31.2,107.5,344.0,"DA XIAN, CH",FM-12,99999,V020,"040,1,N,0010,1","02100,1,9,N","011000,1,N,1","+0252,1","+0230,1","10013,1","06,0000,9,1",,,,,"08,99,1,08,1,05,1,02250,1,99,9,99,9",,"999,M,+0269,1","99999,9,09627,1","7,1,005,1,+999,9",,SYN076AAXX  01181 57328 32861 80401 10252 20230 39627 40013 57005 885// 333 10269;,Q01  00002PRCP06
07-01T21:00:00,4,31.2,107.5,344.0,"DA XIAN, CH",FM-12,99999,V020,"040,1,N,0030,1","99999,9,9,N","014000,1,N,1","+0249,1","+0226,1","10013,1","24,0018,9,1",,"6,1,03,1",,,"08,99,1,08,1,00,1,99999,9,02,1,99,9",,,"99999,9,09627,1","4,1,000,1,+999,9","00,1",SYN076AAXX  01211 57328 41964 80403 10249 20226 40013 54000 70060 8802/ 333 70019;,Q01+999990APOSP 
07-02T00:00:00,4,31.2,107.5,344.0,"DA XIAN, CH",FM-12,99999,V020,"040,1,N,0040,1","99999,9,9,N","030000,1,N,1","+0234,1","+0218,1","10036,1","06,0003,9,1","24,0023,9,1","6,1,06,1",,,"08,99,1,08,1,00,1,99999,9,07,1,99,9",,,"99999,9,09648,1","2,1,021,1,+010,1","21,1",SYN094AAXX  02001 57328 11980 80404 10234 20218 39648 40036 52021 69931 72160 8807/ 333 00100 70022;,
07-02T03:00:00,4,31.2,107.5,344.0,"DA XIAN, CH",FM-12,99999,V020,"070,1,N,0020,1","02100,1,9,N","012000,1,N,1","+0232,1","+0217,1","10052,1",,,"6,1,03,1",,,"08,99,1,08,1,05,1,02250,1,99,9,99,9",,,"99999,9,09662,1","2,1,015,1,+999,9","60,1",SYN066AAXX  02031 57328 41862 80702 10232 20217 40052 52015 76060 885//;,Q01+999990APOSP 
07-02T06:00:00,4,31.2,107.5,344.0,"DA XIAN, CH",FM-12,99999,V020,"040,1,N,0030,1","02100,1,9,N","008000,1,N,1","+0225,1","+0221,1","10051,1","06,0051,9,1",,"6,1,06,1",,,"08,99,1,08,1,05,1,02250,1,99,9,99,9",,"999,N,+0223,1","99999,9,09662,1","7,1,001,1,+999,9","60,1",SYN088AAXX  02061 57328 11858 80403 10225 20221 39662 40051 57001 60051 76060 885// 333 20223;,
07-02T09:00:00,4,31.2,107.5,344.0,"DA XIAN, CH",FM-12,99999,V020,"040,1,N,0020,1","02100,1,9,N","015000,1,N,1","+0227,1","+0218,1","10048,1",,,"6,1,03,1","6,1,03,1",,"08,99,1,08,1,05,1,02250,1,99,9,99,9",,,"99999,9,09657,1","7,1,003,1,+999,9","60,1",SYN066AAXX  02091 57328 41865 80402 10227 20218 40048 57003 76066 885//;,Q01+999990APOSP 
07-02T12:00:00,4,31.2,107.5,344.0,"DA XIAN, CH",FM-12,99999,V020,"040,1,N,0030,1","02100,1,9,N","002000,1,N,1","+0227,1","+0221,1","10050,1","06,0005,9,1",,"6,1,06,1",,,"08,99,1,08,1,05,1,02250,1,99,9,99,9",,,"99999,9,09660,1","2,1,001,1,+999,9","60,1",SYN078AAXX  02121 57328 11820 80403 10227 20221 39660 40050 52001 69961 76060 885//;,
07-02T15:00:00,4,31.2,107.5,344.0,"DA XIAN, CH",FM-12,99999,V020,"040,1,N,0020,1","02100,1,9,N","015000,1,N,1","+0223,1","+0220,1","10063,1",,,"6,1,03,1","6,1,03,1",,"08,99,1,08,1,05,1,02250,1,99,9,99,9",,,"99999,9,09671,1","2,1,012,1,+999,9","21,1",SYN066AAXX  02151 57328 41865 80402 10223 20220 40063 52012 72166 885//;,Q01+999990APOSP 
07-02T18:00:00,4,31.2,107.5,344.0,"DA XIAN, CH",FM-12,99999,V020,"040,1,N,0020,1","02100,1,9,N","008000,1,N,1","+0225,1","+0219,1","10052,1","06,0020,9,1",,"6,1,06,1",,,"08,99,1,08,1,05,1,02250,1,99,9,99,9",,"999,M,+0253,1","99999,9,09661,1","7,1,011,1,+999,9","60,1",SYN088AAXX  02181 57328 11858 80402 10225 20219 39661 40052 57011 60021 76060 885// 333 10253;,
07-02T21:00:00,4,31.2,107.5,344.0,"DA XIAN, CH",FM-12,99999,V020,"040,1,N,0030,1","02100,1,9,N","009000,1,N,1","+0224,1","+0220,1","10041,1","24,0081,9,1",,,,,"08,99,1,08,1,05,1,02250,1,99,9,99,9",,,"99999,9,09650,1","7,1,011,1,+999,9","10,1",SYN076AAXX  02211 57328 41859 80403 10224 20220 40041 57011 71000 885// 333 70081;,Q01+999990APOSP 
07-03T00:00:00,4,31.2,107.5,344.0,"DA XIAN, CH",FM-12,99999,V020,"020,1,N,0020,1","01500,1,9,N","001500,1,N,1","+0223,1","+0222,1","10044,1","06,0130,9,1","24,0203,9,1","6,1,06,1",,,"08,99,1,08,1,05,1,01750,1,99,9,99,9",,,"99999,9,09653,1","2,1,003,1,+010,1","60,1",SYN094AAXX  03001 57328 11715 80202 10223 20222 39653 40044 52003 60131 76060 885// 333 00151 70204;,
07-03T03:00:00,4,31.2,107.5,344.0,"DA XIAN, CH",FM-12,99999,V020,"040,1,N,0010,1","00420,1,9,N","005000,1,N,1","+0226,1","+0225,1","10042,1",,,"6,1,03,1","6,1,03,1",,"08,99,1,08,1,05,1,00450,1,99,9,99,9",,,"99999,9,09651,1","7,1,002,1,+999,9","60,1",SYN066AAXX  03031 57328 41450 80401 10226 20225 40042 57002 76066 885//;,Q01+999990APOSP 
07-03T06:00:00,4,31.2,107.5,344.0,"DA XIAN, CH",FM-12,99999,V020,"040,1,N,0010,1","02100,1,9,N","003000,1,N,1","+0232,1","+0229,1","10037,1","06,0041,9,1",,"6,1,06,1","6,1,06,1",,"08,99,1,08,1,05,1,02250,1,99,9,99,9",,"999,N,+0222,1","99999,9,09647,1","7,1,004,1,+999,9","60,1",SYN088AAXX  03061 57328 11830 80401 10232 20229 39647 40037 57004 60041 76066 885// 333 20222;,
07-03T09:00:00,4,31.2,107.5,344.0,"DA XIAN, CH",FM-12,99999,V020,"040,1,N,0070,1","00420,1,9,N","030000,1,N,1","+0234,1","+0218,1","10029,1",,,"6,1,03,1",,,"08,99,1,08,1,05,1,00450,1,99,9,99,9",,,"99999,9,09640,1","7,1,008,1,+999,9","60,1",SYN066AAXX  03091 57328 41480 80407 10234 20218 40029 57008 76060 885//;,Q01+999990APOSP 
07-03T12:00:00,4,31.2,107.5,344.0,"DA XIAN, CH",FM-12,99999,V020,"040,1,N,0020,1","99999,9,9,N","030000,1,N,1","+0225,1","+0204,1","10035,1","06,0020,9,1",,"6,1,06,1",,,"07,99,1,07,1,00,1,99999,9,04,1,99,9",,,"99999,9,09644,1","2,1,005,1,+999,9","00,1",SYN078AAXX  03121 57328 11980 70402 10225 20204 39644 40035 52005 60021 70060 8704/;,
07-03T15:00:00,4,31.2,107.5,344.0,"DA XIAN, CH",FM-12,99999,V020,"999,9,C,0000,1","99999,9,9,N","020000,1,N,1","+0219,1","+0196,1","10047,1",,,,,,"08,99,1,08,1,00,1,99999,9,07,1,99,9",,,"99999,9,09655,1","2,1,012,1,+999,9",,SYN060AAXX  03151 57328 42970 80000 10219 20196 40047 52012 8807/;,Q01+999990APOSP 
07-03T18:00:00,4,31.2,107.5,344.0,"DA XIAN, CH",FM-12,99999,V020,"999,9,C,0000,1","99999,9,9,N","004000,1,N,1","+0220,1","+0200,1","10050,1","06,9999,9,9",,"6,1,06,1",,,"08,99,1,08,1,00,1,99999,9,07,1,99,9",,"999,M,+0240,1","99999,9,09659,1","2,1,003,1,+999,9","10,1",SYN088AAXX  03181 57328 11940 80000 10220 20200 39659 40050 52003 69911 71060 8807/ 333 10240;,
07-03T21:00:00,4,31.2,107.5,344.0,"DA XIAN, CH",FM-12,99999,V020,"200,1,N,0010,1","22000,1,9,N","004000,1,N,1","+0210,1","+0187,1","10049,1","24,0191,9,1",,,,"00,1,+99999,9,99,9","00,99,1,00,1,00,1,99999,9,00,1,00,1",,,"99999,9,09656,1","7,1,001,1,+999,9","10,1",SYN070AAXX  03211 57328 41940 02001 10210 20187 40049 57001 71000 333 70190;,Q01+999990APOSP 
07-04T00:00:00,4,31.2,107.5,344.0,"DA XIAN, CH",FM-12,99999,V020,"999,9,C,0000,1","99999,9,9,N","015000,1,N,1","+0217,1","+0192,1","10068,1","06,0000,9,1","24,0064,9,1",,,,"07,99,1,07,1,00,1,99999,9,04,1,99,9",,,"99999,9,09676,1","2,1,018,1,+020,1",,SYN082AAXX  04001 57328 32965 70000 10217 20192 39676 40068 52018 8704/ 333 00251 70064;,Q01  00002PRCP06
07-04T03:00:00,4,31.2,107.5,344.0,"DA XIAN, CH",FM-12,99999,V020,"320,1,N,0010,1","03600,1,9,N","014000,1,N,1","+0255,1","+0204,1","10070,1",,,,,,"06,99,1,04,1,01,1,00800,1,04,1,00,1",,,"99999,9,09682,1","2,1,004,1,+999,9",,SYN060AAXX  04031 57328 42564 63201 10255 20204 40070 52004 84140;,Q01+999990APOSP 
07-04T06:00:00,4,31.2,107.5,344.0,"DA XIAN, CH",FM-12,99999,V020,"090,1,N,0020,1","01500,1,9,N","020000,1,N,1","+0273,1","+0206,1","10053,1","06,0000,9,1",,,,,"08,99,1,08,1,08,1,01250,1,99,9,99,9",,"999,N,+0207,1","99999,9,09665,1","7,1,015,1,+999,9",,SYN076AAXX  04061 57328 32670 80902 10273 20206 39665 40053 57015 888// 333 20207;,Q01  00002PRCP06
07-04T09:00:00,4,31.2,107.5,344.0,"DA XIAN, CH",FM-12,99999,V020,"040,1,N,0030,1","03600,1,9,N","020000,1,N,1","+0264,1","+0212,1","10048,1",,,,,,"08,99,1,03,1,01,1,01250,1,07,1,99,9",,,"99999,9,09662,1","7,1,006,1,+999,9",,SYN060AAXX  04091 57328 42670 80403 10264 20212 40048 57006 8317/;,Q01+999990APOSP 
07-04T12:00:00,4,31.2,107.5,344.0,"DA XIAN, CH",FM-12,99999,V020,"040,1,N,0030,1","99999,9,9,N","020000,1,N,1","+0245,1","+0206,1","10053,1","06,0000,9,1",,,,,"07,99,1,07,1,00,1,99999,9,04,1,00,1",,,"99999,9,09663,1","2,1,004,1,+999,9",,SYN066AAXX  04121 57328 32970 70403 10245 20206 39663 40053 52004 87040;,Q01  00002PRCP06
07-04T15:00:00,4,31.2,107.5,344.0,"DA XIAN, CH",FM-12,99999,V020,"040,1,N,0030,1","99999,9,9,N","012000,1,N,1","+0227,1","+0206,1","10066,1",,,,,,"08,99,1,08,1,00,1,99999,9,07,1,99,9",,,"99999,9,09675,1","2,1,013,1,+999,9",,SYN060AAXX  04151 57328 42962 80403 10227 20206 40066 52013 8807/;,Q01+999990APOSP 
07-04T18:00:00,4,31.2,107.5,344.0,"DA XIAN, CH",FM-12,99999,V020,"040,1,N,0030,1","02100,1,9,N","008000,1,N,1","+0219,1","+0207,1","10055,1","06,0000,9,1",,,,,"07,99,1,07,1,05,1,02250,1,99,9,99,9",,"999,M,+0280,1","99999,9,09666,1","7,1,010,1,+999,9","10,1",SYN082AAXX  04181 57328 31858 70403 10219 20207 39666 40055 57010 71000 875// 333 10280;,Q01  00002PRCP06
07-04T21:00:00,4,31.2,107.5,344.0,"DA XIAN, CH",FM-12,99999,V020,"040,1,N,0040,1","02100,1,9,N","008000,1,N,1","+0219,1","+0204,1","10052,1",,,,,,"08,99,1,08,1,05,1,02250,1,99,9,99,9",,,"99999,9,09660,1","7,1,003,1,+999,9","10,1",SYN066AAXX  04211 57328 41858 80404 10219 20204 40052 57003 71000 885//;,Q01+999990APOSP 
07-05T00:00:00,4,31.2,107.5,344.0,"DA XIAN, CH",FM-12,99999,V020,"090,1,N,0010,1","99999,9,9,N","006000,1,N,1","+0221,1","+0209,1","10068,1","06,0000,9,1",,,,,"08,99,1,08,1,00,1,99999,9,07,1,99,9",,,"99999,9,09677,1","2,1,014,1,+000,1","10,1",SYN082AAXX  05001 57328 31956 80901 10221 20209 39677 40068 52014 71000 8807/ 333 00000;,Q01  00002PRCP06
07-05T03:00:00,4,31.2,107.5,344.0,"DA XIAN, CH",FM-12,99999,V020,"180,1,N,0010,1","99999,9,9,N","012000,1,N,1","+0255,1","+0217,1","10071,1",,,,,,"08,99,1,08,1,00,1,99999,9,07,1,99,9",,,"99999,9,09683,1","2,1,004,1,+999,9",,SYN060AAXX  05031 57328 42962 81801 10255 20217 40071 52004 8807/;,Q01+999990APOSP 
07-05T06:00:00,4,31.2,107.5,344.0,"DA XIAN, CH",FM-12,99999,V020,"220,1,N,0010,1","00750,1,9,N","012000,1,N,1","+0289,1","+0223,1","10053,1","06,0000,9,1",,,,,"07,99,1,07,1,01,1,00800,1,00,1,00,1",,"999,N,+0216,1","99999,9,09666,1","7,1,015,1,+999,9",,SYN076AAXX  05061 57328 32562 72201 10289 20223 39666 40053 57015 87100 333 20216;,Q01  00002PRCP06
07-05T09:00:00,4,31.2,107.5,344.0,"DA XIAN, CH",FM-12,99999,V020,"250,1,N,0020,1","22000,1,9,N","012000,1,N,1","+0307,1","+0230,1","10033,1",,,,,,"01,99,1,01,1,01,1,01250,1,00,1,00,1",,,"99999,9,09653,1","7,1,019,1,+999,9",,SYN060AAXX  05091 57328 42662 12502 10307 20230 40033 57019 81100;,Q01+999990APOSP 
07-05T12:00:00,4,31.2,107.5,344.0,"DA XIAN, CH",FM-12,99999,V020,"220,1,N,0010,1","22000,1,9,N","012000,1,N,1","+0289,1","+0229,1","10044,1","06,0000,9,1",,,,,"01,99,1,00,1,00,1,99999,9,00,1,01,1",,,"99999,9,09657,1","2,1,010,1,+999,9",,SYN066AAXX  05121 57328 32962 12201 10289 20229 39657 40044 52010 80001;,Q01  00002PRCP06
07-05T15:00:00,4,31.2,107.5,344.0,"DA XIAN, CH",FM-12,99999,V020,"180,1,N,0010,1","22000,1,9,N","006000,1,N,1","+0260,1","+0231,1","10063,1",,,,,"00,1,+99999,9,99,9","00,99,1,00,1,00,1,99999,9,00,1,00,1",,,"99999,9,09676,1","2,1,019,1,+999,9","10,1",SYN060AAXX  05151 57328 41956 01801 10260 20231 40063 52019 71000;,Q01+999990APOSP 
07-05T18:00:00,4,31.2,107.5,344.0,"DA XIAN, CH",FM-12,99999,V020,"160,1,N,0010,1","22000,1,9,N","004000,1,N,1","+0247,1","+0222,1","10052,1","06,0000,9,1",,,,"00,1,+99999,9,99,9","00,99,1,00,1,00,1,99999,9,00,1,00,1",,"999,M,+0314,1","99999,9,09666,1","7,1,010,1,+999,9","10,1",SYN076AAXX  05181 57328 31940 01601 10247 20222 39666 40052 57010 71000 333 10314;,Q01  00002PRCP06
07-05T21:00:00,4,31.2,107.5,344.0,"DA XIAN, CH",FM-12,99999,V020,"040,1,N,0020,1","02100,1,9,N","005000,1,N,1","+0238,1","+0223,1","10049,1",,,,,,"08,99,1,08,1,05,1,02250,1,99,9,99,9",,,"99999,9,09660,1","7,1,002,1,+999,9","10,1",SYN066AAXX  05211 57328 41850 80402 10238 20223 40049 57002 71000 885//;,Q01+999990APOSP 
07-06T00:00:00,4,31.2,107.5,344.0,"DA XIAN, CH",FM-12,99999,V020,"020,1,N,0010,1","22000,1,9,N","004000,1,N,1","+0243,1","+0226,1","10056,1","06,0000,9,1",,,,,"02,99,1,02,1,00,1,99999,9,04,1,00,1",,,"99999,9,09670,1","2,1,006,1,+001,1","10,1",SYN082AAXX  06001 57328 31940 20201 10243 20226 39670 40056 52006 71000 82040 333 05102;,Q01  00002PRCP06
07-06T03:00:00,4,31.2,107.5,344.0,"DA XIAN, CH",FM-12,99999,V020,"290,1,N,0010,1","22000,1,9,N","005000,1,N,1","+0277,1","+0231,1","10057,1",,,,,,"04,99,1,04,1,01,1,01250,1,00,1,00,1",,,"99999,9,09672,1","2,1,001,1,+999,9","10,1",SYN066AAXX  06031 57328 41650 42901 10277 20231 40057 52001 71000 84100;,Q01+999990APOSP 
07-06T06:00:00,4,31.2,107.5,344.0,"DA XIAN, CH",FM-12,99999,V020,"270,1,N,0020,1","22000,1,9,N","020000,1,N,1","+0309,1","+0232,1","10036,1","06,0000,9,1",,,,,"02,99,1,02,1,01,1,01250,1,00,1,00,1",,"999,N,+0235,1","99999,9,09652,1","7,1,019,1,+999,9",,SYN076AAXX  06061 57328 32670 22702 10309 20232 39652 40036 57019 82100 333 20235;,Q01  00002PRCP06
07-06T09:00:00,4,31.2,107.5,344.0,"DA XIAN, CH",FM-12,99999,V020,"270,1,N,0020,1","22000,1,9,N","030000,1,N,1","+0328,1","+0217,1","10020,1",,,,,,"01,99,1,01,1,01,1,01250,1,00,1,00,1",,,"99999,9,09643,1","7,1,015,1,+999,9",,SYN060AAXX  06091 57328 42680 12702 10328 20217 40020 57015 81100;,Q01+999990APOSP 
07-06T12:00:00,4,31.2,107.5,344.0,"DA XIAN, CH",FM-12,99999,V020,"110,1,N,0010,1","22000,1,9,N","020000,1,N,1","+0307,1","+0236,1","10026,1","06,0000,9,1",,,,,"01,99,1,01,1,00,1,99999,9,04,1,00,1",,,"99999,9,09642,1","2,1,005,1,+999,9",,SYN066AAXX  06121 57328 32970 11101 10307 20236 39642 40026 52005 81040;,Q01  00002PRCP06
07-06T15:00:00,4,31.2,107.5,344.0,"DA XIAN, CH",FM-12,99999,V020,"040,1,N,0020,1","22000,1,9,N","005000,1,N,1","+0269,1","+0239,1","10048,1",,,,,"00,1,+99999,9,99,9","00,99,1,00,1,00,1,99999,9,00,1,00,1",,,"99999,9,09663,1","2,1,021,1,+999,9","10,1",SYN060AAXX  06151 57328 41950 00402 10269 20239 40048 52021 71000;,Q01+999990APOSP 
07-06T18:00:00,4,31.2,107.5,344.0,"DA XIAN, CH",FM-12,99999,V020,"040,1,N,0040,1","22000,1,9,N","004000,1,N,1","+0251,1","+0238,1","10039,1","06,0000,9,1",,,,"00,1,+99999,9,99,9","00,99,1,00,1,00,1,99999,9,00,1,00,1",,"999,M,+0329,1","99999,9,09655,1","7,1,008,1,+999,9","10,1",SYN076AAXX  06181 57328 31940 00404 10251 20238 39655 40039 57008 71000 333 10329;,Q01  00002PRCP06
07-06T21:00:00,4,31.2,107.5,344.0,"DA XIAN, CH",FM-12,99999,V020,"090,1,N,0020,1","22000,1,9,N","004000,1,N,1","+0245,1","+0233,1","10035,1",,,,,"00,1,+99999,9,99,9","00,99,1,00,1,00,1,99999,9,00,1,00,1",,,"99999,9,09647,1","7,1,003,1,+999,9","10,1",SYN060AAXX  06211 57328 41940 00902 10245 20233 40035 57003 71000;,Q01+999990APOSP 
07-07T00:00:00,4,31.2,107.5,344.0,"DA XIAN, CH",FM-12,99999,V020,"040,1,N,0020,1","99999,9,9,N","004000,1,N,1","+0256,1","+0233,1","10034,1","06,0000,9,1",,,,,"07,99,1,07,1,00,1,99999,9,01,1,99,9",,,"99999,9,09651,1","7,1,001,1,+002,1","10,1",SYN082AAXX  07001 57328 31940 70402 10256 20233 39651 40034 57001 71000 8701/ 333 05201;,Q01  00002PRCP06
07-07T03:00:00,4,31.2,107.5,344.0,"DA XIAN, CH",FM-12,99999,V020,"999,9,C,0000,1","99999,9,9,N","007000,1,N,1","+0293,1","+0241,1","10036,1",,,,,,"08,99,1,00,1,00,1,99999,9,00,1,07,1",,,"99999,9,09654,1","2,1,002,1,+999,9","10,1",SYN066AAXX  07031 57328 41957 80000 10293 20241 40036 52002 71000 80007;,Q01+999990APOSP 
07-07T06:00:00,4,31.2,107.5,344.0,"DA XIAN, CH",FM-12,99999,V020,"180,1,N,0020,1","99999,9,9,N","012000,1,N,1","+0308,1","+0228,1","10026,1","06,0000,9,1",,,,,"08,99,1,00,1,00,1,99999,9,00,1,07,1",,"999,N,+0242,1","99999,9,09643,1","7,1,010,1,+999,9",,SYN076AAXX  07061 57328 32962 81802 10308 20228 39643 40026 57010 80007 333 20242;,Q01  00002PRCP06
07-07T09:00:00,4,31.2,107.5,344.0,"DA XIAN, CH",FM-12,99999,V020,"040,1,N,0020,1","99999,9,9,N","015000,1,N,1","+0303,1","+0235,1","10010,1",,,,,,"07,99,1,07,1,00,1,99999,9,01,1,99,9",,,"99999,9,09630,1","7,1,016,1,+999,9",,SYN060AAXX  07091 57328 42965 70402 10303 20235 40010 57016 8701/;,Q01+999990APOSP 
07-07T12:00:00,4,31.2,107.5,344.0,"DA XIAN, CH",FM-12,99999,V020,"020,1,N,0010,1","99999,9,9,N","012000,1,N,1","+0285,1","+0250,1","10012,1","06,9999,9,9",,"6,1,06,1",,,"08,99,1,08,1,00,1,99999,9,02,1,99,9",,,"99999,9,09628,1","2,1,001,1,+999,9","60,1",SYN078AAXX  07121 57328 11962 80201 10285 20250 39628 40012 52001 69901 76060 8802/;,
07-07T15:00:00,4,31.2,107.5,344.0,"DA XIAN, CH",FM-12,99999,V020,"110,1,N,0010,1","02100,1,9,N","011000,1,N,1","+0269,1","+0249,1","10026,1",,,"6,1,03,1",,,"08,99,1,08,1,05,1,02250,1,99,9,99,9",,,"99999,9,09642,1","2,1,015,1,+999,9","60,1",SYN066AAXX  07151 57328 41861 81101 10269 20249 40026 52015 76060 885//;,Q01+999990APOSP 
07-07T18:00:00,4,31.2,107.5,344.0,"DA XIAN, CH",FM-12,99999,V020,"999,9,C,0000,1","02100,1,9,N","008000,1,N,1","+0258,1","+0242,1","10014,1","06,9999,9,9",,"6,1,06,1",,,"08,99,1,08,1,05,1,02250,1,99,9,99,9",,"999,M,+0316,1","99999,9,09632,1","7,1,011,1,+999,9","10,1",SYN088AAXX  07181 57328 11858 80000 10258 20242 39632 40014 57011 69901 71060 885// 333 10316;,
07-07T21:00:00,4,31.2,107.5,344.0,"DA XIAN, CH",FM-12,99999,V020,"999,9,C,0000,1","02100,1,9,N","004000,1,N,1","+0255,1","+0242,1","10008,1","24,0000,2,1",,,,,"08,99,1,08,1,05,1,02250,1,99,9,99,9",,,"99999,9,09622,1","7,1,007,1,+999,9","10,1",SYN076AAXX  07211 57328 41840 80000 10255 20242 40008 57007 71000 885// 333 79999;,Q01+999990APOSP 
07-08T00:00:00,4,31.2,107.5,344.0,"DA XIAN, CH",FM-12,99999,V020,"290,1,N,0010,1","99999,9,9,N","002000,1,N,1","+0255,1","+0235,1","10020,1","06,0000,9,1","24,0000,2,1",,,,"08,99,1,08,1,00,1,99999,9,07,1,99,9",,,"99999,9,09636,1","2,1,011,1,-020,1","10,1",SYN088AAXX  08001 57328 31920 82901 10255 20235 39636 40020 52011 71000 8807/ 333 05200 79999;,Q01  00002PRCP06
07-08T03:00:00,4,31.2,107.5,344.0,"DA XIAN, CH",FM-12,99999,V020,"320,1,N,0010,1","00750,1,9,N","006000,1,N,1","+0303,1","+0241,1","10013,1",,,,,,"06,99,1,06,1,01,1,00800,1,00,1,00,1",,,"99999,9,09633,1","7,1,005,1,+999,9","05,1",SYN066AAXX  08031 57328 41556 63201 10303 20241 40013 57005 70500 86100;,Q01+999990APOSP 
07-08T06:00:00,4,31.2,107.5,344.0,"DA XIAN, CH",FM-12,99999,V020,"220,1,N,0030,1","01200,1,9,N","012000,1,N,1","+0315,1","+0230,1","10003,1","06,9999,9,9",,"8,1,06,1",,,"06,99,1,06,1,01,1,01250,1,00,1,00,1",,"999,N,+0246,1","99999,9,09622,1","7,1,009,1,+999,9","00,1",SYN088AAXX  08061 57328 11662 62203 10315 20230 39622 40003 57009 69901 70080 86100 333 20246;,
07-08T09:00:00,4,31.2,107.5,344.0,"DA XIAN, CH",FM-12,99999,V020,"220,1,N,0030,1","09000,1,9,N","015000,1,N,1","+0311,1","+0232,1","09997,1",,,,,,"06,99,1,01,1,01,1,01250,1,00,1,02,1",,,"99999,9,09619,1","7,1,007,1,+999,9",,SYN060AAXX  08091 57328 42665 62203 10311 20232 49997 57007 81102;,Q01+999990APOSP 
07-08T12:00:00,4,31.2,107.5,344.0,"DA XIAN, CH",FM-12,99999,V020,"040,1,N,0050,1","00750,1,9,N","015000,1,N,1","+0243,1","+0223,1","10028,1","06,0005,9,1",,,,,"08,99,1,08,1,09,1,00800,1,99,9,99,9",,,"99999,9,09641,1","2,1,026,1,+999,9","95,1",SYN078AAXX  08121 57328 11565 80405 10243 20223 39641 40028 52026 69961 79500 889//;,
07-08T15:00:00,4,31.2,107.5,344.0,"DA XIAN, CH",FM-12,99999,V020,"999,9,C,0000,1","99999,9,9,N","015000,1,N,1","+0230,1","+0226,1","10036,1",,,"9,1,03,1","8,1,03,1",,"07,99,1,07,1,00,1,99999,9,04,1,00,1",,,"99999,9,09646,1","2,1,010,1,+999,9","00,1",SYN066AAXX  08151 57328 41965 70000 10230 20226 40036 52010 70098 87040;,Q01+999990APOSP 
07-08T18:00:00,4,31.2,107.5,344.0,"DA XIAN, CH",FM-12,99999,V020,"040,1,N,0010,1","02100,1,9,N","015000,1,N,1","+0232,1","+0225,1","10031,1","06,0259,9,1",,"9,1,06,1","8,1,06,1",,"08,99,1,08,1,05,1,02250,1,99,9,99,9",,"999,M,+0319,1","99999,9,09647,1","7,1,004,1,+999,9","00,1",SYN088AAXX  08181 57328 11865 80401 10232 20225 39647 40031 57004 60261 70098 885// 333 10319;,
07-08T21:00:00,4,31.2,107.5,344.0,"DA XIAN, CH",FM-12,99999,V020,"040,1,N,0020,1","99999,9,9,N","008000,1,N,1","+0231,1","+0222,1","10024,1","24,0262,9,1",,,,,"08,99,1,08,1,00,1,99999,9,07,1,99,9",,,"99999,9,09635,1","7,1,007,1,+999,9","10,1",SYN076AAXX  08211 57328 41958 80402 10231 20222 40024 57007 71000 8807/ 333 70262;,Q01+999990APOSP 
07-09T00:00:00,4,31.2,107.5,344.0,"DA XIAN, CH",FM-12,99999,V020,"090,1,N,0020,1","02100,1,9,N","004000,1,N,1","+0228,1","+0224,1","10035,1","06,0020,9,1","24,0282,9,1","6,1,06,1",,,"08,99,1,08,1,05,1,02250,1,99,9,99,9",,,"99999,9,09646,1","2,1,006,1,+010,1","60,1",SYN094AAXX  09001 57328 11840 80902 10228 20224 39646 40035 52006 60021 76060 885// 333 00153 70283;,
07-09T03:00:00,4,31.2,107.5,344.0,"DA XIAN, CH",FM-12,99999,V020,"040,1,N,0030,1","02100,1,9,N","003000,1,N,1","+0137,1","+0124,1","10043,1",,,"6,1,03,1",,,"08,99,1,08,1,05,1,02250,1,99,9,99,9",,,"99999,9,09641,1","2,1,001,1,+999,9","60,1",SYN066AAXX  09031 57328 41830 80403 10137 20124 40043 52001 76060 885//;,Q01+999990APOSP 
07-09T06:00:00,4,31.2,107.5,344.0,"DA XIAN, CH",FM-12,99999,V020,"040,1,N,0020,1","02100,1,9,N","007000,1,N,1","+0230,1","+0223,1","10035,1","06,0099,9,1",,"6,1,06,1",,,"08,99,1,08,1,05,1,02250,1,99,9,99,9",,"999,N,+0225,1","99999,9,09645,1","7,1,002,1,+999,9","60,1",SYN088AAXX  09061 57328 11857 80402 10230 20223 39645 40035 57002 60101 76060 885// 333 20225;,
07-09T09:00:00,4,31.2,107.5,344.0,"DA XIAN, CH",FM-12,99999,V020,"040,1,N,0020,1","02100,1,9,N","004000,1,N,1","+0223,1","+0219,1","10027,1",,,"6,1,03,1","6,1,03,1",,"08,99,1,08,1,05,1,02250,1,99,9,99,9",,,"99999,9,09637,1","7,1,008,1,+999,9","60,1",SYN066AAXX  09091 57328 41840 80402 10223 20219 40027 57008 76066 885//;,Q01+999990APOSP 
07-09T12:00:00,4,31.2,107.5,344.0,"DA XIAN, CH",FM-12,99999,V020,"040,1,N,0020,1","02100,1,9,N","028000,1,N,1","+0224,1","+0207,1","10027,1","06,0099,9,1",,"6,1,06,1",,,"08,99,1,08,1,05,1,02250,1,99,9,99,9",,,"99999,9,09637,1","4,1,000,1,+999,9","00,1",SYN078AAXX  09121 57328 11878 80402 10224 20207 39637 40027 54000 60101 70060 885//;,
07-09T15:00:00,4,31.2,107.5,344.0,"DA XIAN, CH",FM-12,99999,V020,"040,1,N,0010,1","02100,1,9,N","007000,1,N,1","+0225,1","+0210,1","10037,1",,,,,,"08,99,1,08,1,05,1,02250,1,99,9,99,9",,,"99999,9,09647,1","2,1,010,1,+999,9","10,1",SYN066AAXX  09151 57328 41857 80401 10225 20210 40037 52010 71000 885//;,Q01+999990APOSP 
07-09T18:00:00,4,31.2,107.5,344.0,"DA XIAN, CH",FM-12,99999,V020,"040,1,N,0020,1","02100,1,9,N","004000,1,N,1","+0221,1","+0211,1","10024,1","06,0000,9,1",,,,,"08,99,1,08,1,05,1,02250,1,99,9,99,9",,"999,M,+0241,1","99999,9,09634,1","7,1,013,1,+999,9","10,1",SYN082AAXX  09181 57328 31840 80402 10221 20211 39634 40024 57013 71000 885// 333 10241;,Q01  00002PRCP06
07-09T21:00:00,4,31.2,107.5,344.0,"DA XIAN, CH",FM-12,99999,V020,"070,1,N,0030,1","02100,1,9,N","004000,1,N,1","+0220,1","+0211,1","10022,1","24,0218,9,1",,,,,"08,99,1,08,1,05,1,02250,1,99,9,99,9",,,"99999,9,09631,1","7,1,002,1,+999,9","60,1",SYN076AAXX  09211 57328 41840 80703 10220 20211 40022 57002 76000 885// 333 70219;,Q01+999990APOSP 
07-10T00:00:00,4,31.2,107.5,344.0,"DA XIAN, CH",FM-12,99999,V020,"040,1,N,0010,1","02100,1,9,N","025000,1,N,1","+0221,1","+0203,1","10031,1","06,9999,9,9","24,0198,9,1","6,1,06,1",,,"08,99,1,08,1,05,1,02250,1,99,9,99,9",,,"99999,9,09640,1","2,1,008,1,-010,1","60,1",SYN094AAXX  10001 57328 11875 80401 10221 20203 39640 40031 52008 69901 76060 885// 333 05151 70198;,
07-10T03:00:00,4,31.2,107.5,344.0,"DA XIAN, CH",FM-12,99999,V020,"040,1,N,0040,1","02100,1,9,N","030000,1,N,1","+0243,1","+0201,1","10034,1",,,,,,"08,99,1,08,1,05,1,02250,1,99,9,99,9",,,"99999,9,09646,1","2,1,005,1,+999,9",,SYN060AAXX  10031 57328 42880 80404 10243 20201 40034 52005 885//;,Q01+999990APOSP 
07-10T06:00:00,4,31.2,107.5,344.0,"DA XIAN, CH",FM-12,99999,V020,"020,1,N,0020,1","01200,1,9,N","030000,1,N,1","+0279,1","+0215,1","10016,1","06,0000,2,1",,,,,"07,99,1,06,1,01,1,01250,1,04,1,00,1",,"999,N,+0217,1","99999,9,09629,1","7,1,016,1,+999,9",,SYN076AAXX  10061 57328 32680 70202 10279 20215 39629 40016 57016 86140 333 20217;,
07-10T09:00:00,4,31.2,107.5,344.0,"DA XIAN, CH",FM-12,99999,V020,"110,1,N,0020,1","01500,1,9,N","030000,1,N,1","+0282,1","+0212,1","10002,1",,,,,,"07,99,1,07,1,08,1,01250,1,99,9,99,9",,,"99999,9,09620,1","7,1,013,1,+999,9",,SYN060AAXX  10091 57328 42680 71102 10282 20212 40002 57013 878//;,Q01+999990APOSP 
07-10T12:00:00,4,31.2,107.5,344.0,"DA XIAN, CH",FM-12,99999,V020,"040,1,N,0030,1","02100,1,9,N","030000,1,N,1","+0265,1","+0202,1","10009,1","06,0000,9,1",,,,,"08,99,1,08,1,05,1,02250,1,99,9,99,9",,,"99999,9,09622,1","2,1,006,1,+999,9",,SYN066AAXX  10121 57328 32880 80403 10265 20202 39622 40009 52006 885//;,Q01  00002PRCP06
07-10T15:00:00,4,31.2,107.5,344.0,"DA XIAN, CH",FM-12,99999,V020,"290,1,N,0020,1","02100,1,9,N","030000,1,N,1","+0240,1","+0212,1","10027,1",,,"6,1,03,1",,,"08,99,1,08,1,05,1,02250,1,99,9,99,9",,,"99999,9,09639,1","2,1,017,1,+999,9","60,1",SYN066AAXX  10151 57328 41880 82902 10240 20212 40027 52017 76060 885//;,Q01+999990APOSP 
07-10T18:00:00,4,31.2,107.5,344.0,"DA XIAN, CH",FM-12,99999,V020,"040,1,N,0020,1","02100,1,9,N","025000,1,N,1","+0224,1","+0215,1","10013,1","06,0010,9,1",,"6,1,06,1",,,"08,99,1,08,1,05,1,02250,1,99,9,99,9",,"999,M,+0293,1","99999,9,09627,1","7,1,012,1,+999,9","60,1",SYN088AAXX  10181 57328 11875 80402 10224 20215 39627 40013 57012 69991 76060 885// 333 10293;,
07-10T21:00:00,4,31.2,107.5,344.0,"DA XIAN, CH",FM-12,99999,V020,"070,1,N,0020,1","02100,1,9,N","011000,1,N,1","+0226,1","+0203,1","10000,1","24,0010,9,1",,"6,1,03,1",,,"08,99,1,08,1,05,1,02250,1,99,9,99,9",,,"99999,9,09611,1","7,1,012,1,+999,9","00,1",SYN076AAXX  10211 57328 41861 80702 10226 20203 40000 57012 70060 885// 333 70009;,Q01+999990APOSP 
07-11T00:00:00,4,31.2,107.5,344.0,"DA XIAN, CH",FM-12,99999,V020,"040,1,N,0020,1","02100,1,9,N","030000,1,N,1","+0229,1","+0205,1","10006,1","06,9999,9,9","24,0010,9,1","6,1,06,1",,,"08,99,1,08,1,05,1,02250,1,99,9,99,9",,,"99999,9,09619,1","2,1,004,1,-020,1","00,1",SYN094AAXX  11001 57328 11880 80402 10229 20205 39619 40006 52004 69901 70060 885// 333 05201 70009;,
07-11T03:00:00,4,31.2,107.5,344.0,"DA XIAN, CH",FM-12,99999,V020,"020,1,N,0020,1","02100,1,9,N","030000,1,N,1","+0253,1","+0212,1","10000,1",,,"6,1,03,1",,,"08,99,1,08,1,05,1,02250,1,99,9,99,9",,,"99999,9,09615,1","7,1,005,1,+999,9","21,1",SYN066AAXX  11031 57328 41880 80202 10253 20212 40000 57005 72160 885//;,Q01+999990APOSP 
07-11T06:00:00,4,31.2,107.5,344.0,"DA XIAN, CH",FM-12,99999,V020,"090,1,N,0010,1","02100,1,9,N","012000,1,N,1","+0247,1","+0227,1","10000,1","06,0020,9,1",,"6,1,06,1",,,"08,99,1,08,1,05,1,02250,1,99,9,99,9",,"999,N,+0224,1","99999,9,09612,1","7,1,002,1,+999,9","60,1",SYN088AAXX  11061 57328 11862 80901 10247 20227 39612 40000 57002 60021 76060 885// 333 20224;,
07-11T09:00:00,4,31.2,107.5,344.0,"DA XIAN, CH",FM-12,99999,V020,"040,1,N,0010,1","99999,9,9,N","004000,1,N,1","+0233,1","+0224,1","09997,1",,,"6,1,03,1","6,1,03,1",,"08,99,1,08,1,00,1,99999,9,07,1,99,9",,,"99999,9,09609,1","7,1,003,1,+999,9","21,1",SYN066AAXX  11091 57328 41940 80401 10233 20224 49997 57003 72166 8807/;,Q01+999990APOSP 
07-11T12:00:00,4,31.2,107.5,344.0,"DA XIAN, CH",FM-12,99999,V020,"040,1,N,0020,1","02100,1,9,N","004000,1,N,1","+0235,1","+0229,1","09999,1","06,0119,9,1",,"6,1,06,1",,,"08,99,1,08,1,05,1,02250,1,99,9,99,9",,,"99999,9,09611,1","2,1,002,1,+999,9","21,1",SYN078AAXX  11121 57328 11840 80402 10235 20229 39611 49999 52002 60121 72160 885//;,
07-11T15:00:00,4,31.2,107.5,344.0,"DA XIAN, CH",FM-12,99999,V020,"040,1,N,0010,1","02100,1,9,N","004000,1,N,1","+0233,1","+0221,1","10009,1",,,"6,1,03,1",,,"08,99,1,08,1,05,1,02250,1,99,9,99,9",,,"99999,9,09621,1","2,1,011,1,+999,9","10,1",SYN066AAXX  11151 57328 41840 80401 10233 20221 40009 52011 71060 885//;,Q01+999990APOSP 
07-11T18:00:00,4,31.2,107.5,344.0,"DA XIAN, CH",FM-12,99999,V020,"110,1,N,0010,1","01500,1,9,N","003000,1,N,1","+0233,1","+0224,1","10012,1","06,9999,9,9",,"6,1,06,1",,,"08,99,1,08,1,09,1,01750,1,99,9,99,9",,"999,M,+0262,1","99999,9,09624,1","2,1,002,1,+999,9","95,1",SYN088AAXX  11181 57328 11730 81101 10233 20224 39624 40012 52002 69901 79560 889// 333 10262;,
07-11T21:00:00,4,31.2,107.5,344.0,"DA XIAN, CH",FM-12,99999,V020,"020,1,N,0030,1","01500,1,9,N","012000,1,N,1","+0227,1","+0224,1","10006,1","24,0470,9,1",,"9,1,03,1","8,1,03,1",,"08,99,1,08,1,09,1,01750,1,99,9,99,9",,,"99999,9,09617,1","7,1,007,1,+999,9","95,1",SYN076AAXX  11211 57328 41762 80203 10227 20224 40006 57007 79598 889// 333 70471;,Q01+999990APOSP 
07-12T00:00:00,4,31.2,107.5,344.0,"DA XIAN, CH",FM-12,99999,V020,"040,1,N,0020,1","01500,1,9,N","003000,1,N,1","+0227,1","+0224,1","10019,1","06,0419,9,1","24,0561,9,1","9,1,06,1","8,1,06,1",,"08,99,1,08,1,09,1,01750,1,99,9,99,9",,,"99999,9,09630,1","2,1,013,1,+010,1","95,1",SYN094AAXX  12001 57328 11730 80402 10227 20224 39630 40019 52013 60421 79598 889// 333 00100 70562;,
07-12T03:00:00,4,31.2,107.5,344.0,"DA XIAN, CH",FM-12,99999,V020,"999,9,C,0000,1","01500,1,9,N","003000,1,N,1","+0229,1","+0226,1","10034,1",,,"9,1,03,1","8,1,03,1",,"08,99,1,08,1,09,1,01750,1,99,9,99,9",,,"99999,9,09644,1","2,1,014,1,+999,9","95,1",SYN066AAXX  12031 57328 41730 80000 10229 20226 40034 52014 79598 889//;,Q01+999990APOSP 
07-12T06:00:00,4,31.2,107.5,344.0,"DA XIAN, CH",FM-12,99999,V020,"999,9,C,0000,1","00420,1,9,N","003000,1,N,1","+0231,1","+0230,1","10027,1","06,0259,9,1",,"9,1,06,1","8,1,06,1",,"08,99,1,08,1,09,1,00450,1,99,9,99,9",,"999,N,+0225,1","99999,9,09638,1","7,1,006,1,+999,9","95,1",SYN088AAXX  12061 57328 11430 80000 10231 20230 39638 40027 57006 60261 79598 889// 333 20225;,
07-12T09:00:00,4,31.2,107.5,344.0,"DA XIAN, CH",FM-12,99999,V020,"040,1,N,0010,1","01500,1,9,N","002000,1,N,1","+0234,1","+0231,1","10016,1",,,"9,1,03,1","8,1,03,1",,"08,99,1,08,1,09,1,01750,1,99,9,99,9",,,"99999,9,09627,1","7,1,011,1,+999,9","10,1",SYN066AAXX  12091 57328 41720 80401 10234 20231 40016 57011 71098 889//;,Q01+999990APOSP 
07-12T12:00:00,4,31.2,107.5,344.0,"DA XIAN, CH",FM-12,99999,V020,"040,1,N,0020,1","99999,9,9,N","007000,1,N,1","+0241,1","+0229,1","10008,1","06,0003,9,1",,"9,1,06,1","8,1,06,1",,"07,99,1,07,1,00,1,99999,9,04,1,99,9",,,"99999,9,09620,1","7,1,007,1,+999,9","10,1",SYN078AAXX  12121 57328 11957 70402 10241 20229 39620 40008 57007 69931 71098 8704/;,
07-12T15:00:00,4,31.2,107.5,344.0,"DA XIAN, CH",FM-12,99999,V020,"040,1,N,0010,1","02100,1,9,N","008000,1,N,1","+0235,1","+0229,1","10019,1",,,,,,"07,99,1,07,1,05,1,02250,1,99,9,99,9",,,"99999,9,09630,1","2,1,010,1,+999,9","10,1",SYN066AAXX  12151 57328 41858 70401 10235 20229 40019 52010 71000 875//;,Q01+999990APOSP 
07-12T18:00:00,4,31.2,107.5,344.0,"DA XIAN, CH",FM-12,99999,V020,"040,1,N,0020,1","99999,9,9,N","008000,1,N,1","+0232,1","+0228,1","10006,1","06,0000,9,1",,,,,"07,99,1,07,1,00,1,99999,9,04,1,99,9",,"999,M,+0242,1","99999,9,09617,1","7,1,013,1,+999,9","10,1",SYN082AAXX  12181 57328 31958 70402 10232 20228 39617 40006 57013 71000 8704/ 333 10242;,Q01  00002PRCP06
07-12T21:00:00,4,31.2,107.5,344.0,"DA XIAN, CH",FM-12,99999,V020,"999,9,C,0000,1","99999,9,9,N","004000,1,N,1","+0231,1","+0225,1","09999,1","24,0358,9,1",,,,,"08,99,1,08,1,00,1,99999,9,07,1,99,9",,,"99999,9,09611,1","7,1,006,1,+999,9","10,1",SYN076AAXX  12211 57328 41940 80000 10231 20225 49999 57006 71000 8807/ 333 70358;,Q01+999990APOSP 
07-13T00:00:00,4,31.2,107.5,344.0,"DA XIAN, CH",FM-12,99999,V020,"999,9,C,0000,1","99999,9,9,N","003000,1,N,1","+0240,1","+0231,1","10008,1","06,0000,9,1","24,0267,9,1",,,,"07,99,1,00,1,00,1,99999,9,00,1,02,1",,,"99999,9,09621,1","2,1,010,1,-010,1","10,1",SYN088AAXX  13001 57328 31930 70000 10240 20231 39621 40008 52010 71000 80002 333 05101 70267;,Q01  00002PRCP06
07-13T03:00:00,4,31.2,107.5,344.0,"DA XIAN, CH",FM-12,99999,V020,"040,1,N,0030,1","99999,9,9,N","015000,1,N,1","+0290,1","+0241,1","10007,1",,,,,,"08,99,1,00,1,00,1,99999,9,00,1,07,1",,,"99999,9,09626,1","2,1,001,1,+999,9",,SYN060AAXX  13031 57328 42965 80403 10290 20241 40007 52001 80007;,Q01+999990APOSP 
07-13T06:00:00,4,31.2,107.5,344.0,"DA XIAN, CH",FM-12,99999,V020,"110,1,N,0020,1","09000,1,9,N","030000,1,N,1","+0333,1","+0235,1","09990,1","06,0000,9,1",,,,,"06,99,1,02,1,01,1,01250,1,00,1,02,1",,"999,N,+0230,1","99999,9,09609,1","7,1,013,1,+999,9",,SYN076AAXX  13061 57328 32680 61102 10333 20235 39609 49990 57013 82102 333 20230;,Q01  00002PRCP06
07-13T09:00:00,4,31.2,107.5,344.0,"DA XIAN, CH",FM-12,99999,V020,"040,1,N,0030,1","03600,1,9,N","030000,1,N,1","+0325,1","+0259,1","09983,1",,,,,,"07,99,1,01,1,01,1,01250,1,04,1,99,9",,,"99999,9,09607,1","7,1,008,1,+999,9",,SYN060AAXX  13091 57328 42680 70403 10325 20259 49983 57008 8114/;,Q01+999990APOSP 
07-13T12:00:00,4,31.2,107.5,344.0,"DA XIAN, CH",FM-12,99999,V020,"040,1,N,0020,1","02100,1,9,N","030000,1,N,1","+0297,1","+0260,1","09989,1","06,0000,9,1",,,,,"08,99,1,06,1,05,1,02250,1,07,1,99,9",,,"99999,9,09606,1","2,1,005,1,+999,9",,SYN066AAXX  13121 57328 32880 80402 10297 20260 39606 49989 52005 8657/;,Q01  00002PRCP06
07-13T15:00:00,4,31.2,107.5,344.0,"DA XIAN, CH",FM-12,99999,V020,"040,1,N,0020,1","02100,1,9,N","020000,1,N,1","+0278,1","+0256,1","10000,1",,,,,,"08,99,1,08,1,05,1,02250,1,99,9,99,9",,,"99999,9,09618,1","2,1,012,1,+999,9",,SYN060AAXX  13151 57328 42870 80402 10278 20256 40000 52012 885//;,Q01+999990APOSP 
07-13T18:00:00,4,31.2,107.5,344.0,"DA XIAN, CH",FM-12,99999,V020,"020,1,N,0020,1","99999,9,9,N","018000,1,N,1","+0269,1","+0251,1","09995,1","06,0000,9,1",,,,,"06,99,1,06,1,00,1,99999,9,04,1,00,1",,"999,M,+0343,1","99999,9,09616,1","7,1,002,1,+999,9",,SYN076AAXX  13181 57328 32968 60202 10269 20251 39616 49995 57002 86040 333 10343;,Q01  00002PRCP06
07-13T21:00:00,4,31.2,107.5,344.0,"DA XIAN, CH",FM-12,99999,V020,"070,1,N,0020,1","99999,9,9,N","014000,1,N,1","+0261,1","+0250,1","09996,1",,,,,,"08,99,1,08,1,00,1,99999,9,07,1,99,9",,,"99999,9,09612,1","4,1,000,1,+999,9",,SYN060AAXX  13211 57328 42964 80702 10261 20250 49996 54000 8807/;,Q01+999990APOSP 
07-14T00:00:00,4,31.2,107.5,344.0,"DA XIAN, CH",FM-12,99999,V020,"360,1,N,0010,1","99999,9,9,N","015000,1,N,1","+0265,1","+0248,1","10007,1","06,0000,9,1",,,,,"08,99,1,08,1,00,1,99999,9,07,1,99,9",,,"99999,9,09625,1","2,1,009,1,+000,1",,SYN076AAXX  14001 57328 32965 83601 10265 20248 39625 40007 52009 8807/ 333 00003;,Q01  00002PRCP06
07-14T03:00:00,4,31.2,107.5,344.0,"DA XIAN, CH",FM-12,99999,V020,"020,1,N,0020,1","99999,9,9,N","015000,1,N,1","+0311,1","+0247,1","10007,1",,,,,,"07,99,1,00,1,00,1,99999,9,00,1,02,1",,,"99999,9,09628,1","2,1,001,1,+999,9",,SYN060AAXX  14031 57328 42965 70202 10311 20247 40007 52001 80002;,Q01+999990APOSP 
07-14T06:00:00,4,31.2,107.5,344.0,"DA XIAN, CH",FM-12,99999,V020,"250,1,N,0020,1","01200,1,9,N","030000,1,N,1","+0335,1","+0234,1","09990,1","06,0000,9,1",,,,,"05,99,1,05,1,01,1,01250,1,00,1,00,1",,"999,N,+0257,1","99999,9,09611,1","7,1,015,1,+999,9",,SYN076AAXX  14061 57328 32680 52502 10335 20234 39611 49990 57015 85100 333 20257;,Q01  00002PRCP06
07-14T09:00:00,4,31.2,107.5,344.0,"DA XIAN, CH",FM-12,99999,V020,"040,1,N,0020,1","01200,1,9,N","030000,1,N,1","+0333,1","+0250,1","09978,1",,,,,,"07,99,1,07,1,01,1,01250,1,00,1,00,1",,,"99999,9,09603,1","7,1,012,1,+999,9",,SYN060AAXX  14091 57328 42680 70402 10333 20250 49978 57012 87100;,Q01+999990APOSP 
07-14T12:00:00,4,31.2,107.5,344.0,"DA XIAN, CH",FM-12,99999,V020,"040,1,N,0030,1","99999,9,9,N","025000,1,N,1","+0312,1","+0263,1","09982,1","06,0000,9,1",,,,,"07,99,1,00,1,00,1,99999,9,00,1,02,1",,,"99999,9,09602,1","2,1,003,1,+999,9",,SYN066AAXX  14121 57328 32975 70403 10312 20263 39602 49982 52003 80002;,Q01  00002PRCP06
07-14T15:00:00,4,31.2,107.5,344.0,"DA XIAN, CH",FM-12,99999,V020,"040,1,N,0020,1","22000,1,9,N","030000,1,N,1","+0285,1","+0260,1","09993,1",,,,,"00,1,+99999,9,99,9","00,99,1,00,1,00,1,99999,9,00,1,00,1",,,"99999,9,09612,1","2,1,011,1,+999,9",,SYN054AAXX  14151 57328 42980 00402 10285 20260 49993 52011;,Q01+999990APOSP 
07-14T18:00:00,4,31.2,107.5,344.0,"DA XIAN, CH",FM-12,99999,V020,"040,1,N,0020,1","02100,1,9,N","030000,1,N,1","+0276,1","+0249,1","09983,1","06,0000,9,1",,,,,"07,99,1,07,1,05,1,02250,1,99,9,99,9",,"999,M,+0342,1","99999,9,09605,1","7,1,008,1,+999,9",,SYN076AAXX  14181 57328 32880 70402 10276 20249 39605 49983 57008 875// 333 10342;,Q01  00002PRCP06
07-14T21:00:00,4,31.2,107.5,344.0,"DA XIAN, CH",FM-12,99999,V020,"040,1,N,0020,1","02100,1,9,N","012000,1,N,1","+0271,1","+0246,1","09989,1",,,,,,"07,99,1,07,1,05,1,02250,1,99,9,99,9",,,"99999,9,09606,1","2,1,005,1,+999,9",,SYN060AAXX  14211 57328 42862 70402 10271 20246 49989 52005 875//;,Q01+999990APOSP 
07-15T00:00:00,4,31.2,107.5,344.0,"DA XIAN, CH",FM-12,99999,V020,"360,1,N,0020,1","99999,9,9,N","025000,1,N,1","+0285,1","+0249,1","09988,1","06,0000,9,1",,,,,"06,99,1,06,1,00,1,99999,9,04,1,00,1",,,"99999,9,09609,1","7,1,001,1,+002,1",,SYN076AAXX  15001 57328 32975 63602 10285 20249 39609 49988 57001 86040 333 05202;,Q01  00002PRCP06
07-15T03:00:00,4,31.2,107.5,344.0,"DA XIAN, CH",FM-12,99999,V020,"040,1,N,0010,1","99999,9,9,N","030000,1,N,1","+0323,1","+0251,1","09984,1",,,,,,"06,99,1,00,1,00,1,99999,9,00,1,01,1",,,"99999,9,09608,1","7,1,004,1,+999,9",,SYN060AAXX  15031 57328 42980 60401 10323 20251 49984 57004 80001;,Q01+999990APOSP 
07-15T06:00:00,4,31.2,107.5,344.0,"DA XIAN, CH",FM-12,99999,V020,"140,1,N,0030,1","09000,1,9,N","030000,1,N,1","+0349,1","+0250,1","09970,1","06,0000,9,1",,,,,"07,99,1,02,1,01,1,01250,1,00,1,02,1",,"999,N,+0265,1","99999,9,09593,1","7,1,012,1,+999,9",,SYN076AAXX  15061 57328 32680 71403 10349 20250 39593 49970 57012 82102 333 20265;,Q01  00002PRCP06
07-15T09:00:00,4,31.2,107.5,344.0,"DA XIAN, CH",FM-12,99999,V020,"090,1,N,0020,1","09000,1,9,N","030000,1,N,1","+0346,1","+0248,1","09965,1",,,,,,"07,99,1,02,1,01,1,01250,1,00,1,02,1",,,"99999,9,09592,1","7,1,005,1,+999,9",,SYN060AAXX  15091 57328 42680 70902 10346 20248 49965 57005 82102;,Q01+999990APOSP 
07-15T12:00:00,4,31.2,107.5,344.0,"DA XIAN, CH",FM-12,99999,V020,"999,9,C,0000,1","99999,9,9,N","030000,1,N,1","+0322,1","+0274,1","09973,1","06,0000,9,1",,,,,"07,99,1,07,1,00,1,99999,9,04,1,99,9",,,"99999,9,09595,1","2,1,007,1,+999,9",,SYN066AAXX  15121 57328 32980 70000 10322 20274 39595 49973 52007 8704/;,Q01  00002PRCP06
07-15T15:00:00,4,31.2,107.5,344.0,"DA XIAN, CH",FM-12,99999,V020,"040,1,N,0040,1","22000,1,9,N","020000,1,N,1","+0289,1","+0264,1","09986,1",,,,,,"04,99,1,01,1,09,1,01750,1,04,1,00,1",,,"99999,9,09606,1","2,1,013,1,+999,9","13,1",SYN066AAXX  15151 57328 41770 40404 10289 20264 49986 52013 71300 81940;,Q01+999990APOSP 
07-15T18:00:00,4,31.2,107.5,344.0,"DA XIAN, CH",FM-12,99999,V020,"040,1,N,0030,1","03600,1,9,N","011000,1,N,1","+0279,1","+0261,1","09984,1","06,0000,9,1",,,,,"07,99,1,01,1,09,1,01750,1,04,1,99,9",,"999,M,+0357,1","99999,9,09607,1","7,1,001,1,+999,9","13,1",SYN082AAXX  15181 57328 31761 70403 10279 20261 39607 49984 57001 71300 8194/ 333 10357;,Q01  00002PRCP06
07-15T21:00:00,4,31.2,107.5,344.0,"DA XIAN, CH",FM-12,99999,V020,"360,1,N,0010,1","99999,9,9,N","015000,1,N,1","+0275,1","+0256,1","09984,1",,,,,,"07,99,1,07,1,00,1,99999,9,04,1,99,9",,,"99999,9,09602,1","7,1,001,1,+999,9",,SYN060AAXX  15211 57328 42965 73601 10275 20256 49984 57001 8704/;,Q01+999990APOSP 
07-16T00:00:00,4,31.2,107.5,344.0,"DA XIAN, CH",FM-12,99999,V020,"040,1,N,0020,1","03600,1,9,N","011000,1,N,1","+0272,1","+0250,1","10000,1","06,0000,9,1",,,,,"08,99,1,01,1,01,1,00800,1,07,1,99,9",,,"99999,9,09620,1","2,1,014,1,+001,1",,SYN076AAXX  16001 57328 32561 80402 10272 20250 39620 40000 52014 8117/ 333 00151;,Q01  00002PRCP06
07-16T03:00:00,4,31.2,107.5,344.0,"DA XIAN, CH",FM-12,99999,V020,"040,1,N,0030,1","99999,9,9,N","012000,1,N,1","+0319,1","+0251,1","10005,1",,,,,,"07,99,1,07,1,00,1,99999,9,04,1,99,9",,,"99999,9,09627,1","2,1,006,1,+999,9",,SYN060AAXX  16031 57328 42962 70403 10319 20251 40005 52006 8704/;,Q01+999990APOSP 
07-16T06:00:00,4,31.2,107.5,344.0,"DA XIAN, CH",FM-12,99999,V020,"040,1,N,0060,1","99999,9,9,N","030000,1,N,1","+0302,1","+0245,1","10004,1","06,0000,9,1",,,,,"08,99,1,08,1,00,1,99999,9,07,1,99,9",,"999,N,+0271,1","99999,9,09623,1","7,1,003,1,+999,9",,SYN076AAXX  16061 57328 32980 80406 10302 20245 39623 40004 57003 8807/ 333 20271;,Q01  00002PRCP06
07-16T09:00:00,4,31.2,107.5,344.0,"DA XIAN, CH",FM-12,99999,V020,"070,1,N,0030,1","00750,1,9,N","025000,1,N,1","+0246,1","+0237,1","10027,1",,,"9,1,03,1","8,1,03,1",,"08,99,1,08,1,09,1,00800,1,99,9,99,9",,,"99999,9,09640,1","2,1,018,1,+999,9","95,1",SYN066AAXX  16091 57328 41575 80703 10246 20237 40027 52018 79598 889//;,Q01+999990APOSP 
07-16T12:00:00,4,31.2,107.5,344.0,"DA XIAN, CH",FM-12,99999,V020,"040,1,N,0020,1","02100,1,9,N","030000,1,N,1","+0243,1","+0230,1","10037,1","06,0140,9,1",,"9,1,06,1","8,1,06,1",,"08,99,1,08,1,04,1,02250,1,99,9,99,9",,,"99999,9,09651,1","2,1,010,1,+999,9","80,1",SYN078AAXX  16121 57328 11880 80402 10243 20230 39651 40037 52010 60141 78098 884//;,
07-16T15:00:00,4,31.2,107.5,344.0,"DA XIAN, CH",FM-12,99999,V020,"090,1,N,0010,1","02100,1,9,N","030000,1,N,1","+0237,1","+0224,1","10050,1",,,"8,1,03,1",,,"08,99,1,08,1,05,1,02250,1,99,9,99,9",,,"99999,9,09661,1","2,1,015,1,+999,9","00,1",SYN066AAXX  16151 57328 41880 80901 10237 20224 40050 52015 70080 885//;,Q01+999990APOSP 
07-16T18:00:00,4,31.2,107.5,344.0,"DA XIAN, CH",FM-12,99999,V020,"070,1,N,0010,1","99999,9,9,N","025000,1,N,1","+0237,1","+0218,1","10044,1","06,9999,9,9",,"8,1,06,1",,,"08,99,1,08,1,00,1,99999,9,07,1,99,9",,"999,M,+0325,1","99999,9,09659,1","7,1,007,1,+999,9","00,1",SYN088AAXX  16181 57328 11975 80701 10237 20218 39659 40044 57007 69901 70080 8807/ 333 10325;,
07-16T21:00:00,4,31.2,107.5,344.0,"DA XIAN, CH",FM-12,99999,V020,"040,1,N,0010,1","99999,9,9,N","025000,1,N,1","+0233,1","+0223,1","10046,1","24,0135,9,1",,,,,"08,99,1,08,1,00,1,99999,9,07,1,99,9",,,"99999,9,09656,1","7,1,002,1,+999,9",,SYN070AAXX  16211 57328 42975 80401 10233 20223 40046 57002 8807/ 333 70135;,Q01+999990APOSP 
07-17T00:00:00,4,31.2,107.5,344.0,"DA XIAN, CH",FM-12,99999,V020,"999,9,C,0000,1","99999,9,9,N","012000,1,N,1","+0237,1","+0219,1","10064,1","06,0000,9,1","24,0135,9,1",,,,"07,99,1,07,1,00,1,99999,9,04,1,00,1",,,"99999,9,09674,1","2,1,017,1,+050,1",,SYN082AAXX  17001 57328 32962 70000 10237 20219 39674 40064 52017 87040 333 00554 70135;,Q01  00002PRCP06
07-17T03:00:00,4,31.2,107.5,344.0,"DA XIAN, CH",FM-12,99999,V020,"270,1,N,0010,1","22000,1,9,N","012000,1,N,1","+0283,1","+0225,1","10060,1",,,,,,"02,99,1,02,1,01,1,01250,1,00,1,00,1",,,"99999,9,09676,1","7,1,001,1,+999,9",,SYN060AAXX  17031 57328 42662 22701 10283 20225 40060 57001 82100;,Q01+999990APOSP 
07-17T06:00:00,4,31.2,107.5,344.0,"DA XIAN, CH",FM-12,99999,V020,"220,1,N,0020,1","22000,1,9,N","030000,1,N,1","+0307,1","+0230,1","10049,1","06,0000,9,1",,,,,"04,99,1,04,1,01,1,01250,1,00,1,00,1",,"999,N,+0231,1","99999,9,09664,1","7,1,009,1,+999,9",,SYN076AAXX  17061 57328 32680 42202 10307 20230 39664 40049 57009 84100 333 20231;,Q01  00002PRCP06
07-17T09:00:00,4,31.2,107.5,344.0,"DA XIAN, CH",FM-12,99999,V020,"040,1,N,0010,1","22000,1,9,N","030000,1,N,1","+0327,1","+0229,1","10037,1",,,,,,"01,99,1,01,1,01,1,01250,1,00,1,00,1",,,"99999,9,09659,1","7,1,011,1,+999,9",,SYN060AAXX  17091 57328 42680 10401 10327 20229 40037 57011 81100;,Q01+999990APOSP 
07-17T12:00:00,4,31.2,107.5,344.0,"DA XIAN, CH",FM-12,99999,V020,"999,9,C,0000,1","22000,1,9,N","030000,1,N,1","+0307,1","+0233,1","10033,1","06,0000,9,1",,,,"00,1,+99999,9,99,9","00,99,1,00,1,00,1,99999,9,00,1,00,1",,,"99999,9,09649,1","7,1,004,1,+999,9",,SYN060AAXX  17121 57328 32980 00000 10307 20233 39649 40033 57004;,Q01  00002PRCP06
07-17T15:00:00,4,31.2,107.5,344.0,"DA XIAN, CH",FM-12,99999,V020,"040,1,N,0010,1","22000,1,9,N","020000,1,N,1","+0262,1","+0244,1","10046,1",,,,,"00,1,+99999,9,99,9","00,99,1,00,1,00,1,99999,9,00,1,00,1",,,"99999,9,09660,1","2,1,012,1,+999,9",,SYN054AAXX  17151 57328 42970 00401 10262 20244 40046 52012;,Q01+999990APOSP 
07-17T18:00:00,4,31.2,107.5,344.0,"DA XIAN, CH",FM-12,99999,V020,"040,1,N,0030,1","22000,1,9,N","012000,1,N,1","+0247,1","+0238,1","10038,1","06,0000,9,1",,,,"00,1,+99999,9,99,9","00,99,1,00,1,00,1,99999,9,00,1,00,1",,"999,M,+0327,1","99999,9,09654,1","7,1,007,1,+999,9",,SYN070AAXX  17181 57328 32962 00403 10247 20238 39654 40038 57007 333 10327;,Q01  00002PRCP06
07-17T21:00:00,4,31.2,107.5,344.0,"DA XIAN, CH",FM-12,99999,V020,"040,1,N,0020,1","22000,1,9,N","011000,1,N,1","+0241,1","+0232,1","10031,1",,,,,"00,1,+99999,9,99,9","00,99,1,00,1,00,1,99999,9,00,1,00,1",,,"99999,9,09643,1","7,1,006,1,+999,9",,SYN054AAXX  17211 57328 42961 00402 10241 20232 40031 57006;,Q01+999990APOSP 
07-18T00:00:00,4,31.2,107.5,344.0,"DA XIAN, CH",FM-12,99999,V020,"040,1,N,0020,1","22000,1,9,N","008000,1,N,1","+0255,1","+0235,1","10036,1","06,0000,9,1",,,,,"02,99,1,02,1,00,1,99999,9,04,1,00,1",,,"99999,9,09653,1","2,1,005,1,+002,1","10,1",SYN082AAXX  18001 57328 31958 20402 10255 20235 39653 40036 52005 71000 82040 333 05202;,Q01  00002PRCP06
07-18T03:00:00,4,31.2,107.5,344.0,"DA XIAN, CH",FM-12,99999,V020,"290,1,N,0020,1","22000,1,9,N","015000,1,N,1","+0303,1","+0241,1","10030,1",,,,,,"04,99,1,01,1,01,1,01250,1,04,1,00,1",,,"99999,9,09650,1","7,1,006,1,+999,9",,SYN060AAXX  18031 57328 42665 42902 10303 20241 40030 57006 81140;,Q01+999990APOSP 
07-18T06:00:00,4,31.2,107.5,344.0,"DA XIAN, CH",FM-12,99999,V020,"360,1,N,0020,1","03600,1,9,N","030000,1,N,1","+0332,1","+0233,1","10011,1","06,0000,9,1",,,,,"06,99,1,01,1,01,1,01250,1,04,1,00,1",,"999,N,+0235,1","99999,9,09630,1","7,1,017,1,+999,9",,SYN076AAXX  18061 57328 32680 63602 10332 20233 39630 40011 57017 81140 333 20235;,Q01  00002PRCP06
07-18T09:00:00,4,31.2,107.5,344.0,"DA XIAN, CH",FM-12,99999,V020,"020,1,N,0030,1","22000,1,9,N","030000,1,N,1","+0347,1","+0241,1","09988,1",,,,,,"01,99,1,01,1,01,1,01250,1,00,1,00,1",,,"99999,9,09614,1","7,1,022,1,+999,9",,SYN060AAXX  18091 57328 42680 10203 10347 20241 49988 57022 81100;,Q01+999990APOSP 
07-18T12:00:00,4,31.2,107.5,344.0,"DA XIAN, CH",FM-12,99999,V020,"070,1,N,0020,1","99999,9,9,N","030000,1,N,1","+0317,1","+0254,1","09990,1","06,0000,9,1",,,,,"07,99,1,01,1,00,1,99999,9,04,1,02,1",,,"99999,9,09609,1","2,1,001,1,+999,9",,SYN066AAXX  18121 57328 32980 70702 10317 20254 39609 49990 52001 81042;,Q01  00002PRCP06
07-18T15:00:00,4,31.2,107.5,344.0,"DA XIAN, CH",FM-12,99999,V020,"040,1,N,0030,1","22000,1,9,N","020000,1,N,1","+0279,1","+0254,1","10004,1",,,,,"00,1,+99999,9,99,9","00,99,1,00,1,00,1,99999,9,00,1,00,1",,,"99999,9,09622,1","2,1,014,1,+999,9",,SYN054AAXX  18151 57328 42970 00403 10279 20254 40004 52014;,Q01+999990APOSP 
07-18T18:00:00,4,31.2,107.5,344.0,"DA XIAN, CH",FM-12,99999,V020,"020,1,N,0040,1","02100,1,9,N","030000,1,N,1","+0267,1","+0247,1","09984,1","06,0000,9,1",,,,,"07,99,1,07,1,05,1,02250,1,99,9,99,9",,"999,M,+0351,1","99999,9,09605,1","7,1,018,1,+999,9",,SYN076AAXX  18181 57328 32880 70204 10267 20247 39605 49984 57018 875// 333 10351;,Q01  00002PRCP06
07-18T21:00:00,4,31.2,107.5,344.0,"DA XIAN, CH",FM-12,99999,V020,"290,1,N,0060,1","01500,1,9,N","015000,1,N,1","+0240,1","+0231,1","10004,1","24,0277,9,1",,"9,1,03,1","8,1,03,1",,"08,99,1,08,1,09,1,01750,1,99,9,99,9",,,"99999,9,09617,1","2,1,018,1,+999,9","95,1",SYN076AAXX  18211 57328 41765 82906 10240 20231 40004 52018 79598 889// 333 70277;,Q01+999990APOSP 
07-19T00:00:00,4,31.2,107.5,344.0,"DA XIAN, CH",FM-12,99999,V020,"040,1,N,0050,1","01500,1,9,N","030000,1,N,1","+0229,1","+0217,1","10022,1","06,0800,9,1","24,0805,9,1","9,1,06,1","8,1,06,1",,"08,99,1,08,1,09,1,01750,1,99,9,99,9",,,"99999,9,09638,1","2,1,015,1,-020,1","91,1",SYN094AAXX  19001 57328 11780 80405 10229 20217 39638 40022 52015 60801 79198 889// 333 05253 70804;,
07-19T03:00:00,4,31.2,107.5,344.0,"DA XIAN, CH",FM-12,99999,V020,"070,1,N,0010,1","01500,1,9,N","030000,1,N,1","+0245,1","+0229,1","10023,1",,,"8,1,03,1",,,"08,99,1,08,1,04,1,01750,1,99,9,99,9",,,"99999,9,09636,1","4,1,000,1,+999,9","80,1",SYN066AAXX  19031 57328 41780 80701 10245 20229 40023 54000 78080 884//;,Q01+999990APOSP 
07-19T06:00:00,4,31.2,107.5,344.0,"DA XIAN, CH",FM-12,99999,V020,"070,1,N,0010,1","01200,1,9,N","030000,1,N,1","+0264,1","+0228,1","10020,1","06,9999,9,9",,"8,1,06,1","6,1,06,1",,"08,99,1,08,1,08,1,00800,1,99,9,99,9",,"999,N,+0225,1","99999,9,09635,1","7,1,003,1,+999,9","21,1",SYN088AAXX  19061 57328 11580 80701 10264 20228 39635 40020 57003 69911 72186 888// 333 20225;,
07-19T09:00:00,4,31.2,107.5,344.0,"DA XIAN, CH",FM-12,99999,V020,"090,1,N,0020,1","02100,1,9,N","030000,1,N,1","+0267,1","+0228,1","10017,1",,,"6,1,03,1",,,"07,99,1,06,1,05,1,02250,1,04,1,99,9",,,"99999,9,09633,1","7,1,004,1,+999,9","00,1",SYN066AAXX  19091 57328 41880 70902 10267 20228 40017 57004 70060 8654/;,Q01+999990APOSP 
07-19T12:00:00,4,31.2,107.5,344.0,"DA XIAN, CH",FM-12,99999,V020,"090,1,N,0010,1","09000,1,9,N","030000,1,N,1","+0262,1","+0215,1","10018,1","06,9999,9,9",,"6,1,06,1",,,"07,99,1,02,1,05,1,02250,1,00,1,02,1",,,"99999,9,09631,1","4,1,000,1,+999,9","00,1",SYN078AAXX  19121 57328 11880 70901 10262 20215 39631 40018 54000 69901 70060 82502;,
07-19T15:00:00,4,31.2,107.5,344.0,"DA XIAN, CH",FM-12,99999,V020,"040,1,N,0010,1","99999,9,9,N","030000,1,N,1","+0241,1","+0220,1","10033,1",,,,,,"08,99,1,08,1,00,1,99999,9,07,1,99,9",,,"99999,9,09645,1","2,1,014,1,+999,9",,SYN060AAXX  19151 57328 42980 80401 10241 20220 40033 52014 8807/;,Q01+999990APOSP 
07-19T18:00:00,4,31.2,107.5,344.0,"DA XIAN, CH",FM-12,99999,V020,"090,1,N,0010,1","99999,9,9,N","020000,1,N,1","+0229,1","+0219,1","10024,1","06,0000,9,1",,,,,"07,99,1,07,1,00,1,99999,9,04,1,99,9",,"999,M,+0281,1","99999,9,09637,1","7,1,008,1,+999,9",,SYN076AAXX  19181 57328 32970 70901 10229 20219 39637 40024 57008 8704/ 333 10281;,Q01  00002PRCP06
07-19T21:00:00,4,31.2,107.5,344.0,"DA XIAN, CH",FM-12,99999,V020,"020,1,N,0020,1","22000,1,9,N","007000,1,N,1","+0221,1","+0215,1","10025,1","24,0528,9,1",,,,,"02,99,1,02,1,00,1,99999,9,04,1,00,1",,,"99999,9,09634,1","4,1,000,1,+999,9","10,1",SYN076AAXX  19211 57328 41957 20202 10221 20215 40025 54000 71000 82040 333 70528;,Q01+999990APOSP 
07-20T00:00:00,4,31.2,107.5,344.0,"DA XIAN, CH",FM-12,99999,V020,"090,1,N,0010,1","99999,9,9,N","012000,1,N,1","+0229,1","+0217,1","10038,1","06,0000,9,1","24,0000,2,1",,,,"08,99,1,08,1,00,1,99999,9,07,1,99,9",,,"99999,9,09650,1","2,1,013,1,+010,1",,SYN082AAXX  20001 57328 32962 80901 10229 20217 39650 40038 52013 8807/ 333 00100 70001;,Q01  00002PRCP06
07-20T03:00:00,4,31.2,107.5,344.0,"DA XIAN, CH",FM-12,99999,V020,"090,1,N,0010,1","99999,9,9,N","020000,1,N,1","+0252,1","+0223,1","10037,1",,,,,,"08,99,1,08,1,00,1,99999,9,07,1,99,9",,,"99999,9,09650,1","7,1,001,1,+999,9",,SYN060AAXX  20031 57328 42970 80901 10252 20223 40037 57001 8807/;,Q01+999990APOSP 
07-20T06:00:00,4,31.2,107.5,344.0,"DA XIAN, CH",FM-12,99999,V020,"999,9,C,0000,1","03600,1,9,N","030000,1,N,1","+0279,1","+0224,1","10024,1","06,9999,9,9",,"6,1,06,1",,,"08,99,1,01,1,01,1,01250,1,07,1,99,9",,"999,N,+0217,1","99999,9,09638,1","7,1,011,1,+999,9","00,1",SYN088AAXX  20061 57328 11680 80000 10279 20224 39638 40024 57011 69901 70060 8117/ 333 20217;,
07-20T09:00:00,4,31.2,107.5,344.0,"DA XIAN, CH",FM-12,99999,V020,"160,1,N,0010,1","99999,9,9,N","015000,1,N,1","+0273,1","+0233,1","10020,1",,,"6,1,03,1",,,"08,99,1,08,1,00,1,99999,9,07,1,99,9",,,"99999,9,09636,1","7,1,005,1,+999,9","00,1",SYN066AAXX  20091 57328 41965 81601 10273 20233 40020 57005 70060 8807/;,Q01+999990APOSP 
07-20T12:00:00,4,31.2,107.5,344.0,"DA XIAN, CH",FM-12,99999,V020,"999,9,C,0000,1","99999,9,9,N","012000,1,N,1","+0259,1","+0239,1","10032,1","06,9999,9,9",,"6,1,06,1",,,"08,99,1,08,1,00,1,99999,9,02,1,99,9",,,"99999,9,09644,1","2,1,011,1,+999,9","60,1",SYN078AAXX  20121 57328 11962 80000 10259 20239 39644 40032 52011 69921 76060 8802/;,
07-20T15:00:00,4,31.2,107.5,344.0,"DA XIAN, CH",FM-12,99999,V020,"220,1,N,0010,1","02100,1,9,N","008000,1,N,1","+0249,1","+0238,1","10044,1",,,"6,1,03,1","6,1,03,1",,"08,99,1,08,1,05,1,02250,1,99,9,99,9",,,"99999,9,09656,1","2,1,012,1,+999,9","21,1",SYN066AAXX  20151 57328 41858 82201 10249 20238 40044 52012 72166 885//;,Q01+999990APOSP 
07-20T18:00:00,4,31.2,107.5,344.0,"DA XIAN, CH",FM-12,99999,V020,"999,9,C,0000,1","03600,1,9,N","008000,1,N,1","+0245,1","+0235,1","10040,1","06,0020,9,1",,"6,1,06,1",,,"08,99,1,01,1,07,1,00800,1,02,1,99,9",,"999,M,+0292,1","99999,9,09654,1","7,1,002,1,+999,9","60,1",SYN088AAXX  20181 57328 11558 80000 10245 20235 39654 40040 57002 60021 76060 8172/ 333 10292;,
07-20T21:00:00,4,31.2,107.5,344.0,"DA XIAN, CH",FM-12,99999,V020,"040,1,N,0010,1","99999,9,9,N","003000,1,N,1","+0238,1","+0235,1","10034,1","24,0025,9,1",,"6,1,03,1",,,"08,99,1,08,1,00,1,99999,9,07,1,99,9",,,"99999,9,09645,1","7,1,007,1,+999,9","10,1",SYN076AAXX  20211 57328 41930 80401 10238 20235 40034 57007 71060 8807/ 333 70025;,Q01+999990APOSP 
07-21T00:00:00,4,31.2,107.5,344.0,"DA XIAN, CH",FM-12,99999,V020,"999,9,C,0000,1","00750,1,9,N","006000,1,N,1","+0240,1","+0231,1","10044,1","06,9999,9,9","24,0025,9,1","6,1,06,1",,,"08,99,1,08,1,05,1,00800,1,99,9,99,9",,,"99999,9,09656,1","2,1,009,1,+010,1","10,1",SYN094AAXX  21001 57328 11556 80000 10240 20231 39656 40044 52009 69911 71060 885// 333 00101 70025;,
07-21T03:00:00,4,31.2,107.5,344.0,"DA XIAN, CH",FM-12,99999,V020,"250,1,N,0020,1","01200,1,9,N","015000,1,N,1","+0280,1","+0222,1","10047,1",,,,,,"06,99,1,06,1,01,1,01250,1,00,1,00,1",,,"99999,9,09663,1","2,1,003,1,+999,9",,SYN060AAXX  21031 57328 42665 62502 10280 20222 40047 57053 86100;,Q01+999990APOSP Q02+000072APCTENQ03+000532APC3  
07-21T06:00:00,4,31.2,107.5,344.0,"DA XIAN, CH",FM-12,99999,V020,"200,1,N,0030,1","01200,1,9,N","025000,1,N,1","+0302,1","+0231,1","10033,1","06,0000,9,1",,,,,"06,99,1,06,1,01,1,01250,1,00,1,00,1",,"999,N,+0231,1","99999,9,09649,1","7,1,012,1,+999,9",,SYN076AAXX  21061 57328 32675 62003 10302 20231 39649 40033 57012 86100 333 20231;,Q01  00002PRCP06
07-21T09:00:00,4,31.2,107.5,344.0,"DA XIAN, CH",FM-12,99999,V020,"180,1,N,0030,1","22000,1,9,N","030000,1,N,1","+0316,1","+0223,1","10024,1",,,,,,"02,99,1,01,1,01,1,01250,1,00,1,02,1",,,"99999,9,09645,1","7,1,008,1,+999,9",,SYN060AAXX  21091 57328 42680 21803 10316 20223 40024 57008 81102;,Q01+999990APOSP 
07-21T12:00:00,4,31.2,107.5,344.0,"DA XIAN, CH",FM-12,99999,V020,"160,1,N,0020,1","22000,1,9,N","030000,1,N,1","+0301,1","+0228,1","10035,1","06,0000,9,1",,,,,"01,99,1,01,1,00,1,99999,9,04,1,01,1",,,"99999,9,09650,1","2,1,009,1,+999,9",,SYN066AAXX  21121 57328 32980 11602 10301 20228 39650 40035 52009 81041;,Q01  00002PRCP06
07-21T15:00:00,4,31.2,107.5,344.0,"DA XIAN, CH",FM-12,99999,V020,"040,1,N,0030,1","22000,1,9,N","012000,1,N,1","+0259,1","+0233,1","10054,1",,,,,"00,1,+99999,9,99,9","00,99,1,00,1,00,1,99999,9,00,1,00,1",,,"99999,9,09667,1","2,1,018,1,+999,9",,SYN054AAXX  21151 57328 42962 00403 10259 20233 40054 52018;,Q01+999990APOSP 
07-21T18:00:00,4,31.2,107.5,344.0,"DA XIAN, CH",FM-12,99999,V020,"040,1,N,0020,1","22000,1,9,N","005000,1,N,1","+0245,1","+0233,1","10059,1","06,0000,9,1",,,,"00,1,+99999,9,99,9","00,99,1,00,1,00,1,99999,9,00,1,00,1",,"999,M,+0320,1","99999,9,09674,1","2,1,006,1,+999,9","10,1",SYN076AAXX  21181 57328 31950 00402 10245 20233 39674 40059 52006 71000 333 10320;,Q01  00002PRCP06
07-21T21:00:00,4,31.2,107.5,344.0,"DA XIAN, CH",FM-12,99999,V020,"040,1,N,0020,1","22000,1,9,N","007000,1,N,1","+0237,1","+0230,1","10054,1",,,,,"00,1,+99999,9,99,9","00,99,1,00,1,00,1,99999,9,00,1,00,1",,,"99999,9,09664,1","7,1,005,1,+999,9","10,1",SYN060AAXX  21211 57328 41957 00402 10237 20230 40054 57005 71000;,Q01+999990APOSP 
07-22T00:00:00,4,31.2,107.5,344.0,"DA XIAN, CH",FM-12,99999,V020,"040,1,N,0030,1","99999,9,9,N","012000,1,N,1","+0245,1","+0231,1","10068,1","06,0000,9,1",,,,,"06,99,1,05,1,00,1,99999,9,04,1,01,1",,,"99999,9,09682,1","2,1,013,1,+003,1",,SYN076AAXX  22001 57328 32962 60403 10245 20231 39682 40068 52013 85041 333 00301;,Q01  00002PRCP06
07-22T03:00:00,4,31.2,107.5,344.0,"DA XIAN, CH",FM-12,99999,V020,"020,1,N,0010,1","99999,9,9,N","020000,1,N,1","+0292,1","+0243,1","10063,1",,,,,,"07,99,1,00,1,00,1,99999,9,00,1,01,1",,,"99999,9,09680,1","7,1,004,1,+999,9",,SYN060AAXX  22031 57328 42970 70201 10292 20243 40063 57004 80001;,Q01+999990APOSP 
07-22T06:00:00,4,31.2,107.5,344.0,"DA XIAN, CH",FM-12,99999,V020,"200,1,N,0010,1","01200,1,9,N","030000,1,N,1","+0318,1","+0235,1","10050,1","06,9999,9,9",,,,,"07,99,1,07,1,02,1,01250,1,00,1,02,1",,"999,N,+0236,1","99999,9,09666,1","7,1,012,1,+999,9","80,1",SYN088AAXX  22061 57328 11680 72001 10318 20235 39666 40050 57012 69901 78000 87202 333 20236;,
07-22T09:00:00,4,31.2,107.5,344.0,"DA XIAN, CH",FM-12,99999,V020,"220,1,N,0020,1","09000,1,9,N","030000,1,N,1","+0297,1","+0220,1","10050,1",,,"9,1,03,1","8,1,03,1",,"08,99,1,02,1,01,1,01250,1,00,1,02,1",,,"99999,9,09668,1","7,1,002,1,+999,9","29,1",SYN066AAXX  22091 57328 41680 82202 10297 20220 40050 57002 72998 82102;,Q01+999990APOSP 
07-22T12:00:00,4,31.2,107.5,344.0,"DA XIAN, CH",FM-12,99999,V020,"160,1,N,0010,1","99999,9,9,N","030000,1,N,1","+0279,1","+0226,1","10059,1","06,0020,9,1",,"9,1,06,1","8,1,06,1",,"08,99,1,08,1,00,1,99999,9,07,1,99,9",,,"99999,9,09672,1","2,1,008,1,+999,9","21,1",SYN078AAXX  22121 57328 11980 81601 10279 20226 39672 40059 52008 60021 72198 8807/;,
07-22T15:00:00,4,31.2,107.5,344.0,"DA XIAN, CH",FM-12,99999,V020,"140,1,N,0010,1","99999,9,9,N","015000,1,N,1","+0261,1","+0235,1","10066,1",,,"6,1,03,1",,,"08,99,1,08,1,00,1,99999,9,07,1,99,9",,,"99999,9,09679,1","2,1,009,1,+999,9","00,1",SYN066AAXX  22151 57328 41965 81401 10261 20235 40066 52009 70060 8807/;,Q01+999990APOSP 
07-22T18:00:00,4,31.2,107.5,344.0,"DA XIAN, CH",FM-12,99999,V020,"070,1,N,0010,1","99999,9,9,N","005000,1,N,1","+0249,1","+0238,1","10065,1","06,9999,9,9",,"6,1,06,1",,,"08,99,1,08,1,00,1,99999,9,02,1,99,9",,"999,M,+0324,1","99999,9,09681,1","4,1,000,1,+999,9","60,1",SYN088AAXX  22181 57328 11950 80701 10249 20238 39681 40065 54000 69901 76060 8802/ 333 10324;,
07-22T21:00:00,4,31.2,107.5,344.0,"DA XIAN, CH",FM-12,99999,V020,"040,1,N,0030,1","01500,1,9,N","008000,1,N,1","+0238,1","+0229,1","10059,1","24,0053,9,1",,"9,1,03,1","8,1,03,1",,"08,99,1,08,1,09,1,01750,1,99,9,99,9",,,"99999,9,09669,1","7,1,008,1,+999,9","95,1",SYN076AAXX  22211 57328 41758 80403 10238 20229 40059 57008 79598 889// 333 70054;,Q01+999990APOSP 
07-23T00:00:00,4,31.2,107.5,344.0,"DA XIAN, CH",FM-12,99999,V020,"040,1,N,0010,1","01500,1,9,N","015000,1,N,1","+0231,1","+0225,1","10067,1","06,0160,9,1","24,0180,9,1","9,1,06,1","6,1,06,1",,"08,99,1,08,1,09,1,01750,1,99,9,99,9",,,"99999,9,09679,1","2,1,006,1,+000,1","91,1",SYN094AAXX  23001 57328 11765 80401 10231 20225 39679 40067 52006 60161 79196 889// 333 00051 70181;,
07-23T03:00:00,4,31.2,107.5,344.0,"DA XIAN, CH",FM-12,99999,V020,"040,1,N,0020,1","03600,1,9,N","030000,1,N,1","+0253,1","+0225,1","10071,1",,,"8,1,03,1",,,"07,99,1,01,1,01,1,00800,1,04,1,99,9",,,"99999,9,09683,1","2,1,004,1,+999,9","00,1",SYN066AAXX  23031 57328 41580 70402 10253 20225 40071 52004 70080 8114/;,Q01+999990APOSP 
07-23T06:00:00,4,31.2,107.5,344.0,"DA XIAN, CH",FM-12,99999,V020,"040,1,N,0030,1","99999,9,9,N","030000,1,N,1","+0283,1","+0232,1","10056,1","06,9999,9,9",,"8,1,06,1",,,"08,99,1,08,1,00,1,99999,9,07,1,99,9",,"999,N,+0231,1","99999,9,09670,1","7,1,013,1,+999,9","00,1",SYN088AAXX  23061 57328 11980 80403 10283 20232 39670 40056 57013 69901 70080 8807/ 333 20231;,
07-23T09:00:00,4,31.2,107.5,344.0,"DA XIAN, CH",FM-12,99999,V020,"040,1,N,0030,1","22000,1,9,N","030000,1,N,1","+0292,1","+0241,1","10040,1",,,,,,"01,99,1,01,1,02,1,00800,1,00,1,00,1",,,"99999,9,09658,1","7,1,016,1,+999,9",,SYN060AAXX  23091 57328 42580 10403 10292 20241 40040 57016 81200;,Q01+999990APOSP 
07-23T12:00:00,4,31.2,107.5,344.0,"DA XIAN, CH",FM-12,99999,V020,"020,1,N,0030,1","22000,1,9,N","030000,1,N,1","+0280,1","+0242,1","10044,1","06,0000,9,1",,,,,"02,99,1,01,1,00,1,99999,9,04,1,01,1",,,"99999,9,09657,1","2,1,003,1,+999,9",,SYN066AAXX  23121 57328 32980 20203 10280 20242 39657 40044 52003 81041;,Q01  00002PRCP06
07-23T15:00:00,4,31.2,107.5,344.0,"DA XIAN, CH",FM-12,99999,V020,"040,1,N,0020,1","22000,1,9,N","030000,1,N,1","+0258,1","+0237,1","10048,1",,,,,,"02,99,1,00,1,00,1,99999,9,00,1,01,1",,,"99999,9,09661,1","2,1,004,1,+999,9",,SYN060AAXX  23151 57328 42980 20402 10258 20237 40048 52004 80001;,Q01+999990APOSP 
07-23T18:00:00,4,31.2,107.5,344.0,"DA XIAN, CH",FM-12,99999,V020,"040,1,N,0010,1","22000,1,9,N","017000,1,N,1","+0245,1","+0229,1","10040,1","06,0000,9,1",,,,"00,1,+99999,9,99,9","00,99,1,00,1,00,1,99999,9,00,1,00,1",,"999,M,+0295,1","99999,9,09654,1","7,1,007,1,+999,9",,SYN070AAXX  23181 57328 32967 00401 10245 20229 39654 40040 57007 333 10295;,Q01  00002PRCP06
07-23T21:00:00,4,31.2,107.5,344.0,"DA XIAN, CH",FM-12,99999,V020,"360,1,N,0020,1","22000,1,9,N","012000,1,N,1","+0239,1","+0223,1","10036,1","24,0127,9,1",,,,"00,1,+99999,9,99,9","00,99,1,00,1,00,1,99999,9,00,1,00,1",,,"99999,9,09647,1","7,1,003,1,+999,9",,SYN064AAXX  23211 57328 42962 03602 10239 20223 40036 57003 333 70127;,Q01+999990APOSP 
07-24T00:00:00,4,31.2,107.5,344.0,"DA XIAN, CH",FM-12,99999,V020,"020,1,N,0010,1","22000,1,9,N","015000,1,N,1","+0249,1","+0226,1","10044,1","06,0000,9,1","24,0000,2,1",,,,"02,99,1,00,1,00,1,99999,9,00,1,02,1",,,"99999,9,09658,1","2,1,007,1,-020,1",,SYN082AAXX  24001 57328 32965 20201 10249 20226 39658 40044 52007 80002 333 05202 79999;,Q01  00002PRCP06
07-24T03:00:00,4,31.2,107.5,344.0,"DA XIAN, CH",FM-12,99999,V020,"360,1,N,0010,1","22000,1,9,N","020000,1,N,1","+0302,1","+0240,1","10046,1",,,,,,"02,99,1,00,1,00,1,99999,9,00,1,02,1",,,"99999,9,09665,1","2,1,004,1,+999,9",,SYN060AAXX  24031 57328 42970 23601 10302 20240 40046 52004 80002;,Q01+999990APOSP 
07-24T06:00:00,4,31.2,107.5,344.0,"DA XIAN, CH",FM-12,99999,V020,"040,1,N,0020,1","22000,1,9,N","030000,1,N,1","+0341,1","+0245,1","10024,1","06,0000,9,1",,,,,"01,99,1,01,1,01,1,01250,1,00,1,00,1",,"999,N,+0235,1","99999,9,09643,1","7,1,019,1,+999,9",,SYN076AAXX  24061 57328 32680 10402 10341 20245 39643 40024 57019 81100 333 20235;,Q01  00002PRCP06
07-24T09:00:00,4,31.2,107.5,344.0,"DA XIAN, CH",FM-12,99999,V020,"040,1,N,0020,1","22000,1,9,N","030000,1,N,1","+0348,1","+0224,1","10006,1",,,,,,"01,99,1,01,1,01,1,01250,1,00,1,00,1",,,"99999,9,09632,1","7,1,018,1,+999,9",,SYN060AAXX  24091 57328 42680 10402 10348 20224 40006 57018 81100;,Q01+999990APOSP 
07-24T12:00:00,4,31.2,107.5,344.0,"DA XIAN, CH",FM-12,99999,V020,"040,1,N,0010,1","22000,1,9,N","025000,1,N,1","+0323,1","+0254,1","10005,1","06,0000,9,1",,,,"00,1,+99999,9,99,9","00,99,1,00,1,00,1,99999,9,00,1,00,1",,,"99999,9,09623,1","7,1,002,1,+999,9",,SYN060AAXX  24121 57328 32975 00401 10323 20254 39623 40005 57002;,Q01  00002PRCP06
07-24T15:00:00,4,31.2,107.5,344.0,"DA XIAN, CH",FM-12,99999,V020,"040,1,N,0020,1","22000,1,9,N","012000,1,N,1","+0283,1","+0261,1","10021,1",,,,,"00,1,+99999,9,99,9","00,99,1,00,1,00,1,99999,9,00,1,00,1",,,"99999,9,09638,1","2,1,017,1,+999,9",,SYN054AAXX  24151 57328 42962 00402 10283 20261 40021 52017;,Q01+999990APOSP 
07-24T18:00:00,4,31.2,107.5,344.0,"DA XIAN, CH",FM-12,99999,V020,"070,1,N,0010,1","22000,1,9,N","008000,1,N,1","+0269,1","+0254,1","10016,1","06,0000,9,1",,,,"00,1,+99999,9,99,9","00,99,1,00,1,00,1,99999,9,00,1,00,1",,"999,M,+0352,1","99999,9,09636,1","7,1,004,1,+999,9","10,1",SYN076AAXX  24181 57328 31958 00701 10269 20254 39636 40016 57004 71000 333 10352;,Q01  00002PRCP06
07-24T21:00:00,4,31.2,107.5,344.0,"DA XIAN, CH",FM-12,99999,V020,"999,9,9,9999,9","99999,9,9,N","999999,9,N,1","+9999,9","+9999,9","99999,9",,,,,,,,,,,,SYN059AAXX  24211 57328 41940 0362 10257 20249 40012 57004 71000;,
07-25T00:00:00,4,31.2,107.5,344.0,"DA XIAN, CH",FM-12,99999,V020,"040,1,N,0020,1","22000,1,9,N","018000,1,N,1","+0271,1","+0243,1","10022,1","06,0000,9,1",,,,,"01,99,1,01,1,00,1,99999,9,04,1,00,1",,,"99999,9,09641,1","2,1,009,1,+002,1",,SYN076AAXX  25001 57328 32968 10402 10271 20243 39641 40022 52009 81040 333 05202;,Q01  00002PRCP06
07-25T03:00:00,4,31.2,107.5,344.0,"DA XIAN, CH",FM-12,99999,V020,"090,1,N,0030,1","22000,1,9,N","030000,1,N,1","+0331,1","+0212,1","10030,1",,,,,,"02,99,1,01,1,01,1,01250,1,04,1,02,1",,,"99999,9,09653,1","2,1,009,1,+999,9",,SYN060AAXX  25031 57328 42680 20903 10331 20212 40030 52009 81142;,Q01+999990APOSP 
07-25T06:00:00,4,31.2,107.5,344.0,"DA XIAN, CH",FM-12,99999,V020,"110,1,N,0030,1","03600,1,9,N","030000,1,N,1","+0327,1","+0221,1","10029,1","06,0000,9,1",,,,,"07,99,1,03,1,01,1,01250,1,04,1,00,1",,"999,N,+0253,1","99999,9,09648,1","7,1,002,1,+999,9",,SYN076AAXX  25061 57328 32680 71103 10327 20221 39648 40029 57002 83140 333 20253;,Q01  00002PRCP06
07-25T09:00:00,4,31.2,107.5,344.0,"DA XIAN, CH",FM-12,99999,V020,"180,1,N,0020,1","03600,1,9,N","030000,1,N,1","+0307,1","+0222,1","10040,1",,,"8,1,03,1",,,"08,99,1,03,1,05,1,01750,1,07,1,99,9",,,"99999,9,09660,1","2,1,009,1,+999,9","60,1",SYN066AAXX  25091 57328 41780 81802 10307 20222 40040 52009 76080 8357/;,Q01+999990APOSP 
07-25T12:00:00,4,31.2,107.5,344.0,"DA XIAN, CH",FM-12,99999,V020,"040,1,N,0010,1","99999,9,9,N","030000,1,N,1","+0287,1","+0239,1","10048,1","06,9999,9,9",,"8,1,06,1","6,1,06,1",,"08,99,1,08,1,00,1,99999,9,07,1,99,9",,,"99999,9,09664,1","2,1,007,1,+999,9","21,1",SYN078AAXX  25121 57328 11980 80401 10287 20239 39664 40048 52007 69901 72186 8807/;,
07-25T15:00:00,4,31.2,107.5,344.0,"DA XIAN, CH",FM-12,99999,V020,"070,1,N,0020,1","99999,9,9,N","015000,1,N,1","+0265,1","+0239,1","10058,1",,,,,,"07,99,1,07,1,00,1,99999,9,04,1,99,9",,,"99999,9,09672,1","2,1,012,1,+999,9",,SYN060AAXX  25151 57328 42965 70702 10265 20239 40058 52012 8704/;,Q01+999990APOSP 
07-25T18:00:00,4,31.2,107.5,344.0,"DA XIAN, CH",FM-12,99999,V020,"020,1,N,0020,1","99999,9,9,N","014000,1,N,1","+0259,1","+0239,1","10056,1","06,0000,2,1",,,,,"07,99,1,07,1,00,1,99999,9,04,1,99,9",,"999,M,+0343,1","99999,9,09673,1","7,1,003,1,+999,9",,SYN076AAXX  25181 57328 32964 70202 10259 20239 39673 40056 57003 8704/ 333 10343;,
07-25T21:00:00,4,31.2,107.5,344.0,"DA XIAN, CH",FM-12,99999,V020,"020,1,N,0020,1","02100,1,9,N","007000,1,N,1","+0255,1","+0242,1","10052,1","24,0000,2,1",,,,,"08,99,1,08,1,05,1,02250,1,99,9,99,9",,,"99999,9,09665,1","7,1,005,1,+999,9","60,1",SYN076AAXX  25211 57328 41857 80202 10255 20242 40052 57005 76000 885// 333 79999;,Q01+999990APOSP 
07-26T00:00:00,4,31.2,107.5,344.0,"DA XIAN, CH",FM-12,99999,V020,"020,1,N,0020,1","02100,1,9,N","018000,1,N,1","+0256,1","+0243,1","10061,1","06,0005,9,1","24,0005,9,1","6,1,06,1",,,"08,99,1,08,1,05,1,02250,1,99,9,99,9",,,"99999,9,09675,1","2,1,007,1,+030,1","60,1",SYN094AAXX  26001 57328 11868 80202 10256 20243 39675 40061 52007 69941 76060 885// 333 00352 70004;,
07-26T03:00:00,4,31.2,107.5,344.0,"DA XIAN, CH",FM-12,99999,V020,"020,1,N,0020,1","99999,9,9,N","030000,1,N,1","+0287,1","+0248,1","10063,1",,,"6,1,03,1",,,"06,99,1,06,1,00,1,99999,9,04,1,00,1",,,"99999,9,09679,1","2,1,003,1,+999,9","00,1",SYN066AAXX  26031 57328 41980 60202 10287 20248 40063 52003 70060 86040;,Q01+999990APOSP 
07-26T06:00:00,4,31.2,107.5,344.0,"DA XIAN, CH",FM-12,99999,V020,"340,1,N,0020,1","00750,1,9,N","020000,1,N,1","+0294,1","+0252,1","10048,1","06,0005,9,1",,"6,1,06,1",,,"07,99,1,07,1,09,1,00800,1,99,9,99,9",,"999,N,+0253,1","99999,9,09664,1","7,1,014,1,+999,9","80,1",SYN088AAXX  26061 57328 11570 73402 10294 20252 39664 40048 57014 69961 78060 879// 333 20253;,
07-26T09:00:00,4,31.2,107.5,344.0,"DA XIAN, CH",FM-12,99999,V020,"040,1,N,0040,1","00750,1,9,N","030000,1,N,1","+0298,1","+0246,1","10030,1",,,"8,1,03,1",,,"07,99,1,06,1,04,1,00800,1,04,1,99,9",,,"99999,9,09649,1","7,1,018,1,+999,9","00,1",SYN066AAXX  26091 57328 41580 70404 10298 20246 40030 57018 70080 8644/;,Q01+999990APOSP 
07-26T12:00:00,4,31.2,107.5,344.0,"DA XIAN, CH",FM-12,99999,V020,"040,1,N,0030,1","99999,9,9,N","030000,1,N,1","+0284,1","+0243,1","10034,1","06,0008,9,1",,"8,1,06,1",,,"07,99,1,07,1,00,1,99999,9,04,1,99,9",,,"99999,9,09649,1","2,1,003,1,+999,9","00,1",SYN078AAXX  26121 57328 11980 70403 10284 20243 39649 40034 52003 69981 70080 8704/;,
07-26T15:00:00,4,31.2,107.5,344.0,"DA XIAN, CH",FM-12,99999,V020,"040,1,N,0020,1","02100,1,9,N","020000,1,N,1","+0270,1","+0249,1","10049,1",,,,,,"08,99,1,08,1,05,1,02250,1,99,9,99,9",,,"99999,9,09664,1","2,1,016,1,+999,9",,SYN060AAXX  26151 57328 42870 80402 10270 20249 40049 52016 885//;,Q01+999990APOSP 
07-26T18:00:00,4,31.2,107.5,344.0,"DA XIAN, CH",FM-12,99999,V020,"040,1,N,0010,1","02100,1,9,N","015000,1,N,1","+0268,1","+0250,1","10045,1","06,0000,9,1",,,,,"08,99,1,08,1,05,1,02250,1,99,9,99,9",,"999,M,+0314,1","99999,9,09661,1","7,1,004,1,+999,9",,SYN076AAXX  26181 57328 32865 80401 10268 20250 39661 40045 57004 885// 333 10314;,Q01  00002PRCP06
07-26T21:00:00,4,31.2,107.5,344.0,"DA XIAN, CH",FM-12,99999,V020,"040,1,N,0020,1","99999,9,9,N","012000,1,N,1","+0263,1","+0249,1","10039,1","24,0018,9,1",,,,,"08,99,1,08,1,00,1,99999,9,07,1,99,9",,,"99999,9,09653,1","7,1,006,1,+999,9",,SYN070AAXX  26211 57328 42962 80402 10263 20249 40039 57006 8807/ 333 70018;,Q01+999990APOSP 
07-27T00:00:00,4,31.2,107.5,344.0,"DA XIAN, CH",FM-12,99999,V020,"040,1,N,0010,1","22000,1,9,N","012000,1,N,1","+0279,1","+0251,1","10043,1","06,0000,9,1","24,0015,9,1",,,,"02,99,1,02,1,00,1,99999,9,04,1,00,1",,,"99999,9,09659,1","2,1,004,1,-020,1",,SYN082AAXX  27001 57328 32962 20401 10279 20251 39659 40043 52004 82040 333 05202 70014;,Q01  00002PRCP06
07-27T03:00:00,4,31.2,107.5,344.0,"DA XIAN, CH",FM-12,99999,V020,"090,1,N,0020,1","22000,1,9,N","030000,1,N,1","+0338,1","+0234,1","10043,1",,,,,,"02,99,1,01,1,01,1,00800,1,04,1,00,1",,,"99999,9,09666,1","2,1,003,1,+999,9",,SYN060AAXX  27031 57328 42580 20902 10338 20234 40043 52003 81140;,Q01+999990APOSP 
07-27T06:00:00,4,31.2,107.5,344.0,"DA XIAN, CH",FM-12,99999,V020,"140,1,N,0030,1","01200,1,9,N","030000,1,N,1","+0335,1","+0220,1","10029,1","06,0000,9,1",,,,,"07,99,1,07,1,01,1,01250,1,00,1,00,1",,"999,N,+0258,1","99999,9,09648,1","7,1,014,1,+999,9",,SYN076AAXX  27061 57328 32680 71403 10335 20220 39648 40029 57014 87100 333 20258;,Q01  00002PRCP06
07-27T09:00:00,4,31.2,107.5,344.0,"DA XIAN, CH",FM-12,99999,V020,"180,1,N,0040,1","99999,9,9,N","030000,1,N,1","+0340,1","+0225,1","10011,1",,,,,,"07,99,1,07,1,00,1,99999,9,04,1,99,9",,,"99999,9,09636,1","7,1,017,1,+999,9",,SYN060AAXX  27091 57328 42980 71804 10340 20225 40011 57017 8704/;,Q01+999990APOSP 
07-27T12:00:00,4,31.2,107.5,344.0,"DA XIAN, CH",FM-12,99999,V020,"040,1,N,0020,1","02100,1,9,N","030000,1,N,1","+0305,1","+0246,1","10014,1","06,9999,9,9",,"8,1,06,1",,,"08,99,1,08,1,05,1,02250,1,99,9,99,9",,,"99999,9,09633,1","2,1,002,1,+999,9","00,1",SYN078AAXX  27121 57328 11880 80402 10305 20246 39633 40014 52002 69901 70080 885//;,
07-27T15:00:00,4,31.2,107.5,344.0,"DA XIAN, CH",FM-12,99999,V020,"040,1,N,0020,1","02100,1,9,N","015000,1,N,1","+0283,1","+0249,1","10023,1",,,,,,"08,99,1,08,1,05,1,02250,1,99,9,99,9",,,"99999,9,09640,1","2,1,011,1,+999,9",,SYN060AAXX  27151 57328 42865 80402 10283 20249 40023 52011 885//;,Q01+999990APOSP 
07-27T18:00:00,4,31.2,107.5,344.0,"DA XIAN, CH",FM-12,99999,V020,"040,1,N,0030,1","02100,1,9,N","012000,1,N,1","+0277,1","+0252,1","10020,1","06,0000,9,1",,,,,"08,99,1,08,1,05,1,02250,1,99,9,99,9",,"999,M,+0354,1","99999,9,09640,1","7,1,004,1,+999,9",,SYN076AAXX  27181 57328 32862 80403 10277 20252 39640 40020 57004 885// 333 10354;,Q01  00002PRCP06
07-27T21:00:00,4,31.2,107.5,344.0,"DA XIAN, CH",FM-12,99999,V020,"040,1,N,0020,1","99999,9,9,N","015000,1,N,1","+0271,1","+0251,1","10016,1","24,0000,9,1",,,,,"07,99,1,07,1,00,1,99999,9,04,1,99,9",,,"99999,9,09632,1","7,1,004,1,+999,9",,SYN070AAXX  27211 57328 42965 70402 10271 20251 40016 57004 8704/ 333 79999;,Q01+999990APOSP Q02  00002PRCP24
07-28T00:00:00,4,31.2,107.5,344.0,"DA XIAN, CH",FM-12,99999,V020,"040,1,N,0010,1","99999,9,9,N","015000,1,N,1","+0275,1","+0250,1","10028,1","06,0000,9,1","24,0000,9,1",,,,"07,99,1,07,1,00,1,99999,9,04,1,99,9",,,"99999,9,09646,1","2,1,010,1,-010,1",,SYN082AAXX  28001 57328 32965 70401 10275 20250 39646 40028 52010 8704/ 333 05100 79999;,Q01  00002PRCP06Q02  00002PRCP24
07-28T03:00:00,4,31.2,107.5,344.0,"DA XIAN, CH",FM-12,99999,V020,"360,1,N,0010,1","03600,1,9,N","030000,1,N,1","+0317,1","+0250,1","10037,1",,,,,,"07,99,1,01,1,01,1,01250,1,04,1,99,9",,,"99999,9,09658,1","2,1,010,1,+999,9",,SYN060AAXX  28031 57328 42680 73601 10317 20250 40037 52010 8114/;,Q01+999990APOSP 
07-28T06:00:00,4,31.2,107.5,344.0,"DA XIAN, CH",FM-12,99999,V020,"160,1,N,0030,1","22000,1,9,N","030000,1,N,1","+0344,1","+0244,1","10023,1","06,0000,9,1",,,,,"04,99,1,01,1,01,1,01250,1,04,1,00,1",,"999,N,+0269,1","99999,9,09644,1","7,1,012,1,+999,9",,SYN076AAXX  28061 57328 32680 41603 10344 20244 39644 40023 57012 81140 333 20269;,Q01  00002PRCP06
07-28T09:00:00,4,31.2,107.5,344.0,"DA XIAN, CH",FM-12,99999,V020,"090,1,N,0020,1","03600,1,9,N","030000,1,N,1","+0347,1","+0246,1","10009,1",,,,,,"05,99,1,02,1,01,1,01250,1,04,1,00,1",,,"99999,9,09635,1","7,1,014,1,+999,9",,SYN060AAXX  28091 57328 42680 50902 10347 20246 40009 57014 82140;,Q01+999990APOSP 
07-28T12:00:00,4,31.2,107.5,344.0,"DA XIAN, CH",FM-12,99999,V020,"090,1,N,0020,1","99999,9,9,N","030000,1,N,1","+0320,1","+0254,1","10016,1","06,0000,9,1",,,,,"07,99,1,07,1,00,1,99999,9,04,1,99,9",,,"99999,9,09635,1","2,1,005,1,+999,9",,SYN066AAXX  28121 57328 32980 70902 10320 20254 39635 40016 52005 8704/;,Q01  00002PRCP06
07-28T15:00:00,4,31.2,107.5,344.0,"DA XIAN, CH",FM-12,99999,V020,"040,1,N,0030,1","22000,1,9,N","012000,1,N,1","+0286,1","+0258,1","10024,1",,,,,"00,1,+99999,9,99,9","00,99,1,00,1,00,1,99999,9,00,1,00,1",,,"99999,9,09642,1","2,1,009,1,+999,9",,SYN054AAXX  28151 57328 42962 00403 10286 20258 40024 52009;,Q01+999990APOSP 
07-28T18:00:00,4,31.2,107.5,344.0,"DA XIAN, CH",FM-12,99999,V020,"040,1,N,0030,1","99999,9,9,N","005000,1,N,1","+0273,1","+0256,1","10024,1","06,0000,9,1",,,,,"07,99,1,07,1,00,1,99999,9,04,1,99,9",,"999,M,+0353,1","99999,9,09644,1","4,1,000,1,+999,9","10,1",SYN082AAXX  28181 57328 31950 70403 10273 20256 39644 40024 54000 71000 8704/ 333 10353;,Q01  00002PRCP06
07-28T21:00:00,4,31.2,107.5,344.0,"DA XIAN, CH",FM-12,99999,V020,"020,1,N,0030,1","99999,9,9,N","005000,1,N,1","+0271,1","+0254,1","10021,1",,,,,,"07,99,1,07,1,00,1,99999,9,04,1,99,9",,,"99999,9,09637,1","7,1,002,1,+999,9","10,1",SYN066AAXX  28211 57328 41950 70203 10271 20254 40021 57002 71000 8704/;,Q01+999990APOSP 
07-29T00:00:00,4,31.2,107.5,344.0,"DA XIAN, CH",FM-12,99999,V020,"040,1,N,0020,1","22000,1,9,N","012000,1,N,1","+0279,1","+0254,1","10027,1","06,0000,9,1",,,,,"01,99,1,01,1,00,1,99999,9,04,1,00,1",,,"99999,9,09646,1","2,1,004,1,+000,1",,SYN076AAXX  29001 57328 32962 10402 10279 20254 39646 40027 52004 81040 333 00000;,Q01  00002PRCP06
07-29T03:00:00,4,31.2,107.5,344.0,"DA XIAN, CH",FM-12,99999,V020,"320,1,N,0010,1","22000,1,9,N","030000,1,N,1","+0329,1","+0242,1","10026,1",,,,,,"01,99,1,01,1,00,1,99999,9,04,1,00,1",,,"99999,9,09649,1","4,1,000,1,+999,9",,SYN060AAXX  29031 57328 42980 13201 10329 20242 40026 54000 81040;,Q01+999990APOSP 
07-29T06:00:00,4,31.2,107.5,344.0,"DA XIAN, CH",FM-12,99999,V020,"160,1,N,0030,1","01200,1,9,N","030000,1,N,1","+0362,1","+0236,1","10007,1","06,0000,9,1",,,,,"05,99,1,05,1,01,1,01250,1,00,1,00,1",,"999,N,+0268,1","99999,9,09629,1","7,1,017,1,+999,9",,SYN076AAXX  29061 57328 32680 51603 10362 20236 39629 40007 57017 85100 333 20268;,Q01  00002PRCP06
07-29T09:00:00,4,31.2,107.5,344.0,"DA XIAN, CH",FM-12,99999,V020,"220,1,N,0020,1","22000,1,9,N","030000,1,N,1","+0363,1","+0234,1","09993,1",,,,,,"01,99,1,01,1,01,1,01250,1,00,1,00,1",,,"99999,9,09621,1","7,1,013,1,+999,9",,SYN060AAXX  29091 57328 42680 12202 10363 20234 49993 57013 81100;,Q01+999990APOSP 
07-29T12:00:00,4,31.2,107.5,344.0,"DA XIAN, CH",FM-12,99999,V020,"040,1,N,0020,1","99999,9,9,N","030000,1,N,1","+0329,1","+0252,1","09992,1","06,0000,9,1",,,,,"07,99,1,00,1,00,1,99999,9,00,1,02,1",,,"99999,9,09613,1","7,1,003,1,+999,9",,SYN066AAXX  29121 57328 32980 70402 10329 20252 39613 49992 57003 80002;,Q01  00002PRCP06
07-29T15:00:00,4,31.2,107.5,344.0,"DA XIAN, CH",FM-12,99999,V020,"040,1,N,0020,1","22000,1,9,N","030000,1,N,1","+0289,1","+0259,1","10005,1",,,,,"00,1,+99999,9,99,9","00,99,1,00,1,00,1,99999,9,00,1,00,1",,,"99999,9,09624,1","2,1,013,1,+999,9",,SYN054AAXX  29151 57328 42980 00402 10289 20259 40005 52013;,Q01+999990APOSP 
07-29T18:00:00,4,31.2,107.5,344.0,"DA XIAN, CH",FM-12,99999,V020,"040,1,N,0020,1","22000,1,9,N","018000,1,N,1","+0275,1","+0258,1","10004,1","06,0000,9,1",,,,"00,1,+99999,9,99,9","00,99,1,00,1,00,1,99999,9,00,1,00,1",,"999,M,+0365,1","99999,9,09626,1","4,1,000,1,+999,9",,SYN070AAXX  29181 57328 32968 00402 10275 20258 39626 40004 54000 333 10365;,Q01  00002PRCP06
07-29T21:00:00,4,31.2,107.5,344.0,"DA XIAN, CH",FM-12,99999,V020,"040,1,N,0020,1","22000,1,9,N","012000,1,N,1","+0264,1","+0253,1","09998,1",,,,,,"02,99,1,02,1,00,1,99999,9,04,1,00,1",,,"99999,9,09614,1","7,1,006,1,+999,9",,SYN060AAXX  29211 57328 42962 20402 10264 20253 49998 57006 82040;,Q01+999990APOSP 
07-30T00:00:00,4,31.2,107.5,344.0,"DA XIAN, CH",FM-12,99999,V020,"020,1,N,0020,1","99999,9,9,N","012000,1,N,1","+0283,1","+0252,1","10002,1","06,0000,9,1",,,,,"06,99,1,00,1,00,1,99999,9,00,1,02,1",,,"99999,9,09623,1","2,1,003,1,+002,1",,SYN076AAXX  30001 57328 32962 60202 10283 20252 39623 40002 52003 80002 333 05200;,Q01  00002PRCP06
07-30T03:00:00,4,31.2,107.5,344.0,"DA XIAN, CH",FM-12,99999,V020,"110,1,N,0050,1","22000,1,9,N","020000,1,N,1","+0343,1","+0237,1","09999,1",,,,,"00,1,+99999,9,99,9","00,99,1,00,1,00,1,99999,9,00,1,00,1",,,"99999,9,09625,1","7,1,002,1,+999,9",,SYN054AAXX  30031 57328 42970 01105 10343 20237 49999 57002;,Q01+999990APOSP 
07-30T06:00:00,4,31.2,107.5,344.0,"DA XIAN, CH",FM-12,99999,V020,"140,1,N,0020,1","22000,1,9,N","030000,1,N,1","+0362,1","+0235,1","09985,1","06,0000,9,1",,,,,"02,99,1,02,1,01,1,01250,1,00,1,00,1",,"999,N,+0261,1","99999,9,09608,1","7,1,013,1,+999,9",,SYN076AAXX  30061 57328 32680 21402 10362 20235 39608 49985 57013 82100 333 20261;,Q01  00002PRCP06
07-30T09:00:00,4,31.2,107.5,344.0,"DA XIAN, CH",FM-12,99999,V020,"140,1,N,0010,1","22000,1,9,N","030000,1,N,1","+0368,1","+0229,1","09966,1",,,,,,"02,99,1,02,1,01,1,00800,1,00,1,00,1",,,"99999,9,09596,1","7,1,018,1,+999,9",,SYN060AAXX  30091 57328 42580 21401 10368 20229 49966 57018 82100;,Q01+999990APOSP 
07-30T12:00:00,4,31.2,107.5,344.0,"DA XIAN, CH",FM-12,99999,V020,"040,1,N,0020,1","22000,1,9,N","030000,1,N,1","+0340,1","+0253,1","09969,1","06,0000,9,1",,,,,"02,99,1,01,1,01,1,01250,1,00,1,02,1",,,"99999,9,09592,1","2,1,002,1,+999,9",,SYN066AAXX  30121 57328 32680 20402 10340 20253 39592 49969 52002 81102;,Q01  00002PRCP06
07-30T15:00:00,4,31.2,107.5,344.0,"DA XIAN, CH",FM-12,99999,V020,"040,1,N,0020,1","22000,1,9,N","020000,1,N,1","+0296,1","+0262,1","09981,1",,,,,,"01,99,1,01,1,01,1,01250,1,00,1,00,1",,,"99999,9,09602,1","2,1,012,1,+999,9",,SYN060AAXX  30151 57328 42670 10402 10296 20262 49981 52012 81100;,Q01+999990APOSP 
07-30T18:00:00,4,31.2,107.5,344.0,"DA XIAN, CH",FM-12,99999,V020,"040,1,N,0020,1","22000,1,9,N","013000,1,N,1","+0281,1","+0257,1","09981,1","06,0000,9,1",,,,"00,1,+99999,9,99,9","00,99,1,00,1,00,1,99999,9,00,1,00,1",,"999,M,+0372,1","99999,9,09605,1","2,1,001,1,+999,9",,SYN070AAXX  30181 57328 32963 00402 10281 20257 39605 49981 52001 333 10372;,Q01  00002PRCP06
07-30T21:00:00,4,31.2,107.5,344.0,"DA XIAN, CH",FM-12,99999,V020,"040,1,N,0020,1","22000,1,9,N","012000,1,N,1","+0267,1","+0252,1","09986,1",,,,,"00,1,+99999,9,99,9","00,99,1,00,1,00,1,99999,9,00,1,00,1",,,"99999,9,09603,1","2,1,004,1,+999,9",,SYN054AAXX  30211 57328 42962 00402 10267 20252 49986 52004;,Q01+999990APOSP 
07-31T00:00:00,4,31.2,107.5,344.0,"DA XIAN, CH",FM-12,99999,V020,"020,1,N,0020,1","22000,1,9,N","012000,1,N,1","+0283,1","+0249,1","09994,1","06,0000,9,1",,,,,"01,99,1,01,1,00,1,99999,9,04,1,00,1",,,"99999,9,09616,1","2,1,007,1,+001,1",,SYN076AAXX  31001 57328 32962 10202 10283 20249 39616 49994 52007 81040 333 05100;,Q01  00002PRCP06
07-31T03:00:00,4,31.2,107.5,344.0,"DA XIAN, CH",FM-12,99999,V020,"020,1,N,0010,1","22000,1,9,N","020000,1,N,1","+0340,1","+0243,1","09994,1",,,,,"00,1,+99999,9,99,9","00,99,1,00,1,00,1,99999,9,00,1,00,1",,,"99999,9,09619,1","2,1,001,1,+999,9",,SYN054AAXX  31031 57328 42970 00201 10340 20243 49994 52001;,Q01+999990APOSP 
07-31T06:00:00,4,31.2,107.5,344.0,"DA XIAN, CH",FM-12,99999,V020,"090,1,N,0020,1","22000,1,9,N","030000,1,N,1","+0369,1","+0240,1","09974,1","06,0000,9,1",,,,,"01,99,1,01,1,01,1,01250,1,00,1,00,1",,"999,N,+0264,1","99999,9,09598,1","7,1,019,1,+999,9",,SYN076AAXX  31061 57328 32680 10902 10369 20240 39598 49974 57019 81100 333 20264;,Q01  00002PRCP06
07-31T09:00:00,4,31.2,107.5,344.0,"DA XIAN, CH",FM-12,99999,V020,"090,1,N,0020,1","22000,1,9,N","030000,1,N,1","+0365,1","+0240,1","09962,1",,,,,,"02,99,1,02,1,01,1,01250,1,00,1,00,1",,,"99999,9,09592,1","7,1,012,1,+999,9",,SYN060AAXX  31091 57328 42680 20902 10365 20240 49962 57012 82100;,Q01+999990APOSP 
07-31T12:00:00,4,31.2,107.5,344.0,"DA XIAN, CH",FM-12,99999,V020,"040,1,N,0010,1","22000,1,9,N","030000,1,N,1","+0343,1","+0258,1","09966,1","06,0000,9,1",,,,,"02,99,1,00,1,00,1,99999,9,00,1,01,1",,,"99999,9,09589,1","2,1,003,1,+999,9",,SYN066AAXX  31121 57328 32980 20401 10343 20258 39589 49966 52003 80001;,Q01  00002PRCP06
07-31T15:00:00,4,31.2,107.5,344.0,"DA XIAN, CH",FM-12,99999,V020,"020,1,N,0030,1","22000,1,9,N","015000,1,N,1","+0299,1","+0265,1","09981,1",,,,,"00,1,+99999,9,99,9","00,99,1,00,1,00,1,99999,9,00,1,00,1",,,"99999,9,09602,1","2,1,015,1,+999,9",,SYN054AAXX  31151 57328 42965 00203 10299 20265 49981 52015;,Q01+999990APOSP 
07-31T18:00:00,4,31.2,107.5,344.0,"DA XIAN, CH",FM-12,99999,V020,"040,1,N,0020,1","22000,1,9,N","015000,1,N,1","+0283,1","+0261,1","09981,1","06,0000,9,1",,,,"00,1,+99999,9,99,9","00,99,1,00,1,00,1,99999,9,00,1,00,1",,"999,M,+0380,1","99999,9,09605,1","2,1,001,1,+999,9",,SYN070AAXX  31181 57328 32965 00402 10283 20261 39605 49981 52001 333 10380;,Q01  00002PRCP06
07-31T21:00:00,4,31.2,107.5,344.0,"DA XIAN, CH",FM-12,99999,V020,"040,1,N,0040,1","22000,1,9,N","012000,1,N,1","+0271,1","+0247,1","09987,1",,,,,"00,1,+99999,9,99,9","00,99,1,00,1,00,1,99999,9,00,1,00,1",,,"99999,9,09604,1","2,1,005,1,+999,9",,SYN054AAXX  31211 57328 42962 00404 10271 20247 49987 52005;,Q01+999990APOSP 
08-01T00:00:00,4,31.2,107.5,344.0,"DA XIAN, CH",FM-12,99999,V020,"040,1,N,0030,1","99999,9,9,N","014000,1,N,1","+0287,1","+0245,1","09996,1","06,0000,9,1",,,,,"07,99,1,00,1,00,1,99999,9,00,1,02,1",,,"99999,9,09618,1","2,1,008,1,+000,1",,SYN076AAXX  01001 57328 32964 70403 10287 20245 39618 49996 52008 80002 333 00000;,Q01  00002PRCP06
08-01T03:00:00,4,31.2,107.5,344.0,"DA XIAN, CH",FM-12,99999,V020,"020,1,N,0030,1","22000,1,9,N","025000,1,N,1","+0345,1","+0247,1","09993,1",,,,,"00,1,+99999,9,99,9","00,99,1,00,1,00,1,99999,9,00,1,00,1",,,"99999,9,09619,1","7,1,002,1,+999,9",,SYN054AAXX  01031 57328 42975 00203 10345 20247 49993 57002;,Q01+999990APOSP 
08-01T06:00:00,4,31.2,107.5,344.0,"DA XIAN, CH",FM-12,99999,V020,"040,1,N,0030,1","22000,1,9,N","030000,1,N,1","+0361,1","+0245,1","09980,1","06,0000,9,1",,,,,"01,99,1,01,1,01,1,01250,1,00,1,00,1",,"999,N,+0268,1","99999,9,09604,1","7,1,012,1,+999,9",,SYN076AAXX  01061 57328 32680 10403 10361 20245 39604 49980 57012 81100 333 20268;,Q01  00002PRCP06
08-01T09:00:00,4,31.2,107.5,344.0,"DA XIAN, CH",FM-12,99999,V020,"070,1,N,0010,1","22000,1,9,N","030000,1,N,1","+0373,1","+0232,1","09969,1",,,,,,"01,99,1,01,1,01,1,01250,1,00,1,00,1",,,"99999,9,09599,1","7,1,011,1,+999,9",,SYN060AAXX  01091 57328 42680 10701 10373 20232 49969 57011 81100;,Q01+999990APOSP 
08-01T12:00:00,4,31.2,107.5,344.0,"DA XIAN, CH",FM-12,99999,V020,"040,1,N,0020,1","22000,1,9,N","030000,1,N,1","+0341,1","+0256,1","09978,1","06,0000,9,1",,,,,"01,99,1,01,1,00,1,99999,9,04,1,02,1",,,"99999,9,09601,1","2,1,008,1,+999,9",,SYN066AAXX  01121 57328 32980 10402 10341 20256 39601 49978 52008 81042;,Q01  00002PRCP06
08-01T15:00:00,4,31.2,107.5,344.0,"DA XIAN, CH",FM-12,99999,V020,"040,1,N,0030,1","22000,1,9,N","020000,1,N,1","+0305,1","+0261,1","09990,1",,,,,,"01,99,1,01,1,00,1,99999,9,04,1,00,1",,,"99999,9,09611,1","2,1,013,1,+999,9",,SYN060AAXX  01151 57328 42970 10403 10305 20261 49990 52013 81040;,Q01+999990APOSP 
08-01T18:00:00,4,31.2,107.5,344.0,"DA XIAN, CH",FM-12,99999,V020,"020,1,N,0030,1","22000,1,9,N","015000,1,N,1","+0289,1","+0259,1","09992,1","06,0000,9,1",,,,"00,1,+99999,9,99,9","00,99,1,00,1,00,1,99999,9,00,1,00,1",,"999,M,+0380,1","99999,9,09616,1","2,1,002,1,+999,9",,SYN070AAXX  01181 57328 32965 00203 10289 20259 39616 49992 52002 333 10380;,Q01  00002PRCP06
08-01T21:00:00,4,31.2,107.5,344.0,"DA XIAN, CH",FM-12,99999,V020,"040,1,N,0020,1","22000,1,9,N","012000,1,N,1","+0279,1","+0251,1","10001,1",,,,,"00,1,+99999,9,99,9","00,99,1,00,1,00,1,99999,9,00,1,00,1",,,"99999,9,09619,1","2,1,008,1,+999,9",,SYN054AAXX  01211 57328 42962 00402 10279 20251 40001 52008;,Q01+999990APOSP 
08-02T00:00:00,4,31.2,107.5,344.0,"DA XIAN, CH",FM-12,99999,V020,"020,1,N,0020,1","22000,1,9,N","015000,1,N,1","+0286,1","+0250,1","10017,1","06,0000,9,1",,,,"00,1,+99999,9,99,9","00,99,1,00,1,00,1,99999,9,00,1,00,1",,,"99999,9,09638,1","2,1,014,1,+002,1",,SYN070AAXX  02001 57328 32965 00202 10286 20250 39638 40017 52014 333 00200;,Q01  00002PRCP06
08-02T03:00:00,4,31.2,107.5,344.0,"DA XIAN, CH",FM-12,99999,V020,"020,1,N,0030,1","22000,1,9,N","020000,1,N,1","+0342,1","+0251,1","10015,1",,,,,,"01,99,1,01,1,01,1,01250,1,00,1,00,1",,,"99999,9,09640,1","4,1,000,1,+999,9",,SYN060AAXX  02031 57328 42670 10203 10342 20251 40015 54000 81100;,Q01+999990APOSP 
08-02T06:00:00,4,31.2,107.5,344.0,"DA XIAN, CH",FM-12,99999,V020,"340,1,N,0020,1","22000,1,9,N","025000,1,N,1","+0374,1","+0241,1","10001,1","06,0000,9,1",,,,,"03,99,1,03,1,01,1,01250,1,00,1,00,1",,"999,N,+0271,1","99999,9,09625,1","7,1,013,1,+999,9",,SYN076AAXX  02061 57328 32675 33402 10374 20241 39625 40001 57013 83100 333 20271;,Q01  00002PRCP06
08-02T09:00:00,4,31.2,107.5,344.0,"DA XIAN, CH",FM-12,99999,V020,"270,1,N,0030,1","01200,1,9,N","020000,1,N,1","+0363,1","+0247,1","09998,1",,,,,,"06,99,1,06,1,09,1,01250,1,00,1,00,1",,,"99999,9,09626,1","7,1,004,1,+999,9",,SYN060AAXX  02091 57328 42670 62703 10363 20247 49998 57004 86900;,Q01+999990APOSP 
08-02T12:00:00,4,31.2,107.5,344.0,"DA XIAN, CH",FM-12,99999,V020,"040,1,N,0030,1","09000,1,9,N","020000,1,N,1","+0310,1","+0235,1","10013,1","06,0000,9,1",,,,,"07,99,1,02,1,02,1,01250,1,00,1,02,1",,,"99999,9,09633,1","2,1,012,1,+999,9",,SYN066AAXX  02121 57328 32670 70403 10310 20235 39633 40013 52012 82202;,Q01  00002PRCP06
08-02T15:00:00,4,31.2,107.5,344.0,"DA XIAN, CH",FM-12,99999,V020,"040,1,N,0020,1","22000,1,9,N","018000,1,N,1","+0290,1","+0239,1","10030,1",,,,,"00,1,+99999,9,99,9","00,99,1,00,1,00,1,99999,9,00,1,00,1",,,"99999,9,09648,1","2,1,018,1,+999,9",,SYN054AAXX  02151 57328 42968 00402 10290 20239 40030 52018;,Q01+999990APOSP 
08-02T18:00:00,4,31.2,107.5,344.0,"DA XIAN, CH",FM-12,99999,V020,"090,1,N,0010,1","22000,1,9,N","015000,1,N,1","+0278,1","+0243,1","10024,1","06,0000,9,1",,,,"00,1,+99999,9,99,9","00,99,1,00,1,00,1,99999,9,00,1,00,1",,"999,M,+0380,1","99999,9,09647,1","7,1,004,1,+999,9",,SYN070AAXX  02181 57328 32965 00901 10278 20243 39647 40024 57004 333 10380;,Q01  00002PRCP06
08-02T21:00:00,4,31.2,107.5,344.0,"DA XIAN, CH",FM-12,99999,V020,"999,9,C,0000,1","99999,9,9,N","012000,1,N,1","+0270,1","+0246,1","10033,1",,,,,,"07,99,1,07,1,00,1,99999,9,04,1,99,9",,,"99999,9,09648,1","2,1,007,1,+999,9",,SYN060AAXX  02211 57328 42962 70000 10270 20246 40033 52007 8704/;,Q01+999990APOSP 
08-03T00:00:00,4,31.2,107.5,344.0,"DA XIAN, CH",FM-12,99999,V020,"999,9,C,0000,1","03600,1,9,N","007000,1,N,1","+0285,1","+0257,1","10048,1","06,0000,9,1",,,,,"07,99,1,01,1,01,1,01250,1,04,1,99,9",,,"99999,9,09666,1","2,1,012,1,+003,1","10,1",SYN082AAXX  03001 57328 31657 70000 10285 20257 39666 40048 52012 71000 8114/ 333 00300;,Q01  00002PRCP06
08-03T03:00:00,4,31.2,107.5,344.0,"DA XIAN, CH",FM-12,99999,V020,"040,1,N,0030,1","99999,9,9,N","015000,1,N,1","+0312,1","+0252,1","10055,1",,,,,,"07,99,1,07,1,00,1,99999,9,04,1,99,9",,,"99999,9,09675,1","2,1,007,1,+999,9",,SYN060AAXX  03031 57328 42965 70403 10312 20252 40055 52007 8704/;,Q01+999990APOSP 
08-03T06:00:00,4,31.2,107.5,344.0,"DA XIAN, CH",FM-12,99999,V020,"360,1,N,0020,1","09000,1,9,N","030000,1,N,1","+0341,1","+0261,1","10041,1","06,0000,9,1",,,,,"07,99,1,01,1,01,1,01250,1,00,1,08,1",,"999,N,+0266,1","99999,9,09661,1","7,1,012,1,+999,9",,SYN076AAXX  03061 57328 32680 73602 10341 20261 39661 40041 57012 81108 333 20266;,Q01  00002PRCP06
08-03T09:00:00,4,31.2,107.5,344.0,"DA XIAN, CH",FM-12,99999,V020,"020,1,N,0050,1","01200,1,9,N","030000,1,N,1","+0343,1","+0254,1","10029,1",,,,,,"07,99,1,07,1,01,1,01250,1,00,1,00,1",,,"99999,9,09653,1","7,1,012,1,+999,9",,SYN060AAXX  03091 57328 42680 70205 10343 20254 40029 57012 87100;,Q01+999990APOSP 
08-03T12:00:00,4,31.2,107.5,344.0,"DA XIAN, CH",FM-12,99999,V020,"040,1,N,0030,1","00750,1,9,N","030000,1,N,1","+0320,1","+0252,1","10030,1","06,0000,9,1",,,,,"07,99,1,06,1,01,1,00800,1,04,1,99,9",,,"99999,9,09649,1","4,1,000,1,+999,9",,SYN066AAXX  03121 57328 32580 70403 10320 20252 39649 40030 54000 8614/;,Q01  00002PRCP06
08-03T15:00:00,4,31.2,107.5,344.0,"DA XIAN, CH",FM-12,99999,V020,"040,1,N,0040,1","22000,1,9,N","020000,1,N,1","+0285,1","+0237,1","10044,1",,,,,"00,1,+99999,9,99,9","00,99,1,00,1,00,1,99999,9,00,1,00,1",,,"99999,9,09661,1","2,1,013,1,+999,9",,SYN054AAXX  03151 57328 42970 00404 10285 20237 40044 52013;,Q01+999990APOSP 
08-03T18:00:00,4,31.2,107.5,344.0,"DA XIAN, CH",FM-12,99999,V020,"040,1,N,0030,1","22000,1,9,N","012000,1,N,1","+0271,1","+0234,1","10042,1","06,0000,9,1",,,,"00,1,+99999,9,99,9","00,99,1,00,1,00,1,99999,9,00,1,00,1",,"999,M,+0353,1","99999,9,09661,1","7,1,001,1,+999,9",,SYN070AAXX  03181 57328 32962 00403 10271 20234 39661 40042 57001 333 10353;,Q01  00002PRCP06
08-03T21:00:00,4,31.2,107.5,344.0,"DA XIAN, CH",FM-12,99999,V020,"040,1,N,0020,1","22000,1,9,N","012000,1,N,1","+0265,1","+0242,1","10043,1",,,,,"00,1,+99999,9,99,9","00,99,1,00,1,00,1,99999,9,00,1,00,1",,,"99999,9,09657,1","2,1,001,1,+999,9",,SYN054AAXX  03211 57328 42962 00402 10265 20242 40043 52001;,Q01+999990APOSP 
08-04T00:00:00,4,31.2,107.5,344.0,"DA XIAN, CH",FM-12,99999,V020,"040,1,N,0020,1","22000,1,9,N","012000,1,N,1","+0274,1","+0243,1","10050,1","06,0000,9,1",,,,"00,1,+99999,9,99,9","00,99,1,00,1,00,1,99999,9,00,1,00,1",,,"99999,9,09668,1","2,1,006,1,+000,1",,SYN070AAXX  04001 57328 32962 00402 10274 20243 39668 40050 52006 333 00051;,Q01  00002PRCP06
08-04T03:00:00,4,31.2,107.5,344.0,"DA XIAN, CH",FM-12,99999,V020,"020,1,N,0010,1","22000,1,9,N","015000,1,N,1","+0327,1","+0255,1","10048,1",,,,,"00,1,+99999,9,99,9","00,99,1,00,1,00,1,99999,9,00,1,00,1",,,"99999,9,09670,1","7,1,001,1,+999,9",,SYN054AAXX  04031 57328 42965 00201 10327 20255 40048 57001;,Q01+999990APOSP 
08-04T06:00:00,4,31.2,107.5,344.0,"DA XIAN, CH",FM-12,99999,V020,"250,1,N,0020,1","22000,1,9,N","020000,1,N,1","+0352,1","+0242,1","10021,1","06,0000,9,1",,,,,"03,99,1,03,1,01,1,01250,1,00,1,00,1",,"999,N,+0259,1","99999,9,09642,1","7,1,025,1,+999,9",,SYN076AAXX  04061 57328 32670 32502 10352 20242 39642 40021 57025 83100 333 20259;,Q01  00002PRCP06
08-04T09:00:00,4,31.2,107.5,344.0,"DA XIAN, CH",FM-12,99999,V020,"020,1,N,0020,1","99999,9,9,N","020000,1,N,1","+0349,1","+0253,1","10004,1",,,,,,"07,99,1,00,1,00,1,99999,9,00,1,02,1",,,"99999,9,09630,1","7,1,017,1,+999,9",,SYN060AAXX  04091 57328 42970 70202 10349 20253 40004 57017 80002;,Q01+999990APOSP 
08-04T12:00:00,4,31.2,107.5,344.0,"DA XIAN, CH",FM-12,99999,V020,"040,1,N,0010,1","22000,1,9,N","015000,1,N,1","+0326,1","+0251,1","10007,1","06,0000,9,1",,,,,"04,99,1,00,1,00,1,99999,9,00,1,02,1",,,"99999,9,09627,1","2,1,002,1,+999,9",,SYN066AAXX  04121 57328 32965 40401 10326 20251 39627 40007 52002 80002;,Q01  00002PRCP06
08-04T15:00:00,4,31.2,107.5,344.0,"DA XIAN, CH",FM-12,99999,V020,"040,1,N,0020,1","22000,1,9,N","012000,1,N,1","+0293,1","+0260,1","10011,1",,,,,"00,1,+99999,9,99,9","00,99,1,00,1,00,1,99999,9,00,1,00,1",,,"99999,9,09630,1","2,1,005,1,+999,9",,SYN054AAXX  04151 57328 42962 00402 10293 20260 40011 52005;,Q01+999990APOSP 
08-04T18:00:00,4,31.2,107.5,344.0,"DA XIAN, CH",FM-12,99999,V020,"040,1,N,0020,1","22000,1,9,N","011000,1,N,1","+0281,1","+0256,1","10008,1","06,0000,9,1",,,,"00,1,+99999,9,99,9","00,99,1,00,1,00,1,99999,9,00,1,00,1",,"999,M,+0355,1","99999,9,09630,1","7,1,002,1,+999,9",,SYN070AAXX  04181 57328 32961 00402 10281 20256 39630 40008 57002 333 10355;,Q01  00002PRCP06
08-04T21:00:00,4,31.2,107.5,344.0,"DA XIAN, CH",FM-12,99999,V020,"070,1,N,0020,1","22000,1,9,N","012000,1,N,1","+0274,1","+0250,1","10012,1",,,,,"00,1,+99999,9,99,9","00,99,1,00,1,00,1,99999,9,00,1,00,1",,,"99999,9,09629,1","2,1,003,1,+999,9",,SYN054AAXX  04211 57328 42962 00702 10274 20250 40012 52003;,Q01+999990APOSP 
08-05T00:00:00,4,31.2,107.5,344.0,"DA XIAN, CH",FM-12,99999,V020,"090,1,N,0020,1","22000,1,9,N","010000,1,N,1","+0281,1","+0250,1","10021,1","06,0000,9,1",,,,,"01,99,1,01,1,00,1,99999,9,04,1,00,1",,,"99999,9,09641,1","2,1,008,1,+003,1",,SYN076AAXX  05001 57328 32960 10902 10281 20250 39641 40021 52008 81040 333 05301;,Q01  00002PRCP06
08-05T03:00:00,4,31.2,107.5,344.0,"DA XIAN, CH",FM-12,99999,V020,"070,1,N,0020,1","22000,1,9,N","012000,1,N,1","+0339,1","+0235,1","10022,1",,,,,,"02,99,1,02,1,00,1,99999,9,04,1,00,1",,,"99999,9,09646,1","2,1,002,1,+999,9",,SYN060AAXX  05031 57328 42962 20702 10339 20235 40022 52002 82040;,Q01+999990APOSP 
08-05T06:00:00,4,31.2,107.5,344.0,"DA XIAN, CH",FM-12,99999,V020,"180,1,N,0010,1","22000,1,9,N","020000,1,N,1","+0371,1","+0237,1","10000,1","06,0000,9,1",,,,,"01,99,1,01,1,01,1,00800,1,00,1,00,1",,"999,N,+0270,1","99999,9,09623,1","7,1,020,1,+999,9",,SYN076AAXX  05061 57328 32570 11801 10371 20237 39623 40000 57020 81100 333 20270;,Q01  00002PRCP06
08-05T09:00:00,4,31.2,107.5,344.0,"DA XIAN, CH",FM-12,99999,V020,"020,1,N,0020,1","22000,1,9,N","030000,1,N,1","+0367,1","+0239,1","09975,1",,,,,,"01,99,1,01,1,01,1,00800,1,00,1,00,1",,,"99999,9,09604,1","7,1,024,1,+999,9",,SYN060AAXX  05091 57328 42580 10202 10367 20239 49975 57024 81100;,Q01+999990APOSP 
08-05T12:00:00,4,31.2,107.5,344.0,"DA XIAN, CH",FM-12,99999,V020,"040,1,N,0020,1","22000,1,9,N","020000,1,N,1","+0337,1","+0249,1","09983,1","06,0000,9,1",,,,"00,1,+99999,9,99,9","00,99,1,00,1,00,1,99999,9,00,1,00,1",,,"99999,9,09605,1","2,1,006,1,+999,9",,SYN060AAXX  05121 57328 32970 00402 10337 20249 39605 49983 52006;,Q01  00002PRCP06
08-05T15:00:00,4,31.2,107.5,344.0,"DA XIAN, CH",FM-12,99999,V020,"020,1,N,0020,1","22000,1,9,N","015000,1,N,1","+0301,1","+0257,1","09999,1",,,,,"00,1,+99999,9,99,9","00,99,1,00,1,00,1,99999,9,00,1,00,1",,,"99999,9,09620,1","2,1,017,1,+999,9",,SYN054AAXX  05151 57328 42965 00202 10301 20257 49999 52017;,Q01+999990APOSP 
08-05T18:00:00,4,31.2,107.5,344.0,"DA XIAN, CH",FM-12,99999,V020,"040,1,N,0030,1","22000,1,9,N","011000,1,N,1","+0285,1","+0254,1","09993,1","06,0000,9,1",,,,"00,1,+99999,9,99,9","00,99,1,00,1,00,1,99999,9,00,1,00,1",,"999,M,+0378,1","99999,9,09617,1","7,1,005,1,+999,9",,SYN070AAXX  05181 57328 32961 00403 10285 20254 39617 49993 57005 333 10378;,Q01  00002PRCP06
08-05T21:00:00,4,31.2,107.5,344.0,"DA XIAN, CH",FM-12,99999,V020,"040,1,N,0020,1","22000,1,9,N","011000,1,N,1","+0275,1","+0251,1","09993,1",,,,,"00,1,+99999,9,99,9","00,99,1,00,1,00,1,99999,9,00,1,00,1",,,"99999,9,09611,1","7,1,001,1,+999,9",,SYN054AAXX  05211 57328 42961 00402 10275 20251 49993 57001;,Q01+999990APOSP 
08-06T00:00:00,4,31.2,107.5,344.0,"DA XIAN, CH",FM-12,99999,V020,"040,1,N,0010,1","22000,1,9,N","008000,1,N,1","+0283,1","+0248,1","10008,1","06,0000,9,1",,,,,"02,99,1,02,1,00,1,99999,9,04,1,00,1",,,"99999,9,09629,1","2,1,013,1,+001,1","10,1",SYN082AAXX  06001 57328 31958 20401 10283 20248 39629 40008 52013 71000 82040 333 05100;,Q01  00002PRCP06
08-06T03:00:00,4,31.2,107.5,344.0,"DA XIAN, CH",FM-12,99999,V020,"110,1,N,0020,1","22000,1,9,N","020000,1,N,1","+0342,1","+0248,1","10006,1",,,,,"00,1,+99999,9,99,9","00,99,1,00,1,00,1,99999,9,00,1,00,1",,,"99999,9,09631,1","4,1,000,1,+999,9",,SYN054AAXX  06031 57328 42970 01102 10342 20248 40006 54000;,Q01+999990APOSP 
08-06T06:00:00,4,31.2,107.5,344.0,"DA XIAN, CH",FM-12,99999,V020,"270,1,N,0020,1","22000,1,9,N","025000,1,N,1","+0375,1","+0232,1","09987,1","06,0000,9,1",,,,,"01,99,1,01,1,01,1,00800,1,00,1,00,1",,"999,N,+0271,1","99999,9,09611,1","7,1,018,1,+999,9",,SYN076AAXX  06061 57328 32575 12702 10375 20232 39611 49987 57018 81100 333 20271;,Q01  00002PRCP06
08-06T09:00:00,4,31.2,107.5,344.0,"DA XIAN, CH",FM-12,99999,V020,"090,1,N,0020,1","22000,1,9,N","025000,1,N,1","+0374,1","+0235,1","09972,1",,,,,,"01,99,1,01,1,01,1,01250,1,00,1,00,1",,,"99999,9,09602,1","7,1,015,1,+999,9",,SYN060AAXX  06091 57328 42675 10902 10374 20235 49972 57015 81100;,Q01+999990APOSP 
08-06T12:00:00,4,31.2,107.5,344.0,"DA XIAN, CH",FM-12,99999,V020,"040,1,N,0020,1","99999,9,9,N","020000,1,N,1","+0354,1","+0245,1","09982,1","06,0000,9,1",,,,,"06,99,1,00,1,00,1,99999,9,00,1,02,1",,,"99999,9,09605,1","2,1,009,1,+999,9",,SYN066AAXX  06121 57328 32970 60402 10354 20245 39605 49982 52009 80002;,Q01  00002PRCP06
08-06T15:00:00,4,31.2,107.5,344.0,"DA XIAN, CH",FM-12,99999,V020,"040,1,N,0020,1","99999,9,9,N","015000,1,N,1","+0316,1","+0242,1","10003,1",,,,,,"08,99,1,08,1,00,1,99999,9,07,1,99,9",,,"99999,9,09625,1","2,1,022,1,+999,9",,SYN060AAXX  06151 57328 42965 80402 10316 20242 40003 52022 8807/;,Q01+999990APOSP 
08-06T18:00:00,4,31.2,107.5,344.0,"DA XIAN, CH",FM-12,99999,V020,"090,1,N,0020,1","99999,9,9,N","012000,1,N,1","+0300,1","+0233,1","10003,1","06,0000,9,1",,,,,"07,99,1,07,1,00,1,99999,9,04,1,99,9",,"999,M,+0382,1","99999,9,09628,1","2,1,001,1,+999,9",,SYN076AAXX  06181 57328 32962 70902 10300 20233 39628 40003 52001 8704/ 333 10382;,Q01  00002PRCP06
08-06T21:00:00,4,31.2,107.5,344.0,"DA XIAN, CH",FM-12,99999,V020,"040,1,N,0030,1","22000,1,9,N","015000,1,N,1","+0283,1","+0238,1","10003,1",,,,,"00,1,+99999,9,99,9","00,99,1,00,1,00,1,99999,9,00,1,00,1",,,"99999,9,09621,1","7,1,001,1,+999,9",,SYN054AAXX  06211 57328 42965 00403 10283 20238 40003 57001;,
08-07T00:00:00,4,31.2,107.5,344.0,"DA XIAN, CH",FM-12,99999,V020,"040,1,N,0020,1","22000,1,9,N","012000,1,N,1","+0288,1","+0241,1","10016,1","06,0000,9,1",,,,"00,1,+99999,9,99,9","00,99,1,00,1,00,1,99999,9,00,1,00,1",,,"99999,9,09638,1","2,1,011,1,+001,1",,SYN070AAXX  07001 57328 32962 00402 10288 20241 39638 40016 52011 333 00101;,Q01  00002PRCP06
08-07T03:00:00,4,31.2,107.5,344.0,"DA XIAN, CH",FM-12,99999,V020,"360,1,N,0010,1","99999,9,9,N","012000,1,N,1","+0339,1","+0246,1","10016,1",,,,,,"07,99,1,07,1,00,1,99999,9,04,1,00,1",,,"99999,9,09640,1","2,1,001,1,+999,9",,SYN060AAXX  07031 57328 42962 73601 10339 20246 40016 52001 87040;,Q01+999990APOSP 
08-07T06:00:00,4,31.2,107.5,344.0,"DA XIAN, CH",FM-12,99999,V020,"290,1,N,0020,1","22000,1,9,N","015000,1,N,1","+0377,1","+0228,1","09999,1","06,0000,9,1",,,,,"02,99,1,02,1,01,1,01250,1,00,1,00,1",,"999,N,+0276,1","99999,9,09624,1","7,1,015,1,+999,9",,SYN076AAXX  07061 57328 32665 22902 10377 20228 39624 49999 57015 82100 333 20276;,Q01  00002PRCP06
08-07T09:00:00,4,31.2,107.5,344.0,"DA XIAN, CH",FM-12,99999,V020,"220,1,N,0020,1","22000,1,9,N","030000,1,N,1","+0385,1","+0231,1","09981,1",,,,,,"01,99,1,01,1,01,1,01250,1,00,1,00,1",,,"99999,9,09612,1","7,1,018,1,+999,9",,SYN060AAXX  07091 57328 42680 12202 10385 20231 49981 57018 81100;,Q01+999990APOSP 
08-07T12:00:00,4,31.2,107.5,344.0,"DA XIAN, CH",FM-12,99999,V020,"040,1,N,0030,1","22000,1,9,N","015000,1,N,1","+0341,1","+0250,1","09981,1","06,0000,9,1",,,,,"02,99,1,00,1,00,1,99999,9,00,1,02,1",,,"99999,9,09604,1","7,1,002,1,+999,9",,SYN066AAXX  07121 57328 32965 20403 10341 20250 39604 49981 57002 80002;,Q01  00002PRCP06
08-07T15:00:00,4,31.2,107.5,344.0,"DA XIAN, CH",FM-12,99999,V020,"040,1,N,0020,1","22000,1,9,N","008000,1,N,1","+0307,1","+0259,1","10003,1",,,,,"00,1,+99999,9,99,9","00,99,1,00,1,00,1,99999,9,00,1,00,1",,,"99999,9,09624,1","2,1,022,1,+999,9","10,1",SYN060AAXX  07151 57328 41958 00402 10307 20259 40003 52022 71000;,Q01+999990APOSP 
08-07T18:00:00,4,31.2,107.5,344.0,"DA XIAN, CH",FM-12,99999,V020,"040,1,N,0020,1","22000,1,9,N","008000,1,N,1","+0291,1","+0255,1","10000,1","06,0000,9,1",,,,"00,1,+99999,9,99,9","00,99,1,00,1,00,1,99999,9,00,1,00,1",,"999,M,+0389,1","99999,9,09624,1","7,1,002,1,+999,9","10,1",SYN076AAXX  07181 57328 31958 00402 10291 20255 39624 40000 57002 71000 333 10389;,Q01  00002PRCP06
08-07T21:00:00,4,31.2,107.5,344.0,"DA XIAN, CH",FM-12,99999,V020,"040,1,N,0020,1","22000,1,9,N","006000,1,N,1","+0274,1","+0253,1","09993,1",,,,,"00,1,+99999,9,99,9","00,99,1,00,1,00,1,99999,9,00,1,00,1",,,"99999,9,09610,1","7,1,007,1,+999,9","10,1",SYN060AAXX  07211 57328 41956 00402 10274 20253 49993 57007 71000;,Q01+999990APOSP 
08-08T00:00:00,4,31.2,107.5,344.0,"DA XIAN, CH",FM-12,99999,V020,"040,1,N,0030,1","99999,9,9,N","012000,1,N,1","+0281,1","+0253,1","10006,1","06,0000,9,1",,,,,"07,99,1,07,1,00,1,99999,9,04,1,99,9",,,"99999,9,09627,1","2,1,010,1,+001,1",,SYN076AAXX  08001 57328 32962 70403 10281 20253 39627 40006 52010 8704/ 333 05151;,Q01  00002PRCP06
08-08T03:00:00,4,31.2,107.5,344.0,"DA XIAN, CH",FM-12,99999,V020,"360,1,N,0030,1","22000,1,9,N","015000,1,N,1","+0337,1","+0245,1","10000,1",,,,,"00,1,+99999,9,99,9","00,99,1,00,1,00,1,99999,9,00,1,00,1",,,"99999,9,09625,1","7,1,004,1,+999,9",,SYN054AAXX  08031 57328 42965 03603 10337 20245 40000 57004;,Q01+999990APOSP 
08-08T06:00:00,4,31.2,107.5,344.0,"DA XIAN, CH",FM-12,99999,V020,"220,1,N,0030,1","22000,1,9,N","028000,1,N,1","+0369,1","+0235,1","09980,1","06,0000,9,1",,,,,"04,99,1,04,1,01,1,01250,1,00,1,00,1",,"999,N,+0272,1","99999,9,09605,1","7,1,018,1,+999,9",,SYN076AAXX  08061 57328 32678 42203 10369 20235 39605 49980 57018 84100 333 20272;,Q01  00002PRCP06
08-08T09:00:00,4,31.2,107.5,344.0,"DA XIAN, CH",FM-12,99999,V020,"999,9,C,0000,1","09000,1,9,N","030000,1,N,1","+0385,1","+0238,1","09966,1",,,,,,"07,99,1,01,1,01,1,01250,1,00,1,02,1",,,"99999,9,09598,1","7,1,014,1,+999,9",,SYN060AAXX  08091 57328 42680 70000 10385 20238 49966 57014 81102;,Q01+999990APOSP 
08-08T12:00:00,4,31.2,107.5,344.0,"DA XIAN, CH",FM-12,99999,V020,"040,1,N,0020,1","99999,9,9,N","020000,1,N,1","+0343,1","+0243,1","09970,1","06,0000,9,1",,,,,"07,99,1,00,1,00,1,99999,9,00,1,02,1",,,"99999,9,09593,1","2,1,002,1,+999,9",,SYN066AAXX  08121 57328 32970 70402 10343 20243 39593 49970 52002 80002;,Q01  00002PRCP06
08-08T15:00:00,4,31.2,107.5,344.0,"DA XIAN, CH",FM-12,99999,V020,"020,1,N,0010,1","99999,9,9,N","015000,1,N,1","+0307,1","+0252,1","09977,1",,,,,,"07,99,1,07,1,00,1,99999,9,04,1,99,9",,,"99999,9,09599,1","2,1,008,1,+999,9",,SYN060AAXX  08151 57328 42965 70201 10307 20252 49977 52008 8704/;,Q01+999990APOSP 
08-08T18:00:00,4,31.2,107.5,344.0,"DA XIAN, CH",FM-12,99999,V020,"040,1,N,0020,1","22000,1,9,N","012000,1,N,1","+0289,1","+0254,1","09964,1","06,0000,9,1",,,,,"03,99,1,03,1,00,1,99999,9,04,1,00,1",,"999,M,+0385,1","99999,9,09589,1","7,1,012,1,+999,9",,SYN076AAXX  08181 57328 32962 30402 10289 20254 39589 49964 57012 83040 333 10385;,Q01  00002PRCP06
08-08T21:00:00,4,31.2,107.5,344.0,"DA XIAN, CH",FM-12,99999,V020,"040,1,N,0020,1","22000,1,9,N","012000,1,N,1","+0283,1","+0251,1","09966,1",,,,,"00,1,+99999,9,99,9","00,99,1,00,1,00,1,99999,9,00,1,00,1",,,"99999,9,09586,1","2,1,003,1,+999,9",,SYN054AAXX  08211 57328 42962 00402 10283 20251 49966 52003;,Q01+999990APOSP 
08-09T00:00:00,4,31.2,107.5,344.0,"DA XIAN, CH",FM-12,99999,V020,"020,1,N,0020,1","22000,1,9,N","014000,1,N,1","+0292,1","+0253,1","09979,1","06,0000,9,1",,,,,"03,99,1,01,1,01,1,01250,1,04,1,00,1",,,"99999,9,09602,1","2,1,010,1,+003,1",,SYN076AAXX  09001 57328 32664 30202 10292 20253 39602 49979 52010 81140 333 05301;,Q01  00002PRCP06
08-09T03:00:00,4,31.2,107.5,344.0,"DA XIAN, CH",FM-12,99999,V020,"340,1,N,0020,1","22000,1,9,N","015000,1,N,1","+0347,1","+0252,1","09977,1",,,,,,"01,99,1,01,1,01,1,01250,1,00,1,00,1",,,"99999,9,09604,1","7,1,001,1,+999,9",,SYN060AAXX  09031 57328 42665 13402 10347 20252 49977 57001 81100;,Q01+999990APOSP 
08-09T06:00:00,4,31.2,107.5,344.0,"DA XIAN, CH",FM-12,99999,V020,"250,1,N,0020,1","01200,1,9,N","020000,1,N,1","+0367,1","+0233,1","09960,1","06,0000,9,1",,,,,"07,99,1,07,1,01,1,01250,1,00,1,00,1",,"999,N,+0279,1","99999,9,09585,1","7,1,016,1,+999,9",,SYN076AAXX  09061 57328 32670 72502 10367 20233 39585 49960 57016 87100 333 20279;,Q01  00002PRCP06
08-09T09:00:00,4,31.2,107.5,344.0,"DA XIAN, CH",FM-12,99999,V020,"020,1,N,0040,1","03600,1,9,N","020000,1,N,1","+0330,1","+0238,1","09957,1",,,"9,1,03,1","8,1,03,1",,"07,99,1,01,1,01,1,01250,1,04,1,02,1",,,"99999,9,09583,1","7,1,005,1,+999,9","25,1",SYN066AAXX  09091 57328 41670 70204 10330 20238 49957 57005 72598 81142;,Q01+999990APOSP 
08-09T12:00:00,4,31.2,107.5,344.0,"DA XIAN, CH",FM-12,99999,V020,"070,1,N,0050,1","22000,1,9,N","020000,1,N,1","+0316,1","+0245,1","09969,1","06,9999,9,9",,"9,1,06,1","8,1,06,1",,"02,99,1,00,1,00,1,99999,9,00,1,02,1",,,"99999,9,09591,1","2,1,011,1,+999,9","00,1",SYN078AAXX  09121 57328 11970 20705 10316 20245 39591 49969 52011 69901 70098 80002;,
08-09T15:00:00,4,31.2,107.5,344.0,"DA XIAN, CH",FM-12,99999,V020,"020,1,N,0020,1","22000,1,9,N","020000,1,N,1","+0298,1","+0223,1","09987,1",,,,,"00,1,+99999,9,99,9","00,99,1,00,1,00,1,99999,9,00,1,00,1",,,"99999,9,09608,1","2,1,020,1,+999,9",,SYN054AAXX  09151 57328 42970 00202 10298 20223 49987 52020;,Q01+999990APOSP 
08-09T18:00:00,4,31.2,107.5,344.0,"DA XIAN, CH",FM-12,99999,V020,"070,1,N,0020,1","99999,9,9,N","020000,1,N,1","+0287,1","+0219,1","09983,1","06,0000,9,1",,,,,"06,99,1,06,1,00,1,99999,9,04,1,00,1",,"999,M,+0379,1","99999,9,09607,1","7,1,004,1,+999,9",,SYN076AAXX  09181 57328 32970 60702 10287 20219 39607 49983 57004 86040 333 10379;,Q01  00002PRCP06
08-09T21:00:00,4,31.2,107.5,344.0,"DA XIAN, CH",FM-12,99999,V020,"340,1,N,0010,1","01500,1,9,N","006000,1,N,1","+0255,1","+0232,1","09994,1","24,0018,9,1",,"8,1,03,1",,,"08,99,1,08,1,09,1,01750,1,99,9,99,9",,,"99999,9,09609,1","2,1,007,1,+999,9","95,1",SYN076AAXX  09211 57328 41756 83401 10255 20232 49994 52007 79580 889// 333 70018;,Q01+999990APOSP 
08-10T00:00:00,4,31.2,107.5,344.0,"DA XIAN, CH",FM-12,99999,V020,"999,9,C,0000,1","01500,1,9,N","008000,1,N,1","+0247,1","+0233,1","10019,1","06,0099,9,1","24,0102,9,1","9,1,06,1","8,1,06,1",,"08,99,1,08,1,09,1,01750,1,99,9,99,9",,,"99999,9,09636,1","2,1,022,1,+030,1","95,1",SYN094AAXX  10001 57328 11758 80000 10247 20233 39636 40019 52022 60101 79598 889// 333 00355 70101;,
08-10T03:00:00,4,31.2,107.5,344.0,"DA XIAN, CH",FM-12,99999,V020,"040,1,N,0030,1","01500,1,9,N","012000,1,N,1","+0236,1","+0227,1","10036,1",,,"9,1,03,1","8,1,03,1",,"08,99,1,08,1,09,1,01750,1,99,9,99,9",,,"99999,9,09647,1","2,1,015,1,+999,9","80,1",SYN066AAXX  10031 57328 41762 80403 10236 20227 40036 52015 78098 889//;,Q01+999990APOSP 
08-10T06:00:00,4,31.2,107.5,344.0,"DA XIAN, CH",FM-12,99999,V020,"020,1,N,0030,1","02100,1,9,N","012000,1,N,1","+0237,1","+0230,1","10032,1","06,0391,9,1",,"9,1,06,1","8,1,06,1",,"08,99,1,08,1,05,1,02250,1,99,9,99,9",,"999,N,+0233,1","99999,9,09646,1","7,1,005,1,+999,9","60,1",SYN088AAXX  10061 57328 11862 80203 10237 20230 39646 40032 57005 60391 76098 885// 333 20233;,
08-10T09:00:00,4,31.2,107.5,344.0,"DA XIAN, CH",FM-12,99999,V020,"040,1,N,0020,1","02100,1,9,N","015000,1,N,1","+0239,1","+0230,1","10029,1",,,"6,1,03,1","6,1,03,1",,"08,99,1,08,1,05,1,02250,1,99,9,99,9",,,"99999,9,09641,1","7,1,004,1,+999,9","60,1",SYN066AAXX  10091 57328 41865 80402 10239 20230 40029 57004 76066 885//;,Q01+999990APOSP 
08-10T12:00:00,4,31.2,107.5,344.0,"DA XIAN, CH",FM-12,99999,V020,"020,1,N,0020,1","02100,1,9,N","030000,1,N,1","+0239,1","+0221,1","10040,1","06,0020,9,1",,"6,1,06,1",,,"08,99,1,08,1,05,1,02250,1,99,9,99,9",,,"99999,9,09652,1","2,1,010,1,+999,9","00,1",SYN078AAXX  10121 57328 11880 80202 10239 20221 39652 40040 52010 60021 70060 885//;,
08-10T15:00:00,4,31.2,107.5,344.0,"DA XIAN, CH",FM-12,99999,V020,"040,1,N,0030,1","02100,1,9,N","018000,1,N,1","+0219,1","+0207,1","10065,1",,,"6,1,03,1",,,"08,99,1,08,1,05,1,02250,1,99,9,99,9",,,"99999,9,09673,1","2,1,022,1,+999,9","60,1",SYN066AAXX  10151 57328 41868 80403 10219 20207 40065 52022 76060 885//;,Q01+999990APOSP 
08-10T18:00:00,4,31.2,107.5,344.0,"DA XIAN, CH",FM-12,99999,V020,"090,1,N,0010,1","02100,1,9,N","015000,1,N,1","+0217,1","+0208,1","10069,1","06,0130,9,1",,"6,1,06,1",,,"08,99,1,08,1,05,1,02250,1,99,9,99,9",,"999,M,+0286,1","99999,9,09677,1","2,1,003,1,+999,9","60,1",SYN088AAXX  10181 57328 11865 80901 10217 20208 39677 40069 52003 60131 76060 885// 333 10286;,
08-10T21:00:00,4,31.2,107.5,344.0,"DA XIAN, CH",FM-12,99999,V020,"040,1,N,0020,1","02100,1,9,N","030000,1,N,1","+0207,1","+0190,1","10071,1","24,0627,9,1",,"6,1,03,1",,,"08,99,1,08,1,05,1,02250,1,99,9,99,9",,,"99999,9,09677,1","2,1,002,1,+999,9","21,1",SYN076AAXX  10211 57328 41880 80402 10207 20190 40071 52002 72160 885// 333 70627;,Q01+999990APOSP 
08-11T03:00:00,4,31.2,107.5,344.0,"DA XIAN, CH",FM-12,99999,V020,"040,1,N,0020,1","99999,9,9,N","015000,1,N,1","+0206,1","+0190,1","10107,1",,,"6,1,03,1",,,"08,99,1,08,1,00,1,99999,9,02,1,99,9",,,"99999,9,09711,1","2,1,018,1,+999,9","60,1",SYN066AAXX  11031 57328 41965 80402 10206 20190 40107 52018 76060 8802/;,Q01+999990APOSP 
08-11T06:00:00,4,31.2,107.5,344.0,"DA XIAN, CH",FM-12,99999,V020,"040,1,N,0030,1","99999,9,9,N","030000,1,N,1","+0212,1","+0181,1","10104,1","06,9999,9,9",,"6,1,06,1",,,"08,99,1,08,1,00,1,99999,9,02,1,99,9",,"999,N,+0203,1","99999,9,09709,1","7,1,003,1,+999,9","00,1",SYN088AAXX  11061 57328 11980 80403 10212 20181 39709 40104 57003 69911 70060 8802/ 333 20203;,
08-11T09:00:00,4,31.2,107.5,344.0,"DA XIAN, CH",FM-12,99999,V020,"020,1,N,0030,1","02100,1,9,N","030000,1,N,1","+0219,1","+0181,1","10102,1",,,,,,"08,99,1,08,1,05,1,02250,1,99,9,99,9",,,"99999,9,09708,1","7,1,002,1,+999,9",,SYN060AAXX  11091 57328 42880 80203 10219 20181 40102 57002 885//;,Q01+999990APOSP 
08-11T12:00:00,4,31.2,107.5,344.0,"DA XIAN, CH",FM-12,99999,V020,"040,1,N,0020,1","02100,1,9,N","030000,1,N,1","+0213,1","+0180,1","10104,1","06,0000,9,1",,,,,"08,99,1,08,1,05,1,02250,1,99,9,99,9",,,"99999,9,09709,1","2,1,002,1,+999,9",,SYN066AAXX  11121 57328 32880 80402 10213 20180 39709 40104 52002 885//;,Q01  00002PRCP06
08-11T15:00:00,4,31.2,107.5,344.0,"DA XIAN, CH",FM-12,99999,V020,"090,1,N,0010,1","99999,9,9,N","030000,1,N,1","+0210,1","+0188,1","10113,1",,,,,,"08,99,1,08,1,00,1,99999,9,07,1,99,9",,,"99999,9,09718,1","2,1,008,1,+999,9",,SYN060AAXX  11151 57328 42980 80901 10210 20188 40113 52008 8807/;,Q01+999990APOSP 
08-11T18:00:00,4,31.2,107.5,344.0,"DA XIAN, CH",FM-12,99999,V020,"070,1,N,0010,1","99999,9,9,N","020000,1,N,1","+0209,1","+0187,1","10108,1","06,0000,9,1",,,,,"08,99,1,08,1,00,1,99999,9,07,1,99,9",,"999,M,+0219,1","99999,9,09713,1","7,1,004,1,+999,9",,SYN076AAXX  11181 57328 32970 80701 10209 20187 39713 40108 57004 8807/ 333 10219;,Q01  00002PRCP06
08-11T21:00:00,4,31.2,107.5,344.0,"DA XIAN, CH",FM-12,99999,V020,"040,1,N,0020,1","02100,1,9,N","020000,1,N,1","+0202,1","+0188,1","10103,1","24,0000,2,1",,,,,"08,99,1,08,1,05,1,02250,1,99,9,99,9",,,"99999,9,09707,1","7,1,005,1,+999,9","60,1",SYN076AAXX  11211 57328 41870 80402 10202 20188 40103 57005 76000 885// 333 70001;,Q01+999990APOSP 
08-12T00:00:00,4,31.2,107.5,344.0,"DA XIAN, CH",FM-12,99999,V020,"040,1,N,0020,1","02100,1,9,N","007000,1,N,1","+0197,1","+0191,1","10110,1","06,0003,9,1","24,0005,9,1","6,1,06,1",,,"08,99,1,08,1,05,1,02250,1,99,9,99,9",,,"99999,9,09714,1","2,1,006,1,+020,1","21,1",SYN094AAXX  12001 57328 11857 80402 10197 20191 39714 40110 52006 69931 72160 885// 333 00251 70004;,
08-12T03:00:00,4,31.2,107.5,344.0,"DA XIAN, CH",FM-12,99999,V020,"020,1,N,0020,1","03600,1,9,N","017000,1,N,1","+0231,1","+0199,1","10107,1",,,,,,"07,99,1,02,1,01,1,01250,1,04,1,99,9",,,"99999,9,09715,1","7,1,001,1,+999,9",,SYN060AAXX  12031 57328 42667 70202 10231 20199 40107 57001 8214/;,Q01+999990APOSP 
08-12T06:00:00,4,31.2,107.5,344.0,"DA XIAN, CH",FM-12,99999,V020,"090,1,N,0010,1","03600,1,9,N","012000,1,N,1","+0255,1","+0198,1","10100,1","06,0000,2,1",,,,,"08,99,1,02,1,01,1,01250,1,07,1,99,9",,"999,N,+0195,1","99999,9,09708,1","7,1,005,1,+999,9",,SYN076AAXX  12061 57328 32662 80901 10255 20198 39708 40100 57005 8217/ 333 20195;,
08-12T09:00:00,4,31.2,107.5,344.0,"DA XIAN, CH",FM-12,99999,V020,"040,1,N,0020,1","02100,1,9,N","015000,1,N,1","+0253,1","+0204,1","10086,1",,,,,,"08,99,1,08,1,05,1,02250,1,99,9,99,9",,,"99999,9,09697,1","7,1,014,1,+999,9",,SYN060AAXX  12091 57328 42865 80402 10253 20204 40086 57014 885//;,Q01+999990APOSP 
08-12T12:00:00,4,31.2,107.5,344.0,"DA XIAN, CH",FM-12,99999,V020,"040,1,N,0020,1","99999,9,9,N","017000,1,N,1","+0239,1","+0206,1","10091,1","06,0000,9,1",,,,,"08,99,1,08,1,00,1,99999,9,07,1,99,9",,,"99999,9,09697,1","2,1,003,1,+999,9",,SYN066AAXX  12121 57328 32967 80402 10239 20206 39697 40091 52003 8807/;,Q01  00002PRCP06
08-12T15:00:00,4,31.2,107.5,344.0,"DA XIAN, CH",FM-12,99999,V020,"070,1,N,0010,1","99999,9,9,N","013000,1,N,1","+0232,1","+0202,1","10100,1",,,,,,"08,99,1,08,1,00,1,99999,9,07,1,99,9",,,"99999,9,09708,1","2,1,011,1,+999,9",,SYN060AAXX  12151 57328 42963 80701 10232 20202 40100 52011 8807/;,Q01+999990APOSP 
08-12T18:00:00,4,31.2,107.5,344.0,"DA XIAN, CH",FM-12,99999,V020,"040,1,N,0030,1","02100,1,9,N","008000,1,N,1","+0225,1","+0196,1","10097,1","06,9999,9,9",,"6,1,06,1",,,"08,99,1,08,1,05,1,02250,1,99,9,99,9",,"999,M,+0266,1","99999,9,09706,1","7,1,002,1,+999,9","60,1",SYN088AAXX  12181 57328 11858 80403 10225 20196 39706 40097 57002 69901 76060 885// 333 10266;,
08-12T21:00:00,4,31.2,107.5,344.0,"DA XIAN, CH",FM-12,99999,V020,"040,1,N,0020,1","02100,1,9,N","004000,1,N,1","+0207,1","+0202,1","10091,1","24,0036,9,1",,"6,1,03,1","6,1,03,1",,"08,99,1,08,1,05,1,02250,1,99,9,99,9",,,"99999,9,09696,1","7,1,007,1,+999,9","60,1",SYN076AAXX  12211 57328 41840 80402 10207 20202 40091 57007 76066 885// 333 70036;,Q01+999990APOSP 
08-13T00:00:00,4,31.2,107.5,344.0,"DA XIAN, CH",FM-12,99999,V020,"040,1,N,0010,1","00420,1,9,N","003000,1,N,1","+0207,1","+0204,1","10097,1","06,0071,9,1","24,0074,9,1","6,1,06,1","6,1,06,1",,"08,99,1,08,1,05,1,00450,1,99,9,99,9",,,"99999,9,09704,1","2,1,005,1,-010,1","60,1",SYN094AAXX  13001 57328 11430 80401 10207 20204 39704 40097 52005 60071 76066 885// 333 05101 70073;,
08-13T03:00:00,4,31.2,107.5,344.0,"DA XIAN, CH",FM-12,99999,V020,"040,1,N,0010,1","00420,1,9,N","005000,1,N,1","+0207,1","+0201,1","10095,1",,,"6,1,03,1","6,1,03,1",,"08,99,1,08,1,05,1,00450,1,99,9,99,9",,,"99999,9,09700,1","7,1,003,1,+999,9","60,1",SYN066AAXX  13031 57328 41450 80401 10207 20201 40095 57003 76066 885//;,Q01+999990APOSP 
08-13T06:00:00,4,31.2,107.5,344.0,"DA XIAN, CH",FM-12,99999,V020,"160,1,N,0010,1","00420,1,9,N","004000,1,N,1","+0211,1","+0202,1","10102,1","06,0079,9,1",,"6,1,06,1","6,1,06,1",,"08,99,1,08,1,05,1,00450,1,99,9,99,9",,"999,N,+0206,1","99999,9,09708,1","7,1,002,1,+999,9","60,1",SYN088AAXX  13061 57328 11440 81601 10211 20202 39708 40102 57002 60081 76066 885// 333 20206;,
08-13T09:00:00,4,31.2,107.5,344.0,"DA XIAN, CH",FM-12,99999,V020,"140,1,N,0010,1","02100,1,9,N","006000,1,N,1","+0206,1","+0198,1","10089,1",,,"6,1,03,1","6,1,03,1",,"08,99,1,08,1,05,1,02250,1,99,9,99,9",,,"99999,9,09694,1","7,1,014,1,+999,9","60,1",SYN066AAXX  13091 57328 41856 81401 10206 20198 40089 57014 76066 885//;,Q01+999990APOSP 
08-13T12:00:00,4,31.2,107.5,344.0,"DA XIAN, CH",FM-12,99999,V020,"999,9,C,0000,1","00420,1,9,N","003000,1,N,1","+0205,1","+0197,1","10088,1","06,0020,9,1",,"6,1,06,1","6,1,06,1",,"08,99,1,08,1,05,1,00450,1,99,9,99,9",,,"99999,9,09693,1","7,1,001,1,+999,9","60,1",SYN078AAXX  13121 57328 11430 80000 10205 20197 39693 40088 57001 60021 76066 885//;,
08-13T15:00:00,4,31.2,107.5,344.0,"DA XIAN, CH",FM-12,99999,V020,"999,9,C,0000,1","00420,1,9,N","004000,1,N,1","+0205,1","+0200,1","10097,1",,,"6,1,03,1","6,1,03,1",,"08,99,1,08,1,05,1,00450,1,99,9,99,9",,,"99999,9,09702,1","2,1,009,1,+999,9","60,1",SYN066AAXX  13151 57328 41440 80000 10205 20200 40097 52009 76066 885//;,Q01+999990APOSP 
08-13T18:00:00,4,31.2,107.5,344.0,"DA XIAN, CH",FM-12,99999,V020,"999,9,C,0000,1","02100,1,9,N","004000,1,N,1","+0205,1","+0200,1","10087,1","06,0005,9,1",,"6,1,06,1","6,1,06,1",,"08,99,1,08,1,05,1,02250,1,99,9,99,9",,"999,M,+0224,1","99999,9,09692,1","7,1,010,1,+999,9","21,1",SYN088AAXX  13181 57328 11840 80000 10205 20200 39692 40087 57010 69961 72166 885// 333 10224;,
08-13T21:00:00,4,31.2,107.5,344.0,"DA XIAN, CH",FM-12,99999,V020,"180,1,N,0010,1","02100,1,9,N","003000,1,N,1","+0205,1","+0200,1","10075,1","24,0185,9,1",,"6,1,03,1",,,"08,99,1,08,1,05,1,02250,1,99,9,99,9",,,"99999,9,09680,1","7,1,012,1,+999,9","60,1",SYN076AAXX  13211 57328 41830 81801 10205 20200 40075 57012 76060 885// 333 70185;,Q01+999990APOSP 
08-14T00:00:00,4,31.2,107.5,344.0,"DA XIAN, CH",FM-12,99999,V020,"160,1,N,0010,1","00420,1,9,N","006000,1,N,1","+0203,1","+0197,1","10076,1","06,0089,9,1","24,0196,9,1","6,1,06,1",,,"08,99,1,08,1,05,1,00450,1,99,9,99,9",,,"99999,9,09681,1","2,1,001,1,-020,1","60,1",SYN094AAXX  14001 57328 11456 81601 10203 20197 39681 40076 52001 60091 76060 885// 333 05200 70195;,
08-14T03:00:00,4,31.2,107.5,344.0,"DA XIAN, CH",FM-12,99999,V020,"999,9,C,0000,1","03600,1,9,N","003000,1,N,1","+0206,1","+0197,1","10079,1",,,"6,1,03,1","6,1,03,1",,"08,99,1,02,1,07,1,00800,1,02,1,99,9",,,"99999,9,09684,1","2,1,003,1,+999,9","60,1",SYN066AAXX  14031 57328 41530 80000 10206 20197 40079 52003 76066 8272/;,Q01+999990APOSP 
08-14T09:00:00,4,31.2,107.5,344.0,"DA XIAN, CH",FM-12,99999,V020,"040,1,N,0020,1","99999,9,9,N","003000,1,N,1","+0207,1","+0204,1","10055,1",,,"6,1,03,1","6,1,03,1",,"08,99,1,08,1,00,1,99999,9,02,1,99,9",,,"99999,9,09661,1","7,1,013,1,+999,9","60,1",SYN066AAXX  14091 57328 41930 80402 10207 20204 40055 57013 76066 8802/;,Q01+999990APOSP 
08-14T12:00:00,4,31.2,107.5,344.0,"DA XIAN, CH",FM-12,99999,V020,"090,1,N,0010,1","00750,1,9,N","003000,1,N,1","+0210,1","+0205,1","10054,1","06,0010,9,1",,"6,1,06,1","6,1,06,1",,"08,99,1,05,1,07,1,00800,1,02,1,99,9",,,"99999,9,09660,1","7,1,001,1,+999,9","60,1",SYN078AAXX  14121 57328 11530 80901 10210 20205 39660 40054 57001 60011 76066 8572/;,
08-14T15:00:00,4,31.2,107.5,344.0,"DA XIAN, CH",FM-12,99999,V020,"040,1,N,0010,1","02100,1,9,N","003000,1,N,1","+0212,1","+0206,1","10065,1",,,"6,1,03,1","6,1,03,1",,"08,99,1,08,1,05,1,02250,1,99,9,99,9",,,"99999,9,09672,1","2,1,011,1,+999,9","60,1",SYN066AAXX  14151 57328 41830 80401 10212 20206 40065 52011 76066 885//;,Q01+999990APOSP 
08-14T18:00:00,4,31.2,107.5,344.0,"DA XIAN, CH",FM-12,99999,V020,"999,9,C,0000,1","03600,1,9,N","003000,1,N,1","+0210,1","+0207,1","10061,1","06,0239,9,1",,"6,1,06,1","6,1,06,1",,"08,99,1,02,1,07,1,00450,1,02,1,99,9",,"999,M,+0212,1","99999,9,09667,1","7,1,004,1,+999,9","60,1",SYN088AAXX  14181 57328 11430 80000 10210 20207 39667 40061 57004 60241 76066 8272/ 333 10212;,
08-14T21:00:00,4,31.2,107.5,344.0,"DA XIAN, CH",FM-12,99999,V020,"999,9,C,0000,1","99999,9,9,N","004000,1,N,1","+0209,1","+0206,1","10063,1","24,0518,9,1",,"6,1,03,1","6,1,03,1",,"08,99,1,08,1,00,1,99999,9,02,1,99,9",,,"99999,9,09669,1","2,1,002,1,+999,9","60,1",SYN076AAXX  14211 57328 41940 80000 10209 20206 40063 52002 76066 8802/ 333 70519;,Q01+999990APOSP 
08-15T00:00:00,4,31.2,107.5,344.0,"DA XIAN, CH",FM-12,99999,V020,"999,9,C,0000,1","03600,1,9,N","003000,1,N,1","+0210,1","+0204,1","10077,1","06,0279,9,1","24,0574,9,1","6,1,06,1","6,1,06,1",,"08,99,1,03,1,07,1,00800,1,02,1,99,9",,,"99999,9,09683,1","2,1,014,1,+000,1","60,1",SYN094AAXX  15001 57328 11530 80000 10210 20204 39683 40077 52014 60281 76066 8372/ 333 00001 70573;,
08-15T06:00:00,4,31.2,107.5,344.0,"DA XIAN, CH",FM-12,99999,V020,"020,1,N,0030,1","03600,1,9,N","005000,1,N,1","+0211,1","+0206,1","10098,1","06,0119,9,1",,"6,1,06,1","6,1,06,1",,"08,99,1,02,1,07,1,00800,1,02,1,99,9",,"999,N,+0206,1","99999,9,09703,1","2,1,003,1,+999,9","60,1",SYN088AAXX  15061 57328 11550 80203 10211 20206 39703 40098 52003 60121 76066 8272/ 333 20206;,
08-15T09:00:00,4,31.2,107.5,344.0,"DA XIAN, CH",FM-12,99999,V020,"090,1,N,0010,1","03600,1,9,N","017000,1,N,1","+0216,1","+0204,1","10095,1",,,"6,1,03,1","6,1,03,1",,"08,99,1,01,1,07,1,00800,1,07,1,99,9",,,"99999,9,09701,1","7,1,002,1,+999,9","60,1",SYN066AAXX  15091 57328 41567 80901 10216 20204 40095 57002 76066 8177/;,Q01+999990APOSP 
08-15T12:00:00,4,31.2,107.5,344.0,"DA XIAN, CH",FM-12,99999,V020,"070,1,N,0010,1","03600,1,9,N","020000,1,N,1","+0217,1","+0211,1","10101,1","06,0020,9,1",,"6,1,06,1",,,"08,99,1,01,1,05,1,02250,1,07,1,99,9",,,"99999,9,09706,1","2,1,005,1,+999,9","00,1",SYN078AAXX  15121 57328 11870 80701 10217 20211 39706 40101 52005 60021 70060 8157/;,
08-15T15:00:00,4,31.2,107.5,344.0,"DA XIAN, CH",FM-12,99999,V020,"040,1,N,0010,1","99999,9,9,N","011000,1,N,1","+0207,1","+0204,1","10116,1",,,,,,"07,99,1,07,1,00,1,99999,9,04,1,00,1",,,"99999,9,09720,1","2,1,014,1,+999,9",,SYN060AAXX  15151 57328 42961 70401 10207 20204 40116 52014 87040;,Q01+999990APOSP 
08-15T18:00:00,4,31.2,107.5,344.0,"DA XIAN, CH",FM-12,99999,V020,"040,1,N,0020,1","99999,9,9,N","011000,1,N,1","+0203,1","+0198,1","10112,1","06,0000,9,1",,,,,"07,99,1,07,1,00,1,99999,9,04,1,99,9",,"999,M,+0220,1","99999,9,09716,1","7,1,004,1,+999,9",,SYN076AAXX  15181 57328 32961 70402 10203 20198 39716 40112 57004 8704/ 333 10220;,Q01  00002PRCP06
08-15T21:00:00,4,31.2,107.5,344.0,"DA XIAN, CH",FM-12,99999,V020,"040,1,N,0010,1","99999,9,9,N","015000,1,N,1","+0199,1","+0194,1","10113,1","24,0239,9,1",,,,,"07,99,1,07,1,00,1,99999,9,04,1,00,1",,,"99999,9,09716,1","2,1,001,1,+999,9",,SYN070AAXX  15211 57328 42965 70401 10199 20194 40113 52001 87040 333 70240;,Q01+999990APOSP 
08-16T00:00:00,4,31.2,107.5,344.0,"DA XIAN, CH",FM-12,99999,V020,"040,1,N,0010,1","99999,9,9,N","030000,1,N,1","+0203,1","+0194,1","10122,1","06,0000,9,1","24,0137,9,1",,,,"07,99,1,07,1,00,1,99999,9,04,1,99,9",,,"99999,9,09726,1","2,1,009,1,+040,1",,SYN082AAXX  16001 57328 32980 70401 10203 20194 39726 40122 52009 8704/ 333 00451 70136;,Q01  00002PRCP06
08-16T03:00:00,4,31.2,107.5,344.0,"DA XIAN, CH",FM-12,99999,V020,"040,1,N,0020,1","99999,9,9,N","030000,1,N,1","+0243,1","+0204,1","10120,1",,,,,,"07,99,1,02,1,00,1,99999,9,04,1,02,1",,,"99999,9,09729,1","4,1,000,1,+999,9",,SYN060AAXX  16031 57328 42980 70402 10243 20204 40120 54000 82042;,Q01+999990APOSP 
08-16T06:00:00,4,31.2,107.5,344.0,"DA XIAN, CH",FM-12,99999,V020,"270,1,N,0010,1","03600,1,9,N","030000,1,N,1","+0277,1","+0196,1","10110,1","06,0000,9,1",,,,,"07,99,1,01,1,02,1,00800,1,04,1,99,9",,"999,N,+0196,1","99999,9,09719,1","7,1,007,1,+999,9",,SYN076AAXX  16061 57328 32580 72701 10277 20196 39719 40110 57007 8124/ 333 20196;,Q01  00002PRCP06
08-16T09:00:00,4,31.2,107.5,344.0,"DA XIAN, CH",FM-12,99999,V020,"180,1,N,0010,1","03600,1,9,N","030000,1,N,1","+0287,1","+0194,1","10099,1",,,,,,"07,99,1,01,1,01,1,01250,1,04,1,99,9",,,"99999,9,09714,1","7,1,011,1,+999,9",,SYN060AAXX  16091 57328 42680 71801 10287 20194 40099 57011 8114/;,Q01+999990APOSP 
08-16T12:00:00,4,31.2,107.5,344.0,"DA XIAN, CH",FM-12,99999,V020,"220,1,N,0010,1","99999,9,9,N","030000,1,N,1","+0255,1","+0206,1","10107,1","06,0000,9,1",,,,,"07,99,1,07,1,00,1,99999,9,04,1,99,9",,,"99999,9,09714,1","2,1,006,1,+999,9",,SYN066AAXX  16121 57328 32980 72201 10255 20206 39714 40107 52006 8704/;,Q01  00002PRCP06
08-16T15:00:00,4,31.2,107.5,344.0,"DA XIAN, CH",FM-12,99999,V020,"999,9,C,0000,1","02100,1,9,N","025000,1,N,1","+0247,1","+0211,1","10125,1",,,,,,"07,99,1,07,1,05,1,02250,1,99,9,99,9",,,"99999,9,09734,1","2,1,020,1,+999,9",,SYN060AAXX  16151 57328 42875 70000 10247 20211 40125 52020 875//;,Q01+999990APOSP 
08-16T18:00:00,4,31.2,107.5,344.0,"DA XIAN, CH",FM-12,99999,V020,"999,9,C,0000,1","02100,1,9,N","012000,1,N,1","+0233,1","+0217,1","10125,1","06,0000,9,1",,,,,"08,99,1,08,1,05,1,02250,1,99,9,99,9",,"999,M,+0299,1","99999,9,09735,1","2,1,001,1,+999,9",,SYN076AAXX  16181 57328 32862 80000 10233 20217 39735 40125 52001 885// 333 10299;,Q01  00002PRCP06
08-16T21:00:00,4,31.2,107.5,344.0,"DA XIAN, CH",FM-12,99999,V020,"999,9,C,0000,1","02100,1,9,N","004000,1,N,1","+0225,1","+0213,1","10122,1","24,0003,9,1",,"6,1,03,1",,,"08,99,1,08,1,05,1,02250,1,99,9,99,9",,,"99999,9,09728,1","7,1,003,1,+999,9","60,1",SYN076AAXX  16211 57328 41840 80000 10225 20213 40122 57003 76060 885// 333 70002;,Q01+999990APOSP 
08-17T00:00:00,4,31.2,107.5,344.0,"DA XIAN, CH",FM-12,99999,V020,"999,9,C,0000,1","99999,9,9,N","003000,1,N,1","+0224,1","+0217,1","10132,1","06,0010,9,1","24,0013,9,1","6,1,06,1",,,"08,99,1,08,1,00,1,99999,9,02,1,99,9",,,"99999,9,09740,1","2,1,008,1,+010,1","60,1",SYN094AAXX  17001 57328 11930 80000 10224 20217 39740 40132 52008 60011 76060 8802/ 333 00102 70013;,
08-17T03:00:00,4,31.2,107.5,344.0,"DA XIAN, CH",FM-12,99999,V020,"070,1,N,0010,1","99999,9,9,N","008000,1,N,1","+0237,1","+0218,1","10137,1",,,"6,1,03,1","6,1,03,1",,"08,99,1,08,1,00,1,99999,9,02,1,99,9",,,"99999,9,09744,1","2,1,005,1,+999,9","60,1",SYN066AAXX  17031 57328 41958 80701 10237 20218 40137 52005 76066 8802/;,Q01+999990APOSP 
08-17T06:00:00,4,31.2,107.5,344.0,"DA XIAN, CH",FM-12,99999,V020,"040,1,N,0020,1","99999,9,9,N","012000,1,N,1","+0239,1","+0218,1","10133,1","06,0005,9,1",,"6,1,06,1","6,1,06,1",,"08,99,1,08,1,00,1,99999,9,02,1,99,9",,"999,N,+0220,1","99999,9,09740,1","7,1,005,1,+999,9","60,1",SYN088AAXX  17061 57328 11962 80402 10239 20218 39740 40133 57005 69951 76066 8802/ 333 20220;,
08-17T09:00:00,4,31.2,107.5,344.0,"DA XIAN, CH",FM-12,99999,V020,"020,1,N,0010,1","99999,9,9,N","012000,1,N,1","+0243,1","+0216,1","10122,1",,,"6,1,03,1","6,1,03,1",,"08,99,1,08,1,00,1,99999,9,02,1,99,9",,,"99999,9,09731,1","7,1,011,1,+999,9","60,1",SYN066AAXX  17091 57328 41962 80201 10243 20216 40122 57011 76066 8802/;,Q01+999990APOSP 
08-17T12:00:00,4,31.2,107.5,344.0,"DA XIAN, CH",FM-12,99999,V020,"999,9,C,0000,1","99999,9,9,N","015000,1,N,1","+0235,1","+0222,1","10125,1","06,0005,9,1",,"6,1,06,1","6,1,06,1",,"08,99,1,08,1,00,1,99999,9,02,1,99,9",,,"99999,9,09732,1","2,1,003,1,+999,9","60,1",SYN078AAXX  17121 57328 11965 80000 10235 20222 39732 40125 52003 69941 76066 8802/;,
08-17T15:00:00,4,31.2,107.5,344.0,"DA XIAN, CH",FM-12,99999,V020,"070,1,N,0010,1","99999,9,9,N","006000,1,N,1","+0225,1","+0221,1","10141,1",,,"6,1,03,1","6,1,03,1",,"08,99,1,08,1,00,1,99999,9,02,1,99,9",,,"99999,9,09746,1","2,1,015,1,+999,9","60,1",SYN066AAXX  17151 57328 41956 80701 10225 20221 40141 52015 76066 8802/;,Q01+999990APOSP 
08-17T18:00:00,4,31.2,107.5,344.0,"DA XIAN, CH",FM-12,99999,V020,"999,9,C,0000,1","02100,1,9,N","006000,1,N,1","+0226,1","+0216,1","10126,1","06,9999,9,9",,"6,1,06,1","6,1,06,1",,"08,99,1,08,1,05,1,02250,1,99,9,99,9",,"999,M,+0249,1","99999,9,09733,1","7,1,014,1,+999,9","21,1",SYN088AAXX  17181 57328 11856 80000 10226 20216 39733 40126 57014 69921 72166 885// 333 10249;,
08-17T21:00:00,4,31.2,107.5,344.0,"DA XIAN, CH",FM-12,99999,V020,"999,9,C,0000,1","02100,1,9,N","004000,1,N,1","+0222,1","+0215,1","10121,1","24,0025,9,1",,"6,1,03,1",,,"08,99,1,08,1,05,1,02250,1,99,9,99,9",,,"99999,9,09727,1","7,1,005,1,+999,9","60,1",SYN076AAXX  17211 57328 41840 80000 10222 20215 40121 57005 76060 885// 333 70025;,Q01+999990APOSP 
08-18T00:00:00,4,31.2,107.5,344.0,"DA XIAN, CH",FM-12,99999,V020,"999,9,C,0000,1","99999,9,9,N","003000,1,N,1","+0224,1","+0217,1","10124,1","06,0005,9,1","24,0018,9,1","6,1,06,1",,,"08,99,1,08,1,00,1,99999,9,02,1,99,9",,,"99999,9,09731,1","2,1,003,1,-010,1","21,1",SYN094AAXX  18001 57328 11930 80000 10224 20217 39731 40124 52003 69961 72160 8802/ 333 05100 70017;,
08-18T03:00:00,4,31.2,107.5,344.0,"DA XIAN, CH",FM-12,99999,V020,"020,1,N,0020,1","99999,9,9,N","004000,1,N,1","+0230,1","+0220,1","10127,1",,,"6,1,03,1",,,"08,99,1,08,1,00,1,99999,9,02,1,99,9",,,"99999,9,09734,1","2,1,002,1,+999,9","60,1",SYN066AAXX  18031 57328 41940 80202 10230 20220 40127 52002 76060 8802/;,Q01+999990APOSP 
08-18T06:00:00,4,31.2,107.5,344.0,"DA XIAN, CH",FM-12,99999,V020,"020,1,N,0010,1","09000,1,9,N","025000,1,N,1","+0263,1","+0213,1","10105,1","06,0010,9,1",,"6,1,06,1",,,"07,99,1,01,1,01,1,01250,1,00,1,02,1",,"999,N,+0220,1","99999,9,09714,1","7,1,019,1,+999,9","00,1",SYN088AAXX  18061 57328 11675 70201 10263 20213 39714 40105 57019 60011 70060 81102 333 20220;,
08-18T12:00:00,4,31.2,107.5,344.0,"DA XIAN, CH",FM-12,99999,V020,"020,1,N,0010,1","22000,1,9,N","025000,1,N,1","+0257,1","+0216,1","10089,1","06,0000,9,1",,,,,"01,99,1,01,1,00,1,99999,9,04,1,00,1",,,"99999,9,09698,1","4,1,000,1,+999,9",,SYN066AAXX  18121 57328 32975 10201 10257 20216 39698 40089 54000 81040;,Q01  00002PRCP06
08-18T15:00:00,4,31.2,107.5,344.0,"DA XIAN, CH",FM-12,99999,V020,"999,9,C,0000,1","22000,1,9,N","012000,1,N,1","+0225,1","+0213,1","10092,1",,,,,"00,1,+99999,9,99,9","00,99,1,00,1,00,1,99999,9,00,1,00,1",,,"99999,9,09699,1","2,1,002,1,+999,9",,SYN054AAXX  18151 57328 42962 00000 10225 20213 40092 52002;,Q01+999990APOSP 
08-18T18:00:00,4,31.2,107.5,344.0,"DA XIAN, CH",FM-12,99999,V020,"020,1,N,0020,1","99999,9,9,N","008000,1,N,1","+0216,1","+0212,1","10081,1","06,0000,9,1",,,,,"07,99,1,07,1,00,1,99999,9,04,1,99,9",,"999,M,+0281,1","99999,9,09691,1","7,1,009,1,+999,9","10,1",SYN082AAXX  18181 57328 31958 70202 10216 20212 39691 40081 57009 71000 8704/ 333 10281;,Q01  00002PRCP06
08-18T21:00:00,4,31.2,107.5,344.0,"DA XIAN, CH",FM-12,99999,V020,"040,1,N,0020,1","99999,9,9,N","006000,1,N,1","+0214,1","+0208,1","10072,1","24,0015,9,1",,,,,"07,99,1,07,1,00,1,99999,9,04,1,99,9",,,"99999,9,09679,1","7,1,008,1,+999,9","10,1",SYN076AAXX  18211 57328 41956 70402 10214 20208 40072 57008 71000 8704/ 333 70015;,Q01+999990APOSP 
08-19T00:00:00,4,31.2,107.5,344.0,"DA XIAN, CH",FM-12,99999,V020,"020,1,N,0030,1","99999,9,9,N","007000,1,N,1","+0218,1","+0209,1","10075,1","06,9999,9,9","24,0013,9,1","6,1,06,1",,,"07,99,1,07,1,00,1,99999,9,04,1,99,9",,,"99999,9,09685,1","2,1,002,1,-050,1","10,1",SYN094AAXX  19001 57328 11957 70203 10218 20209 39685 40075 52002 69911 71060 8704/ 333 05551 70013;,
08-19T03:00:00,4,31.2,107.5,344.0,"DA XIAN, CH",FM-12,99999,V020,"020,1,N,0020,1","03600,1,9,N","020000,1,N,1","+0270,1","+0206,1","10076,1",,,,,,"07,99,1,01,1,01,1,01250,1,04,1,00,1",,,"99999,9,09690,1","2,1,002,1,+999,9",,SYN060AAXX  19031 57328 42670 70202 10270 20206 40076 52002 81140;,Q01+999990APOSP 
08-19T06:00:00,4,31.2,107.5,344.0,"DA XIAN, CH",FM-12,99999,V020,"070,1,N,0010,1","03600,1,9,N","025000,1,N,1","+0293,1","+0221,1","10056,1","06,9999,9,9",,,,,"07,99,1,03,1,01,1,01250,1,04,1,99,9",,"999,N,+0214,1","99999,9,09668,1","7,1,019,1,+999,9","80,1",SYN088AAXX  19061 57328 11675 70701 10293 20221 39668 40056 57019 69901 78000 8314/ 333 20214;,
08-19T09:00:00,4,31.2,107.5,344.0,"DA XIAN, CH",FM-12,99999,V020,"140,1,N,0010,1","22000,1,9,N","030000,1,N,1","+0299,1","+0215,1","10040,1",,,"8,1,03,1",,,"02,99,1,01,1,01,1,01250,1,04,1,00,1",,,"99999,9,09659,1","7,1,015,1,+999,9","00,1",SYN066AAXX  19091 57328 41680 21401 10299 20215 40040 57015 70080 81140;,Q01+999990APOSP 
08-19T12:00:00,4,31.2,107.5,344.0,"DA XIAN, CH",FM-12,99999,V020,"020,1,N,0020,1","22000,1,9,N","015000,1,N,1","+0272,1","+0230,1","10036,1","06,9999,9,9",,"8,1,06,1",,"00,1,+99999,9,99,9","00,99,1,00,1,00,1,99999,9,00,1,00,1",,,"99999,9,09648,1","7,1,005,1,+999,9","00,1",SYN072AAXX  19121 57328 11965 00202 10272 20230 39648 40036 57005 69901 70080;,
08-19T15:00:00,4,31.2,107.5,344.0,"DA XIAN, CH",FM-12,99999,V020,"040,1,N,0020,1","22000,1,9,N","008000,1,N,1","+0242,1","+0226,1","10047,1",,,,,"00,1,+99999,9,99,9","00,99,1,00,1,00,1,99999,9,00,1,00,1",,,"99999,9,09658,1","2,1,012,1,+999,9","10,1",SYN060AAXX  19151 57328 41958 00402 10242 20226 40047 52012 71000;,Q01+999990APOSP 
08-19T18:00:00,4,31.2,107.5,344.0,"DA XIAN, CH",FM-12,99999,V020,"040,1,N,0020,1","22000,1,9,N","007000,1,N,1","+0231,1","+0222,1","10043,1","06,0000,9,1",,,,,"02,99,1,02,1,00,1,99999,9,04,1,00,1",,"999,M,+0302,1","99999,9,09657,1","7,1,003,1,+999,9","10,1",SYN082AAXX  19181 57328 31957 20402 10231 20222 39657 40043 57003 71000 82040 333 10302;,Q01  00002PRCP06
08-19T21:00:00,4,31.2,107.5,344.0,"DA XIAN, CH",FM-12,99999,V020,"040,1,N,0030,1","99999,9,9,N","007000,1,N,1","+0235,1","+0216,1","10029,1","24,0000,2,1",,,,,"07,99,1,07,1,00,1,99999,9,04,1,99,9",,,"99999,9,09640,1","7,1,013,1,+999,9","10,1",SYN076AAXX  19211 57328 41957 70403 10235 20216 40029 57013 71000 8704/ 333 70001;,Q01+999990APOSP 
08-20T00:00:00,4,31.2,107.5,344.0,"DA XIAN, CH",FM-12,99999,V020,"040,1,N,0020,1","99999,9,9,N","020000,1,N,1","+0239,1","+0217,1","10046,1","06,0000,9,1","24,0000,2,1",,,,"07,99,1,07,1,00,1,99999,9,04,1,99,9",,,"99999,9,09659,1","2,1,015,1,-030,1",,SYN082AAXX  20001 57328 32970 70402 10239 20217 39659 40046 52015 8704/ 333 05302 79999;,Q01  00002PRCP06
08-20T03:00:00,4,31.2,107.5,344.0,"DA XIAN, CH",FM-12,99999,V020,"040,1,N,0020,1","99999,9,9,N","030000,1,N,1","+0297,1","+0224,1","10037,1",,,,,,"06,99,1,06,1,00,1,99999,9,04,1,00,1",,,"99999,9,09656,1","7,1,007,1,+999,9",,SYN060AAXX  20031 57328 42980 60402 10297 20224 40037 57007 86040;,Q01+999990APOSP 
08-20T06:00:00,4,31.2,107.5,344.0,"DA XIAN, CH",FM-12,99999,V020,"140,1,N,0020,1","22000,1,9,N","030000,1,N,1","+0325,1","+0222,1","10022,1","06,0000,9,1",,,,,"06,99,1,03,1,01,1,01250,1,00,1,01,1",,"999,N,+0230,1","99999,9,09639,1","7,1,013,1,+999,9",,SYN076AAXX  20061 57328 32680 61402 10325 20222 39639 40022 57013 83101 333 20230;,Q01  00002PRCP06
08-20T09:00:00,4,31.2,107.5,344.0,"DA XIAN, CH",FM-12,99999,V020,"090,1,N,0010,1","99999,9,9,N","030000,1,N,1","+0318,1","+0228,1","10015,1",,,,,,"07,99,1,07,1,00,1,99999,9,04,1,99,9",,,"99999,9,09637,1","7,1,007,1,+999,9",,SYN060AAXX  20091 57328 42980 70901 10318 20228 40015 57007 8704/;,Q01+999990APOSP 
08-20T12:00:00,4,31.2,107.5,344.0,"DA XIAN, CH",FM-12,99999,V020,"040,1,N,0010,1","99999,9,9,N","030000,1,N,1","+0293,1","+0251,1","10022,1","06,0000,9,1",,,,,"07,99,1,07,1,00,1,99999,9,04,1,99,9",,,"99999,9,09637,1","2,1,005,1,+999,9",,SYN066AAXX  20121 57328 32980 70401 10293 20251 39637 40022 52005 8704/;,Q01  00002PRCP06
08-20T15:00:00,4,31.2,107.5,344.0,"DA XIAN, CH",FM-12,99999,V020,"020,1,N,0040,1","22000,1,9,N","005000,1,N,1","+0261,1","+0238,1","10038,1",,,,,"00,1,+99999,9,99,9","00,99,1,00,1,00,1,99999,9,00,1,00,1",,,"99999,9,09652,1","2,1,017,1,+999,9","10,1",SYN060AAXX  20151 57328 41950 00204 10261 20238 40038 52017 71000;,Q01+999990APOSP 
08-20T18:00:00,4,31.2,107.5,344.0,"DA XIAN, CH",FM-12,99999,V020,"040,1,N,0030,1","22000,1,9,N","004000,1,N,1","+0247,1","+0236,1","10037,1","06,0000,9,1",,,,"00,1,+99999,9,99,9","00,99,1,00,1,00,1,99999,9,00,1,00,1",,"999,M,+0331,1","99999,9,09654,1","4,1,000,1,+999,9","10,1",SYN076AAXX  20181 57328 31940 00403 10247 20236 39654 40037 54000 71000 333 10331;,Q01  00002PRCP06
08-20T21:00:00,4,31.2,107.5,344.0,"DA XIAN, CH",FM-12,99999,V020,"040,1,N,0010,1","22000,1,9,N","004000,1,N,1","+0241,1","+0226,1","10034,1",,,,,"00,1,+99999,9,99,9","00,99,1,00,1,00,1,99999,9,00,1,00,1",,,"99999,9,09646,1","7,1,004,1,+999,9","10,1",SYN060AAXX  20211 57328 41940 00401 10241 20226 40034 57004 71000;,Q01+999990APOSP 
08-21T00:00:00,4,31.2,107.5,344.0,"DA XIAN, CH",FM-12,99999,V020,"040,1,N,0020,1","22000,1,9,N","012000,1,N,1","+0249,1","+0221,1","10044,1","06,0000,9,1",,,,"00,1,+99999,9,99,9","00,99,1,00,1,00,1,99999,9,00,1,00,1",,,"99999,9,09659,1","2,1,009,1,+000,1",,SYN070AAXX  21001 57328 32962 00402 10249 20221 39659 40044 52009 333 00001;,Q01  00002PRCP06
08-21T03:00:00,4,31.2,107.5,344.0,"DA XIAN, CH",FM-12,99999,V020,"320,1,N,0010,1","22000,1,9,N","020000,1,N,1","+0305,1","+0223,1","10047,1",,,,,,"02,99,1,02,1,00,1,99999,9,04,1,00,1",,,"99999,9,09666,1","2,1,004,1,+999,9",,SYN060AAXX  21031 57328 42970 23201 10305 20223 40047 52004 82040;,Q01+999990APOSP 
08-21T06:00:00,4,31.2,107.5,344.0,"DA XIAN, CH",FM-12,99999,V020,"090,1,N,0020,1","22000,1,9,N","030000,1,N,1","+0332,1","+0222,1","10026,1","06,0000,9,1",,,,,"02,99,1,02,1,01,1,01250,1,00,1,00,1",,"999,N,+0235,1","99999,9,09644,1","7,1,019,1,+999,9",,SYN076AAXX  21061 57328 32680 20902 10332 20222 39644 40026 57019 82100 333 20235;,Q01  00002PRCP06
08-21T09:00:00,4,31.2,107.5,344.0,"DA XIAN, CH",FM-12,99999,V020,"090,1,N,0020,1","22000,1,9,N","030000,1,N,1","+0326,1","+0211,1","10013,1",,,,,,"01,99,1,01,1,01,1,01250,1,00,1,00,1",,,"99999,9,09636,1","7,1,013,1,+999,9",,SYN060AAXX  21091 57328 42680 10902 10326 20211 40013 57013 81100;,Q01+999990APOSP 
08-21T12:00:00,4,31.2,107.5,344.0,"DA XIAN, CH",FM-12,99999,V020,"020,1,N,0020,1","22000,1,9,N","030000,1,N,1","+0297,1","+0230,1","10028,1","06,0000,9,1",,,,,"01,99,1,01,1,00,1,99999,9,04,1,00,1",,,"99999,9,09644,1","2,1,013,1,+999,9",,SYN066AAXX  21121 57328 32980 10202 10297 20230 39644 40028 52013 81040;,Q01  00002PRCP06
08-21T15:00:00,4,31.2,107.5,344.0,"DA XIAN, CH",FM-12,99999,V020,"020,1,N,0010,1","22000,1,9,N","020000,1,N,1","+0263,1","+0231,1","10054,1",,,,,"00,1,+99999,9,99,9","00,99,1,00,1,00,1,99999,9,00,1,00,1",,,"99999,9,09668,1","2,1,026,1,+999,9",,SYN054AAXX  21151 57328 42970 00201 10263 20231 40054 52026;,Q01+999990APOSP 
08-21T18:00:00,4,31.2,107.5,344.0,"DA XIAN, CH",FM-12,99999,V020,"040,1,N,0020,1","22000,1,9,N","015000,1,N,1","+0249,1","+0221,1","10052,1","06,0000,9,1",,,,"00,1,+99999,9,99,9","00,99,1,00,1,00,1,99999,9,00,1,00,1",,"999,M,+0338,1","99999,9,09669,1","7,1,001,1,+999,9",,SYN070AAXX  21181 57328 32965 00402 10249 20221 39669 40052 57001 333 10338;,Q01  00002PRCP06
08-21T21:00:00,4,31.2,107.5,344.0,"DA XIAN, CH",FM-12,99999,V020,"040,1,N,0020,1","22000,1,9,N","012000,1,N,1","+0237,1","+0215,1","10057,1",,,,,"00,1,+99999,9,99,9","00,99,1,00,1,00,1,99999,9,00,1,00,1",,,"99999,9,09667,1","2,1,004,1,+999,9",,SYN054AAXX  21211 57328 42962 00402 10237 20215 40057 52004;,Q01+999990APOSP 
08-22T00:00:00,4,31.2,107.5,344.0,"DA XIAN, CH",FM-12,99999,V020,"040,1,N,0020,1","22000,1,9,N","015000,1,N,1","+0248,1","+0217,1","10072,1","06,0000,9,1",,,,"00,1,+99999,9,99,9","00,99,1,00,1,00,1,99999,9,00,1,00,1",,,"99999,9,09686,1","2,1,013,1,+003,1",,SYN070AAXX  22001 57328 32965 00402 10248 20217 39686 40072 52013 333 00300;,Q01  00002PRCP06
08-22T03:00:00,4,31.2,107.5,344.0,"DA XIAN, CH",FM-12,99999,V020,"020,1,N,0020,1","22000,1,9,N","020000,1,N,1","+0306,1","+0224,1","10075,1",,,,,"00,1,+99999,9,99,9","00,99,1,00,1,00,1,99999,9,00,1,00,1",,,"99999,9,09693,1","2,1,005,1,+999,9",,SYN054AAXX  22031 57328 42970 00202 10306 20224 40075 52005;,Q01+999990APOSP 
08-22T06:00:00,4,31.2,107.5,344.0,"DA XIAN, CH",FM-12,99999,V020,"140,1,N,0010,1","22000,1,9,N","030000,1,N,1","+0335,1","+0220,1","10059,1","06,0000,9,1",,,,,"03,99,1,03,1,01,1,01250,1,00,1,00,1",,"999,N,+0231,1","99999,9,09676,1","7,1,015,1,+999,9",,SYN076AAXX  22061 57328 32680 31401 10335 20220 39676 40059 57015 83100 333 20231;,Q01  00002PRCP06
08-22T09:00:00,4,31.2,107.5,344.0,"DA XIAN, CH",FM-12,99999,V020,"999,9,C,0000,1","22000,1,9,N","030000,1,N,1","+0342,1","+0215,1","10039,1",,,,,,"01,99,1,01,1,01,1,01250,1,00,1,00,1",,,"99999,9,09663,1","7,1,019,1,+999,9",,SYN060AAXX  22091 57328 42680 10000 10342 20215 40039 57019 81100;,Q01+999990APOSP 
08-22T12:00:00,4,31.2,107.5,344.0,"DA XIAN, CH",FM-12,99999,V020,"040,1,N,0010,1","22000,1,9,N","020000,1,N,1","+0306,1","+0226,1","10050,1","06,0000,9,1",,,,"00,1,+99999,9,99,9","00,99,1,00,1,00,1,99999,9,00,1,00,1",,,"99999,9,09666,1","2,1,009,1,+999,9",,SYN060AAXX  22121 57328 32970 00401 10306 20226 39666 40050 52009;,Q01  00002PRCP06
08-22T15:00:00,4,31.2,107.5,344.0,"DA XIAN, CH",FM-12,99999,V020,"040,1,N,0020,1","22000,1,9,N","020000,1,N,1","+0263,1","+0234,1","10070,1",,,,,"00,1,+99999,9,99,9","00,99,1,00,1,00,1,99999,9,00,1,00,1",,,"99999,9,09683,1","2,1,020,1,+999,9",,SYN054AAXX  22151 57328 42970 00402 10263 20234 40070 52020;,Q01+999990APOSP 
08-22T18:00:00,4,31.2,107.5,344.0,"DA XIAN, CH",FM-12,99999,V020,"040,1,N,0020,1","22000,1,9,N","012000,1,N,1","+0251,1","+0228,1","10069,1","06,0000,9,1",,,,"00,1,+99999,9,99,9","00,99,1,00,1,00,1,99999,9,00,1,00,1",,"999,M,+0349,1","99999,9,09686,1","4,1,000,1,+999,9",,SYN070AAXX  22181 57328 32962 00402 10251 20228 39686 40069 54000 333 10349;,Q01  00002PRCP06
08-22T21:00:00,4,31.2,107.5,344.0,"DA XIAN, CH",FM-12,99999,V020,"020,1,N,0030,1","22000,1,9,N","012000,1,N,1","+0242,1","+0220,1","10069,1",,,,,"00,1,+99999,9,99,9","00,99,1,00,1,00,1,99999,9,00,1,00,1",,,"99999,9,09679,1","4,1,000,1,+999,9",,SYN054AAXX  22211 57328 42962 00203 10242 20220 40069 54000;,Q01+999990APOSP 
08-23T00:00:00,4,31.2,107.5,344.0,"DA XIAN, CH",FM-12,99999,V020,"040,1,N,0020,1","22000,1,9,N","008000,1,N,1","+0247,1","+0222,1","10078,1","06,0000,9,1",,,,"00,1,+99999,9,99,9","00,99,1,00,1,00,1,99999,9,00,1,00,1",,,"99999,9,09692,1","2,1,006,1,+001,1","10,1",SYN076AAXX  23001 57328 31958 00402 10247 20222 39692 40078 52006 71000 333 00100;,Q01  00002PRCP06
08-23T03:00:00,4,31.2,107.5,344.0,"DA XIAN, CH",FM-12,99999,V020,"040,1,N,0020,1","22000,1,9,N","017000,1,N,1","+0315,1","+0234,1","10076,1",,,,,"00,1,+99999,9,99,9","00,99,1,00,1,00,1,99999,9,00,1,00,1",,,"99999,9,09695,1","4,1,000,1,+999,9",,SYN054AAXX  23031 57328 42967 00402 10315 20234 40076 54000;,Q01+999990APOSP 
08-23T06:00:00,4,31.2,107.5,344.0,"DA XIAN, CH",FM-12,99999,V020,"320,1,N,0020,1","22000,1,9,N","025000,1,N,1","+0342,1","+0225,1","10058,1","06,0000,9,1",,,,,"02,99,1,02,1,01,1,01250,1,00,1,00,1",,"999,N,+0238,1","99999,9,09676,1","7,1,016,1,+999,9",,SYN076AAXX  23061 57328 32675 23202 10342 20225 39676 40058 57016 82100 333 20238;,Q01  00002PRCP06
08-23T09:00:00,4,31.2,107.5,344.0,"DA XIAN, CH",FM-12,99999,V020,"090,1,N,0010,1","22000,1,9,N","020000,1,N,1","+0348,1","+0229,1","10040,1",,,,,,"01,99,1,01,1,01,1,01250,1,00,1,00,1",,,"99999,9,09665,1","7,1,018,1,+999,9",,SYN060AAXX  23091 57328 42670 10901 10348 20229 40040 57018 81100;,Q01+999990APOSP 
08-23T12:00:00,4,31.2,107.5,344.0,"DA XIAN, CH",FM-12,99999,V020,"070,1,N,0020,1","22000,1,9,N","020000,1,N,1","+0305,1","+0251,1","10038,1","06,0000,9,1",,,,"00,1,+99999,9,99,9","00,99,1,00,1,00,1,99999,9,00,1,00,1",,,"99999,9,09654,1","7,1,004,1,+999,9",,SYN060AAXX  23121 57328 32970 00702 10305 20251 39654 40038 57004;,Q01  00002PRCP06
08-23T15:00:00,4,31.2,107.5,344.0,"DA XIAN, CH",FM-12,99999,V020,"040,1,N,0020,1","22000,1,9,N","012000,1,N,1","+0275,1","+0244,1","10058,1",,,,,"00,1,+99999,9,99,9","00,99,1,00,1,00,1,99999,9,00,1,00,1",,,"99999,9,09673,1","2,1,021,1,+999,9",,SYN054AAXX  23151 57328 42962 00402 10275 20244 40058 52021;,Q01+999990APOSP 
08-23T18:00:00,4,31.2,107.5,344.0,"DA XIAN, CH",FM-12,99999,V020,"040,1,N,0020,1","22000,1,9,N","012000,1,N,1","+0260,1","+0242,1","10055,1","06,0000,9,1",,,,"00,1,+99999,9,99,9","00,99,1,00,1,00,1,99999,9,00,1,00,1",,"999,M,+0355,1","99999,9,09673,1","7,1,002,1,+999,9",,SYN070AAXX  23181 57328 32962 00402 10260 20242 39673 40055 57002 333 10355;,Q01  00002PRCP06
08-23T21:00:00,4,31.2,107.5,344.0,"DA XIAN, CH",FM-12,99999,V020,"040,1,N,0020,1","22000,1,9,N","012000,1,N,1","+0252,1","+0239,1","10054,1",,,,,"00,1,+99999,9,99,9","00,99,1,00,1,00,1,99999,9,00,1,00,1",,,"99999,9,09666,1","7,1,001,1,+999,9",,SYN054AAXX  23211 57328 42962 00402 10252 20239 40054 57001;,Q01+999990APOSP 
08-24T00:00:00,4,31.2,107.5,344.0,"DA XIAN, CH",FM-12,99999,V020,"020,1,N,0020,1","99999,9,9,N","008000,1,N,1","+0259,1","+0241,1","10061,1","06,0000,9,1",,,,,"06,99,1,06,1,00,1,99999,9,04,1,00,1",,,"99999,9,09677,1","2,1,005,1,+002,1","10,1",SYN082AAXX  24001 57328 31958 60202 10259 20241 39677 40061 52005 71000 86040 333 05201;,Q01  00002PRCP06
08-24T03:00:00,4,31.2,107.5,344.0,"DA XIAN, CH",FM-12,99999,V020,"360,1,N,0010,1","99999,9,9,N","012000,1,N,1","+0313,1","+0246,1","10066,1",,,,,,"05,99,1,05,1,00,1,99999,9,04,1,00,1",,,"99999,9,09685,1","2,1,006,1,+999,9",,SYN060AAXX  24031 57328 42962 53601 10313 20246 40066 52006 85040;,Q01+999990APOSP 
08-24T06:00:00,4,31.2,107.5,344.0,"DA XIAN, CH",FM-12,99999,V020,"999,9,C,0000,1","03600,1,9,N","030000,1,N,1","+0347,1","+0241,1","10039,1","06,0000,9,1",,,,,"06,99,1,02,1,01,1,01250,1,04,1,00,1",,"999,N,+0251,1","99999,9,09658,1","7,1,025,1,+999,9",,SYN076AAXX  24061 57328 32680 60000 10347 20241 39658 40039 57025 82140 333 20251;,Q01  00002PRCP06
08-24T09:00:00,4,31.2,107.5,344.0,"DA XIAN, CH",FM-12,99999,V020,"040,1,N,0010,1","22000,1,9,N","030000,1,N,1","+0347,1","+0240,1","10016,1",,,,,,"04,99,1,01,1,01,1,01250,1,04,1,00,1",,,"99999,9,09641,1","7,1,022,1,+999,9",,SYN060AAXX  24091 57328 42680 40401 10347 20240 40016 57022 81140;,Q01+999990APOSP 
08-24T12:00:00,4,31.2,107.5,344.0,"DA XIAN, CH",FM-12,99999,V020,"040,1,N,0010,1","22000,1,9,N","020000,1,N,1","+0317,1","+0255,1","10023,1","06,0000,9,1",,,,,"04,99,1,04,1,00,1,99999,9,04,1,00,1",,,"99999,9,09641,1","2,1,005,1,+999,9",,SYN066AAXX  24121 57328 32970 40401 10317 20255 39641 40023 52005 84040;,Q01  00002PRCP06
08-24T15:00:00,4,31.2,107.5,344.0,"DA XIAN, CH",FM-12,99999,V020,"040,1,N,0020,1","22000,1,9,N","012000,1,N,1","+0283,1","+0255,1","10036,1",,,,,"00,1,+99999,9,99,9","00,99,1,00,1,00,1,99999,9,00,1,00,1",,,"99999,9,09653,1","2,1,014,1,+999,9",,SYN054AAXX  24151 57328 42962 00402 10283 20255 40036 52014;,Q01+999990APOSP 
08-24T18:00:00,4,31.2,107.5,344.0,"DA XIAN, CH",FM-12,99999,V020,"040,1,N,0020,1","22000,1,9,N","011000,1,N,1","+0273,1","+0251,1","10034,1","06,0000,9,1",,,,"00,1,+99999,9,99,9","00,99,1,00,1,00,1,99999,9,00,1,00,1",,"999,M,+0360,1","99999,9,09654,1","7,1,001,1,+999,9",,SYN070AAXX  24181 57328 32961 00402 10273 20251 39654 40034 57001 333 10360;,Q01  00002PRCP06
08-24T21:00:00,4,31.2,107.5,344.0,"DA XIAN, CH",FM-12,99999,V020,"040,1,N,0030,1","22000,1,9,N","005000,1,N,1","+0265,1","+0245,1","10028,1",,,,,"00,1,+99999,9,99,9","00,99,1,00,1,00,1,99999,9,00,1,00,1",,,"99999,9,09643,1","7,1,006,1,+999,9","10,1",SYN060AAXX  24211 57328 41950 00403 10265 20245 40028 57006 71000;,Q01+999990APOSP 
08-25T00:00:00,4,31.2,107.5,344.0,"DA XIAN, CH",FM-12,99999,V020,"020,1,N,0020,1","99999,9,9,N","009000,1,N,1","+0273,1","+0246,1","10044,1","06,0000,9,1",,,,,"07,99,1,99,9,99,9,01250,1,99,9,99,9",,,"99999,9,09659,1",,,SYN081AAXX  25001 57328 31659 70202 10273 20246 39659 0041 52011 71000 82140 333 05201;,Q01+999990APOSLPQ02  00002PRCP06
08-25T03:00:00,4,31.2,107.5,344.0,"DA XIAN, CH",FM-12,99999,V020,"020,1,N,0010,1","22000,1,9,N","015000,1,N,1","+0327,1","+0252,1","10042,1",,,,,"00,1,+99999,9,99,9","00,99,1,00,1,00,1,99999,9,00,1,00,1",,,"99999,9,09664,1","2,1,002,1,+999,9",,SYN054AAXX  25031 57328 42965 00201 10327 20252 40042 52002;,Q01+999990APOSP 
08-25T06:00:00,4,31.2,107.5,344.0,"DA XIAN, CH",FM-12,99999,V020,"110,1,N,0020,1","09000,1,9,N","030000,1,N,1","+0359,1","+0228,1","10017,1","06,0000,9,1",,,,,"05,99,1,04,1,01,1,01250,1,00,1,02,1",,"999,N,+0260,1","99999,9,09639,1","7,1,022,1,+999,9",,SYN076AAXX  25061 57328 32680 51102 10359 20228 39639 40017 57022 84102 333 20260;,Q01  00002PRCP06
08-25T09:00:00,4,31.2,107.5,344.0,"DA XIAN, CH",FM-12,99999,V020,"110,1,N,0020,1","09000,1,9,N","030000,1,N,1","+0355,1","+0228,1","09997,1",,,,,,"06,99,1,02,1,01,1,01250,1,00,1,02,1",,,"99999,9,09624,1","7,1,020,1,+999,9",,SYN060AAXX  25091 57328 42680 61102 10355 20228 49997 57020 82102;,Q01+999990APOSP 
08-25T12:00:00,4,31.2,107.5,344.0,"DA XIAN, CH",FM-12,99999,V020,"040,1,N,0020,1","99999,9,9,N","015000,1,N,1","+0316,1","+0246,1","10000,1","06,0000,9,1",,,,,"07,99,1,00,1,00,1,99999,9,00,1,02,1",,,"99999,9,09620,1","2,1,001,1,+999,9",,SYN066AAXX  25121 57328 32965 70402 10316 20246 39620 40000 52001 80002;,Q01  00002PRCP06
08-25T15:00:00,4,31.2,107.5,344.0,"DA XIAN, CH",FM-12,99999,V020,"040,1,N,0020,1","22000,1,9,N","015000,1,N,1","+0287,1","+0245,1","10016,1",,,,,"00,1,+99999,9,99,9","00,99,1,00,1,00,1,99999,9,00,1,00,1",,,"99999,9,09634,1","2,1,017,1,+999,9",,SYN054AAXX  25151 57328 42965 00402 10287 20245 40016 52017;,Q01+999990APOSP 
08-25T18:00:00,4,31.2,107.5,344.0,"DA XIAN, CH",FM-12,99999,V020,"040,1,N,0020,1","22000,1,9,N","011000,1,N,1","+0272,1","+0239,1","10011,1","06,0000,9,1",,,,"00,1,+99999,9,99,9","00,99,1,00,1,00,1,99999,9,00,1,00,1",,"999,M,+0369,1","99999,9,09633,1","7,1,004,1,+999,9",,SYN070AAXX  25181 57328 32961 00402 10272 20239 39633 40011 57004 333 10369;,Q01  00002PRCP06
08-25T21:00:00,4,31.2,107.5,344.0,"DA XIAN, CH",FM-12,99999,V020,"040,1,N,0030,1","22000,1,9,N","008000,1,N,1","+0254,1","+0235,1","10011,1",,,,,"00,1,+99999,9,99,9","00,99,1,00,1,00,1,99999,9,00,1,00,1",,,"99999,9,09625,1","7,1,002,1,+999,9","10,1",SYN060AAXX  25211 57328 41958 00403 10254 20235 40011 57002 71000;,Q01+999990APOSP 
08-26T00:00:00,4,31.2,107.5,344.0,"DA XIAN, CH",FM-12,99999,V020,"040,1,N,0030,1","99999,9,9,N","008000,1,N,1","+0260,1","+0236,1","10025,1","06,0000,9,1",,,,,"07,99,1,07,1,00,1,99999,9,04,1,00,1",,,"99999,9,09643,1","2,1,012,1,+002,1","10,1",SYN082AAXX  26001 57328 31958 70403 10260 20236 39643 40025 52012 71000 87040 333 05251;,Q01  00002PRCP06
08-26T03:00:00,4,31.2,107.5,344.0,"DA XIAN, CH",FM-12,99999,V020,"160,1,N,0020,1","99999,9,9,N","018000,1,N,1","+0327,1","+0221,1","10031,1",,,,,,"07,99,1,07,1,00,1,99999,9,04,1,99,9",,,"99999,9,09653,1","2,1,008,1,+999,9",,SYN060AAXX  26031 57328 42968 71602 10327 20221 40031 52008 8704/;,Q01+999990APOSP 
08-26T06:00:00,4,31.2,107.5,344.0,"DA XIAN, CH",FM-12,99999,V020,"040,1,N,0010,1","03600,1,9,N","030000,1,N,1","+0349,1","+0224,1","10022,1","06,0000,9,1",,,,,"06,99,1,02,1,01,1,01250,1,04,1,00,1",,"999,N,+0249,1","99999,9,09643,1","7,1,008,1,+999,9",,SYN076AAXX  26061 57328 32680 60401 10349 20224 39643 40022 57008 82140 333 20249;,Q01  00002PRCP06
08-26T09:00:00,4,31.2,107.5,344.0,"DA XIAN, CH",FM-12,99999,V020,"140,1,N,0020,1","03600,1,9,N","030000,1,N,1","+0340,1","+0211,1","10016,1",,,,,,"07,99,1,01,1,01,1,01250,1,04,1,99,9",,,"99999,9,09641,1","7,1,008,1,+999,9",,SYN060AAXX  26091 57328 42680 71402 10340 20211 40016 57008 8114/;,Q01+999990APOSP 
08-26T12:00:00,4,31.2,107.5,344.0,"DA XIAN, CH",FM-12,99999,V020,"040,1,N,0020,1","99999,9,9,N","025000,1,N,1","+0299,1","+0246,1","10024,1","06,0000,9,1",,,,,"07,99,1,07,1,00,1,99999,9,04,1,99,9",,,"99999,9,09641,1","2,1,006,1,+999,9",,SYN066AAXX  26121 57328 32975 70402 10299 20246 39641 40024 52006 8704/;,Q01  00002PRCP06
08-26T15:00:00,4,31.2,107.5,344.0,"DA XIAN, CH",FM-12,99999,V020,"040,1,N,0030,1","22000,1,9,N","020000,1,N,1","+0277,1","+0240,1","10040,1",,,,,"00,1,+99999,9,99,9","00,99,1,00,1,00,1,99999,9,00,1,00,1",,,"99999,9,09656,1","2,1,018,1,+999,9",,SYN054AAXX  26151 57328 42970 00403 10277 20240 40040 52018;,Q01+999990APOSP 
08-26T18:00:00,4,31.2,107.5,344.0,"DA XIAN, CH",FM-12,99999,V020,"040,1,N,0020,1","22000,1,9,N","015000,1,N,1","+0264,1","+0238,1","10041,1","06,0000,9,1",,,,"00,1,+99999,9,99,9","00,99,1,00,1,00,1,99999,9,00,1,00,1",,"999,M,+0353,1","99999,9,09661,1","2,1,002,1,+999,9",,SYN070AAXX  26181 57328 32965 00402 10264 20238 39661 40041 52002 333 10353;,Q01  00002PRCP06
08-26T21:00:00,4,31.2,107.5,344.0,"DA XIAN, CH",FM-12,99999,V020,"040,1,N,0020,1","99999,9,9,N","015000,1,N,1","+0250,1","+0234,1","10041,1",,,,,,"06,99,1,06,1,00,1,99999,9,04,1,00,1",,,"99999,9,09654,1","7,1,002,1,+999,9",,SYN060AAXX  26211 57328 42965 60402 10250 20234 40041 57002 86040;,Q01+999990APOSP 
08-27T00:00:00,4,31.2,107.5,344.0,"DA XIAN, CH",FM-12,99999,V020,"040,1,N,0020,1","99999,9,9,N","012000,1,N,1","+0260,1","+0233,1","10057,1","06,0000,9,1",,,,,"07,99,1,07,1,00,1,99999,9,04,1,99,9",,,"99999,9,09673,1","2,1,014,1,+003,1",,SYN076AAXX  27001 57328 32962 70402 10260 20233 39673 40057 52014 8704/ 333 00300;,Q01  00002PRCP06
08-27T03:00:00,4,31.2,107.5,344.0,"DA XIAN, CH",FM-12,99999,V020,"020,1,N,0020,1","99999,9,9,N","012000,1,N,1","+0304,1","+0238,1","10057,1",,,,,,"07,99,1,07,1,00,1,99999,9,04,1,99,9",,,"99999,9,09676,1","2,1,001,1,+999,9",,SYN060AAXX  27031 57328 42962 70202 10304 20238 40057 52001 8704/;,Q01+999990APOSP 
08-27T06:00:00,4,31.2,107.5,344.0,"DA XIAN, CH",FM-12,99999,V020,"340,1,N,0020,1","01200,1,9,N","030000,1,N,1","+0338,1","+0222,1","10035,1","06,0000,9,1",,,,,"05,99,1,05,1,01,1,01250,1,00,1,00,1",,"999,N,+0250,1","99999,9,09654,1","7,1,020,1,+999,9",,SYN076AAXX  27061 57328 32680 53402 10338 20222 39654 40035 57020 85100 333 20250;,Q01  00002PRCP06
08-27T09:00:00,4,31.2,107.5,344.0,"DA XIAN, CH",FM-12,99999,V020,"360,1,N,0020,1","22000,1,9,N","030000,1,N,1","+0344,1","+0230,1","10018,1",,,,,,"04,99,1,03,1,01,1,01250,1,04,1,00,1",,,"99999,9,09643,1","7,1,017,1,+999,9",,SYN060AAXX  27091 57328 42680 43602 10344 20230 40018 57017 83140;,Q01+999990APOSP 
08-27T12:00:00,4,31.2,107.5,344.0,"DA XIAN, CH",FM-12,99999,V020,"040,1,N,0020,1","99999,9,9,N","030000,1,N,1","+0309,1","+0243,1","10014,1","06,0000,9,1",,,,,"06,99,1,06,1,00,1,99999,9,04,1,00,1",,,"99999,9,09632,1","7,1,005,1,+999,9",,SYN066AAXX  27121 57328 32980 60402 10309 20243 39632 40014 57005 86040;,Q01  00002PRCP06
08-27T15:00:00,4,31.2,107.5,344.0,"DA XIAN, CH",FM-12,99999,V020,"040,1,N,0020,1","22000,1,9,N","015000,1,N,1","+0279,1","+0245,1","10032,1",,,,,"00,1,+99999,9,99,9","00,99,1,00,1,00,1,99999,9,00,1,00,1",,,"99999,9,09649,1","2,1,018,1,+999,9",,SYN054AAXX  27151 57328 42965 00402 10279 20245 40032 52018;,Q01+999990APOSP 
08-27T18:00:00,4,31.2,107.5,344.0,"DA XIAN, CH",FM-12,99999,V020,"020,1,N,0030,1","22000,1,9,N","015000,1,N,1","+0268,1","+0240,1","10026,1","06,0000,9,1",,,,,"03,99,1,03,1,05,1,02250,1,00,1,00,1",,"999,M,+0347,1","99999,9,09646,1","7,1,004,1,+999,9",,SYN076AAXX  27181 57328 32865 30203 10268 20240 39646 40026 57004 83500 333 10347;,Q01  00002PRCP06
08-27T21:00:00,4,31.2,107.5,344.0,"DA XIAN, CH",FM-12,99999,V020,"040,1,N,0030,1","22000,1,9,N","015000,1,N,1","+0254,1","+0240,1","10022,1",,,,,"00,1,+99999,9,99,9","00,99,1,00,1,00,1,99999,9,00,1,00,1",,,"99999,9,09636,1","7,1,005,1,+999,9",,SYN054AAXX  27211 57328 42965 00403 10254 20240 40022 57005;,Q01+999990APOSP 
08-28T00:00:00,4,31.2,107.5,344.0,"DA XIAN, CH",FM-12,99999,V020,"040,1,N,0020,1","99999,9,9,N","018000,1,N,1","+0255,1","+0241,1","10028,1","06,0000,9,1",,,,,"07,99,1,07,1,00,1,99999,9,04,1,99,9",,,"99999,9,09645,1","2,1,004,1,+003,1",,SYN076AAXX  28001 57328 32968 70402 10255 20241 39645 40028 52004 8704/ 333 05351;,Q01  00002PRCP06
08-28T03:00:00,4,31.2,107.5,344.0,"DA XIAN, CH",FM-12,99999,V020,"140,1,N,0020,1","09000,1,9,N","030000,1,N,1","+0327,1","+0231,1","10026,1",,,,,,"07,99,1,01,1,01,1,01250,1,00,1,02,1",,,"99999,9,09649,1","2,1,001,1,+999,9",,SYN060AAXX  28031 57328 42680 71402 10327 20231 40026 52001 81102;,Q01+999990APOSP 
08-28T06:00:00,4,31.2,107.5,344.0,"DA XIAN, CH",FM-12,99999,V020,"110,1,N,0020,1","09000,1,9,N","030000,1,N,1","+0349,1","+0227,1","10011,1","06,0000,9,1",,,,,"07,99,1,03,1,01,1,01250,1,00,1,02,1",,"999,N,+0251,1","99999,9,09632,1","7,1,014,1,+999,9",,SYN076AAXX  28061 57328 32680 71102 10349 20227 39632 40011 57014 83102 333 20251;,Q01  00002PRCP06
08-28T09:00:00,4,31.2,107.5,344.0,"DA XIAN, CH",FM-12,99999,V020,"140,1,N,0020,1","09000,1,9,N","030000,1,N,1","+0340,1","+0226,1","09999,1",,,,,,"07,99,1,02,1,01,1,01250,1,00,1,02,1",,,"99999,9,09624,1","7,1,013,1,+999,9",,SYN060AAXX  28091 57328 42680 71402 10340 20226 49999 57013 82102;,Q01+999990APOSP 
08-28T12:00:00,4,31.2,107.5,344.0,"DA XIAN, CH",FM-12,99999,V020,"040,1,N,0020,1","22000,1,9,N","030000,1,N,1","+0311,1","+0242,1","10006,1","06,0000,9,1",,,,,"01,99,1,01,1,00,1,99999,9,04,1,00,1",,,"99999,9,09624,1","2,1,005,1,+999,9",,SYN066AAXX  28121 57328 32980 10402 10311 20242 39624 40006 52005 81040;,Q01  00002PRCP06
08-28T15:00:00,4,31.2,107.5,344.0,"DA XIAN, CH",FM-12,99999,V020,"020,1,N,0020,1","22000,1,9,N","020000,1,N,1","+0280,1","+0240,1","10019,1",,,,,"00,1,+99999,9,99,9","00,99,1,00,1,00,1,99999,9,00,1,00,1",,,"99999,9,09636,1","2,1,015,1,+999,9",,SYN054AAXX  28151 57328 42970 00202 10280 20240 40019 52015;,Q01+999990APOSP 
08-28T18:00:00,4,31.2,107.5,344.0,"DA XIAN, CH",FM-12,99999,V020,"040,1,N,0010,1","22000,1,9,N","015000,1,N,1","+0271,1","+0238,1","10021,1","06,0000,9,1",,,,,"01,99,1,01,1,00,1,99999,9,04,1,00,1",,"999,M,+0353,1","99999,9,09642,1","2,1,003,1,+999,9",,SYN076AAXX  28181 57328 32965 10401 10271 20238 39642 40021 52003 81040 333 10353;,Q01  00002PRCP06
08-28T21:00:00,4,31.2,107.5,344.0,"DA XIAN, CH",FM-12,99999,V020,"040,1,N,0020,1","22000,1,9,N","012000,1,N,1","+0267,1","+0237,1","10018,1",,,,,,"03,99,1,03,1,00,1,99999,9,04,1,00,1",,,"99999,9,09634,1","7,1,004,1,+999,9",,SYN060AAXX  28211 57328 42962 30402 10267 20237 40018 57004 83040;,Q01+999990APOSP 
08-29T00:00:00,4,31.2,107.5,344.0,"DA XIAN, CH",FM-12,99999,V020,"020,1,N,0020,1","99999,9,9,N","020000,1,N,1","+0273,1","+0237,1","10027,1","06,0000,9,1",,,,,"07,99,1,07,1,00,1,99999,9,04,1,99,9",,,"99999,9,09645,1","2,1,007,1,+000,1",,SYN076AAXX  29001 57328 32970 70202 10273 20237 39645 40027 52007 8704/ 333 00002;,Q01  00002PRCP06
08-29T03:00:00,4,31.2,107.5,344.0,"DA XIAN, CH",FM-12,99999,V020,"090,1,N,0030,1","09000,1,9,N","030000,1,N,1","+0337,1","+0223,1","10031,1",,,,,,"07,99,1,01,1,01,1,01250,1,00,1,02,1",,,"99999,9,09655,1","2,1,006,1,+999,9",,SYN060AAXX  29031 57328 42680 70903 10337 20223 40031 52006 81102;,Q01+999990APOSP 
08-29T06:00:00,4,31.2,107.5,344.0,"DA XIAN, CH",FM-12,99999,V020,"140,1,N,0030,1","22000,1,9,N","030000,1,N,1","+0349,1","+0219,1","10013,1","06,0000,9,1",,,,,"04,99,1,04,1,01,1,01250,1,00,1,00,1",,"999,N,+0264,1","99999,9,09634,1","7,1,017,1,+999,9",,SYN076AAXX  29061 57328 32680 41403 10349 20219 39634 40013 57017 84100 333 20264;,Q01  00002PRCP06
08-29T09:00:00,4,31.2,107.5,344.0,"DA XIAN, CH",FM-12,99999,V020,"070,1,N,0030,1","22000,1,9,N","030000,1,N,1","+0343,1","+0227,1","09999,1",,,,,,"04,99,1,04,1,00,1,99999,9,04,1,00,1",,,"99999,9,09625,1","7,1,014,1,+999,9",,SYN060AAXX  29091 57328 42980 40703 10343 20227 49999 57014 84040;,Q01+999990APOSP 
08-29T12:00:00,4,31.2,107.5,344.0,"DA XIAN, CH",FM-12,99999,V020,"040,1,N,0020,1","22000,1,9,N","020000,1,N,1","+0314,1","+0244,1","10004,1","06,0000,9,1",,,,,"04,99,1,04,1,00,1,99999,9,04,1,00,1",,,"99999,9,09623,1","2,1,003,1,+999,9",,SYN066AAXX  29121 57328 32970 40402 10314 20244 39623 40004 52003 84040;,Q01  00002PRCP06
08-29T15:00:00,4,31.2,107.5,344.0,"DA XIAN, CH",FM-12,99999,V020,"040,1,N,0020,1","99999,9,9,N","015000,1,N,1","+0291,1","+0243,1","10008,1",,,,,,"07,99,1,07,1,00,1,99999,9,04,1,99,9",,,"99999,9,09627,1","2,1,007,1,+999,9",,SYN060AAXX  29151 57328 42965 70402 10291 20243 40008 52007 8704/;,Q01+999990APOSP 
08-29T18:00:00,4,31.2,107.5,344.0,"DA XIAN, CH",FM-12,99999,V020,"040,1,N,0020,1","99999,9,9,N","012000,1,N,1","+0283,1","+0241,1","10004,1","06,0000,9,1",,,,,"08,99,1,08,1,00,1,99999,9,07,1,99,9",,"999,M,+0357,1","99999,9,09626,1","7,1,004,1,+999,9",,SYN076AAXX  29181 57328 32962 80402 10283 20241 39626 40004 57004 8807/ 333 10357;,Q01  00002PRCP06
08-29T21:00:00,4,31.2,107.5,344.0,"DA XIAN, CH",FM-12,99999,V020,"040,1,N,0030,1","02100,1,9,N","012000,1,N,1","+0263,1","+0243,1","10009,1","24,0000,2,1",,"6,1,03,1",,,"08,99,1,08,1,05,1,02250,1,99,9,99,9",,,"99999,9,09624,1","2,1,003,1,+999,9","21,1",SYN076AAXX  29211 57328 41862 80403 10263 20243 40009 52003 72160 885// 333 70001;,Q01+999990APOSP 
08-30T00:00:00,4,31.2,107.5,344.0,"DA XIAN, CH",FM-12,99999,V020,"040,1,N,0050,1","02100,1,9,N","025000,1,N,1","+0256,1","+0226,1","10039,1","06,0005,9,1","24,0005,9,1","6,1,06,1",,,"08,99,1,08,1,05,1,02250,1,99,9,99,9",,,"99999,9,09656,1","2,1,027,1,+010,1","00,1",SYN094AAXX  30001 57328 11875 80405 10256 20226 39656 40039 52027 69951 70060 885// 333 00152 70005;,
08-30T03:00:00,4,31.2,107.5,344.0,"DA XIAN, CH",FM-12,99999,V020,"040,1,N,0070,1","99999,9,9,N","030000,1,N,1","+0245,1","+0191,1","10057,1",,,,,,"08,99,1,08,1,00,1,99999,9,07,1,99,9",,,"99999,9,09668,1","2,1,015,1,+999,9",,SYN060AAXX  30031 57328 42980 80407 10245 20191 40057 52015 8807/;,Q01+999990APOSP 
08-30T06:00:00,4,31.2,107.5,344.0,"DA XIAN, CH",FM-12,99999,V020,"040,1,N,0070,1","99999,9,9,N","030000,1,N,1","+0230,1","+0192,1","10058,1","06,9999,9,9",,"6,1,06,1",,,"08,99,1,08,1,00,1,99999,9,02,1,99,9",,"999,N,+0230,1","99999,9,09671,1","4,1,000,1,+999,9","60,1",SYN088AAXX  30061 57328 11980 80407 10230 20192 39671 40058 54000 69901 76060 8802/ 333 20230;,
08-30T12:00:00,4,31.2,107.5,344.0,"DA XIAN, CH",FM-12,99999,V020,"040,1,N,0030,1","02100,1,9,N","030000,1,N,1","+0225,1","+0198,1","10049,1","06,0061,9,1",,"9,1,06,1","8,1,06,1",,"08,99,1,08,1,05,1,02250,1,99,9,99,9",,,"99999,9,09660,1","7,1,002,1,+999,9","00,1",SYN078AAXX  30121 57328 11880 80403 10225 20198 39660 40049 57002 60061 70098 885//;,
08-30T15:00:00,4,31.2,107.5,344.0,"DA XIAN, CH",FM-12,99999,V020,"040,1,N,0020,1","02100,1,9,N","020000,1,N,1","+0227,1","+0195,1","10058,1",,,,,,"08,99,1,08,1,05,1,02250,1,99,9,99,9",,,"99999,9,09667,1","2,1,008,1,+999,9",,SYN060AAXX  30151 57328 42870 80402 10227 20195 40058 52008 885//;,Q01+999990APOSP 
08-30T18:00:00,4,31.2,107.5,344.0,"DA XIAN, CH",FM-12,99999,V020,"180,1,N,0020,1","02100,1,9,N","020000,1,N,1","+0227,1","+0200,1","10057,1","06,0000,9,1",,,,,"08,99,1,08,1,05,1,02250,1,99,9,99,9",,"999,M,+0285,1","99999,9,09666,1","7,1,002,1,+999,9",,SYN076AAXX  30181 57328 32870 81802 10227 20200 39666 40057 57002 885// 333 10285;,Q01  00002PRCP06
08-30T21:00:00,4,31.2,107.5,344.0,"DA XIAN, CH",FM-12,99999,V020,"040,1,N,0020,1","02100,1,9,N","004000,1,N,1","+0225,1","+0210,1","10055,1","24,0066,9,1",,,,,"08,99,1,08,1,05,1,02250,1,99,9,99,9",,,"99999,9,09664,1","7,1,003,1,+999,9","60,1",SYN076AAXX  30211 57328 41840 80402 10225 20210 40055 57003 76000 885// 333 70065;,Q01+999990APOSP 
08-31T00:00:00,4,31.2,107.5,344.0,"DA XIAN, CH",FM-12,99999,V020,"040,1,N,0010,1","99999,9,9,N","005000,1,N,1","+0209,1","+0206,1","10062,1","06,0079,9,1","24,0142,9,1","6,1,06,1",,,"08,99,1,08,1,00,1,99999,9,02,1,99,9",,,"99999,9,09669,1","2,1,006,1,+010,1","60,1",SYN094AAXX  31001 57328 11950 80401 10209 20206 39669 40062 52006 60081 76060 8802/ 333 00155 70143;,
08-31T03:00:00,4,31.2,107.5,344.0,"DA XIAN, CH",FM-12,99999,V020,"040,1,N,0010,1","99999,9,9,N","006000,1,N,1","+0213,1","+0207,1","10072,1",,,"6,1,03,1","6,1,03,1",,"08,99,1,08,1,00,1,99999,9,02,1,99,9",,,"99999,9,09679,1","2,1,010,1,+999,9","60,1",SYN066AAXX  31031 57328 41956 80401 10213 20207 40072 52010 76066 8802/;,Q01+999990APOSP 
08-31T06:00:00,4,31.2,107.5,344.0,"DA XIAN, CH",FM-12,99999,V020,"040,1,N,0030,1","99999,9,9,N","008000,1,N,1","+0215,1","+0209,1","10060,1","06,0051,9,1",,"6,1,06,1","6,1,06,1",,"08,99,1,08,1,00,1,99999,9,02,1,99,9",,"999,N,+0209,1","99999,9,09668,1","7,1,011,1,+999,9","60,1",SYN088AAXX  31061 57328 11958 80403 10215 20209 39668 40060 57011 60051 76066 8802/ 333 20209;,
08-31T09:00:00,4,31.2,107.5,344.0,"DA XIAN, CH",FM-12,99999,V020,"040,1,N,0030,1","99999,9,9,N","012000,1,N,1","+0215,1","+0203,1","10048,1",,,"6,1,03,1",,,"08,99,1,08,1,00,1,99999,9,02,1,99,9",,,"99999,9,09656,1","7,1,012,1,+999,9","21,1",SYN066AAXX  31091 57328 41962 80403 10215 20203 40048 57012 72160 8802/;,Q01+999990APOSP 
08-31T12:00:00,4,31.2,107.5,344.0,"DA XIAN, CH",FM-12,99999,V020,"040,1,N,0030,1","02100,1,9,N","030000,1,N,1","+0211,1","+0186,1","10053,1","06,9999,9,9",,"6,1,06,1",,,"08,99,1,08,1,05,1,02250,1,99,9,99,9",,,"99999,9,09660,1","2,1,004,1,+999,9","00,1",SYN078AAXX  31121 57328 11880 80403 10211 20186 39660 40053 52004 69911 70060 885//;,
08-31T15:00:00,4,31.2,107.5,344.0,"DA XIAN, CH",FM-12,99999,V020,"040,1,N,0030,1","02100,1,9,N","030000,1,N,1","+0211,1","+0178,1","10066,1",,,,,,"08,99,1,08,1,05,1,02250,1,99,9,99,9",,,"99999,9,09673,1","2,1,013,1,+999,9","60,1",SYN066AAXX  31151 57328 41880 80403 10211 20178 40066 52013 76000 885//;,Q01+999990APOSP 
08-31T18:00:00,4,31.2,107.5,344.0,"DA XIAN, CH",FM-12,99999,V020,"040,1,N,0030,1","02100,1,9,N","030000,1,N,1","+0196,1","+0185,1","10068,1","06,0020,9,1",,"6,1,06,1",,,"08,99,1,08,1,05,1,02250,1,99,9,99,9",,"999,M,+0227,1","99999,9,09674,1","2,1,001,1,+999,9","60,1",SYN088AAXX  31181 57328 11880 80403 10196 20185 39674 40068 52001 60021 76060 885// 333 10227;,
08-31T21:00:00,4,31.2,107.5,344.0,"DA XIAN, CH",FM-12,99999,V020,"070,1,N,0050,1","99999,9,9,N","015000,1,N,1","+0181,1","+0171,1","10068,1","24,0348,9,1",,"6,1,03,1","6,1,03,1",,"08,99,1,08,1,00,1,99999,9,02,1,99,9",,,"99999,9,09671,1","7,1,001,1,+999,9","63,1",SYN076AAXX  31211 57328 41965 80705 10181 20171 40068 57001 76366 8802/ 333 70349;,Q01+999990APOSP 
09-01T00:00:00,4,31.2,107.5,344.0,"DA XIAN, CH",FM-12,99999,V020,"999,9,C,0000,1","03600,1,9,N","007000,1,N,1","+0178,1","+0173,1","10073,1","06,0531,9,1","24,0599,9,1","6,1,06,1","6,1,06,1",,"08,99,1,02,1,07,1,00450,1,02,1,99,9",,,"99999,9,09677,1","2,1,004,1,+010,1","63,1",SYN094AAXX  01001 57328 11457 80000 10178 20173 39677 40073 52004 60531 76366 8272/ 333 00153 70600;,
09-01T03:00:00,4,31.2,107.5,344.0,"DA XIAN, CH",FM-12,99999,V020,"070,1,N,0030,1","03600,1,9,N","011000,1,N,1","+0181,1","+0168,1","10088,1",,,"6,1,03,1","6,1,03,1",,"08,99,1,02,1,07,1,00450,1,02,1,99,9",,,"99999,9,09690,1","2,1,015,1,+999,9","60,1",SYN066AAXX  01031 57328 41461 80703 10181 20168 40088 52015 76066 8272/;,Q01+999990APOSP 
09-01T06:00:00,4,31.2,107.5,344.0,"DA XIAN, CH",FM-12,99999,V020,"110,1,N,0010,1","00420,1,9,N","020000,1,N,1","+0181,1","+0171,1","10093,1","06,0300,9,1",,"6,1,06,1","6,1,06,1",,"08,99,1,08,1,05,1,00450,1,99,9,99,9",,"999,N,+0175,1","99999,9,09695,1","2,1,003,1,+999,9","62,1",SYN088AAXX  01061 57328 11470 81101 10181 20171 39695 40093 52003 60301 76266 885// 333 20175;,
09-01T09:00:00,4,31.2,107.5,344.0,"DA XIAN, CH",FM-12,99999,V020,"070,1,N,0030,1","00420,1,9,N","025000,1,N,1","+0181,1","+0171,1","10099,1",,,"6,1,03,1","6,1,03,1",,"08,99,1,08,1,05,1,00450,1,99,9,99,9",,,"99999,9,09700,1","2,1,005,1,+999,9","60,1",SYN066AAXX  01091 57328 41475 80703 10181 20171 40099 52005 76066 885//;,Q01+999990APOSP 
09-01T12:00:00,4,31.2,107.5,344.0,"DA XIAN, CH",FM-12,99999,V020,"040,1,N,0010,1","00420,1,9,N","020000,1,N,1","+0179,1","+0173,1","10121,1","06,0071,9,1",,"6,1,06,1","6,1,06,1",,"08,99,1,08,1,05,1,00450,1,99,9,99,9",,,"99999,9,09721,1","2,1,021,1,+999,9","60,1",SYN078AAXX  01121 57328 11470 80401 10179 20173 39721 40121 52021 60071 76066 885//;,
09-01T15:00:00,4,31.2,107.5,344.0,"DA XIAN, CH",FM-12,99999,V020,"070,1,N,0020,1","02100,1,9,N","020000,1,N,1","+0177,1","+0171,1","10144,1",,,"6,1,03,1","6,1,03,1",,"08,99,1,08,1,05,1,02250,1,99,9,99,9",,,"99999,9,09743,1","2,1,022,1,+999,9","60,1",SYN066AAXX  01151 57328 41870 80702 10177 20171 40144 52022 76066 885//;,Q01+999990APOSP 
09-01T18:00:00,4,31.2,107.5,344.0,"DA XIAN, CH",FM-12,99999,V020,"070,1,N,0010,1","02100,1,9,N","015000,1,N,1","+0177,1","+0174,1","10137,1","06,0030,9,1",,"6,1,06,1","6,1,06,1",,"08,99,1,08,1,05,1,02250,1,99,9,99,9",,"999,M,+0194,1","99999,9,09736,1","7,1,007,1,+999,9","60,1",SYN088AAXX  01181 57328 11865 80701 10177 20174 39736 40137 57007 60031 76066 885// 333 10194;,
09-01T21:00:00,4,31.2,107.5,344.0,"DA XIAN, CH",FM-12,99999,V020,"040,1,N,0020,1","02100,1,9,N","007000,1,N,1","+0179,1","+0173,1","10135,1","24,0734,9,1",,"6,1,03,1",,,"08,99,1,08,1,05,1,02250,1,99,9,99,9",,,"99999,9,09735,1","7,1,001,1,+999,9","21,1",SYN076AAXX  01211 57328 41857 80402 10179 20173 40135 57001 72160 885// 333 70734;,Q01+999990APOSP 
09-02T00:00:00,4,31.2,107.5,344.0,"DA XIAN, CH",FM-12,99999,V020,"040,1,N,0020,1","02100,1,9,N","030000,1,N,1","+0183,1","+0178,1","10147,1","06,9999,9,9","24,0401,9,1","6,1,06,1",,,"08,99,1,08,1,05,1,02250,1,99,9,99,9",,,"99999,9,09746,1","2,1,011,1,+070,1","60,1",SYN094AAXX  02001 57328 11880 80402 10183 20178 39746 40147 52011 69911 76060 885// 333 00701 70401;,
09-02T03:00:00,4,31.2,107.5,344.0,"DA XIAN, CH",FM-12,99999,V020,"999,9,C,0000,1","99999,9,9,N","030000,1,N,1","+0202,1","+0188,1","10159,1",,,"6,1,03,1",,,"08,99,1,08,1,00,1,99999,9,02,1,99,9",,,"99999,9,09761,1","2,1,013,1,+999,9","60,1",SYN066AAXX  02031 57328 41980 80000 10202 20188 40159 52013 76060 8802/;,Q01+999990APOSP 
09-02T06:00:00,4,31.2,107.5,344.0,"DA XIAN, CH",FM-12,99999,V020,"040,1,N,0010,1","02100,1,9,N","020000,1,N,1","+0219,1","+0186,1","10151,1","06,9999,9,9",,"6,1,06,1",,,"08,99,1,08,1,05,1,02250,1,99,9,99,9",,"999,N,+0174,1","99999,9,09752,1","7,1,007,1,+999,9","60,1",SYN088AAXX  02061 57328 11870 80401 10219 20186 39752 40151 57007 69911 76060 885// 333 20174;,
09-02T12:00:00,4,31.2,107.5,344.0,"DA XIAN, CH",FM-12,99999,V020,"999,9,C,0000,1","02100,1,9,N","020000,1,N,1","+0211,1","+0194,1","10142,1","06,0005,9,1",,"6,1,06,1",,,"08,99,1,08,1,05,1,02250,1,99,9,99,9",,,"99999,9,09744,1","2,1,005,1,+999,9","00,1",SYN078AAXX  02121 57328 11870 80000 10211 20194 39744 40142 52005 69951 70060 885//;,
09-02T15:00:00,4,31.2,107.5,344.0,"DA XIAN, CH",FM-12,99999,V020,"070,1,N,0010,1","02100,1,9,N","015000,1,N,1","+0204,1","+0193,1","10152,1",,,,,,"08,99,1,08,1,05,1,02250,1,99,9,99,9",,,"99999,9,09754,1","2,1,010,1,+999,9",,SYN060AAXX  02151 57328 42865 80701 10204 20193 40152 52010 885//;,Q01+999990APOSP 
09-02T18:00:00,4,31.2,107.5,344.0,"DA XIAN, CH",FM-12,99999,V020,"999,9,C,0000,1","02100,1,9,N","012000,1,N,1","+0202,1","+0194,1","10145,1","06,0000,9,1",,,,,"08,99,1,08,1,05,1,02250,1,99,9,99,9",,"999,M,+0223,1","99999,9,09748,1","7,1,006,1,+999,9",,SYN076AAXX  02181 57328 32862 80000 10202 20194 39748 40145 57006 885// 333 10223;,Q01  00002PRCP06
09-02T21:00:00,4,31.2,107.5,344.0,"DA XIAN, CH",FM-12,99999,V020,"020,1,N,0010,1","02100,1,9,N","008000,1,N,1","+0200,1","+0194,1","10141,1","24,0005,9,1",,,,,"08,99,1,08,1,05,1,02250,1,99,9,99,9",,,"99999,9,09743,1","7,1,003,1,+999,9","10,1",SYN076AAXX  02211 57328 41858 80201 10200 20194 40141 57003 71000 885// 333 70006;,Q01+999990APOSP 
09-03T00:00:00,4,31.2,107.5,344.0,"DA XIAN, CH",FM-12,99999,V020,"040,1,N,0010,1","02100,1,9,N","018000,1,N,1","+0201,1","+0190,1","10150,1","06,9999,9,9","24,0005,9,1","6,1,06,1",,,"08,99,1,08,1,05,1,02250,1,99,9,99,9",,,"99999,9,09753,1","2,1,008,1,+010,1","00,1",SYN094AAXX  03001 57328 11868 80401 10201 20190 39753 40150 52008 69901 70060 885// 333 00102 70006;,
09-03T03:00:00,4,31.2,107.5,344.0,"DA XIAN, CH",FM-12,99999,V020,"020,1,N,0020,1","03600,1,9,N","030000,1,N,1","+0241,1","+0189,1","10142,1",,,,,,"07,99,1,01,1,01,1,01250,1,04,1,00,1",,,"99999,9,09749,1","7,1,006,1,+999,9",,SYN060AAXX  03031 57328 42680 70202 10241 20189 40142 57006 81140;,Q01+999990APOSP 
09-03T06:00:00,4,31.2,107.5,344.0,"DA XIAN, CH",FM-12,99999,V020,"999,9,C,0000,1","99999,9,9,N","030000,1,N,1","+0262,1","+0204,1","10121,1","06,0000,9,1",,,,,"08,99,1,08,1,00,1,99999,9,07,1,99,9",,"999,N,+0200,1","99999,9,09728,1","7,1,019,1,+999,9",,SYN076AAXX  03061 57328 32980 80000 10262 20204 39728 40121 57019 8807/ 333 20200;,Q01  00002PRCP06
09-03T09:00:00,4,31.2,107.5,344.0,"DA XIAN, CH",FM-12,99999,V020,"160,1,N,0010,1","99999,9,9,N","030000,1,N,1","+0257,1","+0203,1","10112,1",,,,,,"08,99,1,08,1,00,1,99999,9,07,1,99,9",,,"99999,9,09723,1","7,1,009,1,+999,9",,SYN060AAXX  03091 57328 42980 81601 10257 20203 40112 57009 8807/;,Q01+999990APOSP 
09-03T12:00:00,4,31.2,107.5,344.0,"DA XIAN, CH",FM-12,99999,V020,"040,1,N,0010,1","99999,9,9,N","015000,1,N,1","+0239,1","+0212,1","10111,1","06,0000,9,1",,,,,"08,99,1,08,1,00,1,99999,9,07,1,99,9",,,"99999,9,09717,1","7,1,002,1,+999,9",,SYN066AAXX  03121 57328 32965 80401 10239 20212 39717 40111 57002 8807/;,Q01  00002PRCP06
09-03T15:00:00,4,31.2,107.5,344.0,"DA XIAN, CH",FM-12,99999,V020,"040,1,N,0010,1","99999,9,9,N","015000,1,N,1","+0230,1","+0215,1","10126,1",,,,,,"08,99,1,08,1,00,1,99999,9,07,1,99,9",,,"99999,9,09733,1","2,1,016,1,+999,9",,SYN060AAXX  03151 57328 42965 80401 10230 20215 40126 52016 8807/;,Q01+999990APOSP 
09-03T18:00:00,4,31.2,107.5,344.0,"DA XIAN, CH",FM-12,99999,V020,"999,9,C,0000,1","99999,9,9,N","012000,1,N,1","+0227,1","+0215,1","10119,1","06,0000,9,1",,,,,"08,99,1,08,1,00,1,99999,9,07,1,99,9",,"999,M,+0268,1","99999,9,09728,1","7,1,005,1,+999,9",,SYN076AAXX  03181 57328 32962 80000 10227 20215 39728 40119 57005 8807/ 333 10268;,Q01  00002PRCP06
09-03T21:00:00,4,31.2,107.5,344.0,"DA XIAN, CH",FM-12,99999,V020,"999,9,C,0000,1","02100,1,9,N","012000,1,N,1","+0221,1","+0215,1","10118,1","24,0018,9,1",,"6,1,03,1",,,"08,99,1,08,1,05,1,02250,1,99,9,99,9",,,"99999,9,09724,1","7,1,002,1,+999,9","60,1",SYN076AAXX  03211 57328 41862 80000 10221 20215 40118 57002 76060 885// 333 70017;,Q01+999990APOSP 
09-04T00:00:00,4,31.2,107.5,344.0,"DA XIAN, CH",FM-12,99999,V020,"040,1,N,0020,1","02100,1,9,N","020000,1,N,1","+0211,1","+0199,1","10125,1","06,0020,9,1","24,0023,9,1","6,1,06,1",,,"08,99,1,08,1,05,1,02250,1,99,9,99,9",,,"99999,9,09731,1","2,1,005,1,-020,1","60,1",SYN094AAXX  04001 57328 11870 80402 10211 20199 39731 40125 52005 60021 76060 885// 333 05201 70023;,
09-04T03:00:00,4,31.2,107.5,344.0,"DA XIAN, CH",FM-12,99999,V020,"040,1,N,0010,1","00420,1,9,N","015000,1,N,1","+0215,1","+0209,1","10133,1",,,"6,1,03,1","6,1,03,1",,"08,99,1,08,1,05,1,00450,1,99,9,99,9",,,"99999,9,09737,1","2,1,007,1,+999,9","60,1",SYN066AAXX  04031 57328 41465 80401 10215 20209 40133 52007 76066 885//;,Q01+999990APOSP 
09-04T06:00:00,4,31.2,107.5,344.0,"DA XIAN, CH",FM-12,99999,V020,"340,1,N,0010,1","00420,1,9,N","011000,1,N,1","+0229,1","+0216,1","10118,1","06,0030,9,1",,"6,1,06,1","6,1,06,1",,"08,99,1,08,1,05,1,00450,1,99,9,99,9",,"999,N,+0209,1","99999,9,09725,1","7,1,013,1,+999,9","60,1",SYN088AAXX  04061 57328 11461 83401 10229 20216 39725 40118 57013 60031 76066 885// 333 20209;,
09-04T09:00:00,4,31.2,107.5,344.0,"DA XIAN, CH",FM-12,99999,V020,"040,1,N,0010,1","00420,1,9,N","012000,1,N,1","+0243,1","+0219,1","10111,1",,,"6,1,03,1",,,"08,99,1,08,1,05,1,00450,1,99,9,99,9",,,"99999,9,09720,1","7,1,007,1,+999,9","00,1",SYN066AAXX  04091 57328 41462 80401 10243 20219 40111 57007 70060 885//;,Q01+999990APOSP 
09-04T12:00:00,4,31.2,107.5,344.0,"DA XIAN, CH",FM-12,99999,V020,"999,9,C,0000,1","02100,1,9,N","012000,1,N,1","+0237,1","+0221,1","10117,1","06,0005,9,1",,"6,1,06,1",,,"08,99,1,08,1,05,1,02250,1,99,9,99,9",,,"99999,9,09723,1","2,1,005,1,+999,9","00,1",SYN078AAXX  04121 57328 11862 80000 10237 20221 39723 40117 52005 69941 70060 885//;,
09-04T15:00:00,4,31.2,107.5,344.0,"DA XIAN, CH",FM-12,99999,V020,"999,9,C,0000,1","02100,1,9,N","006000,1,N,1","+0233,1","+0224,1","10128,1",,,,,,"08,99,1,08,1,05,1,02250,1,99,9,99,9",,,"99999,9,09735,1","2,1,011,1,+999,9","10,1",SYN066AAXX  04151 57328 41856 80000 10233 20224 40128 52011 71000 885//;,Q01+999990APOSP 
09-04T18:00:00,4,31.2,107.5,344.0,"DA XIAN, CH",FM-12,99999,V020,"999,9,C,0000,1","02100,1,9,N","004000,1,N,1","+0229,1","+0223,1","10124,1","06,0000,9,1",,,,,"08,99,1,08,1,05,1,02250,1,99,9,99,9",,"999,M,+0243,1","99999,9,09731,1","7,1,003,1,+999,9","10,1",SYN082AAXX  04181 57328 31840 80000 10229 20223 39731 40124 57003 71000 885// 333 10243;,Q01  00002PRCP06
09-04T21:00:00,4,31.2,107.5,344.0,"DA XIAN, CH",FM-12,99999,V020,"040,1,N,0010,1","02100,1,9,N","004000,1,N,1","+0227,1","+0223,1","10112,1","24,0041,9,1",,"6,1,03,1",,,"08,99,1,08,1,05,1,02250,1,99,9,99,9",,,"99999,9,09719,1","7,1,011,1,+999,9","10,1",SYN076AAXX  04211 57328 41840 80401 10227 20223 40112 57011 71060 885// 333 70041;,Q01+999990APOSP 
09-05T00:00:00,4,31.2,107.5,344.0,"DA XIAN, CH",FM-12,99999,V020,"999,9,C,0000,1","02100,1,9,N","003000,1,N,1","+0226,1","+0223,1","10116,1","06,0003,9,1","24,0036,9,1","6,1,06,1",,,"08,99,1,08,1,05,1,02250,1,99,9,99,9",,,"99999,9,09723,1","2,1,003,1,-010,1","21,1",SYN094AAXX  05001 57328 11830 80000 10226 20223 39723 40116 52003 69931 72160 885// 333 05102 70036;,
09-05T03:00:00,4,31.2,107.5,344.0,"DA XIAN, CH",FM-12,99999,V020,"999,9,C,0000,1","99999,9,9,N","007000,1,N,1","+0247,1","+0225,1","10116,1",,,,,,"08,99,1,08,1,00,1,99999,9,07,1,99,9",,,"99999,9,09725,1","2,1,001,1,+999,9","10,1",SYN066AAXX  05031 57328 41957 80000 10247 20225 40116 52001 71000 8807/;,Q01+999990APOSP 
09-05T06:00:00,4,31.2,107.5,344.0,"DA XIAN, CH",FM-12,99999,V020,"270,1,N,0020,1","99999,9,9,N","012000,1,N,1","+0271,1","+0229,1","10097,1","06,0000,2,1",,,,,"07,99,1,07,1,00,1,99999,9,04,1,99,9",,"999,N,+0225,1","99999,9,09707,1","7,1,017,1,+999,9",,SYN076AAXX  05061 57328 32962 72702 10271 20229 39707 40097 57017 8704/ 333 20225;,
09-05T09:00:00,4,31.2,107.5,344.0,"DA XIAN, CH",FM-12,99999,V020,"290,1,N,0010,1","22000,1,9,N","012000,1,N,1","+0301,1","+0234,1","10073,1",,,,,,"01,99,1,01,1,01,1,01250,1,00,1,00,1",,,"99999,9,09691,1","7,1,021,1,+999,9",,SYN060AAXX  05091 57328 42662 12901 10301 20234 40073 57021 81100;,Q01+999990APOSP 
09-05T12:00:00,4,31.2,107.5,344.0,"DA XIAN, CH",FM-12,99999,V020,"040,1,N,0030,1","99999,9,9,N","012000,1,N,1","+0264,1","+0232,1","10081,1","06,0000,9,1",,,,,"06,99,1,06,1,00,1,99999,9,04,1,00,1",,,"99999,9,09691,1","2,1,005,1,+999,9",,SYN066AAXX  05121 57328 32962 60403 10264 20232 39691 40081 52005 86040;,Q01  00002PRCP06
09-05T15:00:00,4,31.2,107.5,344.0,"DA XIAN, CH",FM-12,99999,V020,"040,1,N,0020,1","99999,9,9,N","007000,1,N,1","+0251,1","+0234,1","10097,1",,,,,,"08,99,1,08,1,00,1,99999,9,07,1,99,9",,,"99999,9,09708,1","2,1,016,1,+999,9","10,1",SYN066AAXX  05151 57328 41957 80402 10251 20234 40097 52016 71000 8807/;,Q01+999990APOSP 
09-05T18:00:00,4,31.2,107.5,344.0,"DA XIAN, CH",FM-12,99999,V020,"040,1,N,0020,1","99999,9,9,N","006000,1,N,1","+0244,1","+0230,1","10083,1","06,0000,9,1",,,,,"08,99,1,08,1,00,1,99999,9,07,1,99,9",,"999,M,+0302,1","99999,9,09695,1","7,1,012,1,+999,9","10,1",SYN082AAXX  05181 57328 31956 80402 10244 20230 39695 40083 57012 71000 8807/ 333 10302;,Q01  00002PRCP06
09-05T21:00:00,4,31.2,107.5,344.0,"DA XIAN, CH",FM-12,99999,V020,"040,1,N,0020,1","02100,1,9,N","006000,1,N,1","+0239,1","+0226,1","10071,1","24,0000,2,1",,,,,"07,99,1,07,1,05,1,02250,1,99,9,99,9",,,"99999,9,09681,1","7,1,010,1,+999,9","10,1",SYN076AAXX  05211 57328 41856 70402 10239 20226 40071 57010 71000 875// 333 70001;,Q01+999990APOSP 
09-06T00:00:00,4,31.2,107.5,344.0,"DA XIAN, CH",FM-12,99999,V020,"020,1,N,0010,1","99999,9,9,N","007000,1,N,1","+0240,1","+0225,1","10082,1","06,0000,9,1",,,,,"08,99,1,08,1,00,1,99999,9,07,1,99,9",,,"99999,9,09693,1","2,1,008,1,+003,1","10,1",SYN082AAXX  06001 57328 31957 80201 10240 20225 39693 40082 52008 71000 8807/ 333 05301;,Q01  00002PRCP06
09-06T03:00:00,4,31.2,107.5,344.0,"DA XIAN, CH",FM-12,99999,V020,"040,1,N,0030,1","99999,9,9,N","020000,1,N,1","+0272,1","+0233,1","10084,1",,,,,,"07,99,1,07,1,00,1,99999,9,04,1,99,9",,,"99999,9,09698,1","2,1,003,1,+999,9",,SYN060AAXX  06031 57328 42970 70403 10272 20233 40084 52003 8704/;,Q01+999990APOSP 
09-06T06:00:00,4,31.2,107.5,344.0,"DA XIAN, CH",FM-12,99999,V020,"360,1,N,0010,1","03600,1,9,N","020000,1,N,1","+0295,1","+0235,1","10066,1","06,0000,9,1",,,,,"08,99,1,01,1,01,1,01250,1,04,1,99,9",,"999,N,+0238,1","99999,9,09680,1","7,1,016,1,+999,9",,SYN076AAXX  06061 57328 32670 83601 10295 20235 39680 40066 57016 8114/ 333 20238;,Q01  00002PRCP06
09-06T09:00:00,4,31.2,107.5,344.0,"DA XIAN, CH",FM-12,99999,V020,"270,1,N,0010,1","03600,1,9,N","015000,1,N,1","+0280,1","+0227,1","10064,1",,,,,,"08,99,1,02,1,09,1,01750,1,04,1,99,9",,,"99999,9,09679,1","7,1,003,1,+999,9","17,1",SYN066AAXX  06091 57328 41765 82701 10280 20227 40064 57003 71700 8294/;,Q01+999990APOSP 
09-06T12:00:00,4,31.2,107.5,344.0,"DA XIAN, CH",FM-12,99999,V020,"180,1,N,0010,1","99999,9,9,N","007000,1,N,1","+0249,1","+0223,1","10075,1","06,0061,9,1",,"9,1,06,1","8,1,06,1",,"08,99,1,08,1,00,1,99999,9,07,1,99,9",,,"99999,9,09685,1","2,1,008,1,+999,9","10,1",SYN078AAXX  06121 57328 11957 81801 10249 20223 39685 40075 52008 60061 71098 8807/;,
09-06T15:00:00,4,31.2,107.5,344.0,"DA XIAN, CH",FM-12,99999,V020,"040,1,N,0010,1","99999,9,9,N","007000,1,N,1","+0236,1","+0215,1","10087,1",,,,,,"08,99,1,08,1,00,1,99999,9,07,1,99,9",,,"99999,9,09696,1","2,1,013,1,+999,9","10,1",SYN066AAXX  06151 57328 41957 80401 10236 20215 40087 52013 71000 8807/;,Q01+999990APOSP 
09-06T18:00:00,4,31.2,107.5,344.0,"DA XIAN, CH",FM-12,99999,V020,"090,1,N,0010,1","01500,1,9,N","006000,1,N,1","+0224,1","+0206,1","10084,1","06,0003,9,1",,"9,1,06,1","8,1,06,1",,"08,99,1,08,1,09,1,01750,1,99,9,99,9",,"999,M,+0298,1","99999,9,09696,1","7,1,002,1,+999,9","95,1",SYN088AAXX  06181 57328 11756 80901 10224 20206 39696 40084 57002 69931 79598 889// 333 10298;,
09-06T21:00:00,4,31.2,107.5,344.0,"DA XIAN, CH",FM-12,99999,V020,"090,1,N,0010,1","02100,1,9,N","015000,1,N,1","+0200,1","+0191,1","10094,1","24,0305,9,1",,"9,1,03,1","8,1,03,1",,"08,99,1,08,1,05,1,02250,1,99,9,99,9",,,"99999,9,09698,1","2,1,007,1,+999,9","25,1",SYN076AAXX  06211 57328 41865 80901 10200 20191 40094 52007 72598 885// 333 70306;,Q01+999990APOSP 
09-07T00:00:00,4,31.2,107.5,344.0,"DA XIAN, CH",FM-12,99999,V020,"070,1,N,0010,1","02100,1,9,N","030000,1,N,1","+0195,1","+0186,1","10114,1","06,0290,9,1","24,0351,9,1","9,1,06,1","8,1,06,1",,"08,99,1,08,1,05,1,02250,1,99,9,99,9",,,"99999,9,09720,1","2,1,017,1,+030,1","60,1",SYN094AAXX  07001 57328 11880 80701 10195 20186 39720 40114 52017 60291 76098 885// 333 00355 70351;,
09-07T03:00:00,4,31.2,107.5,344.0,"DA XIAN, CH",FM-12,99999,V020,"090,1,N,0010,1","02100,1,9,N","020000,1,N,1","+0195,1","+0187,1","10138,1",,,"6,1,03,1","6,1,03,1",,"08,99,1,08,1,05,1,02250,1,99,9,99,9",,,"99999,9,09740,1","2,1,022,1,+999,9","60,1",SYN066AAXX  07031 57328 41870 80901 10195 20187 40138 52022 76066 885//;,Q01+999990APOSP 
09-07T06:00:00,4,31.2,107.5,344.0,"DA XIAN, CH",FM-12,99999,V020,"020,1,N,0010,1","00420,1,9,N","030000,1,N,1","+0199,1","+0180,1","10126,1","06,0041,9,1",,"6,1,06,1","6,1,06,1",,"08,99,1,08,1,05,1,00450,1,99,9,99,9",,"999,N,+0193,1","99999,9,09730,1","7,1,012,1,+999,9","60,1",SYN088AAXX  07061 57328 11480 80201 10199 20180 39730 40126 57012 60041 76066 885// 333 20193;,
09-07T09:00:00,4,31.2,107.5,344.0,"DA XIAN, CH",FM-12,99999,V020,"090,1,N,0020,1","02100,1,9,N","030000,1,N,1","+0215,1","+0184,1","10113,1",,,"6,1,03,1",,,"08,99,1,08,1,05,1,02250,1,99,9,99,9",,,"99999,9,09718,1","7,1,013,1,+999,9","21,1",SYN066AAXX  07091 57328 41880 80902 10215 20184 40113 57013 72160 885//;,Q01+999990APOSP 
09-07T12:00:00,4,31.2,107.5,344.0,"DA XIAN, CH",FM-12,99999,V020,"160,1,N,0010,1","99999,9,9,N","030000,1,N,1","+0212,1","+0193,1","10121,1","06,9999,9,9",,"6,1,06,1",,,"07,99,1,07,1,00,1,99999,9,04,1,99,9",,,"99999,9,09724,1","2,1,007,1,+999,9","00,1",SYN078AAXX  07121 57328 11980 71601 10212 20193 39724 40121 52007 69921 70060 8704/;,
09-07T15:00:00,4,31.2,107.5,344.0,"DA XIAN, CH",FM-12,99999,V020,"999,9,C,0000,1","99999,9,9,N","020000,1,N,1","+0203,1","+0191,1","10135,1",,,,,,"07,99,1,07,1,00,1,99999,9,04,1,99,9",,,"99999,9,09738,1","2,1,013,1,+999,9",,SYN060AAXX  07151 57328 42970 70000 10203 20191 40135 52013 8704/;,Q01+999990APOSP 
09-07T18:00:00,4,31.2,107.5,344.0,"DA XIAN, CH",FM-12,99999,V020,"999,9,C,0000,1","99999,9,9,N","012000,1,N,1","+0196,1","+0190,1","10136,1","06,0000,9,1",,,,,"06,99,1,06,1,00,1,99999,9,04,1,00,1",,"999,M,+0223,1","99999,9,09738,1","2,1,001,1,+999,9",,SYN076AAXX  07181 57328 32962 60000 10196 20190 39738 40136 52001 86040 333 10223;,Q01  00002PRCP06
09-07T21:00:00,4,31.2,107.5,344.0,"DA XIAN, CH",FM-12,99999,V020,"999,9,C,0000,1","99999,9,9,N","011000,1,N,1","+0197,1","+0191,1","10125,1","24,0086,9,1",,,,,"08,99,1,08,1,00,1,99999,9,07,1,99,9",,,"99999,9,09727,1","7,1,009,1,+999,9",,SYN070AAXX  07211 57328 42961 80000 10197 20191 40125 57009 8807/ 333 70086;,Q01+999990APOSP 
09-08T00:00:00,4,31.2,107.5,344.0,"DA XIAN, CH",FM-12,99999,V020,"999,9,C,0000,1","02100,1,9,N","003000,1,N,1","+0199,1","+0191,1","10132,1","06,0000,9,1","24,0041,9,1",,,,"08,99,1,08,1,05,1,02250,1,99,9,99,9",,,"99999,9,09735,1","2,1,006,1,+020,1","10,1",SYN088AAXX  08001 57328 31830 80000 10199 20191 39735 40132 52006 71000 885// 333 00200 70041;,Q01  00002PRCP06
09-08T03:00:00,4,31.2,107.5,344.0,"DA XIAN, CH",FM-12,99999,V020,"220,1,N,0010,1","02100,1,9,N","008000,1,N,1","+0212,1","+0193,1","10150,1",,,"6,1,03,1",,,"08,99,1,08,1,05,1,02250,1,99,9,99,9",,,"99999,9,09753,1","2,1,018,1,+999,9","10,1",SYN066AAXX  08031 57328 41858 82201 10212 20193 40150 52018 71060 885//;,Q01+999990APOSP 
09-08T06:00:00,4,31.2,107.5,344.0,"DA XIAN, CH",FM-12,99999,V020,"999,9,C,0000,1","02100,1,9,N","003000,1,N,1","+0210,1","+0196,1","10151,1","06,0010,9,1",,"6,1,06,1",,,"08,99,1,08,1,05,1,02250,1,99,9,99,9",,"999,N,+0190,1","99999,9,09753,1","4,1,000,1,+999,9","60,1",SYN088AAXX  08061 57328 11830 80000 10210 20196 39753 40151 54000 60011 76060 885// 333 20190;,
09-08T09:00:00,4,31.2,107.5,344.0,"DA XIAN, CH",FM-12,99999,V020,"999,9,C,0000,1","02100,1,9,N","020000,1,N,1","+0195,1","+0186,1","10144,1",,,"6,1,03,1","6,1,03,1",,"08,99,1,08,1,05,1,02250,1,99,9,99,9",,,"99999,9,09745,1","7,1,008,1,+999,9","60,1",SYN066AAXX  08091 57328 41870 80000 10195 20186 40144 57008 76066 885//;,Q01+999990APOSP 
09-08T12:00:00,4,31.2,107.5,344.0,"DA XIAN, CH",FM-12,99999,V020,"090,1,N,0010,1","02100,1,9,N","025000,1,N,1","+0192,1","+0186,1","10158,1","06,0079,9,1",,"6,1,06,1","6,1,06,1",,"08,99,1,08,1,05,1,02250,1,99,9,99,9",,,"99999,9,09759,1","2,1,014,1,+999,9","60,1",SYN078AAXX  08121 57328 11875 80901 10192 20186 39759 40158 52014 60081 76066 885//;,
09-08T15:00:00,4,31.2,107.5,344.0,"DA XIAN, CH",FM-12,99999,V020,"999,9,C,0000,1","02100,1,9,N","025000,1,N,1","+0189,1","+0186,1","10171,1",,,"6,1,03,1",,,"07,99,1,07,1,05,1,02250,1,99,9,99,9",,,"99999,9,09771,1","2,1,013,1,+999,9","00,1",SYN066AAXX  08151 57328 41875 70000 10189 20186 40171 52013 70060 875//;,Q01+999990APOSP 
09-08T18:00:00,4,31.2,107.5,344.0,"DA XIAN, CH",FM-12,99999,V020,"040,1,N,0020,1","02100,1,9,N","015000,1,N,1","+0188,1","+0185,1","10167,1","06,9999,9,9",,"6,1,06,1",,,"08,99,1,08,1,05,1,02250,1,99,9,99,9",,"999,M,+0214,1","99999,9,09768,1","7,1,004,1,+999,9","00,1",SYN088AAXX  08181 57328 11865 80402 10188 20185 39768 40167 57004 69911 70060 885// 333 10214;,
09-08T21:00:00,4,31.2,107.5,344.0,"DA XIAN, CH",FM-12,99999,V020,"999,9,C,0000,1","02100,1,9,N","003000,1,N,1","+0189,1","+0181,1","10159,1","24,0086,9,1",,,,,"08,99,1,08,1,05,1,02250,1,99,9,99,9",,,"99999,9,09759,1","7,1,009,1,+999,9","10,1",SYN076AAXX  08211 57328 41830 80000 10189 20181 40159 57009 71000 885// 333 70087;,Q01+999990APOSP 
09-09T00:00:00,4,31.2,107.5,344.0,"DA XIAN, CH",FM-12,99999,V020,"999,9,C,0000,1","02100,1,9,N","008000,1,N,1","+0191,1","+0186,1","10171,1","06,0000,9,1","24,0086,9,1",,,,"08,99,1,08,1,05,1,02250,1,99,9,99,9",,,"99999,9,09771,1","2,1,012,1,+040,1","10,1",SYN088AAXX  09001 57328 31858 80000 10191 20186 39771 40171 52012 71000 885// 333 00451 70087;,Q01  00002PRCP06
09-09T03:00:00,4,31.2,107.5,344.0,"DA XIAN, CH",FM-12,99999,V020,"110,1,N,0010,1","02100,1,9,N","005000,1,N,1","+0201,1","+0192,1","10187,1",,,,,,"08,99,1,08,1,05,1,02250,1,99,9,99,9",,,"99999,9,09788,1","2,1,016,1,+999,9","10,1",SYN066AAXX  09031 57328 41850 81101 10201 20192 40187 52016 71000 885//;,Q01+999990APOSP 
09-09T06:00:00,4,31.2,107.5,344.0,"DA XIAN, CH",FM-12,99999,V020,"180,1,N,0010,1","02100,1,9,N","008000,1,N,1","+0219,1","+0188,1","10174,1","06,0000,9,1",,,,,"08,99,1,08,1,05,1,02250,1,99,9,99,9",,"999,N,+0186,1","99999,9,09775,1","7,1,012,1,+999,9","10,1",SYN082AAXX  09061 57328 31858 81801 10219 20188 39775 40174 57012 71000 885// 333 20186;,Q01  00002PRCP06
09-09T09:00:00,4,31.2,107.5,344.0,"DA XIAN, CH",FM-12,99999,V020,"160,1,N,0010,1","02100,1,9,N","015000,1,N,1","+0227,1","+0192,1","10161,1",,,,,,"07,99,1,07,1,05,1,02250,1,99,9,99,9",,,"99999,9,09766,1","7,1,012,1,+999,9",,SYN060AAXX  09091 57328 42865 71601 10227 20192 40161 57012 875//;,Q01+999990APOSP 
09-09T12:00:00,4,31.2,107.5,344.0,"DA XIAN, CH",FM-12,99999,V020,"180,1,N,0010,1","02100,1,9,N","008000,1,N,1","+0215,1","+0182,1","10165,1","06,0000,9,1",,,,,"08,99,1,08,1,05,1,02250,1,99,9,99,9",,,"99999,9,09767,1","2,1,004,1,+999,9","10,1",SYN072AAXX  09121 57328 31858 81801 10215 20182 39767 40165 52004 71000 885//;,Q01  00002PRCP06
09-09T15:00:00,4,31.2,107.5,344.0,"DA XIAN, CH",FM-12,99999,V020,"160,1,N,0010,1","02100,1,9,N","008000,1,N,1","+0205,1","+0180,1","10182,1",,,,,,"08,99,1,08,1,05,1,02250,1,99,9,99,9",,,"99999,9,09783,1","2,1,016,1,+999,9","10,1",SYN066AAXX  09151 57328 41858 81601 10205 20180 40182 52016 71000 885//;,Q01+999990APOSP 
09-09T21:00:00,4,31.2,107.5,344.0,"DA XIAN, CH",FM-12,99999,V020,"999,9,C,0000,1","22000,1,9,N","008000,1,N,1","+0186,1","+0176,1","10162,1",,,,,,"02,99,1,02,1,00,1,99999,9,04,1,00,1",,,"99999,9,09761,1","7,1,012,1,+999,9","10,1",SYN066AAXX  09211 57328 41958 20000 10186 20176 40162 57012 71000 82040;,Q01+999990APOSP 
09-10T00:00:00,4,31.2,107.5,344.0,"DA XIAN, CH",FM-12,99999,V020,"040,1,N,0010,1","00030,1,9,N","000200,1,N,1","+0177,1","+0174,1","10171,1","06,0000,9,1",,"4,1,06,1",,"09,1,+99999,9,99,9","09,99,1,09,1,99,9,99999,9,99,9,99,9",,,"99999,9,09771,1","2,1,007,1,+000,1","47,1",SYN076AAXX  10001 57328 31/02 90401 10177 20174 39771 40171 52007 74740 333 00051;,Q01  00002PRCP06
09-10T03:00:00,4,31.2,107.5,344.0,"DA XIAN, CH",FM-12,99999,V020,"020,1,N,0010,1","22000,1,9,N","008000,1,N,1","+0229,1","+0168,1","10168,1",,,"4,1,03,1",,,"01,99,1,01,1,01,1,01250,1,00,1,00,1",,,"99999,9,09773,1","4,1,000,1,+999,9","10,1",SYN066AAXX  10031 57328 41658 10201 10229 20168 40168 54000 71040 81100;,Q01+999990APOSP 
09-10T06:00:00,4,31.2,107.5,344.0,"DA XIAN, CH",FM-12,99999,V020,"200,1,N,0010,1","01200,1,9,N","025000,1,N,1","+0260,1","+0174,1","10141,1","06,0000,9,1",,"4,1,06,1",,,"06,99,1,06,1,01,1,01250,1,00,1,00,1",,"999,N,+0174,1","99999,9,09747,1","7,1,024,1,+999,9","00,1",SYN082AAXX  10061 57328 31675 62001 10260 20174 39747 40141 57024 70040 86100 333 20174;,Q01  00002PRCP06
09-10T09:00:00,4,31.2,107.5,344.0,"DA XIAN, CH",FM-12,99999,V020,"160,1,N,0010,1","01200,1,9,N","030000,1,N,1","+0264,1","+0179,1","10120,1",,,,,,"06,99,1,06,1,01,1,01250,1,00,1,00,1",,,"99999,9,09731,1","7,1,021,1,+999,9",,SYN060AAXX  10091 57328 42680 61601 10264 20179 40120 57021 86100;,Q01+999990APOSP 
09-10T12:00:00,4,31.2,107.5,344.0,"DA XIAN, CH",FM-12,99999,V020,"999,9,C,0000,1","22000,1,9,N","025000,1,N,1","+0231,1","+0194,1","10122,1","06,0000,9,1",,,,"00,1,+99999,9,99,9","00,99,1,00,1,00,1,99999,9,00,1,00,1",,,"99999,9,09725,1","7,1,001,1,+999,9",,SYN060AAXX  10121 57328 32975 00000 10231 20194 39725 40122 57001;,Q01  00002PRCP06
09-10T15:00:00,4,31.2,107.5,344.0,"DA XIAN, CH",FM-12,99999,V020,"040,1,N,0020,1","22000,1,9,N","014000,1,N,1","+0195,1","+0182,1","10129,1",,,,,"00,1,+99999,9,99,9","00,99,1,00,1,00,1,99999,9,00,1,00,1",,,"99999,9,09731,1","2,1,008,1,+999,9",,SYN054AAXX  10151 57328 42964 00402 10195 20182 40129 52008;,Q01+999990APOSP 
09-10T18:00:00,4,31.2,107.5,344.0,"DA XIAN, CH",FM-12,99999,V020,"040,1,N,0010,1","22000,1,9,N","012000,1,N,1","+0181,1","+0176,1","10128,1","06,0000,9,1",,,,"00,1,+99999,9,99,9","00,99,1,00,1,00,1,99999,9,00,1,00,1",,"999,M,+0273,1","99999,9,09733,1","4,1,000,1,+999,9",,SYN070AAXX  10181 57328 32962 00401 10181 20176 39733 40128 54000 333 10273;,Q01  00002PRCP06
09-10T21:00:00,4,31.2,107.5,344.0,"DA XIAN, CH",FM-12,99999,V020,"070,1,N,0020,1","22000,1,9,N","011000,1,N,1","+0171,1","+0168,1","10122,1",,,,,"00,1,+99999,9,99,9","00,99,1,00,1,00,1,99999,9,00,1,00,1",,,"99999,9,09721,1","7,1,006,1,+999,9",,SYN054AAXX  10211 57328 42961 00702 10171 20168 40122 57006;,Q01+999990APOSP 
09-11T00:00:00,4,31.2,107.5,344.0,"DA XIAN, CH",FM-12,99999,V020,"020,1,N,0020,1","22000,1,9,N","003000,1,N,1","+0174,1","+0166,1","10134,1","06,0000,9,1",,,,"00,1,+99999,9,99,9","00,99,1,00,1,00,1,99999,9,00,1,00,1",,,"99999,9,09737,1","2,1,010,1,+003,1","10,1",SYN076AAXX  11001 57328 31930 00202 10174 20166 39737 40134 52010 71000 333 05300;,Q01  00002PRCP06
09-11T03:00:00,4,31.2,107.5,344.0,"DA XIAN, CH",FM-12,99999,V020,"020,1,N,0020,1","22000,1,9,N","020000,1,N,1","+0227,1","+0188,1","10136,1",,,,,"00,1,+99999,9,99,9","00,99,1,00,1,00,1,99999,9,00,1,00,1",,,"99999,9,09742,1","2,1,003,1,+999,9",,SYN054AAXX  11031 57328 42970 00202 10227 20188 40136 52003;,Q01+999990APOSP 
09-11T06:00:00,4,31.2,107.5,344.0,"DA XIAN, CH",FM-12,99999,V020,"999,9,C,0000,1","22000,1,9,N","030000,1,N,1","+0281,1","+0170,1","10105,1","06,0000,9,1",,,,,"01,99,1,01,1,01,1,01250,1,00,1,00,1",,"999,N,+0167,1","99999,9,09713,1","7,1,027,1,+999,9",,SYN076AAXX  11061 57328 32680 10000 10281 20170 39713 40105 57027 81100 333 20167;,Q01  00002PRCP06
09-11T09:00:00,4,31.2,107.5,344.0,"DA XIAN, CH",FM-12,99999,V020,"999,9,C,0000,1","22000,1,9,N","030000,1,N,1","+0287,1","+0170,1","10089,1",,,,,,"01,99,1,00,1,00,1,99999,9,00,1,01,1",,,"99999,9,09704,1","7,1,016,1,+999,9",,SYN060AAXX  11091 57328 42980 10000 10287 20170 40089 57016 80001;,Q01+999990APOSP 
09-11T12:00:00,4,31.2,107.5,344.0,"DA XIAN, CH",FM-12,99999,V020,"999,9,C,0000,1","22000,1,9,N","020000,1,N,1","+0245,1","+0186,1","10095,1","06,0000,9,1",,,,,"03,99,1,03,1,00,1,99999,9,04,1,00,1",,,"99999,9,09700,1","2,1,003,1,+999,9",,SYN066AAXX  11121 57328 32970 30000 10245 20186 39700 40095 52003 83040;,Q01  00002PRCP06
09-11T15:00:00,4,31.2,107.5,344.0,"DA XIAN, CH",FM-12,99999,V020,"040,1,N,0020,1","22000,1,9,N","015000,1,N,1","+0205,1","+0185,1","10106,1",,,,,"00,1,+99999,9,99,9","00,99,1,00,1,00,1,99999,9,00,1,00,1",,,"99999,9,09710,1","2,1,012,1,+999,9",,SYN054AAXX  11151 57328 42965 00402 10205 20185 40106 52012;,Q01+999990APOSP 
09-11T18:00:00,4,31.2,107.5,344.0,"DA XIAN, CH",FM-12,99999,V020,"020,1,N,0020,1","99999,9,9,N","012000,1,N,1","+0188,1","+0177,1","10102,1","06,0000,9,1",,,,,"06,99,1,06,1,00,1,99999,9,04,1,00,1",,"999,M,+0294,1","99999,9,09710,1","7,1,002,1,+999,9",,SYN076AAXX  11181 57328 32962 60202 10188 20177 39710 40102 57002 86040 333 10294;,Q01  00002PRCP06
09-11T21:00:00,4,31.2,107.5,344.0,"DA XIAN, CH",FM-12,99999,V020,"040,1,N,0020,1","22000,1,9,N","005000,1,N,1","+0180,1","+0169,1","10093,1",,,,,,"01,99,1,00,1,00,1,99999,9,00,1,01,1",,,"99999,9,09694,1","7,1,009,1,+999,9","10,1",SYN066AAXX  11211 57328 41950 10402 10180 20169 40093 57009 71000 80001;,Q01+999990APOSP 
09-12T00:00:00,4,31.2,107.5,344.0,"DA XIAN, CH",FM-12,99999,V020,"020,1,N,0020,1","99999,9,9,N","012000,1,N,1","+0191,1","+0172,1","10109,1","06,0000,9,1",,,,,"07,99,1,07,1,00,1,99999,9,04,1,00,1",,,"99999,9,09715,1","2,1,014,1,+002,1",,SYN076AAXX  12001 57328 32962 70202 10191 20172 39715 40109 52014 87040 333 05202;,Q01  00002PRCP06
09-12T03:00:00,4,31.2,107.5,344.0,"DA XIAN, CH",FM-12,99999,V020,"040,1,N,0010,1","99999,9,9,N","020000,1,N,1","+0238,1","+0175,1","10124,1",,,,,,"06,99,1,06,1,00,1,99999,9,04,1,00,1",,,"99999,9,09732,1","2,1,015,1,+999,9",,SYN060AAXX  12031 57328 42970 60401 10238 20175 40124 52015 86040;,Q01+999990APOSP 
09-12T06:00:00,4,31.2,107.5,344.0,"DA XIAN, CH",FM-12,99999,V020,"320,1,N,0010,1","22000,1,9,N","030000,1,N,1","+0291,1","+0166,1","10098,1","06,0000,9,1",,,,,"02,99,1,01,1,01,1,01250,1,04,1,00,1",,"999,N,+0180,1","99999,9,09707,1","7,1,023,1,+999,9",,SYN076AAXX  12061 57328 32680 23201 10291 20166 39707 40098 57023 81140 333 20180;,Q01  00002PRCP06
09-12T09:00:00,4,31.2,107.5,344.0,"DA XIAN, CH",FM-12,99999,V020,"250,1,N,0030,1","22000,1,9,N","030000,1,N,1","+0305,1","+0191,1","10086,1",,,,,,"02,99,1,02,1,01,1,01250,1,00,1,00,1",,,"99999,9,09704,1","7,1,011,1,+999,9",,SYN060AAXX  12091 57328 42680 22503 10305 20191 40086 57011 82100;,Q01+999990APOSP 
09-12T12:00:00,4,31.2,107.5,344.0,"DA XIAN, CH",FM-12,99999,V020,"180,1,N,0010,1","22000,1,9,N","020000,1,N,1","+0266,1","+0193,1","10097,1","06,0000,9,1",,,,"00,1,+99999,9,99,9","00,99,1,00,1,00,1,99999,9,00,1,00,1",,,"99999,9,09705,1","2,1,009,1,+999,9",,SYN060AAXX  12121 57328 32970 01801 10266 20193 39705 40097 52009;,Q01  00002PRCP06
09-12T18:00:00,4,31.2,107.5,344.0,"DA XIAN, CH",FM-12,99999,V020,"040,1,N,0010,1","99999,9,9,N","012000,1,N,1","+0207,1","+0196,1","10117,1","06,0000,9,1",,,,,"06,99,1,06,1,00,1,99999,9,04,1,00,1",,"999,M,+0314,1","99999,9,09726,1","2,1,004,1,+999,9",,SYN076AAXX  12181 57328 32962 60401 10207 20196 39726 40117 52004 86040 333 10314;,Q01  00002PRCP06
09-12T21:00:00,4,31.2,107.5,344.0,"DA XIAN, CH",FM-12,99999,V020,"040,1,N,0020,1","99999,9,9,N","007000,1,N,1","+0197,1","+0191,1","10112,1",,,,,,"07,99,1,07,1,00,1,99999,9,04,1,99,9",,,"99999,9,09715,1","7,1,004,1,+999,9","10,1",SYN066AAXX  12211 57328 41957 70402 10197 20191 40112 57004 71000 8704/;,Q01+999990APOSP 
09-13T00:00:00,4,31.2,107.5,344.0,"DA XIAN, CH",FM-12,99999,V020,"040,1,N,0020,1","99999,9,9,N","007000,1,N,1","+0197,1","+0189,1","10124,1","06,0000,9,1",,,,,"06,99,1,06,1,00,1,99999,9,04,1,00,1",,,"99999,9,09731,1","2,1,009,1,+002,1","10,1",SYN082AAXX  13001 57328 31957 60402 10197 20189 39731 40124 52009 71000 86040 333 00201;,Q01  00002PRCP06
09-13T03:00:00,4,31.2,107.5,344.0,"DA XIAN, CH",FM-12,99999,V020,"360,1,N,0010,1","22000,1,9,N","012000,1,N,1","+0269,1","+0205,1","10128,1",,,,,,"02,99,1,02,1,00,1,99999,9,04,1,00,1",,,"99999,9,09740,1","2,1,006,1,+999,9",,SYN060AAXX  13031 57328 42962 23601 10269 20205 40128 52006 82040;,Q01+999990APOSP 
09-13T06:00:00,4,31.2,107.5,344.0,"DA XIAN, CH",FM-12,99999,V020,"270,1,N,0010,1","22000,1,9,N","015000,1,N,1","+0301,1","+0195,1","10111,1","06,0000,9,1",,,,,"02,99,1,02,1,01,1,01250,1,00,1,00,1",,"999,N,+0195,1","99999,9,09721,1","7,1,016,1,+999,9",,SYN076AAXX  13061 57328 32665 22701 10301 20195 39721 40111 57016 82100 333 20195;,Q01  00002PRCP06
09-13T09:00:00,4,31.2,107.5,344.0,"DA XIAN, CH",FM-12,99999,V020,"220,1,N,0010,1","22000,1,9,N","018000,1,N,1","+0303,1","+0173,1","10099,1",,,,,"00,1,+99999,9,99,9","00,99,1,00,1,00,1,99999,9,00,1,00,1",,,"99999,9,09716,1","7,1,012,1,+999,9",,SYN054AAXX  13091 57328 42968 02201 10303 20173 40099 57012;,Q01+999990APOSP 
09-13T12:00:00,4,31.2,107.5,344.0,"DA XIAN, CH",FM-12,99999,V020,"160,1,N,0010,1","22000,1,9,N","012000,1,N,1","+0264,1","+0206,1","10112,1","06,0000,9,1",,,,,"02,99,1,02,1,00,1,99999,9,04,1,00,1",,,"99999,9,09719,1","2,1,010,1,+999,9",,SYN066AAXX  13121 57328 32962 21601 10264 20206 39719 40112 52010 82040;,Q01  00002PRCP06
09-13T15:00:00,4,31.2,107.5,344.0,"DA XIAN, CH",FM-12,99999,V020,"999,9,C,0000,1","22000,1,9,N","008000,1,N,1","+0242,1","+0211,1","10125,1",,,,,"00,1,+99999,9,99,9","00,99,1,00,1,00,1,99999,9,00,1,00,1",,,"99999,9,09733,1","2,1,016,1,+999,9","10,1",SYN060AAXX  13151 57328 41958 00000 10242 20211 40125 52016 71000;,Q01+999990APOSP 
09-13T18:00:00,4,31.2,107.5,344.0,"DA XIAN, CH",FM-12,99999,V020,"040,1,N,0010,1","22000,1,9,N","003000,1,N,1","+0220,1","+0208,1","10121,1","06,0000,9,1",,,,"00,1,+99999,9,99,9","00,99,1,00,1,00,1,99999,9,00,1,00,1",,"999,M,+0310,1","99999,9,09732,1","7,1,003,1,+999,9","10,1",SYN076AAXX  13181 57328 31930 00401 10220 20208 39732 40121 57003 71000 333 10310;,Q01  00002PRCP06
09-13T21:00:00,4,31.2,107.5,344.0,"DA XIAN, CH",FM-12,99999,V020,"999,9,C,0000,1","22000,1,9,N","004000,1,N,1","+0214,1","+0202,1","10118,1",,,,,"00,1,+99999,9,99,9","00,99,1,00,1,00,1,99999,9,00,1,00,1",,,"99999,9,09723,1","7,1,003,1,+999,9","10,1",SYN060AAXX  13211 57328 41940 00000 10214 20202 40118 57003 71000;,Q01+999990APOSP 
09-14T00:00:00,4,31.2,107.5,344.0,"DA XIAN, CH",FM-12,99999,V020,"140,1,N,0010,1","99999,9,9,N","002000,1,N,1","+0216,1","+0204,1","10127,1","06,0000,9,1",,,,,"08,99,1,08,1,00,1,99999,9,07,1,99,9",,,"99999,9,09735,1","2,1,006,1,+000,1","10,1",SYN082AAXX  14001 57328 31920 81401 10216 20204 39735 40127 52006 71000 8807/ 333 00002;,Q01  00002PRCP06
09-14T03:00:00,4,31.2,107.5,344.0,"DA XIAN, CH",FM-12,99999,V020,"040,1,N,0030,1","99999,9,9,N","005000,1,N,1","+0249,1","+0209,1","10132,1",,,,,,"07,99,1,07,1,00,1,99999,9,04,1,99,9",,,"99999,9,09741,1","2,1,005,1,+999,9","10,1",SYN066AAXX  14031 57328 41950 70403 10249 20209 40132 52005 71000 8704/;,Q01+999990APOSP 
09-14T06:00:00,4,31.2,107.5,344.0,"DA XIAN, CH",FM-12,99999,V020,"360,1,N,0020,1","22000,1,9,N","020000,1,N,1","+0287,1","+0207,1","10110,1","06,0000,9,1",,,,,"01,99,1,01,1,00,1,99999,9,04,1,00,1",,"999,N,+0210,1","99999,9,09720,1","7,1,020,1,+999,9",,SYN076AAXX  14061 57328 32970 13602 10287 20207 39720 40110 57020 81040 333 20210;,Q01  00002PRCP06
09-14T09:00:00,4,31.2,107.5,344.0,"DA XIAN, CH",FM-12,99999,V020,"999,9,C,0000,1","99999,9,9,N","020000,1,N,1","+0295,1","+0198,1","10090,1",,,,,,"07,99,1,07,1,00,1,99999,9,04,1,99,9",,,"99999,9,09706,1","7,1,019,1,+999,9",,SYN060AAXX  14091 57328 42970 70000 10295 20198 40090 57019 8704/;,Q01+999990APOSP 
09-14T12:00:00,4,31.2,107.5,344.0,"DA XIAN, CH",FM-12,99999,V020,"200,1,N,0010,1","99999,9,9,N","015000,1,N,1","+0276,1","+0201,1","10094,1","06,0000,9,1",,,,,"07,99,1,07,1,00,1,99999,9,04,1,99,9",,,"99999,9,09704,1","2,1,003,1,+999,9",,SYN066AAXX  14121 57328 32965 72001 10276 20201 39704 40094 52003 8704/;,Q01  00002PRCP06
09-14T15:00:00,4,31.2,107.5,344.0,"DA XIAN, CH",FM-12,99999,V020,"070,1,N,0010,1","99999,9,9,N","011000,1,N,1","+0238,1","+0216,1","10107,1",,,,,,"07,99,1,07,1,00,1,99999,9,04,1,99,9",,,"99999,9,09715,1","2,1,012,1,+999,9",,SYN060AAXX  14151 57328 42961 70701 10238 20216 40107 52012 8704/;,Q01+999990APOSP 
09-14T18:00:00,4,31.2,107.5,344.0,"DA XIAN, CH",FM-12,99999,V020,"090,1,N,0010,1","99999,9,9,N","005000,1,N,1","+0224,1","+0212,1","10107,1","06,0000,9,1",,,,,"07,99,1,07,1,00,1,99999,9,04,1,00,1",,"999,M,+0306,1","99999,9,09718,1","2,1,002,1,+999,9","10,1",SYN082AAXX  14181 57328 31950 70901 10224 20212 39718 40107 52002 71000 87040 333 10306;,Q01  00002PRCP06
09-14T21:00:00,4,31.2,107.5,344.0,"DA XIAN, CH",FM-12,99999,V020,"040,1,N,0020,1","99999,9,9,N","003000,1,N,1","+0212,1","+0204,1","10101,1",,,,,,"07,99,1,07,1,00,1,99999,9,04,1,99,9",,,"99999,9,09706,1","7,1,006,1,+999,9","10,1",SYN066AAXX  14211 57328 41930 70402 10212 20204 40101 57006 71000 8704/;,Q01+999990APOSP 
09-15T00:00:00,4,31.2,107.5,344.0,"DA XIAN, CH",FM-12,99999,V020,"040,1,N,0040,1","22000,1,9,N","002000,1,N,1","+0215,1","+0206,1","10110,1","06,0000,9,1",,,,"00,1,+99999,9,99,9","00,99,1,00,1,00,1,99999,9,00,1,00,1",,,"99999,9,09719,1","2,1,007,1,+002,1","10,1",SYN076AAXX  15001 57328 31920 00404 10215 20206 39719 40110 52007 71000 333 05200;,Q01  00002PRCP06
09-15T03:00:00,4,31.2,107.5,344.0,"DA XIAN, CH",FM-12,99999,V020,"040,1,N,0010,1","22000,1,9,N","004000,1,N,1","+0265,1","+0210,1","10116,1",,,,,"00,1,+99999,9,99,9","00,99,1,00,1,00,1,99999,9,00,1,00,1",,,"99999,9,09728,1","2,1,007,1,+999,9","10,1",SYN060AAXX  15031 57328 41940 00401 10265 20210 40116 52007 71000;,Q01+999990APOSP 
09-15T06:00:00,4,31.2,107.5,344.0,"DA XIAN, CH",FM-12,99999,V020,"180,1,N,0020,1","02100,1,9,N","012000,1,N,1","+0292,1","+0206,1","10096,1","06,0000,9,1",,,,,"08,99,1,08,1,05,1,02250,1,99,9,99,9",,"999,N,+0211,1","99999,9,09707,1","7,1,019,1,+999,9",,SYN076AAXX  15061 57328 32862 81802 10292 20206 39707 40096 57019 885// 333 20211;,Q01  00002PRCP06
09-15T09:00:00,4,31.2,107.5,344.0,"DA XIAN, CH",FM-12,99999,V020,"250,1,N,0020,1","02100,1,9,N","015000,1,N,1","+0287,1","+0188,1","10084,1",,,,,,"07,99,1,07,1,05,1,02250,1,99,9,99,9",,,"99999,9,09700,1","7,1,012,1,+999,9",,SYN060AAXX  15091 57328 42865 72502 10287 20188 40084 57012 875//;,Q01+999990APOSP 
09-15T12:00:00,4,31.2,107.5,344.0,"DA XIAN, CH",FM-12,99999,V020,"040,1,N,0010,1","02100,1,9,N","008000,1,N,1","+0261,1","+0214,1","10084,1","06,0000,9,1",,,,,"08,99,1,08,1,05,1,02250,1,99,9,99,9",,,"99999,9,09693,1","7,1,002,1,+999,9","10,1",SYN072AAXX  15121 57328 31858 80401 10261 20214 39693 40084 57002 71000 885//;,Q01  00002PRCP06
09-15T15:00:00,4,31.2,107.5,344.0,"DA XIAN, CH",FM-12,99999,V020,"070,1,N,0010,1","02100,1,9,N","007000,1,N,1","+0237,1","+0213,1","10102,1",,,,,,"07,99,1,07,1,05,1,02250,1,99,9,99,9",,,"99999,9,09711,1","2,1,019,1,+999,9","10,1",SYN066AAXX  15151 57328 41857 70701 10237 20213 40102 52019 71000 875//;,Q01+999990APOSP 
09-15T18:00:00,4,31.2,107.5,344.0,"DA XIAN, CH",FM-12,99999,V020,"040,1,N,0010,1","02100,1,9,N","006000,1,N,1","+0229,1","+0213,1","10095,1","06,0000,9,1",,,,,"08,99,1,08,1,05,1,02250,1,99,9,99,9",,"999,M,+0302,1","99999,9,09707,1","7,1,005,1,+999,9","10,1",SYN082AAXX  15181 57328 31856 80401 10229 20213 39707 40095 57005 71000 885// 333 10302;,Q01  00002PRCP06
09-15T21:00:00,4,31.2,107.5,344.0,"DA XIAN, CH",FM-12,99999,V020,"040,1,N,0020,1","99999,9,9,N","005000,1,N,1","+0220,1","+0211,1","10088,1",,,,,,"06,99,1,06,1,00,1,99999,9,04,1,00,1",,,"99999,9,09695,1","7,1,008,1,+999,9","10,1",SYN066AAXX  15211 57328 41950 60402 10220 20211 40088 57008 71000 86040;,Q01+999990APOSP 
09-16T00:00:00,4,31.2,107.5,344.0,"DA XIAN, CH",FM-12,99999,V020,"040,1,N,0010,1","22000,1,9,N","006000,1,N,1","+0219,1","+0208,1","10092,1","06,0000,9,1",,,,"00,1,+99999,9,99,9","00,99,1,00,1,00,1,99999,9,00,1,00,1",,,"99999,9,09701,1","2,1,002,1,+002,1","10,1",SYN076AAXX  16001 57328 31956 00401 10219 20208 39701 40092 52002 71000 333 05200;,Q01  00002PRCP06
09-16T03:00:00,4,31.2,107.5,344.0,"DA XIAN, CH",FM-12,99999,V020,"020,1,N,0010,1","22000,1,9,N","012000,1,N,1","+0279,1","+0211,1","10090,1",,,,,"00,1,+99999,9,99,9","00,99,1,00,1,00,1,99999,9,00,1,00,1",,,"99999,9,09704,1","2,1,001,1,+999,9",,SYN054AAXX  16031 57328 42962 00201 10279 20211 40090 52001;,Q01+999990APOSP 
09-16T06:00:00,4,31.2,107.5,344.0,"DA XIAN, CH",FM-12,99999,V020,"140,1,N,0010,1","22000,1,9,N","020000,1,N,1","+0318,1","+0205,1","10063,1","06,0000,9,1",,,,,"01,99,1,01,1,01,1,01250,1,00,1,00,1",,"999,N,+0214,1","99999,9,09678,1","7,1,024,1,+999,9",,SYN076AAXX  16061 57328 32670 11401 10318 20205 39678 40063 57024 81100 333 20214;,Q01  00002PRCP06
09-16T09:00:00,4,31.2,107.5,344.0,"DA XIAN, CH",FM-12,99999,V020,"070,1,N,0010,1","22000,1,9,N","020000,1,N,1","+0322,1","+0205,1","10046,1",,,,,"00,1,+99999,9,99,9","00,99,1,00,1,00,1,99999,9,00,1,00,1",,,"99999,9,09667,1","7,1,017,1,+999,9",,SYN054AAXX  16091 57328 42970 00701 10322 20205 40046 57017;,Q01+999990APOSP 
09-16T12:00:00,4,31.2,107.5,344.0,"DA XIAN, CH",FM-12,99999,V020,"040,1,N,0010,1","99999,9,9,N","020000,1,N,1","+0278,1","+0225,1","10057,1","06,0000,9,1",,,,,"07,99,1,07,1,00,1,99999,9,04,1,99,9",,,"99999,9,09669,1","2,1,008,1,+999,9",,SYN066AAXX  16121 57328 32970 70401 10278 20225 39669 40057 52008 8704/;,Q01  00002PRCP06
09-16T15:00:00,4,31.2,107.5,344.0,"DA XIAN, CH",FM-12,99999,V020,"040,1,N,0010,1","99999,9,9,N","008000,1,N,1","+0258,1","+0225,1","10070,1",,,,,,"08,99,1,08,1,00,1,99999,9,07,1,99,9",,,"99999,9,09682,1","2,1,015,1,+999,9","10,1",SYN066AAXX  16151 57328 41958 80401 10258 20225 40070 52015 71000 8807/;,Q01+999990APOSP 
09-16T18:00:00,4,31.2,107.5,344.0,"DA XIAN, CH",FM-12,99999,V020,"040,1,N,0020,1","99999,9,9,N","006000,1,N,1","+0254,1","+0216,1","10059,1","06,0000,9,1",,,,,"07,99,1,07,1,00,1,99999,9,04,1,99,9",,"999,M,+0329,1","99999,9,09675,1","7,1,009,1,+999,9","10,1",SYN082AAXX  16181 57328 31956 70402 10254 20216 39675 40059 57009 71000 8704/ 333 10329;,Q01  00002PRCP06
09-16T21:00:00,4,31.2,107.5,344.0,"DA XIAN, CH",FM-12,99999,V020,"040,1,N,0020,1","99999,9,9,N","006000,1,N,1","+0242,1","+0215,1","10054,1",,,,,,"07,99,1,07,1,00,1,99999,9,04,1,99,9",,,"99999,9,09665,1","7,1,005,1,+999,9","10,1",SYN066AAXX  16211 57328 41956 70402 10242 20215 40054 57005 71000 8704/;,Q01+999990APOSP 
09-17T00:00:00,4,31.2,107.5,344.0,"DA XIAN, CH",FM-12,99999,V020,"020,1,N,0020,1","99999,9,9,N","008000,1,N,1","+0239,1","+0215,1","10072,1","06,0000,9,1",,,,,"07,99,1,07,1,00,1,99999,9,04,1,99,9",,,"99999,9,09684,1","2,1,014,1,+002,1","10,1",SYN082AAXX  17001 57328 31958 70202 10239 20215 39684 40072 52014 71000 8704/ 333 05202;,Q01  00002PRCP06
09-17T03:00:00,4,31.2,107.5,344.0,"DA XIAN, CH",FM-12,99999,V020,"040,1,N,0020,1","99999,9,9,N","008000,1,N,1","+0287,1","+0214,1","10075,1",,,,,,"07,99,1,07,1,00,1,99999,9,04,1,99,9",,,"99999,9,09691,1","2,1,005,1,+999,9","10,1",SYN066AAXX  17031 57328 41958 70402 10287 20214 40075 52005 71000 8704/;,Q01+999990APOSP 
09-17T06:00:00,4,31.2,107.5,344.0,"DA XIAN, CH",FM-12,99999,V020,"320,1,N,0010,1","99999,9,9,N","012000,1,N,1","+0324,1","+0222,1","10053,1","06,0000,9,1",,,,,"07,99,1,07,1,00,1,99999,9,04,1,99,9",,"999,N,+0233,1","99999,9,09670,1","7,1,019,1,+999,9",,SYN076AAXX  17061 57328 32962 73201 10324 20222 39670 40053 57019 8704/ 333 20233;,Q01  00002PRCP06
09-17T09:00:00,4,31.2,107.5,344.0,"DA XIAN, CH",FM-12,99999,V020,"360,1,N,0010,1","22000,1,9,N","020000,1,N,1","+0327,1","+0217,1","10043,1",,,,,,"04,99,1,04,1,00,1,99999,9,04,1,00,1",,,"99999,9,09665,1","7,1,010,1,+999,9",,SYN060AAXX  17091 57328 42970 43601 10327 20217 40043 57010 84040;,Q01+999990APOSP 
09-17T12:00:00,4,31.2,107.5,344.0,"DA XIAN, CH",FM-12,99999,V020,"020,1,N,0020,1","99999,9,9,N","013000,1,N,1","+0289,1","+0238,1","10057,1","06,0000,9,1",,,,,"07,99,1,07,1,00,1,99999,9,04,1,99,9",,,"99999,9,09671,1","2,1,011,1,+999,9",,SYN066AAXX  17121 57328 32963 70202 10289 20238 39671 40057 52011 8704/;,Q01  00002PRCP06
09-17T15:00:00,4,31.2,107.5,344.0,"DA XIAN, CH",FM-12,99999,V020,"020,1,N,0020,1","99999,9,9,N","008000,1,N,1","+0265,1","+0239,1","10070,1",,,,,,"07,99,1,07,1,00,1,99999,9,04,1,99,9",,,"99999,9,09683,1","2,1,014,1,+999,9","10,1",SYN066AAXX  17151 57328 41958 70202 10265 20239 40070 52014 71000 8704/;,Q01+999990APOSP 
09-17T18:00:00,4,31.2,107.5,344.0,"DA XIAN, CH",FM-12,99999,V020,"040,1,N,0020,1","22000,1,9,N","008000,1,N,1","+0251,1","+0231,1","10064,1","06,0000,9,1",,,,"00,1,+99999,9,99,9","00,99,1,00,1,00,1,99999,9,00,1,00,1",,"999,M,+0334,1","99999,9,09680,1","7,1,005,1,+999,9","10,1",SYN076AAXX  17181 57328 31958 00402 10251 20231 39680 40064 57005 71000 333 10334;,Q01  00002PRCP06
09-17T21:00:00,4,31.2,107.5,344.0,"DA XIAN, CH",FM-12,99999,V020,"040,1,N,0020,1","99999,9,9,N","008000,1,N,1","+0246,1","+0227,1","10066,1",,,,,,"07,99,1,07,1,00,1,99999,9,04,1,99,9",,,"99999,9,09677,1","2,1,002,1,+999,9","10,1",SYN066AAXX  17211 57328 41958 70402 10246 20227 40066 52002 71000 8704/;,Q01+999990APOSP 
09-18T00:00:00,4,31.2,107.5,344.0,"DA XIAN, CH",FM-12,99999,V020,"040,1,N,0020,1","99999,9,9,N","007000,1,N,1","+0249,1","+0227,1","10087,1","06,0000,9,1",,,,,"07,99,1,99,9,99,9,99999,9,99,9,99,9",,,"99999,9,09700,1","2,1,018,1,+999,9",,SYN081AAXX  18001 57328 31957 70402 10249 20227 39700 40087 52018 1000 8704/ 333 00201;,Q01  00002PRCP06
09-18T03:00:00,4,31.2,107.5,344.0,"DA XIAN, CH",FM-12,99999,V020,"020,1,N,0010,1","99999,9,9,N","020000,1,N,1","+0293,1","+0228,1","10086,1",,,,,,"06,99,1,06,1,00,1,99999,9,04,1,00,1",,,"99999,9,09702,1","4,1,000,1,+999,9",,SYN060AAXX  18031 57328 42970 60201 10293 20228 40086 54000 86040;,Q01+999990APOSP 
09-18T06:00:00,4,31.2,107.5,344.0,"DA XIAN, CH",FM-12,99999,V020,"340,1,N,0010,1","99999,9,9,N","030000,1,N,1","+0324,1","+0222,1","10061,1","06,0000,9,1",,,,,"08,99,1,08,1,00,1,99999,9,07,1,99,9",,"999,N,+0243,1","99999,9,09677,1","7,1,023,1,+999,9",,SYN076AAXX  18061 57328 32980 83401 10324 20222 39677 40061 57023 8807/ 333 20243;,Q01  00002PRCP06
09-18T09:00:00,4,31.2,107.5,344.0,"DA XIAN, CH",FM-12,99999,V020,"270,1,N,0020,1","22000,1,9,N","025000,1,N,1","+0329,1","+0225,1","10045,1",,,,,,"04,99,1,00,1,00,1,99999,9,00,1,01,1",,,"99999,9,09667,1","7,1,015,1,+999,9",,SYN060AAXX  18091 57328 42975 42702 10329 20225 40045 57015 80001;,Q01+999990APOSP 
09-18T12:00:00,4,31.2,107.5,344.0,"DA XIAN, CH",FM-12,99999,V020,"999,9,C,0000,1","22000,1,9,N","020000,1,N,1","+0288,1","+0244,1","10054,1","06,0000,9,1",,,,,"01,99,1,01,1,00,1,99999,9,04,1,00,1",,,"99999,9,09668,1","2,1,006,1,+999,9",,SYN066AAXX  18121 57328 32970 10000 10288 20244 39668 40054 52006 81040;,Q01  00002PRCP06
09-18T15:00:00,4,31.2,107.5,344.0,"DA XIAN, CH",FM-12,99999,V020,"040,1,N,0020,1","22000,1,9,N","012000,1,N,1","+0267,1","+0243,1","10064,1",,,,,"00,1,+99999,9,99,9","00,99,1,00,1,00,1,99999,9,00,1,00,1",,,"99999,9,09678,1","2,1,011,1,+999,9",,SYN054AAXX  18151 57328 42962 00402 10267 20243 40064 52011;,Q01+999990APOSP 
09-18T18:00:00,4,31.2,107.5,344.0,"DA XIAN, CH",FM-12,99999,V020,"040,1,N,0020,1","22000,1,9,N","004000,1,N,1","+0251,1","+0240,1","10056,1","06,0000,9,1",,,,"00,1,+99999,9,99,9","00,99,1,00,1,00,1,99999,9,00,1,00,1",,"999,M,+0335,1","99999,9,09673,1","7,1,006,1,+999,9","10,1",SYN076AAXX  18181 57328 31940 00402 10251 20240 39673 40056 57006 71000 333 10335;,Q01  00002PRCP06
09-18T21:00:00,4,31.2,107.5,344.0,"DA XIAN, CH",FM-12,99999,V020,"070,1,N,0010,1","99999,9,9,N","005000,1,N,1","+0246,1","+0233,1","10051,1",,,,,,"07,99,1,07,1,00,1,99999,9,04,1,99,9",,,"99999,9,09663,1","7,1,005,1,+999,9","10,1",SYN066AAXX  18211 57328 41950 70701 10246 20233 40051 57005 71000 8704/;,Q01+999990APOSP 
09-19T00:00:00,4,31.2,107.5,344.0,"DA XIAN, CH",FM-12,99999,V020,"070,1,N,0010,1","99999,9,9,N","005000,1,N,1","+0249,1","+0230,1","10065,1","06,0000,9,1",,,,,"08,99,1,08,1,00,1,99999,9,07,1,99,9",,,"99999,9,09679,1","2,1,011,1,+002,1","10,1",SYN082AAXX  19001 57328 31950 80701 10249 20230 39679 40065 52011 71000 8807/ 333 05200;,Q01  00002PRCP06
09-19T03:00:00,4,31.2,107.5,344.0,"DA XIAN, CH",FM-12,99999,V020,"040,1,N,0010,1","01500,1,9,N","002000,1,N,1","+0240,1","+0231,1","10087,1",,,"9,1,03,1","6,1,03,1",,"08,99,1,08,1,09,1,01750,1,99,9,99,9",,,"99999,9,09697,1","2,1,019,1,+999,9","95,1",SYN066AAXX  19031 57328 41720 80401 10240 20231 40087 52019 79596 889//;,Q01+999990APOSP 
09-19T06:00:00,4,31.2,107.5,344.0,"DA XIAN, CH",FM-12,99999,V020,"070,1,N,0020,1","01500,1,9,N","008000,1,N,1","+0217,1","+0209,1","10085,1","06,0130,9,1",,"9,1,06,1","6,1,06,1",,"08,99,1,08,1,09,1,01750,1,99,9,99,9",,"999,N,+0216,1","99999,9,09694,1","7,1,004,1,+999,9","95,1",SYN088AAXX  19061 57328 11758 80702 10217 20209 39694 40085 57004 60131 79596 889// 333 20216;,
09-19T09:00:00,4,31.2,107.5,344.0,"DA XIAN, CH",FM-12,99999,V020,"040,1,N,0020,1","02100,1,9,N","020000,1,N,1","+0209,1","+0200,1","10087,1",,,"9,1,03,1","8,1,03,1",,"08,99,1,08,1,05,1,02250,1,99,9,99,9",,,"99999,9,09692,1","2,1,001,1,+999,9","60,1",SYN066AAXX  19091 57328 41870 80402 10209 20200 40087 52001 76098 885//;,Q01+999990APOSP 
09-19T12:00:00,4,31.2,107.5,344.0,"DA XIAN, CH",FM-12,99999,V020,"999,9,C,0000,1","00420,1,9,N","020000,1,N,1","+0210,1","+0199,1","10101,1","06,0041,9,1",,"9,1,06,1","8,1,06,1",,"08,99,1,08,1,05,1,00450,1,99,9,99,9",,,"99999,9,09709,1","2,1,014,1,+999,9","60,1",SYN078AAXX  19121 57328 11470 80000 10210 20199 39709 40101 52014 60041 76098 885//;,
09-19T15:00:00,4,31.2,107.5,344.0,"DA XIAN, CH",FM-12,99999,V020,"140,1,N,0010,1","02100,1,9,N","020000,1,N,1","+0211,1","+0199,1","10128,1",,,"6,1,03,1",,,"08,99,1,08,1,05,1,02250,1,99,9,99,9",,,"99999,9,09732,1","2,1,025,1,+999,9","60,1",SYN066AAXX  19151 57328 41870 81401 10211 20199 40128 52025 76060 885//;,Q01+999990APOSP 
09-19T18:00:00,4,31.2,107.5,344.0,"DA XIAN, CH",FM-12,99999,V020,"040,1,N,0030,1","99999,9,9,N","012000,1,N,1","+0195,1","+0181,1","10142,1","06,0041,9,1",,"6,1,06,1",,,"08,99,1,08,1,00,1,99999,9,02,1,99,9",,"999,M,+0253,1","99999,9,09745,1","2,1,011,1,+999,9","60,1",SYN088AAXX  19181 57328 11962 80403 10195 20181 39745 40142 52011 60041 76060 8802/ 333 10253;,
09-19T21:00:00,4,31.2,107.5,344.0,"DA XIAN, CH",FM-12,99999,V020,"020,1,N,0030,1","02100,1,9,N","012000,1,N,1","+0187,1","+0181,1","10149,1","24,0234,9,1",,"6,1,03,1","6,1,03,1",,"08,99,1,08,1,05,1,02250,1,99,9,99,9",,,"99999,9,09749,1","2,1,006,1,+999,9","60,1",SYN076AAXX  19211 57328 41862 80203 10187 20181 40149 52006 76066 885// 333 70233;,Q01+999990APOSP 
09-20T00:00:00,4,31.2,107.5,344.0,"DA XIAN, CH",FM-12,99999,V020,"040,1,N,0030,1","03600,1,9,N","008000,1,N,1","+0185,1","+0180,1","10164,1","06,0061,9,1","24,0264,9,1","6,1,06,1","6,1,06,1",,"08,99,1,02,1,07,1,00800,1,02,1,99,9",,,"99999,9,09765,1","2,1,014,1,+090,1","60,1",SYN094AAXX  20001 57328 11558 80403 10185 20180 39765 40164 52014 60061 76066 8272/ 333 00956 70265;,
09-20T03:00:00,4,31.2,107.5,344.0,"DA XIAN, CH",FM-12,99999,V020,"040,1,N,0010,1","02100,1,9,N","012000,1,N,1","+0192,1","+0181,1","10181,1",,,"6,1,03,1","6,1,03,1",,"08,99,1,08,1,05,1,02250,1,99,9,99,9",,,"99999,9,09781,1","2,1,017,1,+999,9","60,1",SYN066AAXX  20031 57328 41862 80401 10192 20181 40181 52017 76066 885//;,Q01+999990APOSP 
09-20T06:00:00,4,31.2,107.5,344.0,"DA XIAN, CH",FM-12,99999,V020,"040,1,N,0010,1","02100,1,9,N","006000,1,N,1","+0191,1","+0185,1","10179,1","06,0061,9,1",,"6,1,06,1","6,1,06,1",,"08,99,1,08,1,05,1,02250,1,99,9,99,9",,"999,N,+0185,1","99999,9,09779,1","7,1,003,1,+999,9","60,1",SYN088AAXX  20061 57328 11856 80401 10191 20185 39779 40179 57003 60061 76066 885// 333 20185;,
09-20T09:00:00,4,31.2,107.5,344.0,"DA XIAN, CH",FM-12,99999,V020,"999,9,C,0000,1","02100,1,9,N","015000,1,N,1","+0195,1","+0179,1","10172,1",,,"6,1,03,1","6,1,03,1",,"08,99,1,08,1,05,1,02250,1,99,9,99,9",,,"99999,9,09772,1","7,1,007,1,+999,9","60,1",SYN066AAXX  20091 57328 41865 80000 10195 20179 40172 57007 76066 885//;,Q01+999990APOSP 
09-20T12:00:00,4,31.2,107.5,344.0,"DA XIAN, CH",FM-12,99999,V020,"999,9,C,0000,1","02100,1,9,N","015000,1,N,1","+0196,1","+0188,1","10176,1","06,0030,9,1",,"6,1,06,1",,,"08,99,1,08,1,05,1,02250,1,99,9,99,9",,,"99999,9,09775,1","2,1,003,1,+999,9","21,1",SYN078AAXX  20121 57328 11865 80000 10196 20188 39775 40176 52003 60031 72160 885//;,
09-20T15:00:00,4,31.2,107.5,344.0,"DA XIAN, CH",FM-12,99999,V020,"040,1,N,0010,1","02100,1,9,N","012000,1,N,1","+0194,1","+0188,1","10195,1",,,,,,"08,99,1,08,1,05,1,02250,1,99,9,99,9",,,"99999,9,09794,1","2,1,019,1,+999,9","60,1",SYN066AAXX  20151 57328 41862 80401 10194 20188 40195 52019 76000 885//;,Q01+999990APOSP 
09-20T18:00:00,4,31.2,107.5,344.0,"DA XIAN, CH",FM-12,99999,V020,"040,1,N,0020,1","02100,1,9,N","012000,1,N,1","+0194,1","+0189,1","10192,1","06,9999,9,9",,"6,1,06,1",,,"08,99,1,08,1,05,1,02250,1,99,9,99,9",,"999,M,+0196,1","99999,9,09791,1","7,1,003,1,+999,9","60,1",SYN088AAXX  20181 57328 11862 80402 10194 20189 39791 40192 57003 69901 76060 885// 333 10196;,
09-21T00:00:00,4,31.2,107.5,344.0,"DA XIAN, CH",FM-12,99999,V020,"070,1,N,0010,1","02100,1,9,N","008000,1,N,1","+0194,1","+0188,1","10189,1","06,9999,9,9","24,0086,9,1","6,1,06,1",,,"07,99,1,07,1,05,1,02250,1,99,9,99,9",,,"99999,9,09789,1","2,1,006,1,+020,1","10,1",SYN094AAXX  21001 57328 11858 70701 10194 20188 39789 40189 52006 69911 71060 875// 333 00201 70087;,
09-21T06:00:00,4,31.2,107.5,344.0,"DA XIAN, CH",FM-12,99999,V020,"160,1,N,0010,1","22000,1,9,N","030000,1,N,1","+0268,1","+0176,1","10165,1","06,0000,9,1",,,,,"02,99,1,02,1,01,1,01250,1,00,1,01,1",,"999,N,+0190,1","99999,9,09770,1","7,1,022,1,+999,9",,SYN076AAXX  21061 57328 32680 21601 10268 20176 39770 40165 57022 82101 333 20190;,Q01  00002PRCP06
09-21T09:00:00,4,31.2,107.5,344.0,"DA XIAN, CH",FM-12,99999,V020,"999,9,C,0000,1","22000,1,9,N","030000,1,N,1","+9999,9","+9999,9","99999,9",,,,,,"01,99,1,99,9,99,9,01250,1,99,9,99,9",,,,,,SYN059AAXX  21091 57328 42680 10000 1075 20174 40148 57016 81140;,
09-21T12:00:00,4,31.2,107.5,344.0,"DA XIAN, CH",FM-12,99999,V020,"180,1,N,0010,1","22000,1,9,N","030000,1,N,1","+0243,1","+0186,1","10155,1","06,0000,9,1",,,,"00,1,+99999,9,99,9","00,99,1,00,1,00,1,99999,9,00,1,00,1",,,"99999,9,09759,1","2,1,005,1,+999,9",,SYN060AAXX  21121 57328 32980 01801 10243 20186 39759 40155 52005;,Q01  00002PRCP06
09-21T15:00:00,4,31.2,107.5,344.0,"DA XIAN, CH",FM-12,99999,V020,"040,1,N,0010,1","22000,1,9,N","025000,1,N,1","+0206,1","+0192,1","10171,1",,,,,"00,1,+99999,9,99,9","00,99,1,00,1,00,1,99999,9,00,1,00,1",,,"99999,9,09773,1","2,1,015,1,+999,9",,SYN054AAXX  21151 57328 42975 00401 10206 20192 40171 52015;,Q01+999990APOSP 
09-21T18:00:00,4,31.2,107.5,344.0,"DA XIAN, CH",FM-12,99999,V020,"999,9,C,0000,1","22000,1,9,N","015000,1,N,1","+0197,1","+0189,1","10161,1","06,0000,9,1",,,,"00,1,+99999,9,99,9","00,99,1,00,1,00,1,99999,9,00,1,00,1",,"999,M,+0281,1","99999,9,09767,1","7,1,007,1,+999,9",,SYN070AAXX  21181 57328 32965 00000 10197 20189 39767 40161 57007 333 10281;,Q01  00002PRCP06
09-21T21:00:00,4,31.2,107.5,344.0,"DA XIAN, CH",FM-12,99999,V020,"040,1,N,0020,1","00015,1,9,N","000000,1,N,1","+0183,1","+0181,1","10149,1",,,"4,1,03,1",,"09,1,+99999,9,99,9","09,99,1,09,1,99,9,99999,9,99,9,99,9",,,"99999,9,09749,1","7,1,012,1,+999,9","45,1",SYN060AAXX  21211 57328 41/00 90402 10183 20181 40149 57012 74540;,Q01+999990APOSP 
09-22T00:00:00,4,31.2,107.5,344.0,"DA XIAN, CH",FM-12,99999,V020,"040,1,N,0010,1","00060,1,9,N","000600,1,N,1","+0187,1","+0182,1","10166,1","06,0000,9,1",,"4,1,06,1",,"09,1,+99999,9,99,9","09,99,1,09,1,99,9,99999,9,99,9,99,9",,,"99999,9,09769,1","2,1,014,1,+002,1","43,1",SYN076AAXX  22001 57328 31/06 90401 10187 20182 39769 40166 52014 74340 333 05251;,Q01  00002PRCP06
09-22T03:00:00,4,31.2,107.5,344.0,"DA XIAN, CH",FM-12,99999,V020,"999,9,C,0000,1","22000,1,9,N","008000,1,N,1","+0234,1","+0192,1","10170,1",,,"4,1,03,1",,,"02,99,1,01,1,01,1,00800,1,00,1,02,1",,,"99999,9,09776,1","2,1,005,1,+999,9","10,1",SYN066AAXX  22031 57328 41558 20000 10234 20192 40170 52005 71040 81102;,Q01+999990APOSP 
09-22T06:00:00,4,31.2,107.5,344.0,"DA XIAN, CH",FM-12,99999,V020,"270,1,N,0010,1","03600,1,9,N","020000,1,N,1","+0275,1","+0186,1","10141,1","06,0000,9,1",,"4,1,06,1",,,"07,99,1,02,1,01,1,01250,1,04,1,00,1",,"999,N,+0181,1","99999,9,09748,1","7,1,026,1,+999,9","00,1",SYN082AAXX  22061 57328 31670 72701 10275 20186 39748 40141 57026 70040 82140 333 20181;,Q01  00002PRCP06
09-22T09:00:00,4,31.2,107.5,344.0,"DA XIAN, CH",FM-12,99999,V020,"250,1,N,0020,1","22000,1,9,N","020000,1,N,1","+0286,1","+0187,1","10123,1",,,,,"00,1,+99999,9,99,9","00,99,1,00,1,00,1,99999,9,00,1,00,1",,,"99999,9,09737,1","7,1,018,1,+999,9",,SYN054AAXX  22091 57328 42970 02502 10286 20187 40123 57018;,
09-22T12:00:00,4,31.2,107.5,344.0,"DA XIAN, CH",FM-12,99999,V020,"999,9,C,0000,1","22000,1,9,N","013000,1,N,1","+0245,1","+0200,1","10127,1","06,0000,9,1",,,,"00,1,+99999,9,99,9","00,99,1,00,1,00,1,99999,9,00,1,00,1",,,"99999,9,09732,1","2,1,002,1,+999,9",,SYN060AAXX  22121 57328 32963 00000 10245 20200 39732 40127 52002;,Q01  00002PRCP06
09-22T15:00:00,4,31.2,107.5,344.0,"DA XIAN, CH",FM-12,99999,V020,"090,1,N,0010,1","22000,1,9,N","008000,1,N,1","+0211,1","+0197,1","10147,1",,,,,"00,1,+99999,9,99,9","00,99,1,00,1,00,1,99999,9,00,1,00,1",,,"99999,9,09750,1","2,1,020,1,+999,9","10,1",SYN060AAXX  22151 57328 41958 00901 10211 20197 40147 52020 71000;,Q01+999990APOSP 
09-22T18:00:00,4,31.2,107.5,344.0,"DA XIAN, CH",FM-12,99999,V020,"090,1,N,0010,1","22000,1,9,N","007000,1,N,1","+0199,1","+0191,1","10136,1","06,0000,9,1",,,,"00,1,+99999,9,99,9","00,99,1,00,1,00,1,99999,9,00,1,00,1",,"999,M,+0290,1","99999,9,09743,1","7,1,009,1,+999,9","10,1",SYN076AAXX  22181 57328 31957 00901 10199 20191 39743 40136 57009 71000 333 10290;,Q01  00002PRCP06
09-22T21:00:00,4,31.2,107.5,344.0,"DA XIAN, CH",FM-12,99999,V020,"040,1,N,0010,1","00015,1,9,N","000000,1,N,1","+0189,1","+0187,1","10133,1",,,,,"09,1,+99999,9,99,9","09,99,1,09,1,99,9,99999,9,99,9,99,9",,,"99999,9,09734,1","7,1,003,1,+999,9","47,1",SYN060AAXX  22211 57328 41/00 90401 10189 20187 40133 57003 74700;,
09-23T00:00:00,4,31.2,107.5,344.0,"DA XIAN, CH",FM-12,99999,V020,"040,1,N,0040,1","00060,1,9,N","000700,1,N,1","+0187,1","+0184,1","10145,1","06,0000,9,1",,"4,1,06,1",,"09,1,+99999,9,99,9","09,99,1,09,1,99,9,99999,9,99,9,99,9",,,"99999,9,09749,1","2,1,009,1,+002,1","43,1",SYN076AAXX  23001 57328 31/07 90404 10187 20184 39749 40145 52009 74340 333 05200;,Q01  00002PRCP06
09-23T03:00:00,4,31.2,107.5,344.0,"DA XIAN, CH",FM-12,99999,V020,"020,1,N,0020,1","22000,1,9,N","012000,1,N,1","+0226,1","+0195,1","10149,1",,,"4,1,03,1",,"00,1,+99999,9,99,9","00,99,1,00,1,00,1,99999,9,00,1,00,1",,,"99999,9,09754,1","2,1,004,1,+999,9","00,1",SYN060AAXX  23031 57328 41962 00202 10226 20195 40149 52004 70040;,Q01+999990APOSP 
09-23T06:00:00,4,31.2,107.5,344.0,"DA XIAN, CH",FM-12,99999,V020,"270,1,N,0010,1","22000,1,9,N","015000,1,N,1","+0287,1","+0183,1","10122,1","06,0000,9,1",,"4,1,06,1",,,"01,99,1,01,1,01,1,01250,1,00,1,00,1",,"999,N,+0184,1","99999,9,09730,1","7,1,023,1,+999,9","00,1",SYN082AAXX  23061 57328 31665 12701 10287 20183 39730 40122 57023 70040 81100 333 20184;,Q01  00002PRCP06
09-23T09:00:00,4,31.2,107.5,344.0,"DA XIAN, CH",FM-12,99999,V020,"999,9,C,0000,1","22000,1,9,N","025000,1,N,1","+0301,1","+0147,1","10104,1",,,,,,"01,99,1,01,1,01,1,01250,1,00,1,00,1",,,"99999,9,09721,1","7,1,017,1,+999,9",,SYN060AAXX  23091 57328 42675 10000 10301 20147 40104 57017 81100;,Q01+999990APOSP 
09-23T12:00:00,4,31.2,107.5,344.0,"DA XIAN, CH",FM-12,99999,V020,"020,1,N,0010,1","22000,1,9,N","008000,1,N,1","+0240,1","+0189,1","10120,1","06,0000,9,1",,,,"00,1,+99999,9,99,9","00,99,1,00,1,00,1,99999,9,00,1,00,1",,,"99999,9,09725,1","2,1,012,1,+999,9","10,1",SYN066AAXX  23121 57328 31958 00201 10240 20189 39725 40120 52012 71000;,Q01  00002PRCP06
09-23T15:00:00,4,31.2,107.5,344.0,"DA XIAN, CH",FM-12,99999,V020,"040,1,N,0030,1","22000,1,9,N","007000,1,N,1","+0206,1","+0189,1","10142,1",,,,,"00,1,+99999,9,99,9","00,99,1,00,1,00,1,99999,9,00,1,00,1",,,"99999,9,09745,1","2,1,021,1,+999,9","10,1",SYN060AAXX  23151 57328 41957 00403 10206 20189 40142 52021 71000;,Q01+999990APOSP 
09-23T18:00:00,4,31.2,107.5,344.0,"DA XIAN, CH",FM-12,99999,V020,"040,1,N,0020,1","22000,1,9,N","007000,1,N,1","+0195,1","+0182,1","10135,1","06,0000,9,1",,,,"00,1,+99999,9,99,9","00,99,1,00,1,00,1,99999,9,00,1,00,1",,"999,M,+0301,1","99999,9,09743,1","7,1,003,1,+999,9","10,1",SYN076AAXX  23181 57328 31957 00402 10195 20182 39743 40135 57003 71000 333 10301;,Q01  00002PRCP06
09-23T21:00:00,4,31.2,107.5,344.0,"DA XIAN, CH",FM-12,99999,V020,"040,1,N,0020,1","22000,1,9,N","007000,1,N,1","+0187,1","+0177,1","10132,1",,,,,"00,1,+99999,9,99,9","00,99,1,00,1,00,1,99999,9,00,1,00,1",,,"99999,9,09733,1","7,1,003,1,+999,9","10,1",SYN060AAXX  23211 57328 41957 00402 10187 20177 40132 57003 71000;,Q01+999990APOSP 
09-24T00:00:00,4,31.2,107.5,344.0,"DA XIAN, CH",FM-12,99999,V020,"040,1,N,0020,1","22000,1,9,N","012000,1,N,1","+0194,1","+0173,1","10145,1","06,0000,9,1",,,,"00,1,+99999,9,99,9","00,99,1,00,1,00,1,99999,9,00,1,00,1",,,"99999,9,09749,1","2,1,009,1,+000,1",,SYN070AAXX  24001 57328 32962 00402 10194 20173 39749 40145 52009 333 00001;,Q01  00002PRCP06
09-24T03:00:00,4,31.2,107.5,344.0,"DA XIAN, CH",FM-12,99999,V020,"040,1,N,0010,1","22000,1,9,N","020000,1,N,1","+0254,1","+0183,1","10146,1",,,,,"00,1,+99999,9,99,9","00,99,1,00,1,00,1,99999,9,00,1,00,1",,,"99999,9,09755,1","2,1,003,1,+999,9",,SYN054AAXX  24031 57328 42970 00401 10254 20183 40146 52003;,Q01+999990APOSP 
09-24T06:00:00,4,31.2,107.5,344.0,"DA XIAN, CH",FM-12,99999,V020,"360,1,N,0020,1","22000,1,9,N","030000,1,N,1","+0300,1","+0181,1","10117,1","06,0000,9,1",,,,"00,1,+99999,9,99,9","00,99,1,00,1,00,1,99999,9,00,1,00,1",,"999,N,+0184,1","99999,9,09726,1","7,1,026,1,+999,9",,SYN070AAXX  24061 57328 32980 03602 10300 20181 39726 40117 57026 333 20184;,Q01  00002PRCP06
09-24T09:00:00,4,31.2,107.5,344.0,"DA XIAN, CH",FM-12,99999,V020,"140,1,N,0020,1","22000,1,9,N","030000,1,N,1","+0309,1","+0170,1","10098,1",,,,,"00,1,+99999,9,99,9","00,99,1,00,1,00,1,99999,9,00,1,00,1",,,"99999,9,09716,1","7,1,018,1,+999,9",,SYN054AAXX  24091 57328 42980 01402 10309 20170 40098 57018;,Q01+999990APOSP 
09-24T12:00:00,4,31.2,107.5,344.0,"DA XIAN, CH",FM-12,99999,V020,"040,1,N,0030,1","22000,1,9,N","030000,1,N,1","+0248,1","+0186,1","10107,1","06,0000,9,1",,,,"00,1,+99999,9,99,9","00,99,1,00,1,00,1,99999,9,00,1,00,1",,,"99999,9,09713,1","2,1,005,1,+999,9",,SYN060AAXX  24121 57328 32980 00403 10248 20186 39713 40107 52005;,Q01  00002PRCP06
09-24T15:00:00,4,31.2,107.5,344.0,"DA XIAN, CH",FM-12,99999,V020,"040,1,N,0010,1","22000,1,9,N","030000,1,N,1","+0216,1","+0193,1","10119,1",,,,,"00,1,+99999,9,99,9","00,99,1,00,1,00,1,99999,9,00,1,00,1",,,"99999,9,09724,1","2,1,014,1,+999,9",,SYN054AAXX  24151 57328 42980 00401 10216 20193 40119 52014;,Q01+999990APOSP 
09-24T18:00:00,4,31.2,107.5,344.0,"DA XIAN, CH",FM-12,99999,V020,"040,1,N,0030,1","22000,1,9,N","015000,1,N,1","+0204,1","+0185,1","10122,1","06,0000,9,1",,,,"00,1,+99999,9,99,9","00,99,1,00,1,00,1,99999,9,00,1,00,1",,"999,M,+0316,1","99999,9,09732,1","2,1,005,1,+999,9",,SYN070AAXX  24181 57328 32965 00403 10204 20185 39732 40122 52005 333 10316;,Q01  00002PRCP06
09-24T21:00:00,4,31.2,107.5,344.0,"DA XIAN, CH",FM-12,99999,V020,"040,1,N,0040,1","22000,1,9,N","007000,1,N,1","+0194,1","+0180,1","10118,1",,,,,"00,1,+99999,9,99,9","00,99,1,00,1,00,1,99999,9,00,1,00,1",,,"99999,9,09720,1","7,1,004,1,+999,9","10,1",SYN060AAXX  24211 57328 41957 00404 10194 20180 40118 57004 71000;,Q01+999990APOSP 
09-25T00:00:00,4,31.2,107.5,344.0,"DA XIAN, CH",FM-12,99999,V020,"020,1,N,0020,1","22000,1,9,N","015000,1,N,1","+0197,1","+0175,1","10128,1","06,0000,9,1",,,,,"01,99,1,00,1,00,1,99999,9,00,1,02,1",,,"99999,9,09734,1","2,1,006,1,+002,1",,SYN076AAXX  2501  57328 32965 10202 10197 20175 39734 40128 52006 80002 333 05200;,Q01  00002PRCP06
09-25T03:00:00,4,31.2,107.5,344.0,"DA XIAN, CH",FM-12,99999,V020,"020,1,N,0020,1","22000,1,9,N","020000,1,N,1","+0277,1","+0165,1","10123,1",,,,,"00,1,+99999,9,99,9","00,99,1,00,1,00,1,99999,9,00,1,00,1",,,"99999,9,09736,1","7,1,002,1,+999,9",,SYN054AAXX  25031 57328 42970 00202 10277 20165 40123 57002;,Q01+999990APOSP 
09-25T06:00:00,4,31.2,107.5,344.0,"DA XIAN, CH",FM-12,99999,V020,"110,1,N,0020,1","22000,1,9,N","030000,1,N,1","+0305,1","+0148,1","10089,1","06,0000,9,1",,,,"00,1,+99999,9,99,9","00,99,1,00,1,00,1,99999,9,00,1,00,1",,"999,N,+0186,1","99999,9,09700,1","7,1,032,1,+999,9",,SYN070AAXX  25061 57328 32980 01102 10305 20148 39700 40089 57032 333 20186;,Q01  00002PRCP06
09-25T09:00:00,4,31.2,107.5,344.0,"DA XIAN, CH",FM-12,99999,V020,"110,1,N,0020,1","22000,1,9,N","030000,1,N,1","+0311,1","+0148,1","10067,1",,,,,,"01,99,1,00,1,00,1,99999,9,00,1,01,1",,,"99999,9,09686,1","7,1,021,1,+999,9",,SYN060AAXX  25091 57328 42980 11102 10311 20148 40067 57021 80001;,Q01+999990APOSP 
09-25T12:00:00,4,31.2,107.5,344.0,"DA XIAN, CH",FM-12,99999,V020,"040,1,N,0030,1","22000,1,9,N","015000,1,N,1","+0257,1","+0191,1","10078,1","06,0000,9,1",,,,"00,1,+99999,9,99,9","00,99,1,00,1,00,1,99999,9,00,1,00,1",,,"99999,9,09686,1","2,1,007,1,+999,9",,SYN060AAXX  25121 57328 32965 00403 10257 20191 39686 40078 52007;,Q01  00002PRCP06
09-25T15:00:00,4,31.2,107.5,344.0,"DA XIAN, CH",FM-12,99999,V020,"020,1,N,0010,1","22000,1,9,N","012000,1,N,1","+0228,1","+0186,1","10095,1",,,,,"00,1,+99999,9,99,9","00,99,1,00,1,00,1,99999,9,00,1,00,1",,,"99999,9,09703,1","2,1,020,1,+999,9",,SYN054AAXX  25151 57328 42962 00201 10228 20186 40095 52020;,Q01+999990APOSP 
09-25T18:00:00,4,31.2,107.5,344.0,"DA XIAN, CH",FM-12,99999,V020,"020,1,N,0020,1","22000,1,9,N","008000,1,N,1","+0204,1","+0180,1","10098,1","06,0000,9,1",,,,"00,1,+99999,9,99,9","00,99,1,00,1,00,1,99999,9,00,1,00,1",,"999,M,+0322,1","99999,9,09709,1","2,1,003,1,+999,9","10,1",SYN076AAXX  25181 57328 31958 00202 10204 20180 39709 40098 52003 71000 333 10322;,Q01  00002PRCP06
09-25T21:00:00,4,31.2,107.5,344.0,"DA XIAN, CH",FM-12,99999,V020,"040,1,N,0020,1","22000,1,9,N","008000,1,N,1","+0187,1","+0171,1","10096,1",,,,,"00,1,+99999,9,99,9","00,99,1,00,1,00,1,99999,9,00,1,00,1",,,"99999,9,09698,1","7,1,003,1,+999,9","10,1",SYN060AAXX  25211 57328 41958 00402 10187 20171 40096 57003 71000;,Q01+999990APOSP 
09-26T00:00:00,4,31.2,107.5,344.0,"DA XIAN, CH",FM-12,99999,V020,"040,1,N,0030,1","22000,1,9,N","015000,1,N,1","+0193,1","+0164,1","10107,1","06,0000,9,1",,,,"00,1,+99999,9,99,9","00,99,1,00,1,00,1,99999,9,00,1,00,1",,,"99999,9,09714,1","2,1,008,1,+002,1",,SYN070AAXX  26001 57328 32965 00403 10193 20164 39714 40107 52008 333 05200;,Q01  00002PRCP06
09-26T03:00:00,4,31.2,107.5,344.0,"DA XIAN, CH",FM-12,99999,V020,"360,1,N,0010,1","22000,1,9,N","030000,1,N,1","+0277,1","+0149,1","10106,1",,,,,"00,1,+99999,9,99,9","00,99,1,00,1,00,1,99999,9,00,1,00,1",,,"99999,9,09719,1","2,1,002,1,+999,9",,SYN054AAXX  26031 57328 42980 03601 10277 20149 40106 52002;,Q01+999990APOSP 
09-26T06:00:00,4,31.2,107.5,344.0,"DA XIAN, CH",FM-12,99999,V020,"110,1,N,0020,1","22000,1,9,N","030000,1,N,1","+0321,1","+0158,1","10077,1","06,0000,9,1",,,,"00,1,+99999,9,99,9","00,99,1,00,1,00,1,99999,9,00,1,00,1",,"999,N,+0183,1","99999,9,09690,1","7,1,026,1,+999,9",,SYN070AAXX  26061 57328 32980 01102 10321 20158 39690 40077 57026 333 20183;,Q01  00002PRCP06
09-26T09:00:00,4,31.2,107.5,344.0,"DA XIAN, CH",FM-12,99999,V020,"040,1,N,0020,1","22000,1,9,N","030000,1,N,1","+0316,1","+0153,1","10060,1",,,,,"00,1,+99999,9,99,9","00,99,1,00,1,00,1,99999,9,00,1,00,1",,,"99999,9,09680,1","7,1,018,1,+999,9",,SYN054AAXX  26091 57328 42980 00402 10316 20153 40060 57018;,Q01+999990APOSP 
09-26T12:00:00,4,31.2,107.5,344.0,"DA XIAN, CH",FM-12,99999,V020,"040,1,N,0030,1","22000,1,9,N","015000,1,N,1","+0250,1","+0182,1","10071,1","06,0000,9,1",,,,"00,1,+99999,9,99,9","00,99,1,00,1,00,1,99999,9,00,1,00,1",,,"99999,9,09679,1","2,1,007,1,+999,9",,SYN060AAXX  26121 57328 32965 00403 10250 20182 39679 40071 52007;,Q01  00002PRCP06
09-26T18:00:00,4,31.2,107.5,344.0,"DA XIAN, CH",FM-12,99999,V020,"040,1,N,0030,1","22000,1,9,N","012000,1,N,1","+0202,1","+0175,1","10071,1","06,0000,9,1",,,,"00,1,+99999,9,99,9","00,99,1,00,1,00,1,99999,9,00,1,00,1",,"999,M,+0321,1","99999,9,09684,1","7,1,005,1,+999,9",,SYN070AAXX  26181 57328 32962 00403 10202 20175 39684 40071 57005 333 10321;,Q01  00002PRCP06
09-26T21:00:00,4,31.2,107.5,344.0,"DA XIAN, CH",FM-12,99999,V020,"040,1,N,0020,1","99999,9,9,N","011000,1,N,1","+0201,1","+0170,1","10070,1",,,,,,"05,99,1,05,1,00,1,99999,9,04,1,00,1",,,"99999,9,09675,1","7,1,002,1,+999,9",,SYN060AAXX  26211 57328 42961 50402 10201 20170 40070 57002 85040;,Q01+999990APOSP 
09-27T00:00:00,4,31.2,107.5,344.0,"DA XIAN, CH",FM-12,99999,V020,"020,1,N,0020,1","22000,1,9,N","011000,1,N,1","+0211,1","+0164,1","10084,1","06,0000,9,1",,,,,"01,99,1,01,1,00,1,99999,9,04,1,00,1",,,"99999,9,09692,1","2,1,010,1,+002,1",,SYN076AAXX  27001 57328 32961 10202 10211 20164 39692 40084 52010 81040 333 05202;,Q01  00002PRCP06
09-27T03:00:00,4,31.2,107.5,344.0,"DA XIAN, CH",FM-12,99999,V020,"020,1,N,0020,1","22000,1,9,N","015000,1,N,1","+0270,1","+0164,1","10082,1",,,,,,"02,99,1,02,1,00,1,99999,9,04,1,00,1",,,"99999,9,09696,1","4,1,000,1,+999,9",,SYN060AAXX  27031 57328 42965 20202 10270 20164 40082 54000 82040;,Q01+999990APOSP 
09-27T06:00:00,4,31.2,107.5,344.0,"DA XIAN, CH",FM-12,99999,V020,"070,1,N,0010,1","22000,1,9,N","025000,1,N,1","+0317,1","+0153,1","10053,1","06,0000,9,1",,,,,"03,99,1,03,1,00,1,99999,9,04,1,00,1",,"999,N,+0195,1","99999,9,09666,1","7,1,026,1,+999,9",,SYN076AAXX  27061 57328 32975 30701 10317 20153 39666 40053 57026 83040 333 20195;,Q01  00002PRCP06
09-27T09:00:00,4,31.2,107.5,344.0,"DA XIAN, CH",FM-12,99999,V020,"090,1,N,0020,1","99999,9,9,N","025000,1,N,1","+0309,1","+0158,1","10036,1",,,,,,"05,99,1,05,1,00,1,99999,9,04,1,00,1",,,"99999,9,09656,1","7,1,017,1,+999,9",,SYN060AAXX  27091 57328 42975 50902 10309 20158 40036 57017 85040;,Q01+999990APOSP 
09-27T12:00:00,4,31.2,107.5,344.0,"DA XIAN, CH",FM-12,99999,V020,"040,1,N,0020,1","99999,9,9,N","020000,1,N,1","+0267,1","+0182,1","10047,1","06,0000,9,1",,,,,"07,99,1,07,1,00,1,99999,9,04,1,99,9",,,"99999,9,09658,1","2,1,009,1,+999,9",,SYN066AAXX  27121 57328 32970 70402 10267 20182 39658 40047 52009 8704/;,Q01  00002PRCP06
09-27T15:00:00,4,31.2,107.5,344.0,"DA XIAN, CH",FM-12,99999,V020,"040,1,N,0030,1","99999,9,9,N","015000,1,N,1","+0239,1","+0193,1","10061,1",,,,,,"07,99,1,07,1,00,1,99999,9,04,1,99,9",,,"99999,9,09671,1","2,1,015,1,+999,9",,SYN060AAXX  27151 57328 42965 70403 10239 20193 40061 52015 8704/;,Q01+999990APOSP 
09-27T18:00:00,4,31.2,107.5,344.0,"DA XIAN, CH",FM-12,99999,V020,"020,1,N,0010,1","99999,9,9,N","008000,1,N,1","+0235,1","+0192,1","10055,1","06,0000,9,1",,,,,"07,99,1,07,1,00,1,99999,9,04,1,99,9",,"999,M,+0322,1","99999,9,09670,1","7,1,003,1,+999,9","10,1",SYN082AAXX  27181 57328 31958 70201 10235 20192 39670 40055 57003 71000 8704/ 333 10322;,Q01  00002PRCP06
09-27T21:00:00,4,31.2,107.5,344.0,"DA XIAN, CH",FM-12,99999,V020,"070,1,N,0050,1","02100,1,9,N","005000,1,N,1","+0201,1","+0190,1","10066,1","24,0079,9,1",,"6,1,03,1",,,"08,99,1,08,1,05,1,02250,1,99,9,99,9",,,"99999,9,09671,1","2,1,008,1,+999,9","60,1",SYN076AAXX  27211 57328 41850 80705 10201 20190 40066 52008 76060 885// 333 70078;,Q01+999990APOSP 
09-28T00:00:00,4,31.2,107.5,344.0,"DA XIAN, CH",FM-12,99999,V020,"020,1,N,0040,1","99999,9,9,N","015000,1,N,1","+0211,1","+0188,1","10085,1","06,0079,9,1","24,0079,9,1","6,1,06,1",,,"08,99,1,08,1,00,1,99999,9,02,1,99,9",,,"99999,9,09694,1","2,1,016,1,+000,1","00,1",SYN094AAXX  28001 57328 11965 80204 10211 20188 39694 40085 52016 60081 70060 8802/ 333 00000 70079;,
09-28T03:00:00,4,31.2,107.5,344.0,"DA XIAN, CH",FM-12,99999,V020,"360,1,N,0050,1","99999,9,9,N","018000,1,N,1","+0245,1","+0181,1","10089,1",,,,,,"05,99,1,05,1,00,1,99999,9,04,1,00,1",,,"99999,9,09699,1","2,1,005,1,+999,9",,SYN060AAXX  28031 57328 42968 53605 10245 20181 40089 52005 85040;,Q01+999990APOSP 
09-28T06:00:00,4,31.2,107.5,344.0,"DA XIAN, CH",FM-12,99999,V020,"020,1,N,0010,1","22000,1,9,N","020000,1,N,1","+0277,1","+0189,1","10065,1","06,0000,9,1",,,,,"02,99,1,02,1,00,1,99999,9,04,1,00,1",,"999,N,+0200,1","99999,9,09677,1","7,1,022,1,+999,9",,SYN076AAXX  28061 57328 32970 20201 10277 20189 39677 40065 57022 82040 333 20200;,Q01  00002PRCP06
09-28T09:00:00,4,31.2,107.5,344.0,"DA XIAN, CH",FM-12,99999,V020,"070,1,N,0010,1","99999,9,9,N","025000,1,N,1","+0282,1","+0203,1","10054,1",,,,,,"08,99,1,08,1,00,1,99999,9,07,1,99,9",,,"99999,9,09670,1","7,1,012,1,+999,9",,SYN060AAXX  28091 57328 42975 80701 10282 20203 40054 57012 8807/;,Q01+999990APOSP 
09-28T12:00:00,4,31.2,107.5,344.0,"DA XIAN, CH",FM-12,99999,V020,"999,9,C,0000,1","99999,9,9,N","008000,1,N,1","+0243,1","+0216,1","10072,1","06,0003,9,1",,"6,1,06,1",,,"08,99,1,08,1,00,1,99999,9,02,1,99,9",,,"99999,9,09680,1","2,1,015,1,+999,9","21,1",SYN078AAXX  28121 57328 11958 80000 10243 20216 39680 40072 52015 69931 72160 8802/;,
09-28T15:00:00,4,31.2,107.5,344.0,"DA XIAN, CH",FM-12,99999,V020,"040,1,N,0010,1","99999,9,9,N","006000,1,N,1","+0233,1","+0218,1","10089,1",,,,,,"08,99,1,08,1,00,1,99999,9,07,1,99,9",,,"99999,9,09698,1","2,1,018,1,+999,9","10,1",SYN066AAXX  28151 57328 41956 80401 10233 20218 40089 52018 71000 8807/;,Q01+999990APOSP 
09-28T18:00:00,4,31.2,107.5,344.0,"DA XIAN, CH",FM-12,99999,V020,"020,1,N,0010,1","99999,9,9,N","005000,1,N,1","+0231,1","+0216,1","10097,1","06,0000,2,1",,,,,"08,99,1,08,1,00,1,99999,9,07,1,99,9",,"999,M,+0299,1","99999,9,09708,1","2,1,010,1,+999,9","10,1",SYN082AAXX  28181 57328 31950 80201 10231 20216 39708 40097 52010 71000 8807/ 333 10299;,
09-28T21:00:00,4,31.2,107.5,344.0,"DA XIAN, CH",FM-12,99999,V020,"020,1,N,0020,1","99999,9,9,N","006000,1,N,1","+0224,1","+0211,1","10096,1","24,0008,9,1",,"6,1,03,1",,,"08,99,1,08,1,00,1,99999,9,02,1,99,9",,,"99999,9,09703,1","7,1,001,1,+999,9","21,1",SYN076AAXX  28211 57328 41956 80202 10224 20211 40096 57001 72160 8802/ 333 70008;,Q01+999990APOSP 
09-29T00:00:00,4,31.2,107.5,344.0,"DA XIAN, CH",FM-12,99999,V020,"040,1,N,0040,1","99999,9,9,N","011000,1,N,1","+0219,1","+0185,1","10113,1","06,0005,9,1","24,0008,9,1","6,1,06,1",,,"08,99,1,08,1,00,1,99999,9,07,1,99,9",,,"99999,9,09720,1","2,1,013,1,+030,1","00,1",SYN094AAXX  29001 57328 11961 80404 10219 20185 39720 40113 52013 69941 70060 8807/ 333 00301 70007;,
09-29T03:00:00,4,31.2,107.5,344.0,"DA XIAN, CH",FM-12,99999,V020,"020,1,N,0040,1","99999,9,9,N","011000,1,N,1","+0230,1","+0187,1","10127,1",,,,,,"08,99,1,08,1,00,1,99999,9,07,1,99,9",,,"99999,9,09734,1","2,1,014,1,+999,9",,SYN060AAXX  29031 57328 42961 80204 10230 20187 40127 52014 8807/;,Q01+999990APOSP 
09-29T06:00:00,4,31.2,107.5,344.0,"DA XIAN, CH",FM-12,99999,V020,"040,1,N,0020,1","99999,9,9,N","030000,1,N,1","+0229,1","+0179,1","10110,1","06,0000,9,1",,,,,"08,99,1,08,1,00,1,99999,9,07,1,99,9",,"999,N,+0216,1","99999,9,09717,1","7,1,017,1,+999,9",,SYN076AAXX  29061 57328 32980 80402 10229 20179 39717 40110 57017 8807/ 333 20216;,Q01  00002PRCP06
09-29T09:00:00,4,31.2,107.5,344.0,"DA XIAN, CH",FM-12,99999,V020,"040,1,N,0040,1","99999,9,9,N","030000,1,N,1","+0239,1","+0185,1","10095,1",,,,,,"08,99,1,08,1,00,1,99999,9,07,1,99,9",,,"99999,9,09704,1","7,1,014,1,+999,9",,SYN060AAXX  29091 57328 42980 80404 10239 20185 40095 57014 8807/;,Q01+999990APOSP 
09-29T12:00:00,4,31.2,107.5,344.0,"DA XIAN, CH",FM-12,99999,V020,"040,1,N,0030,1","99999,9,9,N","008000,1,N,1","+0227,1","+0188,1","10096,1","06,0000,9,1",,,,,"08,99,1,08,1,00,1,99999,9,07,1,99,9",,,"99999,9,09703,1","4,1,000,1,+999,9","10,1",SYN072AAXX  29121 57328 31958 80403 10227 20188 39703 40096 54000 71000 8807/;,Q01  00002PRCP06
09-29T15:00:00,4,31.2,107.5,344.0,"DA XIAN, CH",FM-12,99999,V020,"070,1,N,0020,1","99999,9,9,N","008000,1,N,1","+0223,1","+0189,1","10098,1",,,,,,"08,99,1,08,1,00,1,99999,9,07,1,99,9",,,"99999,9,09705,1","2,1,002,1,+999,9","10,1",SYN066AAXX  29151 57328 41958 80702 10223 20189 40098 52002 71000 8807/;,Q01+999990APOSP 
09-29T18:00:00,4,31.2,107.5,344.0,"DA XIAN, CH",FM-12,99999,V020,"999,9,C,0000,1","99999,9,9,N","007000,1,N,1","+0224,1","+0192,1","10093,1","06,0000,9,1",,,,,"08,99,1,08,1,00,1,99999,9,07,1,99,9",,"999,M,+0241,1","99999,9,09700,1","7,1,005,1,+999,9","10,1",SYN082AAXX  29181 57328 31957 80000 10224 20192 39700 40093 57005 71000 8807/ 333 10241;,Q01  00002PRCP06
09-29T21:00:00,4,31.2,107.5,344.0,"DA XIAN, CH",FM-12,99999,V020,"040,1,N,0020,1","99999,9,9,N","006000,1,N,1","+0223,1","+0186,1","10090,1",,,,,,"08,99,1,08,1,00,1,99999,9,07,1,99,9",,,"99999,9,09697,1","7,1,002,1,+999,9","10,1",SYN066AAXX  29211 57328 41956 80402 10223 20186 40090 57002 71000 8807/;,Q01+999990APOSP 
09-30T00:00:00,4,31.2,107.5,344.0,"DA XIAN, CH",FM-12,99999,V020,"040,1,N,0020,1","99999,9,9,N","008000,1,N,1","+0223,1","+0184,1","10101,1","06,0000,9,1",,,,,"07,99,1,07,1,00,1,99999,9,04,1,99,9",,,"99999,9,09708,1","2,1,010,1,+001,1","10,1",SYN082AAXX  30001 57328 31958 70402 10223 20184 39708 40101 52010 71000 8704/ 333 05100;,Q01  00002PRCP06
09-30T03:00:00,4,31.2,107.5,344.0,"DA XIAN, CH",FM-12,99999,V020,"020,1,N,0030,1","02100,1,9,N","008000,1,N,1","+0246,1","+0191,1","10101,1",,,,,,"08,99,1,08,1,05,1,02250,1,99,9,99,9",,,"99999,9,09711,1","2,1,001,1,+999,9","10,1",SYN066AAXX  30031 57328 41858 80203 10246 20191 40101 52001 71000 885//;,Q01+999990APOSP 
09-30T06:00:00,4,31.2,107.5,344.0,"DA XIAN, CH",FM-12,99999,V020,"040,1,N,0020,1","99999,9,9,N","008000,1,N,1","+0261,1","+0194,1","10073,1","06,0000,9,1",,,,,"08,99,1,08,1,00,1,99999,9,07,1,99,9",,"999,N,+0220,1","99999,9,09683,1","7,1,026,1,+999,9","10,1",SYN082AAXX  30061 57328 31958 80402 10261 20194 39683 40073 57026 71000 8807/ 333 20220;,Q01  00002PRCP06
09-30T09:00:00,4,31.2,107.5,344.0,"DA XIAN, CH",FM-12,99999,V020,"040,1,N,0020,1","99999,9,9,N","008000,1,N,1","+0251,1","+0200,1","10059,1",,,,,,"08,99,1,08,1,00,1,99999,9,07,1,99,9",,,"99999,9,09671,1","7,1,014,1,+999,9","10,1",SYN066AAXX  30091 57328 41958 80402 10251 20200 40059 57014 71000 8807/;,Q01+999990APOSP 
09-30T12:00:00,4,31.2,107.5,344.0,"DA XIAN, CH",FM-12,99999,V020,"070,1,N,0040,1","99999,9,9,N","008000,1,N,1","+0240,1","+0186,1","10061,1","06,0000,9,1",,,,,"08,99,1,08,1,00,1,99999,9,07,1,99,9",,,"99999,9,09670,1","2,1,001,1,+999,9","10,1",SYN072AAXX  30121 57328 31958 80704 10240 20186 39670 40061 52001 71000 8807/;,Q01  00002PRCP06
09-30T15:00:00,4,31.2,107.5,344.0,"DA XIAN, CH",FM-12,99999,V020,"070,1,N,0040,1","99999,9,9,N","008000,1,N,1","+0230,1","+0178,1","10076,1",,,,,,"08,99,1,08,1,00,1,99999,9,07,1,99,9",,,"99999,9,09685,1","2,1,016,1,+999,9","10,1",SYN066AAXX  30151 57328 41958 80704 10230 20178 40076 52016 71000 8807/;,Q01+999990APOSP 
09-30T18:00:00,4,31.2,107.5,344.0,"DA XIAN, CH",FM-12,99999,V020,"040,1,N,0040,1","99999,9,9,N","006000,1,N,1","+0221,1","+0173,1","10071,1","06,0000,9,1",,,,,"08,99,1,08,1,00,1,99999,9,07,1,99,9",,"999,M,+0262,1","99999,9,09681,1","7,1,005,1,+999,9","10,1",SYN082AAXX  30181 57328 31956 80404 10221 20173 39681 40071 57005 71000 8807/ 333 10262;,Q01  00002PRCP06
09-30T21:00:00,4,31.2,107.5,344.0,"DA XIAN, CH",FM-12,99999,V020,"090,1,N,0030,1","99999,9,9,N","008000,1,N,1","+0215,1","+0162,1","10075,1",,,,,,"08,99,1,08,1,00,1,99999,9,07,1,99,9",,,"99999,9,09682,1","2,1,003,1,+999,9","10,1",SYN066AAXX  30211 57328 41958 80903 10215 20162 40075 52003 71000 8807/;,Q01+999990APOSP 
10-01T00:00:00,4,31.2,107.5,344.0,"DA XIAN, CH",FM-12,99999,V020,"040,1,N,0030,1","02100,1,9,N","008000,1,N,1","+0185,1","+0175,1","10114,1","06,0051,9,2","24,0048,9,2","6,1,06,1",,,"08,99,1,08,1,05,1,02250,1,99,9,99,9",,,"99999,9,09719,1","2,1,035,1,+010,1","60,1",SYN094AAXX  01001 57328 11858 80403 10185 20175 39719 40114 52035 60051 76060 885// 333 00154 70048;,
10-01T03:00:00,4,31.2,107.5,344.0,"DA XIAN, CH",FM-12,99999,V020,"020,1,N,0010,1","03600,1,9,N","015000,1,N,1","+0135,1","+0128,1","99999,9","06,0079,9,1",,"6,1,03,1","6,1,03,1",,"08,99,1,01,1,07,1,00800,1,02,1,99,9",,,"99999,9,99999,9","2,1,013,1,+999,9","60,1",SYN078AAXX  02121 57328 11565 80201 10135 20128 39821 40231 52013 60081 76066 8172/;,Q01 098213APOSP Q02 102313APOSLP
10-01T06:00:00,4,31.2,107.5,344.0,"DA XIAN, CH",FM-12,99999,V020,"020,1,N,0020,1","00420,1,9,N","008000,1,N,1","+0158,1","+0150,1","10133,1","06,0061,9,1",,"6,1,06,1","6,1,06,1",,"08,99,1,08,1,05,1,00450,1,99,9,99,9",,"999,N,+0157,1","99999,9,09734,1","7,1,003,1,+999,9","60,1",SYN088AAXX  01061 57328 11458 80202 10158 20150 39734 40133 57003 60061 76066 885// 333 20157;,
10-01T09:00:00,4,31.2,107.5,344.0,"DA XIAN, CH",FM-12,99999,V020,"040,1,N,0010,1","00420,1,9,N","015000,1,N,1","+0154,1","+0144,1","10142,1",,,"6,1,03,1","6,1,03,1",,"08,99,1,08,1,05,1,00450,1,99,9,99,9",,,"99999,9,09738,1","2,1,008,1,+999,9","60,1",SYN066AAXX  01091 57328 41465 80401 10154 20144 40142 52008 76066 885//;,
10-01T12:00:00,4,31.2,107.5,344.0,"DA XIAN, CH",FM-12,99999,V020,"040,1,N,0030,1","02100,1,9,N","015000,1,N,1","+0148,1","+0141,1","10158,1","06,0061,9,1",,"6,1,06,1","6,1,06,1",,"08,99,1,08,1,05,1,02250,1,99,9,99,9",,,"99999,9,09755,1","2,1,013,1,+999,9","60,1",SYN078AAXX  01121 57328 11865 80403 10148 20141 39755 40158 52013 60061 76066 885//;,
10-01T15:00:00,4,31.2,107.5,344.0,"DA XIAN, CH",FM-12,99999,V020,"040,1,N,0010,1","02100,1,9,N","012000,1,N,1","+0147,1","+0140,1","10174,1",,,"6,1,03,1","6,1,03,1",,"08,99,1,08,1,05,1,02250,1,99,9,99,9",,,"99999,9,09768,1","2,1,014,1,+999,9","60,1",SYN066AAXX  01151 57328 41862 80401 10147 20140 40174 52014 76066 885//;,Q01+999990APOSP 
10-01T18:00:00,4,31.2,107.5,344.0,"DA XIAN, CH",FM-12,99999,V020,"040,1,N,0010,1","02100,1,9,N","015000,1,N,1","+0145,1","+0138,1","10175,1","06,0079,9,1",,"6,1,06,1","6,1,06,1",,"08,99,1,08,1,05,1,02250,1,99,9,99,9",,"999,M,+0221,1","99999,9,09769,1","4,1,000,1,+999,9","60,1",SYN088AAXX  01181 57328 11865 80401 10145 20138 39769 40175 54000 60081 76066 885// 333 10221;,
10-01T21:00:00,4,31.2,107.5,344.0,"DA XIAN, CH",FM-12,99999,V020,"020,1,N,0010,1","02100,1,9,N","015000,1,N,1","+0144,1","+0141,1","10177,1","24,0274,9,1",,"6,1,03,1","6,1,03,1",,"08,99,1,08,1,05,1,02250,1,99,9,99,9",,,"99999,9,09770,1","2,1,002,1,+999,9","60,1",SYN076AAXX  01211 57328 41865 80201 10144 20141 40177 52002 76066 885// 333 70274;,
10-02T00:00:00,4,31.2,107.5,344.0,"DA XIAN, CH",FM-12,99999,V020,"040,1,N,0020,1","03600,1,9,N","012000,1,N,1","+0143,1","+0138,1","10193,1","06,0150,9,1","24,0348,9,1","6,1,06,1","6,1,06,1",,"08,99,1,01,1,07,1,00800,1,02,1,99,9",,,"99999,9,09786,1","2,1,015,1,+070,1","60,1",SYN094AAXX  02001 57328 11562 80402 10143 20138 39786 40193 52015 60151 76066 8172/ 333 00754 70348;,
10-02T03:00:00,4,31.2,107.5,344.0,"DA XIAN, CH",FM-12,99999,V020,"040,1,N,0020,1","03600,1,9,N","008000,1,N,1","+0144,1","+0139,1","10218,1",,,"6,1,03,1","6,1,03,1",,"08,99,1,01,1,07,1,00800,1,02,1,99,9",,,"99999,9,09810,1","2,1,024,1,+999,9","60,1",SYN066AAXX  02031 57328 41558 80402 10144 20139 40218 52024 76066 8172/;,Q01+999990APOSP 
10-02T06:00:00,4,31.2,107.5,344.0,"DA XIAN, CH",FM-12,99999,V020,"040,1,N,0020,1","03600,1,9,N","012000,1,N,1","+0145,1","+0131,1","10210,1","06,0041,9,1",,"6,1,06,1","6,1,06,1",,"08,99,1,01,1,07,1,00800,1,02,1,99,9",,"999,N,+0139,1","99999,9,09802,1","7,1,008,1,+999,9","60,1",SYN088AAXX  02061 57328 11562 80402 10145 20131 39802 40210 57008 60041 76066 8172/ 333 20139;,
10-02T09:00:00,4,31.2,107.5,344.0,"DA XIAN, CH",FM-12,99999,V020,"040,1,N,0020,1","03600,1,9,N","012000,1,N,1","+0139,1","+0128,1","10217,1",,,"6,1,03,1","6,1,03,1",,"08,99,1,01,1,07,1,00800,1,02,1,99,9",,,"99999,9,09808,1","2,1,006,1,+999,9","60,1",SYN066AAXX  02091 57328 41562 80402 10139 20128 40217 52006 76066 8172/;,Q01+999990APOSP 
10-02T15:00:00,4,31.2,107.5,344.0,"DA XIAN, CH",FM-12,99999,V020,"040,1,N,0020,1","03600,1,9,N","012000,1,N,1","+0133,1","+0126,1","10249,1",,,"6,1,03,1","6,1,03,1",,"08,99,1,01,1,07,1,00800,1,02,1,99,9",,,"99999,9,09838,1","2,1,017,1,+999,9","60,1",SYN066AAXX  02151 57328 41562 80402 10133 20126 40249 52017 76066 8172/;,Q01+999990APOSP 
10-02T18:00:00,4,31.2,107.5,344.0,"DA XIAN, CH",FM-12,99999,V020,"040,1,N,0020,1","03600,1,9,N","015000,1,N,1","+0132,1","+0127,1","10250,1","06,0130,9,1",,"6,1,06,1","6,1,06,1",,"08,99,1,01,1,07,1,00450,1,02,1,99,9",,"999,M,+0146,1","99999,9,09839,1","2,1,001,1,+999,9","60,1",SYN088AAXX  02181 57328 11465 80402 10132 20127 39839 40250 52001 60131 76066 8172/ 333 10146;,
10-02T21:00:00,4,31.2,107.5,344.0,"DA XIAN, CH",FM-12,99999,V020,"090,1,N,0010,1","03600,1,9,N","015000,1,N,1","+0132,1","+0128,1","10249,1","24,0386,9,1",,"6,1,03,1","6,1,03,1",,"08,99,1,02,1,07,1,00450,1,02,1,99,9",,,"99999,9,09838,1","7,1,001,1,+999,9","60,1",SYN076AAXX  02211 57328 41465 80901 10132 20128 40249 57001 76066 8272/ 333 70387;,Q01+999990APOSP 
10-03T00:00:00,4,31.2,107.5,344.0,"DA XIAN, CH",FM-12,99999,V020,"040,1,N,0040,1","00420,1,9,N","007000,1,N,1","+0133,1","+0128,1","10258,1","06,0020,9,1","24,0272,9,1","6,1,06,1","6,1,06,1",,"08,99,1,08,1,05,1,00450,1,99,9,99,9",,,"99999,9,09846,1","2,1,008,1,+060,1","60,1",SYN094AAXX  03001 57328 11457 80404 10133 20128 39846 40258 52008 60021 76066 885// 333 00651 70272;,
10-03T03:00:00,4,31.2,107.5,344.0,"DA XIAN, CH",FM-12,99999,V020,"040,1,N,0030,1","00420,1,9,N","003000,1,N,1","+0133,1","+0126,1","10269,1",,,"6,1,03,1","6,1,03,1",,"08,99,1,08,1,05,1,00450,1,99,9,99,9",,,"99999,9,09857,1","2,1,011,1,+999,9","60,1",SYN066AAXX  03031 57328 41430 80403 10133 20126 40269 52011 76066 885//;,Q01+999990APOSP 
10-03T06:00:00,4,31.2,107.5,344.0,"DA XIAN, CH",FM-12,99999,V020,"040,1,N,0030,1","00420,1,9,N","003000,1,N,1","+0142,1","+0138,1","10254,1","06,0030,9,1",,"6,1,06,1","6,1,06,1",,"08,99,1,08,1,05,1,00450,1,99,9,99,9",,"999,N,+0130,1","99999,9,09843,1","7,1,014,1,+999,9","60,1",SYN088AAXX  03061 57328 11430 80403 10142 20138 39843 40254 57014 60031 76066 885// 333 20130;,
10-03T09:00:00,4,31.2,107.5,344.0,"DA XIAN, CH",FM-12,99999,V020,"040,1,N,0020,1","02100,1,9,N","003000,1,N,1","+0139,1","+0134,1","10243,1",,,"6,1,03,1","6,1,03,1",,"08,99,1,08,1,05,1,02250,1,99,9,99,9",,,"99999,9,09833,1","7,1,011,1,+999,9","60,1",SYN066AAXX  03091 57328 41830 80402 10139 20134 40243 57011 76066 885//;,Q01+999990APOSP 
10-03T12:00:00,4,31.2,107.5,344.0,"DA XIAN, CH",FM-12,99999,V020,"040,1,N,0010,1","00420,1,9,N","007000,1,N,1","+0138,1","+0134,1","10247,1","06,0010,9,1",,"6,1,06,1","6,1,06,1",,"08,99,1,08,1,05,1,00450,1,99,9,99,9",,,"99999,9,09836,1","2,1,004,1,+999,9","60,1",SYN078AAXX  03121 57328 11457 80401 10138 20134 39836 40247 52004 60011 76066 885//;,
10-03T18:00:00,4,31.2,107.5,344.0,"DA XIAN, CH",FM-12,99999,V020,"040,1,N,0030,1","00420,1,9,N","004000,1,N,1","+0133,1","+0129,1","10240,1","06,0010,9,1",,"6,1,06,1","6,1,06,1",,"08,99,1,08,1,05,1,00450,1,99,9,99,9",,"999,M,+0143,1","99999,9,09830,1","7,1,011,1,+999,9","60,1",SYN088AAXX  03181 57328 11440 80403 10133 20129 39830 40240 57011 60011 76066 885// 333 10143;,
10-03T21:00:00,4,31.2,107.5,344.0,"DA XIAN, CH",FM-12,99999,V020,"040,1,N,0020,1","02100,1,9,N","006000,1,N,1","+0133,1","+0129,1","10240,1","24,0079,9,1",,"6,1,03,1","6,1,03,1",,"08,99,1,08,1,05,1,02250,1,99,9,99,9",,,"99999,9,09829,1","7,1,001,1,+999,9","60,1",SYN076AAXX  03211 57328 41856 80402 10133 20129 40240 57001 76066 885// 333 70078;,Q01+999990APOSP 
10-04T00:00:00,4,31.2,107.5,344.0,"DA XIAN, CH",FM-12,99999,V020,"040,1,N,0010,1","02100,1,9,N","004000,1,N,1","+0132,1","+0128,1","10253,1","06,0030,9,1","24,0086,9,1","6,1,06,1","6,1,06,1",,"08,99,1,08,1,05,1,02250,1,99,9,99,9",,,"99999,9,09842,1","2,1,013,1,+000,1","60,1",SYN094AAXX  04001 57328 11840 80401 10132 20128 39842 40253 52013 60031 76066 885// 333 00000 70087;,
10-04T03:00:00,4,31.2,107.5,344.0,"DA XIAN, CH",FM-12,99999,V020,"040,1,N,0020,1","02100,1,9,N","004000,1,N,1","+0135,1","+0131,1","10259,1",,,"6,1,03,1","6,1,03,1",,"08,99,1,08,1,05,1,02250,1,99,9,99,9",,,"99999,9,09848,1","2,1,006,1,+999,9","60,1",SYN066AAXX  04031 57328 41840 80402 10135 20131 40259 52006 76066 885//;,Q01+999990APOSP 
10-04T06:00:00,4,31.2,107.5,344.0,"DA XIAN, CH",FM-12,99999,V020,"040,1,N,0020,1","02100,1,9,N","004000,1,N,1","+0138,1","+0133,1","10242,1","06,0030,9,1",,"6,1,06,1","6,1,06,1",,"08,99,1,08,1,05,1,02250,1,99,9,99,9",,"999,N,+0131,1","99999,9,09831,1","7,1,017,1,+999,9","60,1",SYN088AAXX  04061 57328 11840 80402 10138 20133 39831 40242 57017 60031 76066 885// 333 20131;,
10-04T09:00:00,4,31.2,107.5,344.0,"DA XIAN, CH",FM-12,99999,V020,"040,1,N,0020,1","02100,1,9,N","004000,1,N,1","+0138,1","+0134,1","10230,1",,,"6,1,03,1","6,1,03,1",,"08,99,1,08,1,05,1,02250,1,99,9,99,9",,,"99999,9,09820,1","7,1,011,1,+999,9","60,1",SYN066AAXX  04091 57328 41840 80402 10138 20134 40230 57011 76066 885//;,Q01+999990APOSP 
10-04T12:00:00,4,31.2,107.5,344.0,"DA XIAN, CH",FM-12,99999,V020,"040,1,N,0010,1","02100,1,9,N","004000,1,N,1","+0137,1","+0132,1","10244,1","06,0061,9,1",,"6,1,06,1","6,1,06,1",,"08,99,1,08,1,05,1,02250,1,99,9,99,9",,,"99999,9,09833,1","2,1,013,1,+999,9","60,1",SYN078AAXX  04121 57328 11840 80401 10137 20132 39833 40244 52013 60061 76066 885//;,
10-04T15:00:00,4,31.2,107.5,344.0,"DA XIAN, CH",FM-12,99999,V020,"999,9,C,0000,1","02100,1,9,N","003000,1,N,1","+0137,1","+0133,1","10251,1",,,"6,1,03,1","6,1,03,1",,"08,99,1,08,1,05,1,02250,1,99,9,99,9",,,"99999,9,09840,1","2,1,007,1,+999,9","60,1",SYN066AAXX  04151 57328 41830 80000 10137 20133 40251 52007 76066 885//;,Q01+999990APOSP 
10-04T18:00:00,4,31.2,107.5,344.0,"DA XIAN, CH",FM-12,99999,V020,"040,1,N,0020,1","02100,1,9,N","003000,1,N,1","+0133,1","+0129,1","10243,1","06,0030,9,1",,"6,1,06,1","6,1,06,1",,"08,99,1,08,1,05,1,02250,1,99,9,99,9",,"999,M,+0138,1","99999,9,09832,1","7,1,008,1,+999,9","60,1",SYN088AAXX  04181 57328 11830 80402 10133 20129 39832 40243 57008 60031 76066 885// 333 10138;,
10-04T21:00:00,4,31.2,107.5,344.0,"DA XIAN, CH",FM-12,99999,V020,"040,1,N,0030,1","02100,1,9,N","003000,1,N,1","+0129,1","+0124,1","10237,1","24,0178,9,1",,"6,1,03,1","6,1,03,1",,"08,99,1,08,1,05,1,02250,1,99,9,99,9",,,"99999,9,09826,1","7,1,006,1,+999,9","60,1",SYN076AAXX  04211 57328 41830 80403 10129 20124 40237 57006 76066 885// 333 70179;,Q01+999990APOSP 
10-05T00:00:00,4,31.2,107.5,344.0,"DA XIAN, CH",FM-12,99999,V020,"999,9,C,0000,1","99999,9,9,N","008000,1,N,1","+0131,1","+0127,1","10245,1","06,0061,9,1","24,0170,9,1","6,1,06,1","6,1,06,1",,"07,99,1,07,1,00,1,99999,9,04,1,99,9",,,"99999,9,09834,1","2,1,008,1,-010,1","60,1",SYN094AAXX  05001 57328 11958 70000 10131 20127 39834 40245 52008 60061 76066 8704/ 333 05100 70171;,
10-05T03:00:00,4,31.2,107.5,344.0,"DA XIAN, CH",FM-12,99999,V020,"040,1,N,0010,1","99999,9,9,N","015000,1,N,1","+0149,1","+0131,1","10252,1",,,,,,"08,99,1,08,1,00,1,99999,9,07,1,99,9",,,"99999,9,09843,1","2,1,008,1,+999,9",,SYN060AAXX  05031 57328 42965 80401 10149 20131 40252 52008 8807/;,Q01+999990APOSP 
10-05T06:00:00,4,31.2,107.5,344.0,"DA XIAN, CH",FM-12,99999,V020,"320,1,N,0010,1","03600,1,9,N","020000,1,N,1","+0171,1","+0129,1","10229,1","06,0000,2,1",,,,,"08,99,1,02,1,01,1,01250,1,07,1,99,9",,"999,N,+0127,1","99999,9,09821,1","7,1,021,1,+999,9",,SYN076AAXX  05061 57328 32670 83201 10171 20129 39821 40229 57021 8217/ 333 20127;,
10-05T09:00:00,4,31.2,107.5,344.0,"DA XIAN, CH",FM-12,99999,V020,"040,1,N,0010,1","03600,1,9,N","020000,1,N,1","+0171,1","+0142,1","10221,1",,,,,,"08,99,1,01,1,01,1,01250,1,07,1,99,9",,,"99999,9,09816,1","7,1,008,1,+999,9",,SYN060AAXX  05091 57328 42670 80401 10171 20142 40221 57008 8117/;,Q01+999990APOSP 
10-05T12:00:00,4,31.2,107.5,344.0,"DA XIAN, CH",FM-12,99999,V020,"999,9,C,0000,1","99999,9,9,N","015000,1,N,1","+0163,1","+0149,1","10231,1","06,0000,9,1",,,,,"07,99,1,07,1,00,1,99999,9,04,1,99,9",,,"99999,9,09822,1","2,1,009,1,+999,9",,SYN066AAXX  05121 57328 32965 70000 10163 20149 39822 40231 52009 8704/;,Q01  00002PRCP06
10-05T15:00:00,4,31.2,107.5,344.0,"DA XIAN, CH",FM-12,99999,V020,"999,9,C,0000,1","99999,9,9,N","008000,1,N,1","+0150,1","+0145,1","10241,1",,,,,,"08,99,1,08,1,00,1,99999,9,07,1,99,9",,,"99999,9,09832,1","2,1,010,1,+999,9","10,1",SYN066AAXX  05151 57328 41958 80000 10150 20145 40241 52010 71000 8807/;,Q01+999990APOSP 
10-05T18:00:00,4,31.2,107.5,344.0,"DA XIAN, CH",FM-12,99999,V020,"999,9,C,0000,1","99999,9,9,N","004000,1,N,1","+0149,1","+0140,1","10228,1","06,0000,9,1",,,,,"08,99,1,08,1,00,1,99999,9,07,1,99,9",,"999,M,+0173,1","99999,9,09821,1","7,1,011,1,+999,9","10,1",SYN082AAXX  05181 57328 31940 80000 10149 20140 39821 40228 57011 71000 8807/ 333 10173;,Q01  00002PRCP06
10-05T21:00:00,4,31.2,107.5,344.0,"DA XIAN, CH",FM-12,99999,V020,"040,1,N,0010,1","99999,9,9,N","001200,1,N,1","+0145,1","+0142,1","10222,1","24,0008,9,1",,"4,1,03,1",,,"08,99,1,08,1,00,1,99999,9,07,1,99,9",,,"99999,9,09814,1","7,1,006,1,+999,9","28,1",SYN076AAXX  05211 57328 41912 80401 10145 20142 40222 57006 72840 8807/ 333 70008;,Q01+999990APOSP 
10-06T00:00:00,4,31.2,107.5,344.0,"DA XIAN, CH",FM-12,99999,V020,"020,1,N,0010,1","99999,9,9,N","002000,1,N,1","+0147,1","+0144,1","10225,1","06,0000,9,1",,"4,1,06,1",,,"08,99,1,08,1,00,1,99999,9,07,1,99,9",,,"99999,9,09818,1","2,1,003,1,+002,1","10,1",SYN082AAXX  06001 57328 31920 80201 10147 20144 39818 40225 52003 71040 8807/ 333 05202;,Q01  00002PRCP06
10-06T03:00:00,4,31.2,107.5,344.0,"DA XIAN, CH",FM-12,99999,V020,"070,1,N,0020,1","99999,9,9,N","006000,1,N,1","+0165,1","+0148,1","10230,1",,,,,,"08,99,1,08,1,00,1,99999,9,07,1,99,9",,,"99999,9,09824,1","2,1,005,1,+999,9","10,1",SYN066AAXX  06031 57328 41956 80702 10165 20148 40230 52005 71000 8807/;,Q01+999990APOSP 
10-06T06:00:00,4,31.2,107.5,344.0,"DA XIAN, CH",FM-12,99999,V020,"999,9,C,0000,1","03600,1,9,N","030000,1,N,1","+0212,1","+0129,1","10198,1","06,0000,9,1",,,,,"07,99,1,01,1,01,1,01250,1,04,1,99,9",,"999,N,+0140,1","99999,9,09795,1","7,1,028,1,+999,9",,SYN076AAXX  06061 57328 32680 70000 10212 20129 39795 40198 57028 8114/ 333 20140;,Q01  00002PRCP06
10-06T09:00:00,4,31.2,107.5,344.0,"DA XIAN, CH",FM-12,99999,V020,"220,1,N,0010,1","02100,1,9,N","025000,1,N,1","+0214,1","+0145,1","10180,1",,,,,,"07,99,1,07,1,05,1,02250,1,99,9,99,9",,,"99999,9,09783,1","7,1,017,1,+999,9",,SYN060AAXX  06091 57328 42875 72201 10214 20145 40180 57017 875//;,Q01+999990APOSP 
10-06T12:00:00,4,31.2,107.5,344.0,"DA XIAN, CH",FM-12,99999,V020,"999,9,C,0000,1","99999,9,9,N","012000,1,N,1","+0191,1","+0153,1","10191,1","06,0000,9,1",,,,,"07,99,1,07,1,00,1,99999,9,04,1,99,9",,,"99999,9,09787,1","2,1,009,1,+999,9",,SYN066AAXX  06121 57328 32962 70000 10191 20153 39787 40191 52009 8704/;,Q01  00002PRCP06
10-06T15:00:00,4,31.2,107.5,344.0,"DA XIAN, CH",FM-12,99999,V020,"999,9,C,0000,1","99999,9,9,N","008000,1,N,1","+0165,1","+0153,1","10205,1",,,,,,"06,99,1,06,1,00,1,99999,9,04,1,00,1",,,"99999,9,09800,1","2,1,013,1,+999,9","10,1",SYN066AAXX  06151 57328 41958 60000 10165 20153 40205 52013 71000 86040;,Q01+999990APOSP 
10-06T18:00:00,4,31.2,107.5,344.0,"DA XIAN, CH",FM-12,99999,V020,"040,1,N,0020,1","99999,9,9,N","005000,1,N,1","+0153,1","+0150,1","10189,1","06,0000,9,1",,,,,"07,99,1,07,1,00,1,99999,9,04,1,99,9",,"999,M,+0222,1","99999,9,09787,1","7,1,013,1,+999,9","10,1",SYN082AAXX  06181 57328 31950 70402 10153 20150 39787 40189 57013 71000 8704/ 333 10222;,Q01  00002PRCP06
10-06T21:00:00,4,31.2,107.5,344.0,"DA XIAN, CH",FM-12,99999,V020,"040,1,N,0020,1","00015,1,9,N","000000,1,N,1","+0146,1","+0144,1","10174,1",,,"4,1,03,1",,"09,1,+99999,9,99,9","09,99,1,09,1,99,9,99999,9,99,9,99,9",,,"99999,9,09768,1","7,1,015,1,+999,9","45,1",SYN060AAXX  06211 57328 41/00 90402 10146 20144 40174 57015 74540;,Q01+999990APOSP 
10-07T00:00:00,4,31.2,107.5,344.0,"DA XIAN, CH",FM-12,99999,V020,"160,1,N,0010,1","00015,1,9,N","000000,1,N,1","+0140,1","+0138,1","10184,1","06,0000,9,1",,"4,1,06,1",,"09,1,+99999,9,99,9","09,99,1,09,1,99,9,99999,9,99,9,99,9",,,"99999,9,09780,1","2,1,008,1,+004,1","45,1",SYN076AAXX  07001 57328 31/00 91601 10140 20138 39780 40184 52008 74540 333 05451;,Q01  00002PRCP06
10-07T03:00:00,4,31.2,107.5,344.0,"DA XIAN, CH",FM-12,99999,V020,"020,1,N,0020,1","01200,1,9,N","004000,1,N,1","+0164,1","+0150,1","10180,1",,,"4,1,03,1","4,1,03,1",,"06,99,1,06,1,01,1,01250,1,00,1,00,1",,,"99999,9,09776,1","7,1,004,1,+999,9","28,1",SYN066AAXX  07031 57328 41640 60202 10164 20150 40180 57004 72844 86100;,Q01+999990APOSP 
10-07T06:00:00,4,31.2,107.5,344.0,"DA XIAN, CH",FM-12,99999,V020,"999,9,C,0000,1","22000,1,9,N","015000,1,N,1","+0225,1","+0141,1","10135,1","06,0000,9,1",,"4,1,06,1",,,"02,99,1,02,1,01,1,01250,1,00,1,00,1",,"999,N,+0138,1","99999,9,09736,1","7,1,040,1,+999,9","00,1",SYN082AAXX  07061 57328 31665 20000 10225 20141 39736 40135 57040 70040 82100 333 20138;,Q01  00002PRCP06
10-07T09:00:00,4,31.2,107.5,344.0,"DA XIAN, CH",FM-12,99999,V020,"999,9,C,0000,1","22000,1,9,N","020000,1,N,1","+0239,1","+0143,1","10115,1",,,,,,"01,99,1,01,1,01,1,01250,1,00,1,00,1",,,"99999,9,09723,1","7,1,019,1,+999,9",,SYN060AAXX  07091 57328 42670 10000 10239 20143 40115 57019 81100;,Q01+999990APOSP 
10-07T12:00:00,4,31.2,107.5,344.0,"DA XIAN, CH",FM-12,99999,V020,"020,1,N,0010,1","22000,1,9,N","018000,1,N,1","+0185,1","+0155,1","10120,1","06,0000,9,1",,,,"00,1,+99999,9,99,9","00,99,1,00,1,00,1,99999,9,00,1,00,1",,,"99999,9,09718,1","2,1,001,1,+999,9",,SYN060AAXX  07121 57328 32968 00201 10185 20155 39718 40120 52001;,Q01  00002PRCP06
10-07T15:00:00,4,31.2,107.5,344.0,"DA XIAN, CH",FM-12,99999,V020,"040,1,N,0020,1","22000,1,9,N","012000,1,N,1","+0164,1","+0147,1","10143,1",,,,,"00,1,+99999,9,99,9","00,99,1,00,1,00,1,99999,9,00,1,00,1",,,"99999,9,09740,1","2,1,022,1,+999,9",,SYN054AAXX  07151 57328 42962 00402 10164 20147 40143 52022;,Q01+999990APOSP 
10-07T18:00:00,4,31.2,107.5,344.0,"DA XIAN, CH",FM-12,99999,V020,"040,1,N,0020,1","22000,1,9,N","007000,1,N,1","+0151,1","+0142,1","10133,1","06,0000,9,1",,,,"00,1,+99999,9,99,9","00,99,1,00,1,00,1,99999,9,00,1,00,1",,"999,M,+0240,1","99999,9,09734,1","7,1,006,1,+999,9","10,1",SYN076AAXX  07181 57328 31957 00402 10151 20142 39734 40133 57006 71000 333 10240;,Q01  00002PRCP06
10-07T21:00:00,4,31.2,107.5,344.0,"DA XIAN, CH",FM-12,99999,V020,"090,1,N,0010,1","99999,9,9,N","007000,1,N,1","+0145,1","+0138,1","10119,1",,,,,,"07,99,1,07,1,00,1,99999,9,04,1,99,9",,,"99999,9,09715,1","7,1,013,1,+999,9","10,1",SYN066AAXX  07211 57328 41957 70901 10145 20138 40119 57013 71000 8704/;,Q01+999990APOSP 
10-08T00:00:00,4,31.2,107.5,344.0,"DA XIAN, CH",FM-12,99999,V020,"040,1,N,0030,1","99999,9,9,N","012000,1,N,1","+0154,1","+0140,1","10132,1","06,0000,9,1",,,,,"08,99,1,08,1,00,1,99999,9,07,1,99,9",,,"99999,9,09730,1","2,1,009,1,+005,1",,SYN076AAXX  08001 57328 32962 80403 10154 20140 39730 40132 52009 8807/ 333 05501;,Q01  00002PRCP06
10-08T03:00:00,4,31.2,107.5,344.0,"DA XIAN, CH",FM-12,99999,V020,"040,1,N,0010,1","99999,9,9,N","012000,1,N,1","+0193,1","+0150,1","10132,1",,,,,,"08,99,1,08,1,00,1,99999,9,07,1,99,9",,,"99999,9,09734,1","2,1,002,1,+999,9",,SYN060AAXX  08031 57328 42962 80401 10193 20150 40132 52002 8807/;,Q01+999990APOSP 
10-08T06:00:00,4,31.2,107.5,344.0,"DA XIAN, CH",FM-12,99999,V020,"999,9,C,0000,1","99999,9,9,N","012000,1,N,1","+0229,1","+0158,1","10107,1","06,0000,9,1",,,,,"08,99,1,08,1,00,1,99999,9,07,1,99,9",,"999,N,+0142,1","99999,9,09709,1","7,1,023,1,+999,9",,SYN076AAXX  08061 57328 32962 80000 10229 20158 39709 40107 57023 8807/ 333 20142;,Q01  00002PRCP06
10-08T09:00:00,4,31.2,107.5,344.0,"DA XIAN, CH",FM-12,99999,V020,"999,9,C,0000,1","99999,9,9,N","012000,1,N,1","+0224,1","+0157,1","10086,1",,,,,,"08,99,1,08,1,00,1,99999,9,07,1,99,9",,,"99999,9,09693,1","7,1,021,1,+999,9",,SYN060AAXX  08091 57328 42962 80000 10224 20157 40086 57021 8807/;,Q01+999990APOSP 
10-08T12:00:00,4,31.2,107.5,344.0,"DA XIAN, CH",FM-12,99999,V020,"999,9,C,0000,1","99999,9,9,N","008000,1,N,1","+0206,1","+0172,1","10087,1","06,0000,9,1",,,,,"08,99,1,08,1,00,1,99999,9,07,1,99,9",,,"99999,9,09689,1","2,1,001,1,+999,9","10,1",SYN072AAXX  08121 57328 31958 80000 10206 20172 39689 40087 52001 71000 8807/;,Q01  00002PRCP06
10-08T15:00:00,4,31.2,107.5,344.0,"DA XIAN, CH",FM-12,99999,V020,"040,1,N,0010,1","99999,9,9,N","008000,1,N,1","+0194,1","+0176,1","10104,1",,,,,,"08,99,1,08,1,00,1,99999,9,07,1,99,9",,,"99999,9,09707,1","2,1,018,1,+999,9","10,1",SYN066AAXX  08151 57328 41958 80401 10194 20176 40104 52018 71000 8807/;,Q01+999990APOSP 
10-08T18:00:00,4,31.2,107.5,344.0,"DA XIAN, CH",FM-12,99999,V020,"040,1,N,0020,1","99999,9,9,N","008000,1,N,1","+0188,1","+0177,1","10102,1","06,0000,9,1",,,,,"08,99,1,08,1,00,1,99999,9,07,1,99,9",,"999,M,+0231,1","99999,9,09707,1","4,1,000,1,+999,9","10,1",SYN082AAXX  08181 57328 31958 80402 10188 20177 39707 40102 54000 71000 8807/ 333 10231;,Q01  00002PRCP06
10-08T21:00:00,4,31.2,107.5,344.0,"DA XIAN, CH",FM-12,99999,V020,"040,1,N,0020,1","99999,9,9,N","004000,1,N,1","+0188,1","+0174,1","10097,1",,,,,,"08,99,1,08,1,00,1,99999,9,07,1,99,9",,,"99999,9,09699,1","7,1,005,1,+999,9","10,1",SYN066AAXX  08211 57328 41940 80402 10188 20174 40097 57005 71000 8807/;,Q01+999990APOSP 
10-09T00:00:00,4,31.2,107.5,344.0,"DA XIAN, CH",FM-12,99999,V020,"040,1,N,0010,1","99999,9,9,N","004000,1,N,1","+0189,1","+0170,1","10110,1","06,0000,9,1",,,,,"07,99,1,07,1,00,1,99999,9,04,1,99,9",,,"99999,9,09713,1","2,1,011,1,+002,1","10,1",SYN082AAXX  09001 57328 31940 70401 10189 20170 39713 40110 52011 71000 8704/ 333 05204;,Q01  00002PRCP06
10-09T03:00:00,4,31.2,107.5,344.0,"DA XIAN, CH",FM-12,99999,V020,"999,9,C,0000,1","99999,9,9,N","004000,1,N,1","+0216,1","+0180,1","10117,1",,,,,,"08,99,1,08,1,00,1,99999,9,07,1,99,9",,,"99999,9,09722,1","2,1,008,1,+999,9","10,1",SYN066AAXX  09031 57328 41940 80000 10216 20180 40117 52008 71000 8807/;,Q01+999990APOSP 
10-09T06:00:00,4,31.2,107.5,344.0,"DA XIAN, CH",FM-12,99999,V020,"180,1,N,0010,1","99999,9,9,N","008000,1,N,1","+0231,1","+0171,1","10099,1","06,0000,9,1",,,,,"08,99,1,08,1,00,1,99999,9,07,1,99,9",,"999,N,+0185,1","99999,9,09704,1","7,1,017,1,+999,9","10,1",SYN082AAXX  09061 57328 31958 81801 10231 20171 39704 40099 57017 71000 8807/ 333 20185;,Q01  00002PRCP06
10-09T09:00:00,4,31.2,107.5,344.0,"DA XIAN, CH",FM-12,99999,V020,"090,1,N,0010,1","99999,9,9,N","011000,1,N,1","+0219,1","+0173,1","10098,1",,,,,,"08,99,1,08,1,00,1,99999,9,07,1,99,9",,,"99999,9,09704,1","7,1,002,1,+999,9",,SYN060AAXX  09091 57328 42961 80901 10219 20173 40098 57002 8807/;,Q01+999990APOSP 
10-09T12:00:00,4,31.2,107.5,344.0,"DA XIAN, CH",FM-12,99999,V020,"999,9,C,0000,1","99999,9,9,N","008000,1,N,1","+0206,1","+0184,1","10103,1","06,0000,9,1",,,,,"08,99,1,08,1,00,1,99999,9,07,1,99,9",,,"99999,9,09706,1","2,1,004,1,+999,9","10,1",SYN072AAXX  09121 57328 31958 80000 10206 20184 39706 40103 52004 71000 8807/;,Q01  00002PRCP06
10-09T15:00:00,4,31.2,107.5,344.0,"DA XIAN, CH",FM-12,99999,V020,"999,9,C,0000,1","99999,9,9,N","006000,1,N,1","+0199,1","+0185,1","10108,1",,,,,,"08,99,1,08,1,00,1,99999,9,07,1,99,9",,,"99999,9,09711,1","2,1,006,1,+999,9","10,1",SYN066AAXX  09151 57328 41956 80000 10199 20185 40108 52006 71000 8807/;,Q01+999990APOSP 
10-09T18:00:00,4,31.2,107.5,344.0,"DA XIAN, CH",FM-12,99999,V020,"999,9,C,0000,1","99999,9,9,N","004000,1,N,1","+0198,1","+0184,1","10091,1","06,9999,9,9",,,,,"08,99,1,08,1,00,1,99999,9,02,1,99,9",,"999,M,+0237,1","99999,9,09697,1","7,1,015,1,+999,9","60,1",SYN088AAXX  09181 57328 11940 80000 10198 20184 39697 40091 57015 69901 76000 8802/ 333 10237;,
10-09T21:00:00,4,31.2,107.5,344.0,"DA XIAN, CH",FM-12,99999,V020,"999,9,C,0000,1","02100,1,9,N","001500,1,N,1","+0190,1","+0185,1","10075,1","24,0003,9,1",,"6,1,03,1",,,"08,99,1,08,1,05,1,02250,1,99,9,99,9",,,"99999,9,09678,1","7,1,017,1,+999,9","10,1",SYN076AAXX  09211 57328 41815 80000 10190 20185 40075 57017 71060 885// 333 70003;,Q01+999990APOSP 
10-10T00:00:00,4,31.2,107.5,344.0,"DA XIAN, CH",FM-12,99999,V020,"999,9,C,0000,1","02100,1,9,N","001500,1,N,1","+0191,1","+0185,1","10073,1","06,0008,9,1","24,0008,9,1","6,1,06,1",,,"08,99,1,08,1,05,1,02250,1,99,9,99,9",,,"99999,9,09678,1","7,1,002,1,-040,1","60,1",SYN094AAXX  10001 57328 11815 80000 10191 20185 39678 40073 57002 69981 76060 885// 333 05400 70008;,
10-10T03:00:00,4,31.2,107.5,344.0,"DA XIAN, CH",FM-12,99999,V020,"220,1,N,0020,1","02100,1,9,N","001200,1,N,1","+0193,1","+0190,1","10069,1",,,"6,1,03,1","6,1,03,1",,"08,99,1,08,1,05,1,02250,1,99,9,99,9",,,"99999,9,09673,1","7,1,005,1,+999,9","60,1",SYN066AAXX  10031 57328 41812 82202 10193 20190 40069 57005 76066 885//;,Q01+999990APOSP 
10-10T06:00:00,4,31.2,107.5,344.0,"DA XIAN, CH",FM-12,99999,V020,"320,1,N,0010,1","02100,1,9,N","001200,1,N,1","+0198,1","+0192,1","10044,1","06,0079,9,1",,"6,1,06,1","6,1,06,1",,"08,99,1,08,1,05,1,02250,1,99,9,99,9",,"999,N,+0190,1","99999,9,09650,1","7,1,023,1,+999,9","60,1",SYN088AAXX  10061 57328 11812 83201 10198 20192 39650 40044 57023 60081 76066 885// 333 20190;,
10-10T09:00:00,4,31.2,107.5,344.0,"DA XIAN, CH",FM-12,99999,V020,"020,1,N,0010,1","02100,1,9,N","001200,1,N,1","+0196,1","+0193,1","10035,1",,,"6,1,03,1","4,1,03,1",,"08,99,1,08,1,05,1,02250,1,99,9,99,9",,,"99999,9,09641,1","7,1,010,1,+999,9","60,1",SYN066AAXX  10091 57328 41812 80201 10196 20193 40035 57010 76064 885//;,Q01+999990APOSP 
10-10T12:00:00,4,31.2,107.5,344.0,"DA XIAN, CH",FM-12,99999,V020,"020,1,N,0010,1","02100,1,9,N","001200,1,N,1","+0195,1","+0192,1","10038,1","06,0020,9,1",,"6,1,06,1","4,1,06,1",,"08,99,1,08,1,05,1,02250,1,99,9,99,9",,,"99999,9,09643,1","2,1,003,1,+999,9","60,1",SYN078AAXX  10121 57328 11812 80201 10195 20192 39643 40038 52003 60021 76064 885//;,
10-10T15:00:00,4,31.2,107.5,344.0,"DA XIAN, CH",FM-12,99999,V020,"999,9,C,0000,1","02100,1,9,N","002000,1,N,1","+0194,1","+0192,1","10049,1",,,"6,1,03,1","6,1,03,1",,"08,99,1,08,1,05,1,02250,1,99,9,99,9",,,"99999,9,09654,1","2,1,011,1,+999,9","60,1",SYN066AAXX  10151 57328 41820 80000 10194 20192 40049 52011 76066 885//;,Q01+999990APOSP 
10-10T18:00:00,4,31.2,107.5,344.0,"DA XIAN, CH",FM-12,99999,V020,"999,9,C,0000,1","02100,1,9,N","003000,1,N,1","+0193,1","+0190,1","10043,1","06,0051,9,1",,"6,1,06,1","6,1,06,1",,"08,99,1,08,1,05,1,02250,1,99,9,99,9",,"999,M,+0198,1","99999,9,09648,1","7,1,006,1,+999,9","60,1",SYN088AAXX  10181 57328 11830 80000 10193 20190 39648 40043 57006 60051 76066 885// 333 10198;,
10-10T21:00:00,4,31.2,107.5,344.0,"DA XIAN, CH",FM-12,99999,V020,"999,9,C,0000,1","02100,1,9,N","005000,1,N,1","+0193,1","+0190,1","10039,1","24,0163,9,1",,"6,1,03,1","6,1,03,1",,"08,99,1,08,1,05,1,02250,1,99,9,99,9",,,"99999,9,09644,1","7,1,004,1,+999,9","21,1",SYN076AAXX  10211 57328 41850 80000 10193 20190 40039 57004 72166 885// 333 70163;,Q01+999990APOSP 
10-11T00:00:00,4,31.2,107.5,344.0,"DA XIAN, CH",FM-12,99999,V020,"090,1,N,0010,1","02100,1,9,N","002000,1,N,1","+0190,1","+0188,1","10057,1","06,0020,9,1","24,0165,9,1","6,1,06,1",,,"08,99,1,08,1,05,1,02250,1,99,9,99,9",,,"99999,9,09661,1","2,1,017,1,-020,1","60,1",SYN094AAXX  11001 57328 11820 80901 10190 20188 39661 40057 52017 60021 76060 885// 333 05200 70166;,
10-11T03:00:00,4,31.2,107.5,344.0,"DA XIAN, CH",FM-12,99999,V020,"020,1,N,0010,1","02100,1,9,N","005000,1,N,1","+0192,1","+0187,1","10074,1",,,"6,1,03,1","6,1,03,1",,"08,99,1,08,1,05,1,02250,1,99,9,99,9",,,"99999,9,09678,1","2,1,017,1,+999,9","60,1",SYN066AAXX  11031 57328 41850 80201 10192 20187 40074 52017 76066 885//;,Q01+999990APOSP 
10-11T06:00:00,4,31.2,107.5,344.0,"DA XIAN, CH",FM-12,99999,V020,"040,1,N,0020,1","02100,1,9,N","008000,1,N,1","+0197,1","+0184,1","10062,1","06,0005,9,1",,"6,1,06,1",,,"08,99,1,08,1,05,1,02250,1,99,9,99,9",,"999,N,+0187,1","99999,9,09667,1","7,1,011,1,+999,9","10,1",SYN088AAXX  11061 57328 11858 80402 10197 20184 39667 40062 57011 69951 71060 885// 333 20187;,
10-11T09:00:00,4,31.2,107.5,344.0,"DA XIAN, CH",FM-12,99999,V020,"020,1,N,0010,1","02100,1,9,N","012000,1,N,1","+0195,1","+0179,1","10063,1",,,,,,"08,99,1,08,1,05,1,02250,1,99,9,99,9",,,"99999,9,09668,1","4,1,000,1,+999,9",,SYN060AAXX  11091 57328 42862 80201 10195 20179 40063 54000 885//;,Q01+999990APOSP 
10-11T12:00:00,4,31.2,107.5,344.0,"DA XIAN, CH",FM-12,99999,V020,"040,1,N,0020,1","02100,1,9,N","015000,1,N,1","+0192,1","+0173,1","10084,1","06,0000,9,1",,,,,"08,99,1,08,1,05,1,02250,1,99,9,99,9",,,"99999,9,09687,1","2,1,020,1,+999,9",,SYN066AAXX  11121 57328 32865 80402 10192 20173 39687 40084 52020 885//;,Q01  00002PRCP06
10-11T15:00:00,4,31.2,107.5,344.0,"DA XIAN, CH",FM-12,99999,V020,"040,1,N,0020,1","02100,1,9,N","012000,1,N,1","+0183,1","+0167,1","10100,1",,,,,,"08,99,1,08,1,05,1,02250,1,99,9,99,9",,,"99999,9,09702,1","2,1,015,1,+999,9",,SYN060AAXX  11151 57328 42862 80402 10183 20167 40100 52015 885//;,Q01+999990APOSP 
10-11T18:00:00,4,31.2,107.5,344.0,"DA XIAN, CH",FM-12,99999,V020,"040,1,N,0020,1","02100,1,9,N","008000,1,N,1","+0172,1","+0164,1","10097,1","06,9999,9,9",,"6,1,06,1",,,"08,99,1,08,1,05,1,02250,1,99,9,99,9",,"999,M,+0197,1","99999,9,09699,1","7,1,003,1,+999,9","60,1",SYN088AAXX  11181 57328 11858 80402 10172 20164 39699 40097 57003 69901 76060 885// 333 10197;,
10-11T21:00:00,4,31.2,107.5,344.0,"DA XIAN, CH",FM-12,99999,V020,"020,1,N,0020,1","02100,1,9,N","006000,1,N,1","+0168,1","+0155,1","10107,1","24,0015,9,1",,"6,1,03,1","6,1,03,1",,"08,99,1,08,1,05,1,02250,1,99,9,99,9",,,"99999,9,09706,1","2,1,009,1,+999,9","60,1",SYN076AAXX  11211 57328 41856 80202 10168 20155 40107 52009 76066 885// 333 70014;,Q01+999990APOSP 
10-12T00:00:00,4,31.2,107.5,344.0,"DA XIAN, CH",FM-12,99999,V020,"999,9,C,0000,1","02100,1,9,N","020000,1,N,1","+0170,1","+0146,1","10123,1","06,0003,9,1","24,0008,9,1","6,1,06,1","6,1,06,1",,"08,99,1,08,1,05,1,02250,1,99,9,99,9",,,"99999,9,09723,1","2,1,015,1,+060,1","60,1",SYN094AAXX  12001 57328 11870 80000 10170 20146 39723 40123 52015 69931 76066 885// 333 00652 70008;,
10-12T03:00:00,4,31.2,107.5,344.0,"DA XIAN, CH",FM-12,99999,V020,"160,1,N,0010,1","99999,9,9,N","030000,1,N,1","+0175,1","+0144,1","10139,1",,,"6,1,03,1",,,"08,99,1,08,1,00,1,99999,9,02,1,99,9",,,"99999,9,09738,1","2,1,015,1,+999,9","60,1",SYN066AAXX  12031 57328 41980 81601 10175 20144 40139 52015 76060 8802/;,Q01+999990APOSP 
10-12T06:00:00,4,31.2,107.5,344.0,"DA XIAN, CH",FM-12,99999,V020,"020,1,N,0060,1","02100,1,9,N","020000,1,N,1","+0167,1","+0141,1","10136,1","06,9999,9,9",,"6,1,06,1",,,"08,99,1,08,1,05,1,02250,1,99,9,99,9",,"999,N,+0163,1","99999,9,09734,1","7,1,004,1,+999,9","60,1",SYN088AAXX  12061 57328 11870 80206 10167 20141 39734 40136 57004 69921 76060 885// 333 20163;,
10-12T09:00:00,4,31.2,107.5,344.0,"DA XIAN, CH",FM-12,99999,V020,"999,9,C,0000,1","02100,1,9,N","007000,1,N,1","+0157,1","+0150,1","10141,1",,,"6,1,03,1","6,1,03,1",,"08,99,1,08,1,05,1,02250,1,99,9,99,9",,,"99999,9,09737,1","2,1,004,1,+999,9","60,1",SYN066AAXX  12091 57328 41857 80000 10157 20150 40141 52004 76066 885//;,Q01+999990APOSP 
10-12T12:00:00,4,31.2,107.5,344.0,"DA XIAN, CH",FM-12,99999,V020,"070,1,N,0010,1","02100,1,9,N","006000,1,N,1","+0153,1","+0146,1","10162,1","06,0008,9,1",,"6,1,06,1","6,1,06,1",,"08,99,1,08,1,05,1,02250,1,99,9,99,9",,,"99999,9,09758,1","2,1,020,1,+999,9","60,1",SYN078AAXX  12121 57328 11856 80701 10153 20146 39758 40162 52020 69981 76066 885//;,
10-12T15:00:00,4,31.2,107.5,344.0,"DA XIAN, CH",FM-12,99999,V020,"040,1,N,0010,1","00420,1,9,N","005000,1,N,1","+0151,1","+0146,1","10191,1",,,"6,1,03,1","6,1,03,1",,"08,99,1,08,1,05,1,00450,1,99,9,99,9",,,"99999,9,09785,1","2,1,028,1,+999,9","60,1",SYN066AAXX  12151 57328 41450 80401 10151 20146 40191 52028 76066 885//;,Q01+999990APOSP 
10-12T18:00:00,4,31.2,107.5,344.0,"DA XIAN, CH",FM-12,99999,V020,"070,1,N,0010,1","02100,1,9,N","005000,1,N,1","+0146,1","+0141,1","10196,1","06,0020,9,1",,"6,1,06,1","6,1,06,1",,"08,99,1,08,1,05,1,02250,1,99,9,99,9",,"999,M,+0175,1","99999,9,09790,1","2,1,004,1,+999,9","60,1",SYN088AAXX  12181 57328 11850 80701 10146 20141 39790 40196 52004 60021 76066 885// 333 10175;,
10-12T21:00:00,4,31.2,107.5,344.0,"DA XIAN, CH",FM-12,99999,V020,"040,1,N,0040,1","02100,1,9,N","003000,1,N,1","+0143,1","+0139,1","10207,1","24,0038,9,1",,"6,1,03,1","6,1,03,1",,"08,99,1,08,1,05,1,02250,1,99,9,99,9",,,"99999,9,09799,1","2,1,010,1,+999,9","60,1",SYN076AAXX  12211 57328 41830 80404 10143 20139 40207 52010 76066 885// 333 70038;,Q01+999990APOSP 
10-13T00:00:00,4,31.2,107.5,344.0,"DA XIAN, CH",FM-12,99999,V020,"040,1,N,0030,1","02100,1,9,N","003000,1,N,1","+0141,1","+0134,1","10228,1","06,0030,9,1","24,0053,9,1","6,1,06,1","6,1,06,1",,"08,99,1,08,1,05,1,02250,1,99,9,99,9",,,"99999,9,09819,1","2,1,019,1,+100,1","60,1",SYN094AAXX  13001 57328 11830 80403 10141 20134 39819 40228 52019 60031 76066 885// 333 01053 70053;,
10-13T03:00:00,4,31.2,107.5,344.0,"DA XIAN, CH",FM-12,99999,V020,"040,1,N,0020,1","02100,1,9,N","011000,1,N,1","+0144,1","+0133,1","10257,1",,,"6,1,03,1","6,1,03,1",,"08,99,1,08,1,05,1,02250,1,99,9,99,9",,,"99999,9,09847,1","2,1,028,1,+999,9","60,1",SYN066AAXX  13031 57328 41861 80402 10144 20133 40257 52028 76066 885//;,
10-13T06:00:00,4,31.2,107.5,344.0,"DA XIAN, CH",FM-12,99999,V020,"040,1,N,0030,1","02100,1,9,N","020000,1,N,1","+0151,1","+0133,1","10241,1","06,0010,9,1",,"6,1,06,1","6,1,06,1",,"08,99,1,08,1,05,1,02250,1,99,9,99,9",,"999,N,+0138,1","99999,9,09832,1","7,1,015,1,+999,9","60,1",SYN088AAXX  13061 57328 11870 80403 10151 20133 39832 40241 57015 60011 76066 885// 333 20138;,
10-13T09:00:00,4,31.2,107.5,344.0,"DA XIAN, CH",FM-12,99999,V020,"040,1,N,0020,1","02100,1,9,N","030000,1,N,1","+0156,1","+0133,1","10239,1",,,"6,1,03,1",,,"08,99,1,08,1,05,1,02250,1,99,9,99,9",,,"99999,9,09831,1","7,1,002,1,+999,9","21,1",SYN066AAXX  13091 57328 41880 80402 10156 20133 40239 57002 72160 885//;,Q01+999990APOSP 
10-13T12:00:00,4,31.2,107.5,344.0,"DA XIAN, CH",FM-12,99999,V020,"070,1,N,0020,1","02100,1,9,N","025000,1,N,1","+0154,1","+0135,1","10252,1","06,9999,9,9",,"6,1,06,1",,,"08,99,1,08,1,05,1,02250,1,99,9,99,9",,,"99999,9,09843,1","2,1,013,1,+999,9","21,1",SYN078AAXX  13121 57328 11875 80702 10154 20135 39843 40252 52013 69901 72160 885//;,
10-13T15:00:00,4,31.2,107.5,344.0,"DA XIAN, CH",FM-12,99999,V020,"999,9,C,0000,1","02100,1,9,N","020000,1,N,1","+0153,1","+0141,1","10266,1",,,,,,"08,99,1,08,1,05,1,02250,1,99,9,99,9",,,"99999,9,09857,1","2,1,013,1,+999,9",,SYN060AAXX  13151 57328 42870 80000 10153 20141 40266 52013 885//;,Q01+999990APOSP 
10-13T18:00:00,4,31.2,107.5,344.0,"DA XIAN, CH",FM-12,99999,V020,"999,9,C,0000,1","02100,1,9,N","020000,1,N,1","+0151,1","+0142,1","10260,1","06,0000,2,1",,,,,"08,99,1,08,1,05,1,02250,1,99,9,99,9",,"999,M,+0156,1","99999,9,09851,1","7,1,005,1,+999,9",,SYN076AAXX  13181 57328 32870 80000 10151 20142 39851 40260 57005 885// 333 10156;,
10-13T21:00:00,4,31.2,107.5,344.0,"DA XIAN, CH",FM-12,99999,V020,"999,9,C,0000,1","02100,1,9,N","005000,1,N,1","+0149,1","+0142,1","10266,1","24,0028,9,1",,,,,"08,99,1,08,1,05,1,02250,1,99,9,99,9",,,"99999,9,09856,1","2,1,006,1,+999,9","10,1",SYN076AAXX  13211 57328 41850 80000 10149 20142 40266 52006 71000 885// 333 70027;,
10-14T00:00:00,4,31.2,107.5,344.0,"DA XIAN, CH",FM-12,99999,V020,"999,9,C,0000,1","99999,9,9,N","002000,1,N,1","+0150,1","+0138,1","10286,1","06,0000,9,1","24,0010,9,1",,,,"08,99,1,08,1,00,1,99999,9,07,1,99,9",,,"99999,9,09876,1","2,1,019,1,+060,1","10,1",SYN088AAXX  14001 57328 31920 80000 10150 20138 39876 40286 52019 71000 8807/ 333 00601 70010;,Q01  00002PRCP06
10-14T03:00:00,4,31.2,107.5,344.0,"DA XIAN, CH",FM-12,99999,V020,"040,1,N,0010,1","99999,9,9,N","008000,1,N,1","+0161,1","+0137,1","10289,1",,,,,,"08,99,1,08,1,00,1,99999,9,07,1,99,9",,,"99999,9,09880,1","2,1,003,1,+999,9","10,1",SYN066AAXX  14031 57328 41958 80401 10161 20137 40289 52003 71000 8807/;,Q01+999990APOSP 
10-14T06:00:00,4,31.2,107.5,344.0,"DA XIAN, CH",FM-12,99999,V020,"070,1,N,0010,1","99999,9,9,N","008000,1,N,1","+0171,1","+0136,1","10269,1","06,0000,9,1",,,,,"08,99,1,08,1,00,1,99999,9,07,1,99,9",,"999,N,+0149,1","99999,9,09861,1","7,1,018,1,+999,9","10,1",SYN082AAXX  14061 57328 31958 80701 10171 20136 39861 40269 57018 71000 8807/ 333 20149;,Q01  00002PRCP06
10-14T09:00:00,4,31.2,107.5,344.0,"DA XIAN, CH",FM-12,99999,V020,"040,1,N,0010,1","99999,9,9,N","020000,1,N,1","+0171,1","+0132,1","10266,1",,,,,,"08,99,1,08,1,00,1,99999,9,07,1,99,9",,,"99999,9,09859,1","7,1,003,1,+999,9",,SYN060AAXX  14091 57328 42970 80401 10171 20132 40266 57003 8807/;,Q01+999990APOSP 
10-14T12:00:00,4,31.2,107.5,344.0,"DA XIAN, CH",FM-12,99999,V020,"999,9,C,0000,1","99999,9,9,N","012000,1,N,1","+0161,1","+0137,1","10274,1","06,0000,9,1",,,,,"08,99,1,08,1,00,1,99999,9,07,1,99,9",,,"99999,9,09865,1","2,1,007,1,+999,9",,SYN066AAXX  14121 57328 32962 80000 10161 20137 39865 40274 52007 8807/;,Q01  00002PRCP06
10-14T15:00:00,4,31.2,107.5,344.0,"DA XIAN, CH",FM-12,99999,V020,"999,9,C,0000,1","99999,9,9,N","006000,1,N,1","+0155,1","+0141,1","10281,1",,,,,,"08,99,1,08,1,00,1,99999,9,07,1,99,9",,,"99999,9,09872,1","2,1,007,1,+999,9","10,1",SYN066AAXX  14151 57328 41956 80000 10155 20141 40281 52007 71000 8807/;,Q01+999990APOSP 
10-14T21:00:00,4,31.2,107.5,344.0,"DA XIAN, CH",FM-12,99999,V020,"040,1,N,0010,1","99999,9,9,N","005000,1,N,1","+0150,1","+0141,1","10272,1",,,,,,"08,99,1,08,1,00,1,99999,9,07,1,99,9",,,"99999,9,09862,1","7,1,005,1,+999,9","10,1",SYN066AAXX  14211 57328 41950 80401 10150 20141 40272 57005 71000 8807/;,Q01+999990APOSP 
10-15T00:00:00,4,31.2,107.5,344.0,"DA XIAN, CH",FM-12,99999,V020,"999,9,C,0000,1","99999,9,9,N","003000,1,N,1","+0151,1","+0144,1","10276,1","06,0000,9,1",,,,,"08,99,1,08,1,00,1,99999,9,07,1,99,9",,,"99999,9,09867,1","2,1,003,1,+001,1","10,1",SYN082AAXX  15001 57328 31930 80000 10151 20144 39867 40276 52003 71000 8807/ 333 05100;,Q01  00002PRCP06
10-15T03:00:00,4,31.2,107.5,344.0,"DA XIAN, CH",FM-12,99999,V020,"999,9,C,0000,1","99999,9,9,N","004000,1,N,1","+0159,1","+0143,1","10279,1",,,,,,"08,99,1,08,1,00,1,99999,9,07,1,99,9",,,"99999,9,09870,1","2,1,003,1,+999,9","10,1",SYN066AAXX  15031 57328 41940 80000 10159 20143 40279 52003 71000 8807/;,Q01+999990APOSP 
10-15T06:00:00,4,31.2,107.5,344.0,"DA XIAN, CH",FM-12,99999,V020,"250,1,N,0020,1","02100,1,9,N","007000,1,N,1","+0164,1","+0142,1","10258,1","06,0000,9,1",,,,,"08,99,1,08,1,05,1,02250,1,99,9,99,9",,"999,N,+0150,1","99999,9,09850,1","7,1,020,1,+999,9","10,1",SYN082AAXX  15061 57328 31857 82502 10164 20142 39850 40258 57020 71000 885// 333 20150;,Q01  00002PRCP06
10-15T09:00:00,4,31.2,107.5,344.0,"DA XIAN, CH",FM-12,99999,V020,"160,1,N,0010,1","02100,1,9,N","007000,1,N,1","+0162,1","+0141,1","10249,1",,,"6,1,03,1",,,"08,99,1,08,1,05,1,02250,1,99,9,99,9",,,"99999,9,09842,1","7,1,009,1,+999,9","10,1",SYN066AAXX  15091 57328 41857 81601 10162 20141 40249 57009 71060 885//;,Q01+999990APOSP 
10-15T12:00:00,4,31.2,107.5,344.0,"DA XIAN, CH",FM-12,99999,V020,"999,9,C,0000,1","99999,9,9,N","006000,1,N,1","+0157,1","+0141,1","10247,1","06,9999,9,9",,"6,1,06,1",,,"08,99,1,08,1,00,1,99999,9,07,1,99,9",,,"99999,9,09839,1","7,1,002,1,+999,9","10,1",SYN078AAXX  15121 57328 11956 80000 10157 20141 39839 40247 57002 69901 71060 8807/;,
10-15T15:00:00,4,31.2,107.5,344.0,"DA XIAN, CH",FM-12,99999,V020,"999,9,C,0000,1","99999,9,9,N","005000,1,N,1","+0153,1","+0143,1","10265,1",,,,,,"08,99,1,08,1,00,1,99999,9,07,1,99,9",,,"99999,9,09856,1","2,1,017,1,+999,9","10,1",SYN066AAXX  15151 57328 41950 80000 10153 20143 40265 52017 71000 8807/;,Q01+999990APOSP 
10-15T18:00:00,4,31.2,107.5,344.0,"DA XIAN, CH",FM-12,99999,V020,"999,9,C,0000,1","99999,9,9,N","004000,1,N,1","+0150,1","+0143,1","10258,1","06,0000,9,1",,,,,"08,99,1,08,1,00,1,99999,9,07,1,99,9",,"999,M,+0164,1","99999,9,09850,1","7,1,006,1,+999,9","10,1",SYN082AAXX  15181 57328 31940 80000 10150 20143 39850 40258 57006 71000 8807/ 333 10164;,Q01  00002PRCP06
10-16T00:00:00,4,31.2,107.5,344.0,"DA XIAN, CH",FM-12,99999,V020,"110,1,N,0010,1","99999,9,9,N","001500,1,N,1","+0148,1","+0141,1","10263,1","06,0000,9,1","24,0000,9,1","4,1,06,1",,,"07,99,1,07,1,00,1,99999,9,04,1,99,9",,,"99999,9,09854,1","2,1,012,1,-010,1","28,1",SYN088AAXX  16001 57328 31915 71101 10148 20141 39854 40263 52012 72840 8704/ 333 05100 79999;,Q01  00002PRCP06Q02  00002PRCP24
10-16T03:00:00,4,31.2,107.5,344.0,"DA XIAN, CH",FM-12,99999,V020,"999,9,C,0000,1","99999,9,9,N","006000,1,N,1","+0169,1","+0138,1","10262,1",,,,,,"08,99,1,08,1,00,1,99999,9,07,1,99,9",,,"99999,9,09855,1","4,1,000,1,+999,9","10,1",SYN066AAXX  16031 57328 41956 80000 10169 20138 40262 54000 71000 8807/;,Q01+999990APOSP 
10-16T06:00:00,4,31.2,107.5,344.0,"DA XIAN, CH",FM-12,99999,V020,"999,9,C,0000,1","00750,1,9,N","020000,1,N,1","+0197,1","+0129,1","10227,1","06,0000,9,1",,,,,"05,99,1,05,1,01,1,00800,1,00,1,00,1",,"999,N,+0144,1","99999,9,09822,1","7,1,032,1,+999,9",,SYN076AAXX  16061 57328 32570 50000 10197 20129 39822 40227 57032 85100 333 20144;,Q01  00002PRCP06
10-16T09:00:00,4,31.2,107.5,344.0,"DA XIAN, CH",FM-12,99999,V020,"220,1,N,0010,1","99999,9,9,N","015000,1,N,1","+0191,1","+0138,1","10209,1",,,,,,"07,99,1,07,1,00,1,99999,9,04,1,99,9",,,"99999,9,09807,1","7,1,018,1,+999,9",,SYN060AAXX  16091 57328 42965 72201 10191 20138 40209 57018 8704/;,Q01+999990APOSP 
10-16T12:00:00,4,31.2,107.5,344.0,"DA XIAN, CH",FM-12,99999,V020,"999,9,C,0000,1","22000,1,9,N","012000,1,N,1","+0164,1","+0142,1","10216,1","06,0000,9,1",,,,"00,1,+99999,9,99,9","00,99,1,00,1,00,1,99999,9,00,1,00,1",,,"99999,9,09809,1","2,1,005,1,+999,9",,SYN060AAXX  16121 57328 32962 00000 10164 20142 39809 40216 52005;,Q01  00002PRCP06
10-16T15:00:00,4,31.2,107.5,344.0,"DA XIAN, CH",FM-12,99999,V020,"040,1,N,0020,1","22000,1,9,N","008000,1,N,1","+0146,1","+0137,1","10234,1",,,,,"00,1,+99999,9,99,9","00,99,1,00,1,00,1,99999,9,00,1,00,1",,,"99999,9,09825,1","2,1,018,1,+999,9","10,1",SYN060AAXX  16151 57328 41958 00402 10146 20137 40234 52018 71000;,Q01+999990APOSP 
10-16T18:00:00,4,31.2,107.5,344.0,"DA XIAN, CH",FM-12,99999,V020,"999,9,C,0000,1","22000,1,9,N","005000,1,N,1","+0138,1","+0131,1","10219,1","06,0000,9,1",,,,"00,1,+99999,9,99,9","00,99,1,00,1,00,1,99999,9,00,1,00,1",,"999,M,+0212,1","99999,9,09814,1","7,1,013,1,+999,9","10,1",SYN076AAXX  16181 57328 31950 00000 10138 20131 39814 40219 57013 71000 333 10212;,Q01  00002PRCP06
10-16T21:00:00,4,31.2,107.5,344.0,"DA XIAN, CH",FM-12,99999,V020,"040,1,N,0020,1","00015,1,9,N","000000,1,N,1","+0132,1","+0130,1","10211,1",,,"4,1,03,1",,"09,1,+99999,9,99,9","09,99,1,09,1,99,9,99999,9,99,9,99,9",,,"99999,9,09801,1","7,1,009,1,+999,9","45,1",SYN060AAXX  16211 57328 41/00 90402 10132 20130 40211 57009 74540;,Q01+999990APOSP 
10-17T00:00:00,4,31.2,107.5,344.0,"DA XIAN, CH",FM-12,99999,V020,"040,1,N,0010,1","00015,1,9,N","000000,1,N,1","+0132,1","+0130,1","10232,1","06,0000,9,1",,"4,1,06,1",,"09,1,+99999,9,99,9","09,99,1,09,1,99,9,99999,9,99,9,99,9",,,"99999,9,09823,1","2,1,018,1,+003,1","45,1",SYN076AAXX  17001 57328 31/00 90401 10132 20130 39823 40232 52018 74540 333 05352;,Q01  00002PRCP06
10-17T03:00:00,4,31.2,107.5,344.0,"DA XIAN, CH",FM-12,99999,V020,"360,1,N,0010,1","22000,1,9,N","006000,1,N,1","+0175,1","+0142,1","10225,1",,,"4,1,03,1",,"00,1,+99999,9,99,9","00,99,1,00,1,00,1,99999,9,00,1,00,1",,,"99999,9,09821,1","7,1,005,1,+999,9","10,1",SYN060AAXX  17031 57328 41956 03601 10175 20142 40225 57005 71040;,Q01+999990APOSP 
10-17T06:00:00,4,31.2,107.5,344.0,"DA XIAN, CH",FM-12,99999,V020,"270,1,N,0020,1","22000,1,9,N","020000,1,N,1","+0232,1","+0136,1","10198,1","06,0000,9,1",,"4,1,06,1",,,"01,99,1,01,1,01,1,01250,1,00,1,00,1",,"999,N,+0129,1","99999,9,09796,1","7,1,022,1,+999,9","00,1",SYN082AAXX  17061 57328 31670 12702 10232 20136 39796 40198 57022 70040 81100 333 20129;,Q01  00002PRCP06
10-17T09:00:00,4,31.2,107.5,344.0,"DA XIAN, CH",FM-12,99999,V020,"220,1,N,0020,1","22000,1,9,N","015000,1,N,1","+0218,1","+0139,1","10188,1",,,,,"00,1,+99999,9,99,9","00,99,1,00,1,00,1,99999,9,00,1,00,1",,,"99999,9,09791,1","7,1,011,1,+999,9",,SYN054AAXX  17091 57328 42965 02202 10218 20139 40188 57011;,Q01+999990APOSP 
10-17T12:00:00,4,31.2,107.5,344.0,"DA XIAN, CH",FM-12,99999,V020,"999,9,C,0000,1","99999,9,9,N","006000,1,N,1","+0187,1","+0148,1","10203,1","06,0000,9,1",,,,,"07,99,1,07,1,00,1,99999,9,04,1,99,9",,,"99999,9,09797,1","2,1,012,1,+999,9","10,1",SYN072AAXX  17121 57328 31956 70000 10187 20148 39797 40203 52012 71000 8704/;,Q01  00002PRCP06
10-17T15:00:00,4,31.2,107.5,344.0,"DA XIAN, CH",FM-12,99999,V020,"040,1,N,0010,1","22000,1,9,N","006000,1,N,1","+0173,1","+0153,1","10221,1",,,,,"00,1,+99999,9,99,9","00,99,1,00,1,00,1,99999,9,00,1,00,1",,,"99999,9,09816,1","2,1,019,1,+999,9","10,1",SYN060AAXX  17151 57328 41956 00401 10173 20153 40221 52019 71000;,Q01+999990APOSP 
10-17T18:00:00,4,31.2,107.5,344.0,"DA XIAN, CH",FM-12,99999,V020,"020,1,N,0010,1","22000,1,9,N","005000,1,N,1","+0169,1","+0154,1","10208,1","06,0000,9,1",,,,"00,1,+99999,9,99,9","00,99,1,00,1,00,1,99999,9,00,1,00,1",,"999,M,+0241,1","99999,9,09808,1","7,1,008,1,+999,9","10,1",SYN076AAXX  17181 57328 31950 00201 10169 20154 39808 40208 57008 71000 333 10241;,Q01  00002PRCP06
10-17T21:00:00,4,31.2,107.5,344.0,"DA XIAN, CH",FM-12,99999,V020,"040,1,N,0020,1","99999,9,9,N","004000,1,N,1","+0165,1","+0155,1","10212,1",,,,,,"08,99,1,08,1,00,1,99999,9,07,1,99,9",,,"99999,9,09807,1","2,1,002,1,+999,9","10,1",SYN066AAXX  17211 57328 41940 80402 10165 20155 40212 52002 71000 8807/;,Q01+999990APOSP 
10-18T00:00:00,4,31.2,107.5,344.0,"DA XIAN, CH",FM-12,99999,V020,"999,9,C,0000,1","99999,9,9,N","001200,1,N,1","+0167,1","+0155,1","10221,1","06,0000,9,1",,,,,"08,99,1,08,1,00,1,99999,9,07,1,99,9",,,"99999,9,09817,1","2,1,007,1,+001,1","10,1",SYN082AAXX  18001 57328 31912 80000 10167 20155 39817 40221 52007 71000 8807/ 333 05104;,Q01  00002PRCP06
10-18T03:00:00,4,31.2,107.5,344.0,"DA XIAN, CH",FM-12,99999,V020,"020,1,N,0020,1","99999,9,9,N","006000,1,N,1","+0187,1","+0155,1","10229,1",,,,,,"08,99,1,08,1,00,1,99999,9,07,1,99,9",,,"99999,9,09826,1","2,1,008,1,+999,9","10,1",SYN066AAXX  18031 57328 41956 80202 10187 20155 40229 52008 71000 8807/;,
10-18T06:00:00,4,31.2,107.5,344.0,"DA XIAN, CH",FM-12,99999,V020,"999,9,C,0000,1","99999,9,9,N","008000,1,N,1","+0206,1","+0162,1","10201,1","06,0000,9,1",,,,,"08,99,1,08,1,00,1,99999,9,07,1,99,9",,"999,N,+0163,1","99999,9,09799,1","7,1,026,1,+999,9","10,1",SYN082AAXX  18061 57328 31958 80000 10206 20162 39799 40201 57026 71000 8807/ 333 20163;,Q01  00002PRCP06
10-18T09:00:00,4,31.2,107.5,344.0,"DA XIAN, CH",FM-12,99999,V020,"999,9,C,0000,1","99999,9,9,N","008000,1,N,1","+0205,1","+0164,1","10188,1",,,,,,"08,99,1,08,1,00,1,99999,9,07,1,99,9",,,"99999,9,09789,1","7,1,013,1,+999,9","10,1",SYN066AAXX  18091 57328 41958 80000 10205 20164 40188 57013 71000 8807/;,
10-18T12:00:00,4,31.2,107.5,344.0,"DA XIAN, CH",FM-12,99999,V020,"999,9,C,0000,1","99999,9,9,N","006000,1,N,1","+0189,1","+0171,1","10197,1","06,0000,9,1",,,,,"08,99,1,08,1,00,1,99999,9,07,1,99,9",,,"99999,9,09794,1","2,1,008,1,+999,9","10,1",SYN072AAXX  18121 57328 31956 80000 10189 20171 39794 40197 52008 71000 8807/;,Q01  00002PRCP06
10-18T15:00:00,4,31.2,107.5,344.0,"DA XIAN, CH",FM-12,99999,V020,"999,9,C,0000,1","02100,1,9,N","006000,1,N,1","+0181,1","+0166,1","10211,1",,,,,,"08,99,1,08,1,05,1,02250,1,99,9,99,9",,,"99999,9,09808,1","2,1,014,1,+999,9","60,1",SYN066AAXX  18151 57328 41856 80000 10181 20166 40211 52014 76000 885//;,
10-18T18:00:00,4,31.2,107.5,344.0,"DA XIAN, CH",FM-12,99999,V020,"020,1,N,0010,1","02100,1,9,N","005000,1,N,1","+0167,1","+0160,1","10210,1","06,9999,9,9",,"6,1,06,1",,,"08,99,1,08,1,05,1,02250,1,99,9,99,9",,"999,M,+0210,1","99999,9,09808,1","4,1,000,1,+999,9","10,1",SYN088AAXX  18181 57328 11850 80201 10167 20160 39808 40210 54000 69901 71060 885// 333 10210;,
10-18T21:00:00,4,31.2,107.5,344.0,"DA XIAN, CH",FM-12,99999,V020,"020,1,N,0020,1","02100,1,9,N","008000,1,N,1","+0167,1","+0141,1","10198,1","24,0000,2,1",,,,,"08,99,1,08,1,05,1,02250,1,99,9,99,9",,,"99999,9,09793,1","7,1,012,1,+999,9","10,1",SYN076AAXX  18211 57328 41858 80202 10167 20141 40198 57012 71000 885// 333 79999;,
10-19T00:00:00,4,31.2,107.5,344.0,"DA XIAN, CH",FM-12,99999,V020,"040,1,N,0020,1","02100,1,9,N","008000,1,N,1","+0160,1","+0141,1","10207,1","06,9999,9,9","24,0000,2,1",,,,"08,99,1,08,1,05,1,02250,1,99,9,99,9",,,"99999,9,09803,1","2,1,007,1,-010,1","60,1",SYN094AAXX  19001 57328 11858 80402 10160 20141 39803 40207 52007 69911 76000 885// 333 05151 70001;,
10-19T03:00:00,4,31.2,107.5,344.0,"DA XIAN, CH",FM-12,99999,V020,"180,1,N,0010,1","02100,1,9,N","012000,1,N,1","+0157,1","+0101,1","10232,1",,,"6,1,03,1",,,"08,99,1,08,1,05,1,02250,1,99,9,99,9",,,"99999,9,09825,1","2,1,023,1,+999,9","60,1",SYN066AAXX  19031 57328 41862 81801 10157 20101 40232 52023 76060 885//;,Q01+999990APOSP 
10-19T06:00:00,4,31.2,107.5,344.0,"DA XIAN, CH",FM-12,99999,V020,"999,9,C,0000,1","02100,1,9,N","025000,1,N,1","+0155,1","+0096,1","10218,1","06,9999,9,9",,"6,1,06,1",,,"08,99,1,08,1,05,1,02250,1,99,9,99,9",,"999,N,+0154,1","99999,9,09812,1","7,1,014,1,+999,9","00,1",SYN088AAXX  19061 57328 11875 80000 10155 20096 39812 40218 57014 69901 70060 885// 333 20154;,
10-19T09:00:00,4,31.2,107.5,344.0,"DA XIAN, CH",FM-12,99999,V020,"070,1,N,0010,1","02100,1,9,N","025000,1,N,1","+0154,1","+0108,1","10228,1",,,,,,"08,99,1,08,1,05,1,02250,1,99,9,99,9",,,"99999,9,09821,1","2,1,009,1,+999,9",,SYN060AAXX  19091 57328 42875 80701 10154 20108 40228 52009 885//;,Q01+999990APOSP 
10-19T12:00:00,4,31.2,107.5,344.0,"DA XIAN, CH",FM-12,99999,V020,"160,1,N,0010,1","02100,1,9,N","008000,1,N,1","+0151,1","+0110,1","10244,1","06,0000,9,1",,,,,"08,99,1,08,1,05,1,02250,1,99,9,99,9",,,"99999,9,09836,1","2,1,015,1,+999,9","10,1",SYN072AAXX  19121 57328 31858 81601 10151 20110 39836 40244 52015 71000 885//;,Q01  00002PRCP06
10-19T15:00:00,4,31.2,107.5,344.0,"DA XIAN, CH",FM-12,99999,V020,"999,9,C,0000,1","02100,1,9,N","008000,1,N,1","+0139,1","+0121,1","10254,1",,,,,,"08,99,1,08,1,05,1,02250,1,99,9,99,9",,,"99999,9,09843,1","2,1,009,1,+999,9","10,1",SYN066AAXX  19151 57328 41858 80000 10139 20121 40254 52009 71000 885//;,Q01+999990APOSP 
10-19T18:00:00,4,31.2,107.5,344.0,"DA XIAN, CH",FM-12,99999,V020,"999,9,C,0000,1","22000,1,9,N","004000,1,N,1","+0129,1","+0114,1","10254,1","06,0000,9,1",,,,"00,1,+99999,9,99,9","00,99,1,00,1,00,1,99999,9,00,1,00,1",,"999,M,+0168,1","99999,9,09844,1","7,1,001,1,+999,9","10,1",SYN076AAXX  19181 57328 31940 00000 10129 20114 39844 40254 57001 71000 333 10168;,Q01  00002PRCP06
10-19T21:00:00,4,31.2,107.5,344.0,"DA XIAN, CH",FM-12,99999,V020,"040,1,N,0010,1","00015,1,9,N","000000,1,N,1","+0111,1","+0109,1","10244,1","24,0000,2,1",,,,"09,1,+99999,9,99,9","09,99,1,09,1,99,9,99999,9,99,9,99,9",,,"99999,9,09830,1","7,1,011,1,+999,9","47,1",SYN070AAXX  19211 57328 41/00 90401 10111 20109 40244 57011 74700 333 70001;,Q01+999990APOSP 
10-20T00:00:00,4,31.2,107.5,344.0,"DA XIAN, CH",FM-12,99999,V020,"020,1,N,0020,1","00015,1,9,N","000000,1,N,1","+0109,1","+0107,1","10257,1","06,0000,9,1","24,0000,2,1","4,1,06,1",,"09,1,+99999,9,99,9","09,99,1,09,1,99,9,99999,9,99,9,99,9",,,"99999,9,09845,1","2,1,012,1,+040,1","45,1",SYN082AAXX  20001 57328 31/00 90202 10109 20107 39845 40257 52012 74540 333 00455 79999;,Q01  00002PRCP06
10-20T03:00:00,4,31.2,107.5,344.0,"DA XIAN, CH",FM-12,99999,V020,"999,9,C,0000,1","22000,1,9,N","005000,1,N,1","+0150,1","+0117,1","10254,1",,,"4,1,03,1",,,"06,99,1,01,1,01,1,00800,1,00,1,01,1",,,"99999,9,09845,1","7,1,001,1,+999,9","10,1",SYN066AAXX  20031 57328 41550 60000 10150 20117 40254 57001 71040 81101;,Q01+999990APOSP 
10-20T06:00:00,4,31.2,107.5,344.0,"DA XIAN, CH",FM-12,99999,V020,"160,1,N,0020,1","22000,1,9,N","015000,1,N,1","+0199,1","+0086,1","10215,1","06,0000,9,1",,"4,1,06,1",,,"01,99,1,01,1,01,1,01250,1,00,1,00,1",,"999,N,+0106,1","99999,9,09809,1","7,1,035,1,+999,9","00,1",SYN082AAXX  20061 57328 31665 11602 10199 20086 39809 40215 57035 70040 81100 333 20106;,Q01  00002PRCP06
10-20T09:00:00,4,31.2,107.5,344.0,"DA XIAN, CH",FM-12,99999,V020,"320,1,N,0010,1","22000,1,9,N","020000,1,N,1","+0199,1","+0105,1","10192,1",,,,,,"01,99,1,00,1,00,1,99999,9,00,1,01,1",,,"99999,9,09792,1","7,1,023,1,+999,9",,SYN060AAXX  20091 57328 42970 13201 10199 20105 40192 57023 80001;,Q01+999990APOSP 
10-20T12:00:00,4,31.2,107.5,344.0,"DA XIAN, CH",FM-12,99999,V020,"999,9,C,0000,1","22000,1,9,N","012000,1,N,1","+0159,1","+0119,1","10202,1","06,0000,9,1",,,,"00,1,+99999,9,99,9","00,99,1,00,1,00,1,99999,9,00,1,00,1",,,"99999,9,09793,1","2,1,007,1,+999,9",,SYN060AAXX  20121 57328 32962 00000 10159 20119 39793 40202 52007;,Q01  00002PRCP06
10-20T15:00:00,4,31.2,107.5,344.0,"DA XIAN, CH",FM-12,99999,V020,"040,1,N,0020,1","22000,1,9,N","005000,1,N,1","+0135,1","+0120,1","10204,1",,,,,"00,1,+99999,9,99,9","00,99,1,00,1,00,1,99999,9,00,1,00,1",,,"99999,9,09795,1","2,1,003,1,+999,9","10,1",SYN060AAXX  20151 57328 41950 00402 10135 20120 40204 52003 71000;,Q01+999990APOSP 
10-20T18:00:00,4,31.2,107.5,344.0,"DA XIAN, CH",FM-12,99999,V020,"040,1,N,0020,1","22000,1,9,N","003000,1,N,1","+0125,1","+0118,1","10207,1","06,0000,9,1",,,,"00,1,+99999,9,99,9","00,99,1,00,1,00,1,99999,9,00,1,00,1",,"999,M,+0208,1","99999,9,09801,1","2,1,005,1,+999,9","10,1",SYN076AAXX  20181 57328 31930 00402 10125 20118 39801 40207 52005 71000 333 10208;,Q01  00002PRCP06
10-20T21:00:00,4,31.2,107.5,344.0,"DA XIAN, CH",FM-12,99999,V020,"040,1,N,0020,1","99999,9,9,N","003000,1,N,1","+0123,1","+0114,1","10206,1",,,,,,"07,99,1,07,1,00,1,99999,9,04,1,99,9",,,"99999,9,09795,1","7,1,001,1,+999,9","10,1",SYN066AAXX  20211 57328 41930 70402 10123 20114 40206 57001 71000 8704/;,Q01+999990APOSP 
10-21T00:00:00,4,31.2,107.5,344.0,"DA XIAN, CH",FM-12,99999,V020,"020,1,N,0020,1","99999,9,9,N","008000,1,N,1","+0129,1","+0114,1","10221,1","06,0000,9,1",,,,,"07,99,1,07,1,00,1,99999,9,04,1,99,9",,,"99999,9,09812,1","2,1,012,1,+003,1","10,1",SYN082AAXX  21001 57328 31958 70202 10129 20114 39812 40221 52012 71000 8704/ 333 05302;,Q01  00002PRCP06
10-21T03:00:00,4,31.2,107.5,344.0,"DA XIAN, CH",FM-12,99999,V020,"020,1,N,0020,1","99999,9,9,N","012000,1,N,1","+0161,1","+0099,1","10235,1",,,,,,"07,99,1,07,1,00,1,99999,9,04,1,99,9",,,"99999,9,09828,1","2,1,014,1,+999,9",,SYN060AAXX  21031 57328 42962 70202 10161 20099 40235 52014 8704/;,Q01+999990APOSP 
10-21T09:00:00,4,31.2,107.5,344.0,"DA XIAN, CH",FM-12,99999,V020,"999,9,C,0000,1","99999,9,9,N","011000,1,N,1","+0185,1","+0129,1","10195,1",,,,,,"08,99,1,08,1,00,1,99999,9,07,1,99,9",,,"99999,9,09793,1","7,1,012,1,+999,9",,SYN060AAXX  21091 57328 42961 80000 10185 20129 40195 57012 8807/;,Q01+999990APOSP 
10-21T12:00:00,4,31.2,107.5,344.0,"DA XIAN, CH",FM-12,99999,V020,"040,1,N,0010,1","99999,9,9,N","007000,1,N,1","+0162,1","+0134,1","10207,1","06,0000,9,1",,,,,"08,99,1,08,1,00,1,99999,9,07,1,99,9",,,"99999,9,09799,1","2,1,010,1,+999,9","10,1",SYN072AAXX  21121 57328 31957 80401 10162 20134 39799 40207 52010 71000 8807/;,Q01  00002PRCP06
10-21T15:00:00,4,31.2,107.5,344.0,"DA XIAN, CH",FM-12,99999,V020,"999,9,C,0000,1","99999,9,9,N","003000,1,N,1","+0150,1","+0134,1","10219,1",,,,,,"08,99,1,08,1,00,1,99999,9,07,1,99,9",,,"99999,9,09811,1","2,1,013,1,+999,9","10,1",SYN066AAXX  21151 57328 41930 80000 10150 20134 40219 52013 71000 8807/;,Q01+999990APOSP 
10-21T18:00:00,4,31.2,107.5,344.0,"DA XIAN, CH",FM-12,99999,V020,"040,1,N,0010,1","99999,9,9,N","003000,1,N,1","+0142,1","+0133,1","10222,1","06,0000,9,1",,,,,"08,99,1,08,1,00,1,99999,9,07,1,99,9",,"999,M,+0188,1","99999,9,09816,1","2,1,004,1,+999,9","10,1",SYN082AAXX  21181 57328 31930 80401 10142 20133 39816 40222 52004 71000 8807/ 333 10188;,Q01  00002PRCP06
10-21T21:00:00,4,31.2,107.5,344.0,"DA XIAN, CH",FM-12,99999,V020,"999,9,C,0000,1","99999,9,9,N","003000,1,N,1","+0140,1","+0133,1","10216,1",,,,,,"08,99,1,08,1,00,1,99999,9,07,1,99,9",,,"99999,9,09807,1","7,1,006,1,+999,9","10,1",SYN066AAXX  21211 57328 41930 80000 10140 20133 40216 57006 71000 8807/;,Q01+999990APOSP 
10-22T00:00:00,4,31.2,107.5,344.0,"DA XIAN, CH",FM-12,99999,V020,"999,9,C,0000,1","99999,9,9,N","002000,1,N,1","+0143,1","+0132,1","10240,1","06,0000,9,1",,,,,"08,99,1,08,1,00,1,99999,9,07,1,99,9",,,"99999,9,09832,1","2,1,022,1,+002,1","10,1",SYN082AAXX  22001 57328 31920 80000 10143 20132 39832 40240 52022 71000 8807/ 333 00201;,Q01  00002PRCP06
10-22T03:00:00,4,31.2,107.5,344.0,"DA XIAN, CH",FM-12,99999,V020,"999,9,C,0000,1","99999,9,9,N","003000,1,N,1","+0175,1","+0144,1","10251,1",,,,,,"07,99,1,07,1,00,1,99999,9,04,1,99,9",,,"99999,9,09845,1","2,1,012,1,+999,9","10,1",SYN066AAXX  22031 57328 41930 70000 10175 20144 40251 52012 71000 8704/;,Q01+999990APOSP 
10-22T06:00:00,4,31.2,107.5,344.0,"DA XIAN, CH",FM-12,99999,V020,"020,1,N,0050,1","99999,9,9,N","008000,1,N,1","+0194,1","+0139,1","10221,1","06,0000,9,1",,,,,"08,99,1,08,1,00,1,99999,9,07,1,99,9",,"999,N,+0138,1","99999,9,09816,1","7,1,028,1,+999,9","10,1",SYN082AAXX  22061 57328 31958 80205 10194 20139 39816 40221 57028 71000 8807/ 333 20138;,Q01  00002PRCP06
10-22T09:00:00,4,31.2,107.5,344.0,"DA XIAN, CH",FM-12,99999,V020,"020,1,N,0010,1","99999,9,9,N","006000,1,N,1","+0198,1","+0144,1","10217,1",,,,,,"07,99,1,07,1,00,1,99999,9,04,1,99,9",,,"99999,9,09816,1","7,1,004,1,+999,9","10,1",SYN066AAXX  22091 57328 41956 70201 10198 20144 40217 57004 71000 8704/;,
10-22T12:00:00,4,31.2,107.5,344.0,"DA XIAN, CH",FM-12,99999,V020,"999,9,C,0000,1","99999,9,9,N","006000,1,N,1","+0176,1","+0151,1","10229,1","06,0000,9,1",,,,,"07,99,1,07,1,00,1,99999,9,04,1,99,9",,,"99999,9,09822,1","2,1,010,1,+999,9","10,1",SYN072AAXX  22121 57328 31956 70000 10176 20151 39822 40229 52010 71000 8704/;,Q01  00002PRCP06
10-22T15:00:00,4,31.2,107.5,344.0,"DA XIAN, CH",FM-12,99999,V020,"999,9,C,0000,1","99999,9,9,N","003000,1,N,1","+0151,1","+0144,1","10241,1",,,,,,"08,99,1,08,1,00,1,99999,9,07,1,99,9",,,"99999,9,09833,1","2,1,012,1,+999,9","10,1",SYN066AAXX  22151 57328 41930 80000 10151 20144 40241 52012 71000 8807/;,Q01+999990APOSP 
10-22T18:00:00,4,31.2,107.5,344.0,"DA XIAN, CH",FM-12,99999,V020,"040,1,N,0010,1","00015,1,9,N","000000,1,N,1","+0141,1","+0139,1","10239,1","06,0000,9,1",,"4,1,06,1",,"09,1,+99999,9,99,9","09,99,1,09,1,99,9,99999,9,99,9,99,9",,"999,M,+0199,1","99999,9,09833,1","7,1,001,1,+999,9","47,1",SYN076AAXX  22181 57328 31/00 90401 10141 20139 39833 40239 57001 74740 333 10199;,Q01  00002PRCP06
10-23T00:00:00,4,31.2,107.5,344.0,"DA XIAN, CH",FM-12,99999,V020,"999,9,C,0000,1","99999,9,9,N","001200,1,N,1","+0150,1","+0145,1","10242,1","06,0000,9,1",,"4,1,06,1",,,"08,99,1,08,1,00,1,99999,9,07,1,99,9",,,"99999,9,09835,1","2,1,010,1,+000,1","10,1",SYN082AAXX  23001 57328 31912 80000 10150 20145 39835 40242 52010 71040 8807/ 333 00001;,Q01  00002PRCP06
10-23T03:00:00,4,31.2,107.5,344.0,"DA XIAN, CH",FM-12,99999,V020,"070,1,N,0010,1","99999,9,9,N","003000,1,N,1","+0162,1","+0148,1","10245,1",,,"6,1,03,1",,,"08,99,1,08,1,00,1,99999,9,07,1,99,9",,,"99999,9,09838,1","2,1,002,1,+999,9","60,1",SYN066AAXX  23031 57328 41930 80701 10162 20148 40245 52002 76060 8807/;,
10-23T06:00:00,4,31.2,107.5,344.0,"DA XIAN, CH",FM-12,99999,V020,"200,1,N,0010,1","99999,9,9,N","003000,1,N,1","+0177,1","+0154,1","10220,1","06,9999,9,9",,"6,1,06,1",,,"08,99,1,08,1,00,1,99999,9,07,1,99,9",,"999,N,+0139,1","99999,9,09813,1","7,1,024,1,+999,9","10,1",SYN088AAXX  23061 57328 11930 82001 10177 20154 39813 40220 57024 69901 71060 8807/ 333 20139;,
10-23T09:00:00,4,31.2,107.5,344.0,"DA XIAN, CH",FM-12,99999,V020,"999,9,C,0000,1","99999,9,9,N","004000,1,N,1","+0183,1","+0153,1","10203,1",,,,,,"07,99,1,07,1,00,1,99999,9,04,1,99,9",,,"99999,9,09800,1","7,1,015,1,+999,9","10,1",SYN066AAXX  23091 57328 41940 70000 10183 20153 40203 57015 71000 8704/;,Q01+999990APOSP 
10-23T12:00:00,4,31.2,107.5,344.0,"DA XIAN, CH",FM-12,99999,V020,"999,9,C,0000,1","99999,9,9,N","003000,1,N,1","+0156,1","+0146,1","10212,1","06,0000,9,1",,,,,"08,99,1,08,1,00,1,99999,9,07,1,99,9",,,"99999,9,09805,1","2,1,007,1,+999,9","10,1",SYN072AAXX  23121 57328 31930 80000 10156 20146 39805 40212 52007 71000 8807/;,Q01  00002PRCP06
10-23T15:00:00,4,31.2,107.5,344.0,"DA XIAN, CH",FM-12,99999,V020,"999,9,C,0000,1","99999,9,9,N","003000,1,N,1","+0147,1","+0142,1","10218,1",,,,,,"08,99,1,08,1,00,1,99999,9,07,1,99,9",,,"99999,9,09810,1","2,1,006,1,+999,9","10,1",SYN066AAXX  23151 57328 41930 80000 10147 20142 40218 52006 71000 8807/;,Q01+999990APOSP 
10-23T18:00:00,4,31.2,107.5,344.0,"DA XIAN, CH",FM-12,99999,V020,"040,1,N,0020,1","00015,1,9,N","000000,1,N,1","+0133,1","+0131,1","10214,1","06,0000,9,1",,"4,1,06,1",,"09,1,+99999,9,99,9","09,99,1,09,1,99,9,99999,9,99,9,99,9",,"999,M,+0183,1","99999,9,09807,1","7,1,004,1,+999,9","45,1",SYN076AAXX  23181 57328 31/00 90402 10133 20131 39807 40214 57004 74540 333 10183;,Q01  00002PRCP06
10-23T21:00:00,4,31.2,107.5,344.0,"DA XIAN, CH",FM-12,99999,V020,"040,1,N,0020,1","99999,9,9,N","001200,1,N,1","+0136,1","+0134,1","10209,1","24,0000,2,1",,"4,1,03,1","4,1,03,1",,"08,99,1,08,1,00,1,99999,9,07,1,99,9",,,"99999,9,09800,1","7,1,004,1,+999,9","28,1",SYN076AAXX  23211 57328 41912 80402 10136 20134 40209 57004 72844 8807/ 333 79999;,
10-24T00:00:00,4,31.2,107.5,344.0,"DA XIAN, CH",FM-12,99999,V020,"040,1,N,0020,1","99999,9,9,N","001200,1,N,1","+0133,1","+0128,1","10214,1","06,0000,9,1","24,0000,2,1","4,1,06,1",,,"08,99,1,08,1,00,1,99999,9,02,1,99,9",,,"99999,9,09806,1","2,1,003,1,-030,1","10,1",SYN088AAXX  24001 57328 31912 80402 10133 20128 39806 40214 52003 71040 8802/ 333 05352 79999;,Q01  00002PRCP06
10-24T03:00:00,4,31.2,107.5,344.0,"DA XIAN, CH",FM-12,99999,V020,"040,1,N,0020,1","99999,9,9,N","002000,1,N,1","+0139,1","+0128,1","10228,1",,,,,,"08,99,1,08,1,00,1,99999,9,02,1,99,9",,,"99999,9,09818,1","2,1,013,1,+999,9","10,1",SYN066AAXX  24031 57328 41920 80402 10139 20128 40228 52013 71000 8802/;,Q01+999990APOSP 
10-24T06:00:00,4,31.2,107.5,344.0,"DA XIAN, CH",FM-12,99999,V020,"160,1,N,0010,1","99999,9,9,N","003000,1,N,1","+0175,1","+0133,1","10189,1","06,0000,9,1",,,,,"08,99,1,08,1,00,1,99999,9,07,1,99,9",,"999,N,+0131,1","99999,9,09783,1","7,1,036,1,+999,9","10,1",SYN082AAXX  24061 57328 31930 81601 10175 20133 39783 40189 57036 71000 8807/ 333 20131;,Q01  00002PRCP06
10-24T09:00:00,4,31.2,107.5,344.0,"DA XIAN, CH",FM-12,99999,V020,"160,1,N,0010,1","22000,1,9,N","004000,1,N,1","+0189,1","+0134,1","10173,1",,,,,"00,1,+99999,9,99,9","00,99,1,00,1,00,1,99999,9,00,1,00,1",,,"99999,9,09772,1","7,1,014,1,+999,9","10,1",SYN060AAXX  24091 57328 41940 01601 10189 20134 40173 57014 71000;,Q01+999990APOSP 
10-24T12:00:00,4,31.2,107.5,344.0,"DA XIAN, CH",FM-12,99999,V020,"040,1,N,0010,1","22000,1,9,N","004000,1,N,1","+0154,1","+0140,1","10189,1","06,0000,9,1",,,,"00,1,+99999,9,99,9","00,99,1,00,1,00,1,99999,9,00,1,00,1",,,"99999,9,09782,1","2,1,013,1,+999,9","10,1",SYN066AAXX  24121 57328 31940 00401 10154 20140 39782 40189 52013 71000;,Q01  00002PRCP06
10-24T15:00:00,4,31.2,107.5,344.0,"DA XIAN, CH",FM-12,99999,V020,"040,1,N,0010,1","22000,1,9,N","003000,1,N,1","+0137,1","+0133,1","10215,1",,,,,"00,1,+99999,9,99,9","00,99,1,00,1,00,1,99999,9,00,1,00,1",,,"99999,9,09806,1","2,1,024,1,+999,9","10,1",SYN060AAXX  24151 57328 41930 00401 10137 20133 40215 52024 71000;,Q01+999990APOSP 
10-24T18:00:00,4,31.2,107.5,344.0,"DA XIAN, CH",FM-12,99999,V020,"040,1,N,0010,1","00015,1,9,N","000000,1,N,1","+0130,1","+0128,1","10210,1","06,0000,9,1",,"4,1,06,1",,"09,1,+99999,9,99,9","09,99,1,09,1,99,9,99999,9,99,9,99,9",,"999,M,+0191,1","99999,9,09803,1","7,1,003,1,+999,9","47,1",SYN076AAXX  24181 57328 31/00 90401 10130 20128 39803 40210 57003 74740 333 10191;,Q01  00002PRCP06
10-24T21:00:00,4,31.2,107.5,344.0,"DA XIAN, CH",FM-12,99999,V020,"040,1,N,0020,1","00015,1,9,N","000000,1,N,1","+0131,1","+0129,1","10203,1",,,"4,1,03,1","4,1,03,1","09,1,+99999,9,99,9","09,99,1,09,1,99,9,99999,9,99,9,99,9",,,"99999,9,09793,1","7,1,006,1,+999,9","45,1",SYN060AAXX  24211 57328 41/00 90402 10131 20129 40203 57006 74544;,Q01+999990APOSP 
10-25T00:00:00,4,31.2,107.5,344.0,"DA XIAN, CH",FM-12,99999,V020,"999,9,C,0000,1","99999,9,9,N","001500,1,N,1","+0136,1","+0131,1","10224,1","06,0000,9,1",,"4,1,06,1",,,"08,99,1,08,1,00,1,99999,9,02,1,99,9",,,"99999,9,09815,1","2,1,018,1,+001,1","10,1",SYN082AAXX  25001 57328 31915 80000 10136 20131 39815 40224 52018 71040 8802/ 333 00100;,Q01  00002PRCP06
10-25T03:00:00,4,31.2,107.5,344.0,"DA XIAN, CH",FM-12,99999,V020,"340,1,N,0020,1","99999,9,9,N","003000,1,N,1","+0166,1","+0138,1","10229,1",,,,,,"06,99,1,06,1,00,1,99999,9,04,1,00,1",,,"99999,9,09823,1","2,1,006,1,+999,9","10,1",SYN066AAXX  25031 57328 41930 63402 10166 20138 40229 52006 71000 86040;,Q01+999990APOSP 
10-25T06:00:00,4,31.2,107.5,344.0,"DA XIAN, CH",FM-12,99999,V020,"220,1,N,0010,1","22000,1,9,N","006000,1,N,1","+0225,1","+0153,1","10199,1","06,0000,9,1",,,,"00,1,+99999,9,99,9","00,99,1,00,1,00,1,99999,9,00,1,00,1",,"999,M,+9999,9","99999,9,09796,1","7,1,025,1,+999,9","10,1",SYN076AAXX  25061 57328 31956 02201 10225 20153 39796 40199 57025 71000 333 10127;,Q01  00002PRCP06Q02 +01272ATMX  
10-25T09:00:00,4,31.2,107.5,344.0,"DA XIAN, CH",FM-12,99999,V020,"270,1,N,0010,1","22000,1,9,N","008000,1,N,1","+0219,1","+0142,1","10192,1",,,,,"00,1,+99999,9,99,9","00,99,1,00,1,00,1,99999,9,00,1,00,1",,,"99999,9,09795,1","7,1,007,1,+999,9","10,1",SYN060AAXX  25091 57328 41958 02701 10219 20142 40192 57007 71000;,Q01+999990APOSP 
10-25T12:00:00,4,31.2,107.5,344.0,"DA XIAN, CH",FM-12,99999,V020,"160,1,N,0010,1","22000,1,9,N","006000,1,N,1","+0186,1","+0156,1","10210,1","06,0000,9,1",,,,"00,1,+99999,9,99,9","00,99,1,00,1,00,1,99999,9,00,1,00,1",,,"99999,9,09804,1","2,1,015,1,+999,9","10,1",SYN066AAXX  25121 57328 31956 01601 10186 20156 39804 40210 52015 71000;,Q01  00002PRCP06
10-25T15:00:00,4,31.2,107.5,344.0,"DA XIAN, CH",FM-12,99999,V020,"160,1,N,0010,1","99999,9,9,N","006000,1,N,1","+0167,1","+0141,1","10226,1",,,,,,"08,99,1,08,1,00,1,99999,9,07,1,99,9",,,"99999,9,09820,1","2,1,016,1,+999,9","10,1",SYN066AAXX  25151 57328 41956 81601 10167 20141 40226 52016 71000 8807/;,Q01+999990APOSP 
10-25T18:00:00,4,31.2,107.5,344.0,"DA XIAN, CH",FM-12,99999,V020,"040,1,N,0020,1","99999,9,9,N","003000,1,N,1","+0150,1","+0143,1","10216,1","06,0000,9,1",,,,,"08,99,1,08,1,00,1,99999,9,07,1,99,9",,"999,M,+0231,1","99999,9,09813,1","7,1,007,1,+999,9","10,1",SYN082AAXX  25181 57328 31930 80402 10150 20143 39813 40216 57007 71000 8807/ 333 10231;,Q01  00002PRCP06
10-25T21:00:00,4,31.2,107.5,344.0,"DA XIAN, CH",FM-12,99999,V020,"999,9,C,0000,1","99999,9,9,N","000300,1,N,1","+0141,1","+0137,1","10211,1",,,"4,1,03,1",,,"08,99,1,08,1,00,1,99999,9,07,1,99,9",,,"99999,9,09802,1","7,1,005,1,+999,9","44,1",SYN066AAXX  25211 57328 41903 80000 10141 20137 40211 57005 74440 8807/;,Q01+999990APOSP 
10-26T00:00:00,4,31.2,107.5,344.0,"DA XIAN, CH",FM-12,99999,V020,"999,9,C,0000,1","99999,9,9,N","000800,1,N,1","+0145,1","+0140,1","10218,1","06,0000,9,1",,"4,1,06,1",,,"08,99,1,08,1,00,1,99999,9,07,1,99,9",,,"99999,9,09812,1","2,1,004,1,+000,1","44,1",SYN082AAXX  26001 57328 31908 80000 10145 20140 39812 40218 52004 74440 8807/ 333 00001;,Q01  00002PRCP06
10-26T03:00:00,4,31.2,107.5,344.0,"DA XIAN, CH",FM-12,99999,V020,"020,1,N,0020,1","99999,9,9,N","001800,1,N,1","+0162,1","+0145,1","10222,1",,,"4,1,03,1",,,"08,99,1,08,1,00,1,99999,9,07,1,99,9",,,"99999,9,09816,1","2,1,004,1,+999,9","10,1",SYN066AAXX  26031 57328 41918 80202 10162 20145 40222 52004 71040 8807/;,Q01+999990APOSP 
10-26T06:00:00,4,31.2,107.5,344.0,"DA XIAN, CH",FM-12,99999,V020,"999,9,C,0000,1","99999,9,9,N","003000,1,N,1","+0192,1","+0155,1","10193,1","06,0000,9,1",,"4,1,06,1",,,"08,99,1,08,1,00,1,99999,9,07,1,99,9",,"999,N,+0139,1","99999,9,09789,1","7,1,027,1,+999,9","10,1",SYN082AAXX  26061 57328 31930 80000 10192 20155 39789 40193 57027 71040 8807/ 333 20139;,Q01  00002PRCP06
10-26T09:00:00,4,31.2,107.5,344.0,"DA XIAN, CH",FM-12,99999,V020,"999,9,C,0000,1","99999,9,9,N","002000,1,N,1","+0197,1","+0154,1","10175,1",,,,,,"08,99,1,08,1,00,1,99999,9,07,1,99,9",,,"99999,9,09775,1","7,1,017,1,+999,9","10,1",SYN066AAXX  26091 57328 41920 80000 10197 20154 40175 57017 71000 8807/;,Q01+999990APOSP 
10-26T15:00:00,4,31.2,107.5,344.0,"DA XIAN, CH",FM-12,99999,V020,"020,1,N,0010,1","99999,9,9,N","001200,1,N,1","+0156,1","+0149,1","10204,1",,,,,,"08,99,1,08,1,00,1,99999,9,07,1,99,9",,,"99999,9,09798,1","2,1,011,1,+999,9","10,1",SYN066AAXX  26151 57328 41912 80201 10156 20149 40204 52011 71000 8807/;,Q01+999990APOSP 
10-26T18:00:00,4,31.2,107.5,344.0,"DA XIAN, CH",FM-12,99999,V020,"999,9,C,0000,1","00015,1,9,N","000000,1,N,1","+0150,1","+0148,1","10207,1","06,0000,9,1",,"4,1,06,1",,"09,1,+99999,9,99,9","09,99,1,09,1,99,9,99999,9,99,9,99,9",,"999,M,+0197,1","99999,9,09803,1","2,1,005,1,+999,9","45,1",SYN076AAXX  26181 57328 31/00 90000 10150 20148 39803 40207 52005 74540 333 10197;,Q01  00002PRCP06
10-26T21:00:00,4,31.2,107.5,344.0,"DA XIAN, CH",FM-12,99999,V020,"999,9,C,0000,1","00015,1,9,N","000000,1,N,1","+0147,1","+0147,1","10206,1",,,"4,1,03,1","4,1,03,1","09,1,+99999,9,99,9","09,99,1,09,1,99,9,99999,9,99,9,99,9",,,"99999,9,09798,1","7,1,001,1,+999,9","45,1",SYN060AAXX  26211 57328 41/00 90000 10147 20147 40206 57001 74544;,Q01+999990APOSP 
10-27T00:00:00,4,31.2,107.5,344.0,"DA XIAN, CH",FM-12,99999,V020,"020,1,N,0020,1","00015,1,9,N","000000,1,N,1","+0147,1","+0145,1","10219,1","06,0000,9,1",,"4,1,06,1","4,1,06,1","09,1,+99999,9,99,9","09,99,1,09,1,99,9,99999,9,99,9,99,9",,,"99999,9,09813,1","2,1,011,1,+000,1","45,1",SYN076AAXX  27001 57328 31/00 90202 10147 20145 39813 40219 52011 74544 333 00000;,Q01  00002PRCP06
10-27T03:00:00,4,31.2,107.5,344.0,"DA XIAN, CH",FM-12,99999,V020,"040,1,N,0010,1","99999,9,9,N","002000,1,N,1","+0159,1","+0149,1","10244,1",,,"4,1,03,1",,,"08,99,1,08,1,00,1,99999,9,02,1,99,9",,,"99999,9,09837,1","2,1,023,1,+999,9","10,1",SYN066AAXX  27031 57328 41920 80401 10159 20149 40244 52023 71040 8802/;,Q01+999990APOSP 
10-27T06:00:00,4,31.2,107.5,344.0,"DA XIAN, CH",FM-12,99999,V020,"360,1,N,0010,1","99999,9,9,N","002000,1,N,1","+0185,1","+0157,1","10222,1","06,0000,9,1",,"4,1,06,1",,,"08,99,1,08,1,00,1,99999,9,07,1,99,9",,"999,N,+0145,1","99999,9,09817,1","7,1,019,1,+999,9","10,1",SYN082AAXX  27061 57328 31920 83601 10185 20157 39817 40222 57019 71040 8807/ 333 20145;,Q01  00002PRCP06
10-27T09:00:00,4,31.2,107.5,344.0,"DA XIAN, CH",FM-12,99999,V020,"040,1,N,0010,1","22000,1,9,N","003000,1,N,1","+0193,1","+0160,1","10220,1",,,,,"00,1,+99999,9,99,9","00,99,1,00,1,00,1,99999,9,00,1,00,1",,,"99999,9,09818,1","7,1,002,1,+999,9","10,1",SYN060AAXX  27091 57328 41930 00401 10193 20160 40220 57002 71000;,Q01+999990APOSP 
10-27T12:00:00,4,31.2,107.5,344.0,"DA XIAN, CH",FM-12,99999,V020,"090,1,N,0010,1","22000,1,9,N","003000,1,N,1","+0171,1","+0156,1","10238,1","06,0000,9,1",,,,"00,1,+99999,9,99,9","00,99,1,00,1,00,1,99999,9,00,1,00,1",,,"99999,9,09831,1","2,1,016,1,+999,9","10,1",SYN066AAXX  27121 57328 31930 00901 10171 20156 39831 40238 52016 71000;,Q01  00002PRCP06
10-27T15:00:00,4,31.2,107.5,344.0,"DA XIAN, CH",FM-12,99999,V020,"040,1,N,0010,1","22000,1,9,N","003000,1,N,1","+0159,1","+0152,1","10248,1",,,,,"00,1,+99999,9,99,9","00,99,1,00,1,00,1,99999,9,00,1,00,1",,,"99999,9,09840,1","2,1,009,1,+999,9","10,1",SYN060AAXX  27151 57328 41930 00401 10159 20152 40248 52009 71000;,Q01+999990APOSP 
10-27T18:00:00,4,31.2,107.5,344.0,"DA XIAN, CH",FM-12,99999,V020,"070,1,N,0010,1","00015,1,9,N","000000,1,N,1","+0153,1","+0150,1","10242,1","06,0000,9,1",,"4,1,06,1",,"09,1,+99999,9,99,9","09,99,1,09,1,99,9,99999,9,99,9,99,9",,"999,M,+0196,1","99999,9,09836,1","7,1,004,1,+999,9","45,1",SYN076AAXX  27181 57328 31/00 90701 10153 20150 39836 40242 57004 74540 333 10196;,Q01  00002PRCP06
10-27T21:00:00,4,31.2,107.5,344.0,"DA XIAN, CH",FM-12,99999,V020,"040,1,N,0010,1","99999,9,9,N","001100,1,N,1","+0155,1","+0150,1","10233,1",,,"4,1,03,1","4,1,03,1",,"08,99,1,08,1,00,1,99999,9,07,1,99,9",,,"99999,9,09825,1","7,1,008,1,+999,9","28,1",SYN066AAXX  27211 57328 41911 80401 10155 20150 40233 57008 72844 8807/;,Q01+999990APOSP 
10-28T00:00:00,4,31.2,107.5,344.0,"DA XIAN, CH",FM-12,99999,V020,"040,1,N,0030,1","99999,9,9,N","000800,1,N,1","+0149,1","+0146,1","10240,1","06,0000,9,1",,"4,1,06,1",,,"08,99,1,08,1,00,1,99999,9,07,1,99,9",,,"99999,9,09833,1","2,1,005,1,+002,1","42,1",SYN082AAXX  28001 57328 31908 80403 10149 20146 39833 40240 52005 74240 8807/ 333 00200;,Q01  00002PRCP06
10-28T03:00:00,4,31.2,107.5,344.0,"DA XIAN, CH",FM-12,99999,V020,"290,1,N,0010,1","99999,9,9,N","001500,1,N,1","+0171,1","+0154,1","10241,1",,,"4,1,03,1",,,"08,99,1,08,1,00,1,99999,9,07,1,99,9",,,"99999,9,09835,1","2,1,001,1,+999,9","10,1",SYN066AAXX  28031 57328 41915 82901 10171 20154 40241 52001 71040 8807/;,Q01+999990APOSP 
10-28T06:00:00,4,31.2,107.5,344.0,"DA XIAN, CH",FM-12,99999,V020,"020,1,N,0010,1","99999,9,9,N","004000,1,N,1","+0193,1","+0153,1","10217,1","06,0000,9,1",,"4,1,06,1",,,"08,99,1,08,1,00,1,99999,9,07,1,99,9",,"999,N,+0147,1","99999,9,09812,1","7,1,022,1,+999,9","10,1",SYN082AAXX  28061 57328 31940 80201 10193 20153 39812 40217 57022 71040 8807/ 333 20147;,Q01  00002PRCP06
10-28T09:00:00,4,31.2,107.5,344.0,"DA XIAN, CH",FM-12,99999,V020,"999,9,C,0000,1","99999,9,9,N","004000,1,N,1","+0192,1","+0162,1","10206,1",,,,,,"08,99,1,08,1,00,1,99999,9,07,1,99,9",,,"99999,9,09805,1","7,1,010,1,+999,9","10,1",SYN066AAXX  28091 57328 41940 80000 10192 20162 40206 57010 71000 8807/;,Q01+999990APOSP 
10-28T12:00:00,4,31.2,107.5,344.0,"DA XIAN, CH",FM-12,99999,V020,"040,1,N,0010,1","99999,9,9,N","003000,1,N,1","+0179,1","+0164,1","10215,1","06,0000,9,1",,,,,"08,99,1,08,1,00,1,99999,9,07,1,99,9",,,"99999,9,09809,1","2,1,007,1,+999,9","10,1",SYN072AAXX  28121 57328 31930 80401 10179 20164 39809 40215 52007 71000 8807/;,Q01  00002PRCP06
10-28T15:00:00,4,31.2,107.5,344.0,"DA XIAN, CH",FM-12,99999,V020,"040,1,N,0010,1","99999,9,9,N","003000,1,N,1","+0171,1","+0159,1","10217,1",,,,,,"08,99,1,08,1,00,1,99999,9,07,1,99,9",,,"99999,9,09812,1","2,1,003,1,+999,9","10,1",SYN066AAXX  28151 57328 41930 80401 10171 20159 40217 52003 71000 8807/;,Q01+999990APOSP 
10-28T18:00:00,4,31.2,107.5,344.0,"DA XIAN, CH",FM-12,99999,V020,"040,1,N,0010,1","99999,9,9,N","002000,1,N,1","+0169,1","+0159,1","10225,1","06,0000,9,1",,,,,"08,99,1,08,1,00,1,99999,9,07,1,99,9",,"999,M,+0196,1","99999,9,09821,1","2,1,009,1,+999,9","10,1",SYN082AAXX  28181 57328 31920 80401 10169 20159 39821 40225 52009 71000 8807/ 333 10196;,Q01  00002PRCP06
10-28T21:00:00,4,31.2,107.5,344.0,"DA XIAN, CH",FM-12,99999,V020,"999,9,C,0000,1","99999,9,9,N","002000,1,N,1","+0165,1","+0157,1","10217,1",,,,,,"08,99,1,08,1,00,1,99999,9,07,1,99,9",,,"99999,9,09811,1","7,1,008,1,+999,9","10,1",SYN066AAXX  28211 57328 41920 80000 10165 20157 40217 57008 71000 8807/;,Q01+999990APOSP 
10-29T00:00:00,4,31.2,107.5,344.0,"DA XIAN, CH",FM-12,99999,V020,"999,9,C,0000,1","99999,9,9,N","001500,1,N,1","+0164,1","+0156,1","10233,1","06,0000,9,1",,,,,"08,99,1,08,1,00,1,99999,9,07,1,99,9",,,"99999,9,09828,1","2,1,015,1,+001,1","10,1",SYN082AAXX  29001 57328 31915 80000 10164 20156 39828 40233 52015 71000 8807/ 333 05102;,Q01  00002PRCP06
10-29T03:00:00,4,31.2,107.5,344.0,"DA XIAN, CH",FM-12,99999,V020,"040,1,N,0030,1","99999,9,9,N","005000,1,N,1","+0195,1","+0160,1","10241,1",,,,,,"07,99,1,07,1,00,1,99999,9,04,1,99,9",,,"99999,9,09839,1","2,1,009,1,+999,9","10,1",SYN066AAXX  29031 57328 41950 70403 10195 20160 40241 52009 71000 8704/;,Q01+999990APOSP 
10-29T06:00:00,4,31.2,107.5,344.0,"DA XIAN, CH",FM-12,99999,V020,"020,1,N,0020,1","03600,1,9,N","008000,1,N,1","+0231,1","+0141,1","10213,1","06,0000,9,1",,,,,"06,99,1,02,1,01,1,01250,1,04,1,00,1",,"999,N,+0158,1","99999,9,09812,1","7,1,025,1,+999,9","10,1",SYN082AAXX  29061 57328 31658 60202 10231 20141 39812 40213 57025 71000 82140 333 20158;,Q01  00002PRCP06
10-29T09:00:00,4,31.2,107.5,344.0,"DA XIAN, CH",FM-12,99999,V020,"999,9,C,0000,1","22000,1,9,N","015000,1,N,1","+0230,1","+0137,1","10204,1",,,,,,"02,99,1,01,1,01,1,01250,1,04,1,00,1",,,"99999,9,09808,1","7,1,009,1,+999,9",,SYN060AAXX  29091 57328 42665 20000 10230 20137 40204 57009 81140;,Q01+999990APOSP 
10-29T12:00:00,4,31.2,107.5,344.0,"DA XIAN, CH",FM-12,99999,V020,"999,9,C,0000,1","22000,1,9,N","007000,1,N,1","+0187,1","+0152,1","10224,1","06,0000,9,1",,,,"00,1,+99999,9,99,9","00,99,1,00,1,00,1,99999,9,00,1,00,1",,,"99999,9,09820,1","2,1,017,1,+999,9","10,1",SYN066AAXX  29121 57328 31957 00000 10187 20152 39820 40224 52017 71000;,Q01  00002PRCP06
10-29T15:00:00,4,31.2,107.5,344.0,"DA XIAN, CH",FM-12,99999,V020,"999,9,C,0000,1","22000,1,9,N","005000,1,N,1","+0175,1","+0137,1","10229,1",,,,,"00,1,+99999,9,99,9","00,99,1,00,1,00,1,99999,9,00,1,00,1",,,"99999,9,09824,1","2,1,006,1,+999,9","10,1",SYN060AAXX  29151 57328 41950 00000 10175 20137 40229 52006 71000;,Q01+999990APOSP 
10-29T18:00:00,4,31.2,107.5,344.0,"DA XIAN, CH",FM-12,99999,V020,"999,9,C,0000,1","99999,9,9,N","004000,1,N,1","+0155,1","+0141,1","10221,1","06,0000,9,1",,,,,"08,99,1,08,1,00,1,99999,9,07,1,99,9",,"999,M,+0243,1","99999,9,09819,1","7,1,007,1,+999,9","10,1",SYN082AAXX  29181 57328 31940 80000 10155 20141 39819 40221 57007 71000 8807/ 333 10243;,Q01  00002PRCP06
10-30T00:00:00,4,31.2,107.5,344.0,"DA XIAN, CH",FM-12,99999,V020,"040,1,N,0010,1","22000,1,9,N","001200,1,N,1","+0137,1","+0132,1","10220,1","06,9999,9,9","24,0000,9,1","6,1,06,1","4,1,06,1",,"02,99,1,02,1,00,1,99999,9,04,1,00,1",,,"99999,9,09814,1","2,1,005,1,-010,1","28,1",SYN094AAXX  30001 57328 11912 20401 10137 20132 39814 40220 52005 69901 72864 82040 333 05153 79999;,Q01  00002PRCP24
10-30T03:00:00,4,31.2,107.5,344.0,"DA XIAN, CH",FM-12,99999,V020,"020,1,N,0010,1","99999,9,9,N","005000,1,N,1","+0174,1","+0147,1","10221,1",,,,,,"07,99,1,07,1,00,1,99999,9,04,1,99,9",,,"99999,9,09817,1","2,1,003,1,+999,9","10,1",SYN066AAXX  30031 57328 41950 70201 10174 20147 40221 52003 71000 8704/;,Q01+999990APOSP 
10-30T06:00:00,4,31.2,107.5,344.0,"DA XIAN, CH",FM-12,99999,V020,"160,1,N,0010,1","99999,9,9,N","004000,1,N,1","+0204,1","+0160,1","10187,1","06,0000,9,1",,,,,"07,99,1,07,1,00,1,99999,9,04,1,00,1",,"999,N,+0133,1","99999,9,09785,1","7,1,032,1,+999,9","10,1",SYN082AAXX  30061 57328 31940 71601 10204 20160 39785 40187 57032 71000 87040 333 20133;,Q01  00002PRCP06
10-30T09:00:00,4,31.2,107.5,344.0,"DA XIAN, CH",FM-12,99999,V020,"180,1,N,0010,1","22000,1,9,N","004000,1,N,1","+0211,1","+0159,1","10175,1",,,,,"00,1,+99999,9,99,9","00,99,1,00,1,00,1,99999,9,00,1,00,1",,,"99999,9,09777,1","7,1,013,1,+999,9","10,1",SYN060AAXX  30091 57328 41940 01801 10211 20159 40175 57013 71000;,Q01+999990APOSP 
10-30T12:00:00,4,31.2,107.5,344.0,"DA XIAN, CH",FM-12,99999,V020,"999,9,C,0000,1","22000,1,9,N","004000,1,N,1","+0181,1","+0161,1","10184,1","06,0000,9,1",,,,"00,1,+99999,9,99,9","00,99,1,00,1,00,1,99999,9,00,1,00,1",,,"99999,9,09779,1","2,1,007,1,+999,9","10,1",SYN066AAXX  30121 57328 31940 00000 10181 20161 39779 40184 52007 71000;,Q01  00002PRCP06
10-30T15:00:00,4,31.2,107.5,344.0,"DA XIAN, CH",FM-12,99999,V020,"999,9,C,0000,1","99999,9,9,N","002000,1,N,1","+0162,1","+0155,1","10201,1",,,,,,"08,99,1,08,1,00,1,99999,9,07,1,99,9",,,"99999,9,09796,1","2,1,017,1,+999,9","10,1",SYN066AAXX  30151 57328 41920 80000 10162 20155 40201 52017 71000 8807/;,Q01+999990APOSP 
10-30T18:00:00,4,31.2,107.5,344.0,"DA XIAN, CH",FM-12,99999,V020,"040,1,N,0030,1","99999,9,9,N","001200,1,N,1","+0153,1","+0148,1","10187,1","06,0000,9,1",,,,,"08,99,1,08,1,00,1,99999,9,07,1,99,9",,"999,M,+0212,1","99999,9,09784,1","7,1,012,1,+999,9","10,1",SYN082AAXX  30181 57328 31912 80403 10153 20148 39784 40187 57012 71000 8807/ 333 10212;,Q01  00002PRCP06
10-31T00:00:00,4,31.2,107.5,344.0,"DA XIAN, CH",FM-12,99999,V020,"200,1,N,0010,1","99999,9,9,N","001500,1,N,1","+0154,1","+0147,1","10184,1","06,0000,9,1",,"4,1,06,1",,,"08,99,1,08,1,00,1,99999,9,07,1,99,9",,,"99999,9,09780,1","2,1,004,1,+003,1","10,1",SYN082AAXX  31001 57328 31915 82001 10154 20147 39780 40184 52004 71040 8807/ 333 05302;,Q01  00002PRCP06
10-31T03:00:00,4,31.2,107.5,344.0,"DA XIAN, CH",FM-12,99999,V020,"020,1,N,0010,1","22000,1,9,N","004000,1,N,1","+0186,1","+0154,1","10190,1",,,,,"00,1,+99999,9,99,9","00,99,1,00,1,00,1,99999,9,00,1,00,1",,,"99999,9,09788,1","2,1,007,1,+999,9","10,1",SYN060AAXX  31031 57328 41940 00201 10186 20154 40190 52007 71000;,Q01+999990APOSP 
10-31T06:00:00,4,31.2,107.5,344.0,"DA XIAN, CH",FM-12,99999,V020,"040,1,N,0010,1","22000,1,9,N","008000,1,N,1","+0219,1","+0142,1","10154,1","06,0000,9,1",,,,"00,1,+99999,9,99,9","00,99,1,00,1,00,1,99999,9,00,1,00,1",,"999,N,+0148,1","99999,9,09754,1","7,1,033,1,+999,9","10,1",SYN076AAXX  31061 57328 31958 00401 10219 20142 39754 40154 57033 71000 333 20148;,Q01  00002PRCP06
10-31T09:00:00,4,31.2,107.5,344.0,"DA XIAN, CH",FM-12,99999,V020,"020,1,N,0020,1","22000,1,9,N","012000,1,N,1","+0222,1","+0142,1","10137,1",,,,,"00,1,+99999,9,99,9","00,99,1,00,1,00,1,99999,9,00,1,00,1",,,"99999,9,09742,1","7,1,016,1,+999,9",,SYN054AAXX  31091 57328 42962 00202 10222 20142 40137 57016;,Q01+999990APOSP 
10-31T12:00:00,4,31.2,107.5,344.0,"DA XIAN, CH",FM-12,99999,V020,"040,1,N,0030,1","22000,1,9,N","008000,1,N,1","+0178,1","+0149,1","10146,1","06,0000,9,1",,,,"00,1,+99999,9,99,9","00,99,1,00,1,00,1,99999,9,00,1,00,1",,,"99999,9,09743,1","2,1,005,1,+999,9","10,1",SYN066AAXX  31121 57328 31958 00403 10178 20149 39743 40146 52005 71000;,Q01  00002PRCP06
10-31T15:00:00,4,31.2,107.5,344.0,"DA XIAN, CH",FM-12,99999,V020,"040,1,N,0030,1","22000,1,9,N","006000,1,N,1","+0155,1","+0146,1","10153,1",,,,,"00,1,+99999,9,99,9","00,99,1,00,1,00,1,99999,9,00,1,00,1",,,"99999,9,09749,1","2,1,008,1,+999,9","10,1",SYN060AAXX  31151 57328 41956 00403 10155 20146 40153 52008 71000;,Q01+999990APOSP 
10-31T18:00:00,4,31.2,107.5,344.0,"DA XIAN, CH",FM-12,99999,V020,"020,1,N,0040,1","22000,1,9,N","006000,1,N,1","+0148,1","+0138,1","10147,1","06,0000,9,1",,,,"00,1,+99999,9,99,9","00,99,1,00,1,00,1,99999,9,00,1,00,1",,"999,M,+0230,1","99999,9,09747,1","7,1,004,1,+999,9","10,1",SYN076AAXX  31181 57328 31956 00204 10148 20138 39747 40147 57004 71000 333 10230;,Q01  00002PRCP06
10-31T21:00:00,4,31.2,107.5,344.0,"DA XIAN, CH",FM-12,99999,V020,"040,1,N,0040,1","22000,1,9,N","002000,1,N,1","+0135,1","+0131,1","10140,1",,,,,"00,1,+99999,9,99,9","00,99,1,00,1,00,1,99999,9,00,1,00,1",,,"99999,9,09733,1","7,1,008,1,+999,9","10,1",SYN060AAXX  31211 57328 41920 00404 10135 20131 40140 57008 71000;,Q01+999990APOSP 
11-01T00:00:00,4,31.2,107.5,344.0,"DA XIAN, CH",FM-12,99999,V020,"040,1,N,0030,1","22000,1,9,N","002000,1,N,1","+0133,1","+0126,1","10154,1","06,0000,9,1",,,,"00,1,+99999,9,99,9","00,99,1,00,1,00,1,99999,9,00,1,00,1",,,"99999,9,09750,1","2,1,011,1,+003,1","10,1",SYN076AAXX  01001 57328 31920 00403 10133 20126 39750 40154 52011 71000 333 05352;,Q01  00002PRCP06
11-01T03:00:00,4,31.2,107.5,344.0,"DA XIAN, CH",FM-12,99999,V020,"020,1,N,0020,1","22000,1,9,N","008000,1,N,1","+0184,1","+0141,1","10155,1",,,,,"00,1,+99999,9,99,9","00,99,1,00,1,00,1,99999,9,00,1,00,1",,,"99999,9,09754,1","2,1,002,1,+999,9","10,1",SYN060AAXX  01031 57328 41958 00202 10184 20141 40155 52002 71000;,Q01+999990APOSP 
11-01T06:00:00,4,31.2,107.5,344.0,"DA XIAN, CH",FM-12,99999,V020,"040,1,N,0020,1","22000,1,9,N","012000,1,N,1","+0231,1","+0145,1","10114,1","06,0000,9,1",,,,"00,1,+99999,9,99,9","00,99,1,00,1,00,1,99999,9,00,1,00,1",,"999,N,+0130,1","99999,9,09716,1","7,1,036,1,+999,9",,SYN070AAXX  01061 57328 32962 00402 10231 20145 39716 40114 57036 333 20130;,Q01  00002PRCP06
11-01T09:00:00,4,31.2,107.5,344.0,"DA XIAN, CH",FM-12,99999,V020,"999,9,C,0000,1","22000,1,9,N","030000,1,N,1","+0253,1","+0124,1","10102,1",,,,,,"01,99,1,00,1,00,1,99999,9,00,1,01,1",,,"99999,9,09713,1","7,1,011,1,+999,9",,SYN060AAXX  01091 57328 42980 10000 10253 20124 40102 57011 80001;,Q01+999990APOSP 
11-01T12:00:00,4,31.2,107.5,344.0,"DA XIAN, CH",FM-12,99999,V020,"040,1,N,0020,1","22000,1,9,N","012000,1,N,1","+0192,1","+0147,1","10113,1","06,0000,9,1",,,,"00,1,+99999,9,99,9","00,99,1,00,1,00,1,99999,9,00,1,00,1",,,"99999,9,09711,1","2,1,006,1,+999,9",,SYN060AAXX  01121 57328 32962 00402 10192 20147 39711 40113 52006;,Q01  00002PRCP06
11-01T15:00:00,4,31.2,107.5,344.0,"DA XIAN, CH",FM-12,99999,V020,"040,1,N,0020,1","22000,1,9,N","011000,1,N,1","+0179,1","+0149,1","10123,1",,,,,"00,1,+99999,9,99,9","00,99,1,00,1,00,1,99999,9,00,1,00,1",,,"99999,9,09723,1","2,1,012,1,+999,9",,SYN054AAXX  01151 57328 42961 00402 10179 20149 40123 52012;,Q01+999990APOSP 
11-01T18:00:00,4,31.2,107.5,344.0,"DA XIAN, CH",FM-12,99999,V020,"250,1,N,0020,1","01500,1,9,N","011000,1,N,1","+0183,1","+0149,1","10134,1","06,9999,9,9",,,,,"08,99,1,08,1,09,1,01750,1,99,9,99,9",,"999,M,+0254,1","99999,9,09737,1","2,1,014,1,+999,9","95,1",SYN088AAXX  01181 57328 11761 82502 10183 20149 39737 40134 52014 69901 79500 889// 333 10254;,
11-01T21:00:00,4,31.2,107.5,344.0,"DA XIAN, CH",FM-12,99999,V020,"040,1,N,0050,1","01500,1,9,N","003000,1,N,1","+0167,1","+0157,1","10130,1","24,0028,9,1",,"9,1,03,1","8,1,03,1",,"08,99,1,08,1,09,1,01750,1,99,9,99,9",,,"99999,9,09728,1","7,1,003,1,+999,9","10,1",SYN076AAXX  01211 57328 41730 80405 10167 20157 40130 57003 71098 889// 333 70028;,Q01+999990APOSP 
11-02T00:00:00,4,31.2,107.5,344.0,"DA XIAN, CH",FM-12,99999,V020,"020,1,N,0030,1","02100,1,9,N","008000,1,N,1","+0167,1","+0152,1","10157,1","06,0030,9,2","24,0028,9,2","9,1,06,1","8,1,06,1",,"06,99,1,06,1,05,1,02250,1,00,1,00,1",,,"99999,9,09756,1","2,1,022,1,+010,1","10,1",SYN094AAXX  02001 57328 11858 60203 10167 20152 39756 40157 52022 60031 71098 86500 333 00103 70028;,
11-02T03:00:00,4,31.2,107.5,344.0,"DA XIAN, CH",FM-12,99999,V020,"020,1,N,0010,1","99999,9,9,N","012000,1,N,1","+0213,1","+0152,1","10174,1",,,,,,"06,99,1,06,1,00,1,99999,9,04,1,00,1",,,"99999,9,09777,1","2,1,018,1,+999,9",,SYN060AAXX  02031 57328 42962 60201 10213 20152 40174 52018 86040;,Q01+999990APOSP 
11-02T06:00:00,4,31.2,107.5,344.0,"DA XIAN, CH",FM-12,99999,V020,"250,1,N,0010,1","22000,1,9,N","025000,1,N,1","+0247,1","+0139,1","10155,1","06,0000,9,1",,,,,"01,99,1,01,1,01,1,01250,1,00,1,00,1",,"999,N,+0166,1","99999,9,09759,1","7,1,015,1,+999,9",,SYN076AAXX  02061 57328 32675 12501 10247 20139 39759 40155 57015 81100 333 20166;,Q01  00002PRCP06
11-02T09:00:00,4,31.2,107.5,344.0,"DA XIAN, CH",FM-12,99999,V020,"999,9,C,0000,1","22000,1,9,N","030000,1,N,1","+0262,1","+0129,1","10156,1",,,,,"00,1,+99999,9,99,9","00,99,1,00,1,00,1,99999,9,00,1,00,1",,,"99999,9,09766,1","4,1,000,1,+999,9",,SYN054AAXX  02091 57328 42980 00000 10262 20129 40156 54000;,Q01+999990APOSP 
11-02T12:00:00,4,31.2,107.5,344.0,"DA XIAN, CH",FM-12,99999,V020,"999,9,C,0000,1","22000,1,9,N","012000,1,N,1","+0201,1","+0162,1","10187,1","06,0000,9,1",,,,"00,1,+99999,9,99,9","00,99,1,00,1,00,1,99999,9,00,1,00,1",,,"99999,9,09785,1","2,1,026,1,+999,9",,SYN060AAXX  02121 57328 32962 00000 10201 20162 39785 40187 52026;,Q01  00002PRCP06
11-02T15:00:00,4,31.2,107.5,344.0,"DA XIAN, CH",FM-12,99999,V020,"999,9,C,0000,1","22000,1,9,N","008000,1,N,1","+0183,1","+0162,1","10209,1",,,,,"00,1,+99999,9,99,9","00,99,1,00,1,00,1,99999,9,00,1,00,1",,,"99999,9,09806,1","2,1,023,1,+999,9","10,1",SYN060AAXX  02151 57328 41958 00000 10183 20162 40209 52023 71000;,Q01+999990APOSP 
11-02T18:00:00,4,31.2,107.5,344.0,"DA XIAN, CH",FM-12,99999,V020,"090,1,N,0020,1","22000,1,9,N","007000,1,N,1","+0166,1","+0156,1","10211,1","06,0000,9,1",,,,"00,1,+99999,9,99,9","00,99,1,00,1,00,1,99999,9,00,1,00,1",,"999,M,+0270,1","99999,9,09811,1","2,1,003,1,+999,9","10,1",SYN076AAXX  02181 57328 31957 00902 10166 20156 39811 40211 52003 71000 333 10270;,Q01  00002PRCP06
11-02T21:00:00,4,31.2,107.5,344.0,"DA XIAN, CH",FM-12,99999,V020,"040,1,N,0030,1","22000,1,9,N","008000,1,N,1","+0154,1","+0144,1","10199,1",,,,,"00,1,+99999,9,99,9","00,99,1,00,1,00,1,99999,9,00,1,00,1",,,"99999,9,09793,1","7,1,011,1,+999,9","10,1",SYN060AAXX  02211 57328 41958 00403 10154 20144 40199 57011 71000;,Q01+999990APOSP 
11-03T00:00:00,4,31.2,107.5,344.0,"DA XIAN, CH",FM-12,99999,V020,"020,1,N,0010,1","22000,1,9,N","011000,1,N,1","+0151,1","+0130,1","10211,1","06,0000,9,1",,,,"00,1,+99999,9,99,9","00,99,1,00,1,00,1,99999,9,00,1,00,1",,,"99999,9,09807,1","2,1,007,1,+005,1",,SYN070AAXX  03001 57328 32961 00201 10151 20130 39807 40211 52007 333 00552;,Q01  00002PRCP06
11-03T03:00:00,4,31.2,107.5,344.0,"DA XIAN, CH",FM-12,99999,V020,"999,9,C,0000,1","99999,9,9,N","011000,1,N,1","+0205,1","+0143,1","10210,1",,,,,,"05,99,1,05,1,00,1,99999,9,04,1,00,1",,,"99999,9,09810,1","2,1,002,1,+999,9",,SYN060AAXX  03031 57328 42961 50000 10205 20143 40210 52002 85040;,Q01+999990APOSP 
11-03T06:00:00,4,31.2,107.5,344.0,"DA XIAN, CH",FM-12,99999,V020,"360,1,N,0010,1","22000,1,9,N","012000,1,N,1","+0242,1","+0148,1","10166,1","06,0000,9,1",,,,,"01,99,1,01,1,01,1,01250,1,00,1,00,1",,"999,N,+0147,1","99999,9,09768,1","7,1,041,1,+999,9",,SYN076AAXX  03061 57328 32662 13601 10242 20148 39768 40166 57041 81100 333 20147;,Q01  00002PRCP06
11-03T09:00:00,4,31.2,107.5,344.0,"DA XIAN, CH",FM-12,99999,V020,"070,1,N,0010,1","22000,1,9,N","025000,1,N,1","+0247,1","+0153,1","10141,1",,,,,"00,1,+99999,9,99,9","00,99,1,00,1,00,1,99999,9,00,1,00,1",,,"99999,9,09749,1","7,1,025,1,+999,9",,SYN054AAXX  03091 57328 42975 00701 10247 20153 40141 57025;,Q01+999990APOSP 
11-03T12:00:00,4,31.2,107.5,344.0,"DA XIAN, CH",FM-12,99999,V020,"040,1,N,0020,1","22000,1,9,N","008000,1,N,1","+0197,1","+0161,1","10149,1","06,0000,9,1",,,,"00,1,+99999,9,99,9","00,99,1,00,1,00,1,99999,9,00,1,00,1",,,"99999,9,09747,1","2,1,004,1,+999,9","10,1",SYN066AAXX  03121 57328 31958 00402 10197 20161 39747 40149 52004 71000;,Q01  00002PRCP06
11-03T15:00:00,4,31.2,107.5,344.0,"DA XIAN, CH",FM-12,99999,V020,"040,1,N,0020,1","22000,1,9,N","006000,1,N,1","+0173,1","+0153,1","10146,1",,,,,"00,1,+99999,9,99,9","00,99,1,00,1,00,1,99999,9,00,1,00,1",,,"99999,9,09744,1","7,1,001,1,+999,9","10,1",SYN060AAXX  03151 57328 41956 00402 10173 20153 40146 57001 71000;,Q01+999990APOSP 
11-03T18:00:00,4,31.2,107.5,344.0,"DA XIAN, CH",FM-12,99999,V020,"040,1,N,0010,1","22000,1,9,N","006000,1,N,1","+0169,1","+0145,1","10133,1","06,0000,9,1",,,,"00,1,+99999,9,99,9","00,99,1,00,1,00,1,99999,9,00,1,00,1",,"999,M,+0260,1","99999,9,09736,1","7,1,010,1,+999,9","10,1",SYN076AAXX  03181 57328 31956 00401 10169 20145 39736 40133 57010 71000 333 10260;,Q01  00002PRCP06
11-03T21:00:00,4,31.2,107.5,344.0,"DA XIAN, CH",FM-12,99999,V020,"040,1,N,0020,1","01500,1,9,N","006000,1,N,1","+0159,1","+0144,1","10125,1","24,0005,9,1",,,,,"08,99,1,08,1,09,1,01750,1,99,9,99,9",,,"99999,9,09722,1","7,1,008,1,+999,9","95,1",SYN076AAXX  03211 57328 41756 80402 10159 20144 40125 57008 79500 889// 333 70006;,Q01+999990APOSP 
11-04T00:00:00,4,31.2,107.5,344.0,"DA XIAN, CH",FM-12,99999,V020,"040,1,N,0050,1","01500,1,9,N","016000,1,N,1","+0157,1","+0136,1","10144,1","06,0041,9,1","24,0043,9,1","9,1,06,1","8,1,06,1",,"08,99,1,08,1,09,1,01750,1,99,9,99,9",,,"99999,9,09743,1","2,1,015,1,-060,1","29,1",SYN094AAXX  04001 57328 11766 80405 10157 20136 39743 40144 52015 60041 72998 889// 333 05601 70043;,
11-04T03:00:00,4,31.2,107.5,344.0,"DA XIAN, CH",FM-12,99999,V020,"090,1,N,0050,1","01500,1,9,N","008000,1,N,1","+0163,1","+0135,1","10155,1",,,,,,"08,99,1,08,1,09,1,01750,1,99,9,99,9",,,"99999,9,09752,1","2,1,009,1,+999,9","95,1",SYN066AAXX  04031 57328 41758 80905 10163 20135 40155 52009 79500 889//;,Q01+999990APOSP 
11-04T06:00:00,4,31.2,107.5,344.0,"DA XIAN, CH",FM-12,99999,V020,"040,1,N,0020,1","02100,1,9,N","015000,1,N,1","+0159,1","+0145,1","10125,1","06,0071,9,1",,"9,1,06,1","8,1,06,1",,"08,99,1,08,1,05,1,02250,1,99,9,99,9",,"999,N,+0149,1","99999,9,09723,1","7,1,029,1,+999,9","00,1",SYN088AAXX  04061 57328 11865 80402 10159 20145 39723 40125 57029 60071 70098 885// 333 20149;,
11-04T09:00:00,4,31.2,107.5,344.0,"DA XIAN, CH",FM-12,99999,V020,"020,1,N,0010,1","99999,9,9,N","015000,1,N,1","+0170,1","+0141,1","10119,1",,,,,,"08,99,1,08,1,00,1,99999,9,07,1,99,9",,,"99999,9,09718,1","7,1,006,1,+999,9",,SYN060AAXX  04091 57328 42965 80201 10170 20141 40119 57006 8807/;,Q01+999990APOSP 
11-04T12:00:00,4,31.2,107.5,344.0,"DA XIAN, CH",FM-12,99999,V020,"999,9,C,0000,1","99999,9,9,N","007000,1,N,1","+0161,1","+0147,1","10130,1","06,0000,9,1",,,,,"07,99,1,07,1,00,1,99999,9,04,1,99,9",,,"99999,9,09727,1","2,1,010,1,+999,9","10,1",SYN072AAXX  04121 57328 31957 70000 10161 20147 39727 40130 52010 71000 8704/;,Q01  00002PRCP06
11-04T15:00:00,4,31.2,107.5,344.0,"DA XIAN, CH",FM-12,99999,V020,"040,1,N,0020,1","99999,9,9,N","007000,1,N,1","+0149,1","+0142,1","10145,1",,,,,,"07,99,1,07,1,00,1,99999,9,04,1,99,9",,,"99999,9,09740,1","2,1,014,1,+999,9","10,1",SYN066AAXX  04151 57328 41957 70402 10149 20142 40145 52014 71000 8704/;,Q01+999990APOSP 
11-04T18:00:00,4,31.2,107.5,344.0,"DA XIAN, CH",FM-12,99999,V020,"040,1,N,0030,1","99999,9,9,N","006000,1,N,1","+0148,1","+0139,1","10145,1","06,0000,9,1",,,,,"07,99,1,07,1,00,1,99999,9,04,1,99,9",,"999,M,+0172,1","99999,9,09741,1","4,1,000,1,+999,9","10,1",SYN082AAXX  04181 57328 31956 70403 10148 20139 39741 40145 54000 71000 8704/ 333 10172;,Q01  00002PRCP06
11-04T21:00:00,4,31.2,107.5,344.0,"DA XIAN, CH",FM-12,99999,V020,"090,1,N,0020,1","99999,9,9,N","004000,1,N,1","+0147,1","+0138,1","10132,1","24,0107,9,1",,,,,"07,99,1,07,1,00,1,99999,9,04,1,99,9",,,"99999,9,09727,1","7,1,012,1,+999,9","10,1",SYN076AAXX  04211 57328 41940 70902 10147 20138 40132 57012 71000 8704/ 333 70107;,Q01+999990APOSP 
11-05T00:00:00,4,31.2,107.5,344.0,"DA XIAN, CH",FM-12,99999,V020,"040,1,N,0020,1","22000,1,9,N","001100,1,N,1","+0137,1","+0133,1","10145,1","06,0000,9,1","24,0071,9,1",,,"00,1,+99999,9,99,9","00,99,1,00,1,00,1,99999,9,00,1,00,1",,,"99999,9,09740,1","2,1,011,1,+000,1","10,1",SYN082AAXX  05001 57328 31911 00402 10137 20133 39740 40145 52011 71000 333 00052 70070;,Q01  00002PRCP06
11-05T03:00:00,4,31.2,107.5,344.0,"DA XIAN, CH",FM-12,99999,V020,"040,1,N,0030,1","22000,1,9,N","008000,1,N,1","+0173,1","+0140,1","10148,1",,,"4,1,03,1",,"00,1,+99999,9,99,9","00,99,1,00,1,00,1,99999,9,00,1,00,1",,,"99999,9,09746,1","2,1,005,1,+999,9","10,1",SYN060AAXX  05031 57328 41958 00403 10173 20140 40148 52005 71040;,Q01+999990APOSP 
11-05T06:00:00,4,31.2,107.5,344.0,"DA XIAN, CH",FM-12,99999,V020,"020,1,N,0010,1","22000,1,9,N","012000,1,N,1","+0217,1","+0140,1","10104,1","06,0000,9,1",,"4,1,06,1",,"00,1,+99999,9,99,9","00,99,1,00,1,00,1,99999,9,00,1,00,1",,"999,N,+0135,1","99999,9,09705,1","7,1,040,1,+999,9","00,1",SYN076AAXX  05061 57328 31962 00201 10217 20140 39705 40104 57040 70040 333 20135;,Q01  00002PRCP06
11-05T09:00:00,4,31.2,107.5,344.0,"DA XIAN, CH",FM-12,99999,V020,"020,1,N,0020,1","22000,1,9,N","012000,1,N,1","+0219,1","+0161,1","10084,1",,,,,"00,1,+99999,9,99,9","00,99,1,00,1,00,1,99999,9,00,1,00,1",,,"99999,9,09691,1","7,1,019,1,+999,9",,SYN054AAXX  05091 57328 42962 00202 10219 20161 40084 57019;,Q01+999990APOSP 
11-05T12:00:00,4,31.2,107.5,344.0,"DA XIAN, CH",FM-12,99999,V020,"040,1,N,0010,1","22000,1,9,N","009000,1,N,1","+0185,1","+0169,1","10084,1","06,0000,9,1",,,,"00,1,+99999,9,99,9","00,99,1,00,1,00,1,99999,9,00,1,00,1",,,"99999,9,09683,1","7,1,003,1,+999,9","10,1",SYN066AAXX  05121 57328 31959 00401 10185 20169 39683 40084 57003 71000;,Q01  00002PRCP06
11-05T15:00:00,4,31.2,107.5,344.0,"DA XIAN, CH",FM-12,99999,V020,"040,1,N,0030,1","22000,1,9,N","006000,1,N,1","+0171,1","+0156,1","10096,1",,,,,"00,1,+99999,9,99,9","00,99,1,00,1,00,1,99999,9,00,1,00,1",,,"99999,9,09696,1","2,1,013,1,+999,9","10,1",SYN060AAXX  05151 57328 41956 00403 10171 20156 40096 52013 71000;,Q01+999990APOSP 
11-05T18:00:00,4,31.2,107.5,344.0,"DA XIAN, CH",FM-12,99999,V020,"040,1,N,0020,1","99999,9,9,N","008000,1,N,1","+0163,1","+0149,1","10085,1","06,0000,9,1",,,,,"08,99,1,08,1,00,1,99999,9,07,1,99,9",,"999,M,+0228,1","99999,9,09688,1","7,1,008,1,+999,9","10,1",SYN082AAXX  05181 57328 31958 80402 10163 20149 39688 40085 57008 71000 8807/ 333 10228;,Q01  00002PRCP06
11-05T21:00:00,4,31.2,107.5,344.0,"DA XIAN, CH",FM-12,99999,V020,"020,1,N,0010,1","99999,9,9,N","007000,1,N,1","+0169,1","+0152,1","10065,1",,,,,,"08,99,1,08,1,00,1,99999,9,07,1,99,9",,,"99999,9,09666,1","7,1,019,1,+999,9","10,1",SYN066AAXX  05211 57328 41957 80201 10169 20152 40065 57019 71000 8807/;,Q01+999990APOSP 
11-06T00:00:00,4,31.2,107.5,344.0,"DA XIAN, CH",FM-12,99999,V020,"040,1,N,0010,1","02100,1,9,N","008000,1,N,1","+0173,1","+0156,1","10069,1","06,0000,9,1",,,,,"08,99,1,08,1,05,1,02250,1,99,9,99,9",,,"99999,9,09671,1","2,1,002,1,+007,1","10,1",SYN082AAXX  06001 57328 31858 80401 10173 20156 39671 40069 52002 71000 885// 333 05704;,Q01  00002PRCP06
11-06T03:00:00,4,31.2,107.5,344.0,"DA XIAN, CH",FM-12,99999,V020,"040,1,N,0010,1","99999,9,9,N","008000,1,N,1","+0200,1","+0163,1","10072,1",,,,,,"07,99,1,07,1,00,1,99999,9,04,1,99,9",,,"99999,9,09677,1","2,1,004,1,+999,9","10,1",SYN066AAXX  06031 57328 41958 70401 10200 20163 40072 52004 71000 8704/;,Q01+999990APOSP 
11-06T06:00:00,4,31.2,107.5,344.0,"DA XIAN, CH",FM-12,99999,V020,"020,1,N,0010,1","22000,1,9,N","009000,1,N,1","+0245,1","+0180,1","10030,1","06,0000,9,1",,,,,"02,99,1,02,1,00,1,99999,9,04,1,00,1",,,"99999,9,09637,1","7,1,038,1,+150,1","10,1",SYN081AAXX  06061 57328 31959 20201 10245 20180 39637 40030 57038 71000 82040 333 0157;,Q01  00002PRCP06
11-06T09:00:00,4,31.2,107.5,344.0,"DA XIAN, CH",FM-12,99999,V020,"040,1,N,0010,1","99999,9,9,N","012000,1,N,1","+0253,1","+0160,1","10022,1",,,,,,"07,99,1,07,1,00,1,99999,9,04,1,99,9",,,"99999,9,09636,1","7,1,007,1,+999,9",,SYN060AAXX  06091 57328 42962 70401 10253 20160 40022 57007 8704/;,Q01+999990APOSP 
11-06T12:00:00,4,31.2,107.5,344.0,"DA XIAN, CH",FM-12,99999,V020,"040,1,N,0030,1","22000,1,9,N","012000,1,N,1","+0228,1","+0160,1","10041,1","06,0000,9,1",,,,,"01,99,1,01,1,00,1,99999,9,04,1,00,1",,,"99999,9,09647,1","2,1,017,1,+999,9",,SYN066AAXX  06121 57328 32962 10403 10228 20160 39647 40041 52017 81040;,Q01  00002PRCP06
11-06T15:00:00,4,31.2,107.5,344.0,"DA XIAN, CH",FM-12,99999,V020,"040,1,N,0010,1","99999,9,9,N","012000,1,N,1","+0205,1","+0158,1","10058,1",,,,,,"08,99,1,08,1,00,1,99999,9,07,1,99,9",,,"99999,9,09664,1","2,1,017,1,+999,9",,SYN060AAXX  06151 57328 42962 80401 10205 20158 40058 52017 8807/;,Q01+999990APOSP 
11-06T18:00:00,4,31.2,107.5,344.0,"DA XIAN, CH",FM-12,99999,V020,"180,1,N,0010,1","01500,1,9,N","003000,1,N,1","+0187,1","+0173,1","10061,1","06,0071,9,1",,"9,1,06,1","6,1,06,1",,"08,99,1,08,1,09,1,01750,1,99,9,99,9",,"999,M,+0259,1","99999,9,09668,1","2,1,004,1,+999,9","95,1",SYN088AAXX  06181 57328 11730 81801 10187 20173 39668 40061 52004 60071 79596 889// 333 10259;,
11-06T21:00:00,4,31.2,107.5,344.0,"DA XIAN, CH",FM-12,99999,V020,"070,1,N,0010,1","01500,1,9,N","003000,1,N,1","+0180,1","+0175,1","10063,1","24,0160,9,1",,"9,1,03,1","8,1,03,1",,"08,99,1,08,1,09,1,01750,1,99,9,99,9",,,"99999,9,09666,1","2,1,002,1,+999,9","95,1",SYN076AAXX  06211 57328 41730 80701 10180 20175 40063 52002 79598 889// 333 70161;,Q01+999990APOSP 
11-07T00:00:00,4,31.2,107.5,344.0,"DA XIAN, CH",FM-12,99999,V020,"040,1,N,0020,1","00420,1,9,N","015000,1,N,1","+0164,1","+0152,1","10087,1","06,0140,9,1","24,0206,9,1","9,1,06,1","8,1,06,1",,"08,99,1,08,1,09,1,00450,1,99,9,99,9",,,"99999,9,09691,1","2,1,021,1,+020,1","80,1",SYN094AAXX  07001 57328 11465 80402 10164 20152 39691 40087 52021 60141 78098 889// 333 00251 70207;,
11-07T03:00:00,4,31.2,107.5,344.0,"DA XIAN, CH",FM-12,99999,V020,"040,1,N,0020,1","99999,9,9,N","020000,1,N,1","+0180,1","+0162,1","10106,1",,,"8,1,03,1",,,"07,99,1,07,1,00,1,99999,9,04,1,99,9",,,"99999,9,09707,1","2,1,017,1,+999,9","00,1",SYN066AAXX  07031 57328 41970 70402 10180 20162 40106 52017 70080 8704/;,Q01+999990APOSP 
11-07T06:00:00,4,31.2,107.5,344.0,"DA XIAN, CH",FM-12,99999,V020,"020,1,N,0020,1","02100,1,9,N","030000,1,N,1","+0193,1","+0142,1","10090,1","06,9999,9,9",,"8,1,06,1",,,"08,99,1,08,1,05,1,02250,1,99,9,99,9",,"999,N,+0161,1","99999,9,09693,1","7,1,015,1,+999,9","00,1",SYN088AAXX  07061 57328 11880 80202 10193 20142 39693 40090 57015 69901 70080 885// 333 20161;,
11-07T09:00:00,4,31.2,107.5,344.0,"DA XIAN, CH",FM-12,99999,V020,"040,1,N,0050,1","02100,1,9,N","030000,1,N,1","+0177,1","+0110,1","10104,1",,,,,,"08,99,1,08,1,05,1,02250,1,99,9,99,9",,,"99999,9,09705,1","2,1,012,1,+999,9",,SYN060AAXX  07091 57328 42880 80405 10177 20110 40104 52012 885//;,Q01+999990APOSP 
11-07T12:00:00,4,31.2,107.5,344.0,"DA XIAN, CH",FM-12,99999,V020,"040,1,N,0040,1","02100,1,9,N","020000,1,N,1","+0161,1","+0084,1","10129,1","06,0000,9,1",,,,,"08,99,1,08,1,05,1,02250,1,99,9,99,9",,,"99999,9,09727,1","2,1,022,1,+999,9",,SYN066AAXX  07121 57328 32870 80404 10161 20084 39727 40129 52022 885//;,Q01  00002PRCP06
11-07T15:00:00,4,31.2,107.5,344.0,"DA XIAN, CH",FM-12,99999,V020,"360,1,N,0050,1","02100,1,9,N","025000,1,N,1","+0149,1","+0078,1","10153,1",,,,,,"08,99,1,08,1,05,1,02250,1,99,9,99,9",,,"99999,9,09748,1","2,1,023,1,+999,9",,SYN060AAXX  07151 57328 42875 83605 10149 20078 40153 52023 885//;,Q01+999990APOSP 
11-07T18:00:00,4,31.2,107.5,344.0,"DA XIAN, CH",FM-12,99999,V020,"040,1,N,0050,1","02100,1,9,N","030000,1,N,1","+0135,1","+0073,1","10152,1","06,0000,9,1",,,,,"08,99,1,08,1,05,1,02250,1,99,9,99,9",,"999,M,+0193,1","99999,9,09749,1","7,1,001,1,+999,9",,SYN076AAXX  07181 57328 32880 80405 10135 20073 39749 40152 57001 885// 333 10193;,Q01  00002PRCP06
11-07T21:00:00,4,31.2,107.5,344.0,"DA XIAN, CH",FM-12,99999,V020,"040,1,N,0060,1","02100,1,9,N","030000,1,N,1","+0130,1","+0057,1","10155,1","24,0046,9,1",,,,,"08,99,1,08,1,05,1,02250,1,99,9,99,9",,,"99999,9,09747,1","2,1,001,1,+999,9",,SYN070AAXX  07211 57328 42880 80406 10130 20057 40155 52001 885// 333 70046;,Q01+999990APOSP 
11-08T00:00:00,4,31.2,107.5,344.0,"DA XIAN, CH",FM-12,99999,V020,"020,1,N,0030,1","02100,1,9,N","020000,1,N,1","+0116,1","+0069,1","10182,1","06,9999,9,9","24,0000,2,1",,,,"08,99,1,08,1,05,1,02250,1,99,9,99,9",,,"99999,9,09774,1","2,1,024,1,+080,1","60,1",SYN094AAXX  08001 57328 11870 80203 10116 20069 39774 40182 52024 69901 76000 885// 333 00855 79999;,
11-08T03:00:00,4,31.2,107.5,344.0,"DA XIAN, CH",FM-12,99999,V020,"040,1,N,0040,1","02100,1,9,N","012000,1,N,1","+0095,1","+0081,1","10210,1",,,"6,1,03,1","6,1,03,1",,"08,99,1,08,1,05,1,02250,1,99,9,99,9",,,"99999,9,09795,1","2,1,025,1,+999,9","60,1",SYN066AAXX  08031 57328 41862 80404 10095 20081 40210 52025 76066 885//;,Q01+999990APOSP 
11-08T06:00:00,4,31.2,107.5,344.0,"DA XIAN, CH",FM-12,99999,V020,"040,1,N,0020,1","02100,1,9,N","015000,1,N,1","+0096,1","+0088,1","10190,1","06,0071,9,1",,"6,1,06,1","6,1,06,1",,"08,99,1,08,1,05,1,02250,1,99,9,99,9",,"999,N,+0095,1","99999,9,09779,1","7,1,020,1,+999,9","60,1",SYN088AAXX  08061 57328 11865 80402 10096 20088 39779 40190 57020 60071 76066 885// 333 20095;,
11-08T09:00:00,4,31.2,107.5,344.0,"DA XIAN, CH",FM-12,99999,V020,"040,1,N,0030,1","02100,1,9,N","020000,1,N,1","+0100,1","+0086,1","10183,1",,,"6,1,03,1","6,1,03,1",,"08,99,1,08,1,05,1,02250,1,99,9,99,9",,,"99999,9,09770,1","7,1,007,1,+999,9","60,1",SYN066AAXX  08091 57328 41870 80403 10100 20086 40183 57007 76066 885//;,Q01+999990APOSP 
11-08T12:00:00,4,31.2,107.5,344.0,"DA XIAN, CH",FM-12,99999,V020,"040,1,N,0040,1","02100,1,9,N","020000,1,N,1","+0101,1","+0083,1","10196,1","06,9999,9,9",,"6,1,06,1",,,"08,99,1,08,1,05,1,02250,1,99,9,99,9",,,"99999,9,09783,1","2,1,011,1,+999,9","00,1",SYN078AAXX  08121 57328 11870 80404 10101 20083 39783 40196 52011 69901 70060 885//;,
11-08T15:00:00,4,31.2,107.5,344.0,"DA XIAN, CH",FM-12,99999,V020,"090,1,N,0010,1","02100,1,9,N","015000,1,N,1","+0101,1","+0083,1","10206,1",,,"6,1,03,1",,,"08,99,1,08,1,05,1,02250,1,99,9,99,9",,,"99999,9,09792,1","2,1,008,1,+999,9","60,1",SYN066AAXX  08151 57328 41865 80901 10101 20083 40206 52008 76060 885//;,Q01+999990APOSP 
11-08T18:00:00,4,31.2,107.5,344.0,"DA XIAN, CH",FM-12,99999,V020,"040,1,N,0030,1","02100,1,9,N","008000,1,N,1","+0089,1","+0079,1","10213,1","06,0030,9,1",,"6,1,06,1",,,"08,99,1,08,1,05,1,02250,1,99,9,99,9",,"999,M,+0136,1","99999,9,09797,1","2,1,006,1,+999,9","60,1",SYN088AAXX  08181 57328 11858 80403 10089 20079 39797 40213 52006 60031 76060 885// 333 10136;,
11-08T21:00:00,4,31.2,107.5,344.0,"DA XIAN, CH",FM-12,99999,V020,"040,1,N,0030,1","02100,1,9,N","012000,1,N,1","+0084,1","+0078,1","10210,1","24,0107,9,1",,"6,1,03,1","6,1,03,1",,"08,99,1,08,1,05,1,02250,1,99,9,99,9",,,"99999,9,09793,1","7,1,003,1,+999,9","60,1",SYN076AAXX  08211 57328 41862 80403 10084 20078 40210 57003 76066 885// 333 70107;,Q01+999990APOSP 
11-09T00:00:00,4,31.2,107.5,344.0,"DA XIAN, CH",FM-12,99999,V020,"040,1,N,0020,1","02100,1,9,N","006000,1,N,1","+0081,1","+0073,1","10231,1","06,0010,9,1","24,0112,9,1","6,1,06,1","6,1,06,1",,"08,99,1,08,1,05,1,02250,1,99,9,99,9",,,"99999,9,09814,1","2,1,020,1,+040,1","60,1",SYN094AAXX  09001 57328 11856 80402 10081 20073 39814 40231 52020 60011 76066 885// 333 00454 70113;,
11-09T03:00:00,4,31.2,107.5,344.0,"DA XIAN, CH",FM-12,99999,V020,"040,1,N,0020,1","02100,1,9,N","015000,1,N,1","+0081,1","+0068,1","10240,1",,,"6,1,03,1","6,1,03,1",,"08,99,1,08,1,05,1,02250,1,99,9,99,9",,,"99999,9,09822,1","2,1,009,1,+999,9","60,1",SYN066AAXX  09031 57328 41865 80402 10081 20068 40240 52009 76066 885//;,Q01+999990APOSP 
11-09T06:00:00,4,31.2,107.5,344.0,"DA XIAN, CH",FM-12,99999,V020,"360,1,N,0040,1","02100,1,9,N","030000,1,N,1","+0094,1","+0064,1","10222,1","06,0005,9,1",,"6,1,06,1",,,"08,99,1,08,1,05,1,02250,1,99,9,99,9",,"999,N,+0077,1","99999,9,09806,1","7,1,017,1,+999,9","00,1",SYN088AAXX  09061 57328 11880 83604 10094 20064 39806 40222 57017 69951 70060 885// 333 20077;,
11-09T09:00:00,4,31.2,107.5,344.0,"DA XIAN, CH",FM-12,99999,V020,"020,1,N,0020,1","02100,1,9,N","030000,1,N,1","+0094,1","+0057,1","10227,1",,,,,,"08,99,1,08,1,05,1,02250,1,99,9,99,9",,,"99999,9,09811,1","2,1,004,1,+999,9","21,1",SYN066AAXX  09091 57328 41880 80202 10094 20057 40227 52004 72100 885//;,Q01+999990APOSP 
11-09T12:00:00,4,31.2,107.5,344.0,"DA XIAN, CH",FM-12,99999,V020,"360,1,N,0010,1","02100,1,9,N","020000,1,N,1","+0095,1","+0051,1","10255,1","06,9999,9,9",,"6,1,06,1",,,"08,99,1,08,1,05,1,02250,1,99,9,99,9",,,"99999,9,09837,1","2,1,027,1,+999,9","00,1",SYN078AAXX  09121 57328 11870 83601 10095 20051 39837 40255 52027 69901 70060 885//;,
11-09T15:00:00,4,31.2,107.5,344.0,"DA XIAN, CH",FM-12,99999,V020,"360,1,N,0020,1","02100,1,9,N","030000,1,N,1","+0092,1","+0027,1","10277,1",,,,,,"08,99,1,08,1,05,1,02250,1,99,9,99,9",,,"99999,9,09859,1","2,1,021,1,+999,9",,SYN060AAXX  09151 57328 42880 83602 10092 20027 40277 52021 885//;,Q01+999990APOSP 
11-09T18:00:00,4,31.2,107.5,344.0,"DA XIAN, CH",FM-12,99999,V020,"040,1,N,0030,1","99999,9,9,N","030000,1,N,1","+0089,1","+0029,1","10284,1","06,0000,9,1",,,,,"08,99,1,08,1,00,1,99999,9,07,1,99,9",,"999,M,+0095,1","99999,9,09865,1","2,1,007,1,+999,9",,SYN076AAXX  09181 57328 32980 80403 10089 20029 39865 40284 52007 8807/ 333 10095;,Q01  00002PRCP06
11-09T21:00:00,4,31.2,107.5,344.0,"DA XIAN, CH",FM-12,99999,V020,"070,1,N,0010,1","99999,9,9,N","020000,1,N,1","+0084,1","+0033,1","10280,1","24,0010,9,1",,,,,"08,99,1,08,1,00,1,99999,9,07,1,99,9",,,"99999,9,09861,1","7,1,004,1,+999,9",,SYN070AAXX  09211 57328 42970 80701 10084 20033 40280 57004 8807/ 333 70011;,Q01+999990APOSP 
11-10T00:00:00,4,31.2,107.5,344.0,"DA XIAN, CH",FM-12,99999,V020,"360,1,N,0020,1","99999,9,9,N","030000,1,N,1","+0087,1","+0032,1","10288,1","06,0000,9,1","24,0005,9,1",,,,"08,99,1,08,1,00,1,99999,9,07,1,99,9",,,"99999,9,09869,1","2,1,008,1,+060,1",,SYN082AAXX  10001 57328 32980 83602 10087 20032 39869 40288 52008 8807/ 333 00601 70005;,Q01  00002PRCP06
11-10T03:00:00,4,31.2,107.5,344.0,"DA XIAN, CH",FM-12,99999,V020,"360,1,N,0020,1","99999,9,9,N","030000,1,N,1","+0103,1","+0041,1","10298,1",,,,,,"08,99,1,08,1,00,1,99999,9,07,1,99,9",,,"99999,9,09881,1","2,1,011,1,+999,9",,SYN060AAXX  10031 57328 42980 83602 10103 20041 40298 52011 8807/;,Q01+999990APOSP 
11-10T06:00:00,4,31.2,107.5,344.0,"DA XIAN, CH",FM-12,99999,V020,"040,1,N,0020,1","99999,9,9,N","030000,1,N,1","+0111,1","+0040,1","10275,1","06,0000,9,1",,,,,"08,99,1,08,1,00,1,99999,9,07,1,99,9",,"999,N,+0083,1","99999,9,09858,1","7,1,022,1,+999,9",,SYN076AAXX  10061 57328 32980 80402 10111 20040 39858 40275 57022 8807/ 333 20083;,Q01  00002PRCP06
11-10T09:00:00,4,31.2,107.5,344.0,"DA XIAN, CH",FM-12,99999,V020,"999,9,C,0000,1","99999,9,9,N","030000,1,N,1","+0119,1","+0058,1","10265,1",,,,,,"08,99,1,08,1,00,1,99999,9,07,1,99,9",,,"99999,9,09851,1","7,1,009,1,+999,9",,SYN060AAXX  10091 57328 42980 80000 10119 20058 40265 57009 8807/;,Q01+999990APOSP 
11-10T12:00:00,4,31.2,107.5,344.0,"DA XIAN, CH",FM-12,99999,V020,"999,9,C,0000,1","99999,9,9,N","030000,1,N,1","+0109,1","+0076,1","10282,1","06,0000,9,1",,,,,"08,99,1,08,1,00,1,99999,9,07,1,99,9",,,"99999,9,09864,1","2,1,015,1,+999,9",,SYN066AAXX  10121 57328 32980 80000 10109 20076 39864 40282 52015 8807/;,Q01  00002PRCP06
11-10T15:00:00,4,31.2,107.5,344.0,"DA XIAN, CH",FM-12,99999,V020,"160,1,N,0010,1","99999,9,9,N","030000,1,N,1","+0105,1","+0081,1","10295,1",,,,,,"08,99,1,08,1,00,1,99999,9,07,1,99,9",,,"99999,9,09878,1","2,1,014,1,+999,9",,SYN060AAXX  10151 57328 42980 81601 10105 20081 40295 52014 8807/;,Q01+999990APOSP 
11-10T18:00:00,4,31.2,107.5,344.0,"DA XIAN, CH",FM-12,99999,V020,"360,1,N,0010,1","99999,9,9,N","012000,1,N,1","+0100,1","+0086,1","10296,1","06,9999,9,9",,,,,"08,99,1,08,1,00,1,99999,9,02,1,99,9",,"999,M,+0119,1","99999,9,09879,1","2,1,001,1,+999,9","60,1",SYN088AAXX  10181 57328 11962 83601 10100 20086 39879 40296 52001 69911 76000 8802/ 333 10119;,
11-10T21:00:00,4,31.2,107.5,344.0,"DA XIAN, CH",FM-12,99999,V020,"999,9,C,0000,1","02100,1,9,N","007000,1,N,1","+0098,1","+0088,1","10290,1","24,0003,9,1",,"6,1,03,1",,,"08,99,1,08,1,05,1,02250,1,99,9,99,9",,,"99999,9,09872,1","7,1,005,1,+999,9","60,1",SYN076AAXX  10211 57328 41857 80000 10098 20088 40290 57005 76060 885// 333 70003;,Q01+999990APOSP 
11-11T00:00:00,4,31.2,107.5,344.0,"DA XIAN, CH",FM-12,99999,V020,"999,9,C,0000,1","02100,1,9,N","006000,1,N,1","+0095,1","+0083,1","10314,1","06,0003,9,1","24,0005,9,1","6,1,06,1",,,"08,99,1,08,1,05,1,02250,1,99,9,99,9",,,"99999,9,09896,1","2,1,022,1,+030,1","60,1",SYN094AAXX  11001 57328 11856 80000 10095 20083 39896 40314 52022 69931 76060 885// 333 00301 70004;,
11-11T03:00:00,4,31.2,107.5,344.0,"DA XIAN, CH",FM-12,99999,V020,"040,1,N,0010,1","02100,1,9,N","008000,1,N,1","+0096,1","+0075,1","10336,1",,,"6,1,03,1","6,1,03,1",,"08,99,1,08,1,05,1,02250,1,99,9,99,9",,,"99999,9,09916,1","2,1,021,1,+999,9","60,1",SYN066AAXX  11031 57328 41858 80401 10096 20075 40336 52021 76066 885//;,Q01+999990APOSP 
11-11T06:00:00,4,31.2,107.5,344.0,"DA XIAN, CH",FM-12,99999,V020,"040,1,N,0010,1","02100,1,9,N","008000,1,N,1","+0093,1","+0063,1","10323,1","06,0005,9,1",,"6,1,06,1","6,1,06,1",,"08,99,1,08,1,05,1,02250,1,99,9,99,9",,"999,N,+0088,1","99999,9,09903,1","7,1,014,1,+999,9","60,1",SYN088AAXX  11061 57328 11858 80401 10093 20063 39903 40323 57014 69941 76066 885// 333 20088;,
11-11T09:00:00,4,31.2,107.5,344.0,"DA XIAN, CH",FM-12,99999,V020,"999,9,C,0000,1","99999,9,9,N","015000,1,N,1","+0105,1","+0072,1","10320,1",,,"6,1,03,1",,,"08,99,1,08,1,00,1,99999,9,07,1,99,9",,,"99999,9,09902,1","7,1,002,1,+999,9","00,1",SYN066AAXX  11091 57328 41965 80000 10105 20072 40320 57002 70060 8807/;,Q01+999990APOSP 
11-11T12:00:00,4,31.2,107.5,344.0,"DA XIAN, CH",FM-12,99999,V020,"999,9,C,0000,1","02100,1,9,N","015000,1,N,1","+0104,1","+0077,1","10338,1","06,9999,9,9",,"6,1,06,1",,,"08,99,1,08,1,05,1,02250,1,99,9,99,9",,,"99999,9,09918,1","2,1,017,1,+999,9","00,1",SYN078AAXX  11121 57328 11865 80000 10104 20077 39918 40338 52017 69901 70060 885//;,
11-11T15:00:00,4,31.2,107.5,344.0,"DA XIAN, CH",FM-12,99999,V020,"999,9,C,0000,1","02100,1,9,N","012000,1,N,1","+0101,1","+0085,1","10350,1",,,,,,"08,99,1,08,1,05,1,02250,1,99,9,99,9",,,"99999,9,09930,1","2,1,012,1,+999,9",,SYN060AAXX  11151 57328 42862 80000 10101 20085 40350 52012 885//;,Q01+999990APOSP 
11-11T18:00:00,4,31.2,107.5,344.0,"DA XIAN, CH",FM-12,99999,V020,"040,1,N,0010,1","02100,1,9,N","020000,1,N,1","+0098,1","+0075,1","10346,1","06,0000,9,1",,,,,"08,99,1,08,1,05,1,02250,1,99,9,99,9",,"999,M,+0105,1","99999,9,09925,1","7,1,005,1,+999,9",,SYN076AAXX  11181 57328 32870 80401 10098 20075 39925 40346 57005 885// 333 10105;,Q01  00002PRCP06
11-11T21:00:00,4,31.2,107.5,344.0,"DA XIAN, CH",FM-12,99999,V020,"040,1,N,0030,1","99999,9,9,N","020000,1,N,1","+0080,1","+0049,1","10332,1","24,0005,9,1",,,,,"07,99,1,07,1,00,1,99999,9,04,1,99,9",,,"99999,9,09910,1","7,1,013,1,+999,9",,SYN070AAXX  11211 57328 42970 70403 10080 20049 40332 57013 8704/ 333 70005;,Q01+999990APOSP 
11-12T00:00:00,4,31.2,107.5,344.0,"DA XIAN, CH",FM-12,99999,V020,"040,1,N,0040,1","99999,9,9,N","020000,1,N,1","+0071,1","+0036,1","10337,1","06,0000,9,1","24,0005,9,1",,,,"08,99,1,08,1,00,1,99999,9,07,1,99,9",,,"99999,9,09916,1","2,1,004,1,+020,1",,SYN082AAXX  12001 57328 32970 80404 10071 20036 39916 40337 52004 8807/ 333 00252 70004;,Q01  00002PRCP06
11-12T03:00:00,4,31.2,107.5,344.0,"DA XIAN, CH",FM-12,99999,V020,"070,1,N,0030,1","99999,9,9,N","020000,1,N,1","+0084,1","+0041,1","10340,1",,,,,,"08,99,1,08,1,00,1,99999,9,02,1,99,9",,,"99999,9,09918,1","2,1,003,1,+999,9",,SYN060AAXX  12031 57328 42970 80703 10084 20041 40340 52003 8802/;,Q01+999990APOSP 
11-12T09:00:00,4,31.2,107.5,344.0,"DA XIAN, CH",FM-12,99999,V020,"360,1,N,0020,1","22000,1,9,N","020000,1,N,1","+0130,1","+0076,1","10257,2",,,,,"00,1,+99999,9,99,9","00,99,1,00,1,00,1,99999,9,00,1,00,1",,,,"7,1,037,1,+999,9",,SYN054AAXX  12091 57328 42970 03602 10130 20076 40257 57037;,Q01+102573APOSLP
11-12T12:00:00,4,31.2,107.5,344.0,"DA XIAN, CH",FM-12,99999,V020,"020,1,N,0010,1","99999,9,9,N","012000,1,N,1","+0107,1","+0081,1","10258,1","06,0000,9,1",,,,,"08,99,1,08,1,00,1,99999,9,07,1,99,9",,,"99999,9,09840,1","7,1,001,1,+999,9",,SYN066AAXX  12121 57328 32962 80201 10107 20081 39840 40258 57001 8807/;,Q01  00002PRCP06
11-12T15:00:00,4,31.2,107.5,344.0,"DA XIAN, CH",FM-12,99999,V020,"040,1,N,0020,1","99999,9,9,N","012000,1,N,1","+0096,1","+0082,1","10264,1",,,,,,"08,99,1,08,1,00,1,99999,9,07,1,99,9",,,"99999,9,09847,1","2,1,006,1,+999,9",,SYN060AAXX  12151 57328 42962 80402 10096 20082 40264 52006 8807/;,Q01+999990APOSP 
11-12T18:00:00,4,31.2,107.5,344.0,"DA XIAN, CH",FM-12,99999,V020,"040,1,N,0020,1","99999,9,9,N","011000,1,N,1","+0100,1","+0073,1","10243,1","06,0000,9,1",,,,,"08,99,1,08,1,00,1,99999,9,07,1,99,9",,"999,M,+0130,1","99999,9,09829,1","7,1,017,1,+999,9",,SYN076AAXX  12181 57328 32961 80402 10100 20073 39829 40243 57017 8807/ 333 10130;,Q01  00002PRCP06
11-12T21:00:00,4,31.2,107.5,344.0,"DA XIAN, CH",FM-12,99999,V020,"040,1,N,0010,1","99999,9,9,N","004000,1,N,1","+0099,1","+0070,1","10225,1",,,,,,"08,99,1,08,1,00,1,99999,9,07,1,99,9",,,"99999,9,09810,1","7,1,017,1,+999,9","10,1",SYN066AAXX  12211 57328 41940 80401 10099 20070 40225 57017 71000 8807/;,Q01+999990APOSP 
11-13T00:00:00,4,31.2,107.5,344.0,"DA XIAN, CH",FM-12,99999,V020,"020,1,N,0020,1","99999,9,9,N","008000,1,N,1","+0101,1","+0070,1","10225,1","06,0000,9,1",,,,,"08,99,1,08,1,00,1,99999,9,07,1,99,9",,,"99999,9,09811,1","7,1,001,1,+011,1","10,1",SYN082AAXX  13001 57328 31958 80202 10101 20070 39811 40225 57001 71000 8807/ 333 06103;,Q01  00002PRCP06
11-13T03:00:00,4,31.2,107.5,344.0,"DA XIAN, CH",FM-12,99999,V020,"360,1,N,0010,1","99999,9,9,N","008000,1,N,1","+0108,1","+0075,1","10233,1",,,,,,"08,99,1,08,1,00,1,99999,9,07,1,99,9",,,"99999,9,09819,1","2,1,007,1,+999,9","10,1",SYN066AAXX  13031 57328 41958 83601 10108 20075 40233 52007 71000 8807/;,Q01+999990APOSP 
11-13T06:00:00,4,31.2,107.5,344.0,"DA XIAN, CH",FM-12,99999,V020,"020,1,N,0030,1","99999,9,9,N","007000,1,N,1","+0118,1","+0078,1","10206,1","06,0000,9,1",,,,,"08,99,1,08,1,00,1,99999,9,07,1,99,9",,"999,N,+0095,1","99999,9,09793,1","7,1,025,1,+999,9","10,1",SYN082AAXX  13061 57328 31957 80203 10118 20078 39793 40206 57025 71000 8807/ 333 20095;,Q01  00002PRCP06
11-13T09:00:00,4,31.2,107.5,344.0,"DA XIAN, CH",FM-12,99999,V020,"040,1,N,0010,1","99999,9,9,N","015000,1,N,1","+0122,1","+0080,1","10194,1",,,,,,"08,99,1,08,1,00,1,99999,9,07,1,99,9",,,"99999,9,09783,1","7,1,011,1,+999,9",,SYN060AAXX  13091 57328 42965 80401 10122 20080 40194 57011 8807/;,Q01+999990APOSP 
11-13T12:00:00,4,31.2,107.5,344.0,"DA XIAN, CH",FM-12,99999,V020,"040,1,N,0010,1","99999,9,9,N","006000,1,N,1","+0117,1","+0087,1","10210,1","06,0000,9,1",,,,,"08,99,1,08,1,00,1,99999,9,07,1,99,9",,,"99999,9,09797,1","2,1,015,1,+999,9","10,1",SYN072AAXX  13121 57328 31956 80401 10117 20087 39797 40210 52015 71000 8807/;,Q01  00002PRCP06
11-13T15:00:00,4,31.2,107.5,344.0,"DA XIAN, CH",FM-12,99999,V020,"999,9,C,0000,1","99999,9,9,N","005000,1,N,1","+0113,1","+0093,1","10217,1",,,,,,"08,99,1,08,1,00,1,99999,9,07,1,99,9",,,"99999,9,09804,1","2,1,007,1,+999,9","10,1",SYN066AAXX  13151 57328 41950 80000 10113 20093 40217 52007 71000 8807/;,Q01+999990APOSP 
11-13T18:00:00,4,31.2,107.5,344.0,"DA XIAN, CH",FM-12,99999,V020,"999,9,C,0000,1","99999,9,9,N","004000,1,N,1","+0110,1","+0088,1","10211,1","06,0000,9,1",,,,,"08,99,1,08,1,00,1,99999,9,07,1,99,9",,"999,M,+0122,1","99999,9,09799,1","7,1,005,1,+999,9","10,1",SYN082AAXX  13181 57328 31940 80000 10110 20088 39799 40211 57005 71000 8807/ 333 10122;,Q01  00002PRCP06
11-13T21:00:00,4,31.2,107.5,344.0,"DA XIAN, CH",FM-12,99999,V020,"999,9,C,0000,1","99999,9,9,N","005000,1,N,1","+0107,1","+0097,1","10205,1",,,,,,"08,99,1,08,1,00,1,99999,9,07,1,99,9",,,"99999,9,09792,1","7,1,006,1,+999,9","10,1",SYN066AAXX  13211 57328 41950 80000 10107 20097 40205 57006 71000 8807/;,Q01+999990APOSP 
11-14T00:00:00,4,31.2,107.5,344.0,"DA XIAN, CH",FM-12,99999,V020,"040,1,N,0010,1","99999,9,9,N","003000,1,N,1","+0108,1","+0096,1","10220,1","06,0000,9,1",,,,,"08,99,1,08,1,00,1,99999,9,07,1,99,9",,,"99999,9,09807,1","2,1,014,1,+000,1","10,1",SYN082AAXX  14001 57328 31930 80401 10108 20096 39807 40220 52014 71000 8807/ 333 00001;,Q01  00002PRCP06
11-14T03:00:00,4,31.2,107.5,344.0,"DA XIAN, CH",FM-12,99999,V020,"999,9,C,0000,1","99999,9,9,N","004000,1,N,1","+0123,1","+0092,1","10230,1",,,,,,"08,99,1,08,1,00,1,99999,9,07,1,99,9",,,"99999,9,09818,1","2,1,010,1,+999,9","10,1",SYN066AAXX  14031 57328 41940 80000 10123 20092 40230 52010 71000 8807/;,Q01+999990APOSP 
11-14T06:00:00,4,31.2,107.5,344.0,"DA XIAN, CH",FM-12,99999,V020,"999,9,C,0000,1","99999,9,9,N","006000,1,N,1","+0144,1","+0088,1","10211,1","06,0000,9,1",,,,,"08,99,1,08,1,00,1,99999,9,07,1,99,9",,"999,N,+0107,1","99999,9,09800,1","7,1,017,1,+999,9","10,1",SYN082AAXX  14061 57328 31956 80000 10144 20088 39800 40211 57017 71000 8807/ 333 20107;,Q01  00002PRCP06
11-14T09:00:00,4,31.2,107.5,344.0,"DA XIAN, CH",FM-12,99999,V020,"999,9,C,0000,1","99999,9,9,N","005000,1,N,1","+0147,1","+0085,1","10204,1",,,,,,"08,99,1,08,1,00,1,99999,9,07,1,99,9",,,"99999,9,09797,1","7,1,006,1,+999,9","10,1",SYN066AAXX  14091 57328 41950 80000 10147 20085 40204 57006 71000 8807/;,Q01+999990APOSP 
11-14T12:00:00,4,31.2,107.5,344.0,"DA XIAN, CH",FM-12,99999,V020,"999,9,C,0000,1","99999,9,9,N","005000,1,N,1","+0133,1","+0099,1","10222,1","06,0000,9,1",,,,,"08,99,1,08,1,00,1,99999,9,07,1,99,9",,,"99999,9,09810,1","2,1,016,1,+999,9","10,1",SYN072AAXX  14121 57328 31950 80000 10133 20099 39810 40222 52016 71000 8807/;,Q01  00002PRCP06
11-14T15:00:00,4,31.2,107.5,344.0,"DA XIAN, CH",FM-12,99999,V020,"040,1,N,0020,1","99999,9,9,N","003000,1,N,1","+0105,1","+0097,1","10244,1",,,,,,"08,99,1,08,1,00,1,99999,9,07,1,99,9",,,"99999,9,09829,1","2,1,020,1,+999,9","10,1",SYN066AAXX  14151 57328 41930 80402 10105 20097 40244 52020 71000 8807/;,Q01+999990APOSP 
11-14T18:00:00,4,31.2,107.5,344.0,"DA XIAN, CH",FM-12,99999,V020,"040,1,N,0030,1","99999,9,9,N","000700,1,N,1","+0093,1","+0089,1","10249,1","06,0000,9,1",,"4,1,06,1",,,"08,99,1,08,1,00,1,99999,9,07,1,99,9",,"999,M,+0147,1","99999,9,09836,1","2,1,006,1,+999,9","42,1",SYN082AAXX  14181 57328 31907 80403 10093 20089 39836 40249 52006 74240 8807/ 333 10147;,Q01  00002PRCP06
11-14T21:00:00,4,31.2,107.5,344.0,"DA XIAN, CH",FM-12,99999,V020,"040,1,N,0020,1","99999,9,9,N","003000,1,N,1","+0101,1","+0091,1","10242,1",,,"4,1,03,1",,,"08,99,1,08,1,00,1,99999,9,07,1,99,9",,,"99999,9,09827,1","7,1,006,1,+999,9","10,1",SYN066AAXX  14211 57328 41930 80402 10101 20091 40242 57006 71040 8807/;,Q01+999990APOSP 
11-15T00:00:00,4,31.2,107.5,344.0,"DA XIAN, CH",FM-12,99999,V020,"040,1,N,0020,1","99999,9,9,N","003000,1,N,1","+0103,1","+0091,1","10255,1","06,0000,9,1",,"4,1,06,1",,,"08,99,1,08,1,00,1,99999,9,07,1,99,9",,,"99999,9,09841,1","2,1,011,1,+003,1","10,1",SYN082AAXX  15001 57328 31930 80402 10103 20091 39841 40255 52011 71040 8807/ 333 00351;,Q01  00002PRCP06
11-15T03:00:00,4,31.2,107.5,344.0,"DA XIAN, CH",FM-12,99999,V020,"040,1,N,0020,1","99999,9,9,N","005000,1,N,1","+0113,1","+0093,1","10265,1",,,,,,"08,99,1,08,1,00,1,99999,9,07,1,99,9",,,"99999,9,09850,1","2,1,009,1,+999,9","10,1",SYN066AAXX  15031 57328 41950 80402 10113 20093 40265 52009 71000 8807/;,Q01+999990APOSP 
11-15T06:00:00,4,31.2,107.5,344.0,"DA XIAN, CH",FM-12,99999,V020,"040,1,N,0010,1","99999,9,9,N","007000,1,N,1","+0122,1","+0093,1","10233,1","06,0000,9,1",,,,,"08,99,1,08,1,00,1,99999,9,07,1,99,9",,"999,N,+0091,1","99999,9,09819,1","7,1,031,1,+999,9","10,1",SYN082AAXX  15061 57328 31957 80401 10122 20093 39819 40233 57031 71000 8807/ 333 20091;,Q01  00002PRCP06
11-15T09:00:00,4,31.2,107.5,344.0,"DA XIAN, CH",FM-12,99999,V020,"999,9,C,0000,1","99999,9,9,N","004000,1,N,1","+0126,1","+0097,1","10213,1",,,,,,"08,99,1,08,1,00,1,99999,9,07,1,99,9",,,"99999,9,09802,1","7,1,019,1,+999,9","10,1",SYN066AAXX  15091 57328 41940 80000 10126 20097 40213 57019 71000 8807/;,Q01+999990APOSP 
11-15T12:00:00,4,31.2,107.5,344.0,"DA XIAN, CH",FM-12,99999,V020,"040,1,N,0010,1","99999,9,9,N","006000,1,N,1","+0120,1","+0103,1","10222,1","06,0000,9,1",,,,,"08,99,1,08,1,00,1,99999,9,07,1,99,9",,,"99999,9,09809,1","2,1,009,1,+999,9","10,1",SYN072AAXX  15121 57328 31956 80401 10120 20103 39809 40222 52009 71000 8807/;,Q01  00002PRCP06
11-15T15:00:00,4,31.2,107.5,344.0,"DA XIAN, CH",FM-12,99999,V020,"040,1,N,0020,1","99999,9,9,N","004000,1,N,1","+0119,1","+0102,1","10224,1",,,,,,"08,99,1,08,1,00,1,99999,9,07,1,99,9",,,"99999,9,09812,1","2,1,002,1,+999,9","10,1",SYN066AAXX  15151 57328 41940 80402 10119 20102 40224 52002 71000 8807/;,Q01+999990APOSP 
11-15T18:00:00,4,31.2,107.5,344.0,"DA XIAN, CH",FM-12,99999,V020,"040,1,N,0010,1","99999,9,9,N","003000,1,N,1","+0121,1","+0094,1","10206,1","06,0000,9,1",,,,,"08,99,1,08,1,00,1,99999,9,07,1,99,9",,"999,M,+0126,1","99999,9,09795,1","7,1,016,1,+999,9","10,1",SYN082AAXX  15181 57328 31930 80401 10121 20094 39795 40206 57016 71000 8807/ 333 10126;,Q01  00002PRCP06
11-15T21:00:00,4,31.2,107.5,344.0,"DA XIAN, CH",FM-12,99999,V020,"040,1,N,0010,1","99999,9,9,N","008000,1,N,1","+0122,1","+0099,1","10194,1",,,,,,"08,99,1,08,1,00,1,99999,9,07,1,99,9",,,"99999,9,09783,1","7,1,011,1,+999,9","10,1",SYN066AAXX  15211 57328 41958 80401 10122 20099 40194 57011 71000 8807/;,Q01+999990APOSP 
11-16T00:00:00,4,31.2,107.5,344.0,"DA XIAN, CH",FM-12,99999,V020,"020,1,N,0010,1","02100,1,9,N","008000,1,N,1","+0123,1","+0100,1","10200,1","06,9999,9,9","24,0000,2,1",,,,"08,99,1,08,1,05,1,02250,1,99,9,99,9",,,"99999,9,09789,1","2,1,005,1,-050,1","21,1",SYN094AAXX  16001 57328 11858 80201 10123 20100 39789 40200 52005 69901 72100 885// 333 05502 79999;,
11-16T03:00:00,4,31.2,107.5,344.0,"DA XIAN, CH",FM-12,99999,V020,"999,9,C,0000,1","02100,1,9,N","003000,1,N,1","+0124,1","+0105,1","10212,1",,,,,,"08,99,1,08,1,05,1,02250,1,99,9,99,9",,,"99999,9,09801,1","2,1,012,1,+999,9","60,1",SYN066AAXX  16031 57328 41830 80000 10124 20105 40212 52012 76000 885//;,Q01+999990APOSP 
11-16T06:00:00,4,31.2,107.5,344.0,"DA XIAN, CH",FM-12,99999,V020,"360,1,N,0010,1","02100,1,9,N","002000,1,N,1","+0125,1","+0108,1","10192,1","06,9999,9,9",,"6,1,06,1",,,"08,99,1,08,1,05,1,02250,1,99,9,99,9",,"999,N,+0118,1","99999,9,09782,1","7,1,019,1,+999,9","60,1",SYN088AAXX  16061 57328 11820 83601 10125 20108 39782 40192 57019 69901 76060 885// 333 20118;,
11-16T09:00:00,4,31.2,107.5,344.0,"DA XIAN, CH",FM-12,99999,V020,"040,1,N,0020,1","02100,1,9,N","001500,1,N,1","+0119,1","+0112,1","10184,1",,,"6,1,03,1","6,1,03,1",,"08,99,1,08,1,05,1,02250,1,99,9,99,9",,,"99999,9,09773,1","7,1,008,1,+999,9","21,1",SYN066AAXX  16091 57328 41815 80402 10119 20112 40184 57008 72166 885//;,Q01+999990APOSP 
11-16T12:00:00,4,31.2,107.5,344.0,"DA XIAN, CH",FM-12,99999,V020,"040,1,N,0020,1","02100,1,9,N","006000,1,N,1","+0120,1","+0113,1","10198,1","06,9999,9,9",,"6,1,06,1",,,"08,99,1,08,1,05,1,02250,1,99,9,99,9",,,"99999,9,09787,1","2,1,013,1,+999,9","60,1",SYN078AAXX  16121 57328 11856 80402 10120 20113 39787 40198 52013 69921 76060 885//;,
11-16T15:00:00,4,31.2,107.5,344.0,"DA XIAN, CH",FM-12,99999,V020,"020,1,N,0020,1","02100,1,9,N","006000,1,N,1","+0120,1","+0113,1","10202,1",,,"6,1,03,1","6,1,03,1",,"08,99,1,08,1,05,1,02250,1,99,9,99,9",,,"99999,9,09791,1","2,1,004,1,+999,9","21,1",SYN066AAXX  16151 57328 41856 80202 10120 20113 40202 52004 72166 885//;,Q01+999990APOSP 
11-16T18:00:00,4,31.2,107.5,344.0,"DA XIAN, CH",FM-12,99999,V020,"040,1,N,0010,1","02100,1,9,N","006000,1,N,1","+0121,1","+0114,1","10187,1","06,9999,9,9",,"6,1,06,1",,,"08,99,1,08,1,05,1,02250,1,99,9,99,9",,"999,M,+0125,1","99999,9,09777,1","7,1,014,1,+999,9","21,1",SYN088AAXX  16181 57328 11856 80401 10121 20114 39777 40187 57014 69911 72160 885// 333 10125;,
11-16T21:00:00,4,31.2,107.5,344.0,"DA XIAN, CH",FM-12,99999,V020,"999,9,C,0000,1","02100,1,9,N","003000,1,N,1","+0121,1","+0110,1","10176,1","24,0003,9,1",,,,,"08,99,1,08,1,05,1,02250,1,99,9,99,9",,,"99999,9,09766,1","7,1,011,1,+999,9","10,1",SYN076AAXX  16211 57328 41830 80000 10121 20110 40176 57011 71000 885// 333 70003;,Q01+999990APOSP 
11-17T00:00:00,4,31.2,107.5,344.0,"DA XIAN, CH",FM-12,99999,V020,"160,1,N,0010,1","02100,1,9,N","003000,1,N,1","+0122,1","+0113,1","10188,1","06,0000,2,1","24,0003,9,1",,,,"08,99,1,08,1,05,1,02250,1,99,9,99,9",,,"99999,9,09777,1","2,1,011,1,-010,1","10,1",SYN088AAXX  17001 57328 31830 81601 10122 20113 39777 40188 52011 71000 885// 333 05100 70003;,
11-17T03:00:00,4,31.2,107.5,344.0,"DA XIAN, CH",FM-12,99999,V020,"999,9,C,0000,1","02100,1,9,N","003000,1,N,1","+0125,1","+0114,1","10197,1",,,,,,"08,99,1,08,1,05,1,02250,1,99,9,99,9",,,"99999,9,09787,1","2,1,009,1,+999,9","10,1",SYN066AAXX  17031 57328 41830 80000 10125 20114 40197 52009 71000 885//;,Q01+999990APOSP 
11-17T06:00:00,4,31.2,107.5,344.0,"DA XIAN, CH",FM-12,99999,V020,"020,1,N,0010,1","99999,9,9,N","004000,1,N,1","+0130,1","+0106,1","10158,1","06,0000,9,1",,,,,"08,99,1,08,1,00,1,99999,9,07,1,99,9",,"999,N,+0118,1","99999,9,09749,1","7,1,037,1,+999,9","10,1",SYN082AAXX  17061 57328 31940 80201 10130 20106 39749 40158 57037 71000 8807/ 333 20118;,Q01  00002PRCP06
11-17T09:00:00,4,31.2,107.5,344.0,"DA XIAN, CH",FM-12,99999,V020,"040,1,N,0030,1","99999,9,9,N","008000,1,N,1","+0134,1","+0094,1","10134,1",,,,,,"08,99,1,08,1,00,1,99999,9,07,1,99,9",,,"99999,9,09728,1","7,1,022,1,+999,9","10,1",SYN066AAXX  17091 57328 41958 80403 10134 20094 40134 57022 71000 8807/;,Q01+999990APOSP 
11-17T12:00:00,4,31.2,107.5,344.0,"DA XIAN, CH",FM-12,99999,V020,"090,1,N,0020,1","99999,9,9,N","005000,1,N,1","+0129,1","+0090,1","10137,1","06,0000,9,1",,,,,"08,99,1,08,1,00,1,99999,9,07,1,99,9",,,"99999,9,09729,1","2,1,002,1,+999,9","10,1",SYN072AAXX  17121 57328 31950 80902 10129 20090 39729 40137 52002 71000 8807/;,Q01  00002PRCP06
11-17T15:00:00,4,31.2,107.5,344.0,"DA XIAN, CH",FM-12,99999,V020,"360,1,N,0010,1","99999,9,9,N","005000,1,N,1","+0129,1","+0098,1","10145,1",,,,,,"08,99,1,08,1,00,1,99999,9,07,1,99,9",,,"99999,9,09737,1","2,1,008,1,+999,9","10,1",SYN066AAXX  17151 57328 41950 83601 10129 20098 40145 52008 71000 8807/;,Q01+999990APOSP 
11-17T18:00:00,4,31.2,107.5,344.0,"DA XIAN, CH",FM-12,99999,V020,"020,1,N,0010,1","99999,9,9,N","005000,1,N,1","+0128,1","+0099,1","10136,1","06,0000,9,1",,,,,"08,99,1,08,1,00,1,99999,9,07,1,99,9",,"999,M,+0134,1","99999,9,09729,1","7,1,008,1,+999,9","10,1",SYN082AAXX  17181 57328 31950 80201 10128 20099 39729 40136 57008 71000 8807/ 333 10134;,Q01  00002PRCP06
11-17T21:00:00,4,31.2,107.5,344.0,"DA XIAN, CH",FM-12,99999,V020,"999,9,C,0000,1","99999,9,9,N","005000,1,N,1","+0126,1","+0095,1","10129,1",,,,,,"08,99,1,08,1,00,1,99999,9,07,1,99,9",,,"99999,9,09722,1","7,1,007,1,+999,9","10,1",SYN066AAXX  17211 57328 41950 80000 10126 20095 40129 57007 71000 8807/;,Q01+999990APOSP 
11-18T00:00:00,4,31.2,107.5,344.0,"DA XIAN, CH",FM-12,99999,V020,"999,9,C,0000,1","99999,9,9,N","005000,1,N,1","+0125,1","+0106,1","10139,1","06,0000,9,1",,,,,"08,99,1,08,1,00,1,99999,9,07,1,99,9",,,"99999,9,09731,1","2,1,009,1,+005,1","10,1",SYN082AAXX  18001 57328 31950 80000 10125 20106 39731 40139 52009 71000 8807/ 333 05500;,Q01  00002PRCP06
11-18T03:00:00,4,31.2,107.5,344.0,"DA XIAN, CH",FM-12,99999,V020,"070,1,N,0010,1","99999,9,9,N","006000,1,N,1","+0131,1","+0097,1","10152,1",,,,,,"08,99,1,08,1,00,1,99999,9,02,1,99,9",,,"99999,9,09744,1","2,1,013,1,+999,9","10,1",SYN066AAXX  18031 57328 41956 80701 10131 20097 40152 52013 71000 8802/;,Q01+999990APOSP 
11-18T06:00:00,4,31.2,107.5,344.0,"DA XIAN, CH",FM-12,99999,V020,"040,1,N,0010,1","99999,9,9,N","005000,1,N,1","+0131,1","+0084,1","10128,1","06,0000,9,1",,,,,"08,99,1,08,1,00,1,99999,9,02,1,99,9",,"999,N,+0122,1","99999,9,09721,1","7,1,023,1,+999,9","10,1",SYN082AAXX  18061 57328 31950 80401 10131 20084 39721 40128 57023 71000 8802/ 333 20122;,Q01  00002PRCP06
11-18T09:00:00,4,31.2,107.5,344.0,"DA XIAN, CH",FM-12,99999,V020,"070,1,N,0010,1","99999,9,9,N","007000,1,N,1","+0127,1","+0086,1","10118,1",,,,,,"08,99,1,08,1,00,1,99999,9,02,1,99,9",,,"99999,9,09711,1","7,1,010,1,+999,9","10,1",SYN066AAXX  18091 57328 41957 80701 10127 20086 40118 57010 71000 8802/;,Q01+999990APOSP 
11-18T12:00:00,4,31.2,107.5,344.0,"DA XIAN, CH",FM-12,99999,V020,"040,1,N,0010,1","02100,1,9,N","008000,1,N,1","+0126,1","+0080,1","10137,1","06,0000,9,1",,,,,"08,99,1,08,1,05,1,02250,1,99,9,99,9",,,"99999,9,09729,1","2,1,018,1,+999,9","10,1",SYN072AAXX  18121 57328 31858 80401 10126 20080 39729 40137 52018 71000 885//;,Q01  00002PRCP06
11-18T15:00:00,4,31.2,107.5,344.0,"DA XIAN, CH",FM-12,99999,V020,"070,1,N,0010,1","02100,1,9,N","008000,1,N,1","+0123,1","+0088,1","10148,1",,,,,,"08,99,1,08,1,05,1,02250,1,99,9,99,9",,,"99999,9,09739,1","2,1,011,1,+999,9","10,1",SYN066AAXX  18151 57328 41858 80701 10123 20088 40148 52011 71000 885//;,Q01+999990APOSP 
11-18T18:00:00,4,31.2,107.5,344.0,"DA XIAN, CH",FM-12,99999,V020,"999,9,C,0000,1","99999,9,9,N","011000,1,N,1","+0124,1","+0087,1","10140,1","06,0000,9,1",,,,,"08,99,1,08,1,00,1,99999,9,07,1,99,9",,"999,M,+0132,1","99999,9,09732,1","7,1,008,1,+999,9",,SYN076AAXX  18181 57328 32961 80000 10124 20087 39732 40140 57008 8807/ 333 10132;,Q01  00002PRCP06
11-18T21:00:00,4,31.2,107.5,344.0,"DA XIAN, CH",FM-12,99999,V020,"040,1,N,0010,1","99999,9,9,N","006000,1,N,1","+0121,1","+0088,1","10128,1",,,,,,"08,99,1,08,1,00,1,99999,9,07,1,99,9",,,"99999,9,09720,1","7,1,012,1,+999,9","10,1",SYN066AAXX  18211 57328 41956 80401 10121 20088 40128 57012 71000 8807/;,Q01+999990APOSP 
11-19T00:00:00,4,31.2,107.5,344.0,"DA XIAN, CH",FM-12,99999,V020,"999,9,C,0000,1","99999,9,9,N","005000,1,N,1","+0121,1","+0094,1","10142,1","06,0000,9,1",,,,,"08,99,1,08,1,00,1,99999,9,02,1,99,9",,,"99999,9,09734,1","2,1,014,1,+000,1","10,1",SYN082AAXX  19001 57328 31950 80000 10121 20094 39734 40142 52014 71000 8802/ 333 00000;,Q01  00002PRCP06
11-19T03:00:00,4,31.2,107.5,344.0,"DA XIAN, CH",FM-12,99999,V020,"999,9,C,0000,1","99999,9,9,N","004000,1,N,1","+0129,1","+0090,1","10155,1",,,,,,"08,99,1,08,1,00,1,99999,9,02,1,99,9",,,,"2,1,012,1,+999,9","10,1",SYN066AAXX  19031 57328 41940 80000 10129 20090 40155 52012 71000 8802/;,
11-19T06:00:00,4,31.2,107.5,344.0,"DA XIAN, CH",FM-12,99999,V020,"070,1,N,0010,1","99999,9,9,N","009000,1,N,1","+0133,1","+0090,1","10130,1","06,0000,9,1",,,,,"08,99,1,08,1,00,1,99999,9,02,1,99,9",,"999,N,+0119,1","99999,9,09723,1","7,1,023,1,+999,9","10,1",SYN082AAXX  19061 57328 31959 80701 10133 20090 39723 40130 57023 71000 8802/ 333 20119;,Q01  00002PRCP06
11-19T09:00:00,4,31.2,107.5,344.0,"DA XIAN, CH",FM-12,99999,V020,"040,1,N,0010,1","99999,9,9,N","011000,1,N,1","+0132,1","+0096,1","10134,1",,,,,,"08,99,1,08,1,00,1,99999,9,02,1,99,9",,,,"2,1,003,1,+999,9",,SYN060AAXX  19091 57328 42961 80401 10132 20096 40134 52003 8802/;,
11-19T12:00:00,4,31.2,107.5,344.0,"DA XIAN, CH",FM-12,99999,V020,"999,9,C,0000,1","99999,9,9,N","008000,1,N,1","+0131,1","+0103,1","10159,1","06,0000,9,1",,,,,"08,99,1,08,1,00,1,99999,9,02,1,99,9",,,"99999,9,09750,1","2,1,024,1,+999,9","10,1",SYN072AAXX  19121 57328 31958 80000 10131 20103 39750 40159 52024 71000 8802/;,Q01  00002PRCP06
11-19T15:00:00,4,31.2,107.5,344.0,"DA XIAN, CH",FM-12,99999,V020,"180,1,N,0010,1","99999,9,9,N","004000,1,N,1","+0127,1","+0106,1","10171,1",,,,,,"08,99,1,08,1,00,1,99999,9,02,1,99,9",,,,"2,1,012,1,+999,9","10,1",SYN066AAXX  19151 57328 41940 81801 10127 20106 40171 52012 71000 8802/;,
11-19T18:00:00,4,31.2,107.5,344.0,"DA XIAN, CH",FM-12,99999,V020,"200,1,N,0020,1","99999,9,9,N","004000,1,N,1","+0126,1","+0107,1","10178,1","06,0000,9,1",,,,,"08,99,1,08,1,00,1,99999,9,02,1,99,9",,"999,M,+0133,1","99999,9,09769,1","2,1,007,1,+999,9","10,1",SYN082AAXX  19181 57328 31940 82002 10126 20107 39769 40178 52007 71000 8802/ 333 10133;,Q01  00002PRCP06
11-19T21:00:00,4,31.2,107.5,344.0,"DA XIAN, CH",FM-12,99999,V020,"270,1,N,0010,1","99999,9,9,N","004000,1,N,1","+0127,1","+0112,1","10176,1",,,,,,"08,99,1,08,1,00,1,99999,9,02,1,99,9",,,,"7,1,002,1,+999,9","10,1",SYN066AAXX  19211 57328 41940 82701 10127 20112 40176 57002 71000 8802/;,
11-20T00:00:00,4,31.2,107.5,344.0,"DA XIAN, CH",FM-12,99999,V020,"040,1,N,0020,1","99999,9,9,N","003000,1,N,1","+0124,1","+0111,1","10196,1","06,9999,9,9","24,0000,9,1","6,1,06,1",,,"08,99,1,08,1,00,1,99999,9,07,1,99,9",,,"99999,9,09786,1","2,1,019,1,+050,1","10,1",SYN094AAXX  20001 57328 11930 80402 10124 20111 39786 40196 52019 69901 71060 8807/ 333 00500 79999;,Q01  00002PRCP24
11-20T03:00:00,4,31.2,107.5,344.0,"DA XIAN, CH",FM-12,99999,V020,"020,1,N,0030,1","99999,9,9,N","015000,1,N,1","+0130,1","+0093,1","10216,1",,,,,,"08,99,1,08,1,00,1,99999,9,07,1,99,9",,,,"2,1,019,1,+999,9",,SYN060AAXX  20031 57328 42965 80203 10130 20093 40216 52019 8807/;,
11-20T06:00:00,4,31.2,107.5,344.0,"DA XIAN, CH",FM-12,99999,V020,"020,1,N,0030,1","99999,9,9,N","020000,1,N,1","+0138,1","+0096,1","10196,1","06,0000,9,1",,,,,"08,99,1,08,1,00,1,99999,9,07,1,99,9",,"999,N,+0122,1","99999,9,09787,1","7,1,018,1,+999,9",,SYN076AAXX  20061 57328 32970 80203 10138 20096 39787 40196 57018 8807/ 333 20122;,Q01  00002PRCP06
11-20T09:00:00,4,31.2,107.5,344.0,"DA XIAN, CH",FM-12,99999,V020,"020,1,N,0030,1","99999,9,9,N","020000,1,N,1","+0134,1","+0089,1","10204,1",,,,,,"08,99,1,08,1,00,1,99999,9,07,1,99,9",,,,"2,1,007,1,+999,9",,SYN060AAXX  20091 57328 42970 80203 10134 20089 40204 52007 8807/;,
11-20T12:00:00,4,31.2,107.5,344.0,"DA XIAN, CH",FM-12,99999,V020,"320,1,N,0010,1","99999,9,9,N","012000,1,N,1","+0124,1","+0082,1","10223,1","06,0000,9,1",,,,,"07,99,1,07,1,00,1,99999,9,04,1,99,9",,,"99999,9,09811,1","2,1,017,1,+999,9",,SYN066AAXX  20121 57328 32962 73201 10124 20082 39811 40223 52017 8704/;,Q01  00002PRCP06
11-20T15:00:00,4,31.2,107.5,344.0,"DA XIAN, CH",FM-12,99999,V020,"020,1,N,0010,1","99999,9,9,N","011000,1,N,1","+0120,1","+0084,1","10253,1",,,,,,"08,99,1,08,1,00,1,99999,9,07,1,99,9",,,,"2,1,029,1,+999,9",,SYN060AAXX  20151 57328 42961 80201 10120 20084 40253 52029 8807/;,
11-20T18:00:00,4,31.2,107.5,344.0,"DA XIAN, CH",FM-12,99999,V020,"020,1,N,0030,1","99999,9,9,N","020000,1,N,1","+0125,1","+0055,1","10255,1","06,0000,9,1",,,,,"08,99,1,08,1,00,1,99999,9,07,1,99,9",,"999,M,+0142,1","99999,9,09843,1","2,1,003,1,+999,9",,SYN076AAXX  20181 57328 32970 80203 10125 20055 39843 40255 52003 8807/ 333 10142;,Q01  00002PRCP06
11-20T21:00:00,4,31.2,107.5,344.0,"DA XIAN, CH",FM-12,99999,V020,"040,1,N,0040,1","02100,1,9,N","015000,1,N,1","+0119,1","+0040,1","10254,1","24,0000,2,1",,,,,"08,99,1,08,1,05,1,02250,1,99,9,99,9",,,"99999,9,09841,1","7,1,001,1,+999,9","60,1",SYN076AAXX  20211 57328 41865 80404 10119 20040 40254 57001 76000 885// 333 79999;,Q01+999990APOSP 
11-21T00:00:00,4,31.2,107.5,344.0,"DA XIAN, CH",FM-12,99999,V020,"040,1,N,0020,1","99999,9,9,N","015000,1,N,1","+0111,1","+0055,1","10274,1","06,9999,9,9","24,0000,2,1","6,1,06,1",,,"08,99,1,08,1,00,1,99999,9,07,1,99,9",,,"99999,9,09859,1","2,1,017,1,+070,1","60,1",SYN094AAXX  21001 57328 11965 80402 10111 20055 39859 40274 52017 69901 76060 8807/ 333 00751 79999;,
11-21T03:00:00,4,31.2,107.5,344.0,"DA XIAN, CH",FM-12,99999,V020,"040,1,N,0030,1","99999,9,9,N","025000,1,N,1","+0109,1","+0067,1","10295,1",,,"6,1,03,1",,,"08,99,1,08,1,00,1,99999,9,02,1,99,9",,,"99999,9,09879,1","2,1,020,1,+999,9","60,1",SYN066AAXX  21031 57328 41975 80403 10109 20067 40295 52020 76060 8802/;,Q01+999990APOSP 
11-21T06:00:00,4,31.2,107.5,344.0,"DA XIAN, CH",FM-12,99999,V020,"040,1,N,0010,1","99999,9,9,N","025000,1,N,1","+0126,1","+0066,1","10272,1","06,0010,9,1",,"6,1,06,1",,,"08,99,1,08,1,00,1,99999,9,02,1,99,9",,"999,N,+0098,1","99999,9,09859,1","7,1,020,1,+999,9","60,1",SYN088AAXX  21061 57328 11975 80401 10126 20066 39859 40272 57020 60011 76060 8802/ 333 20098;,
11-21T09:00:00,4,31.2,107.5,344.0,"DA XIAN, CH",FM-12,99999,V020,"999,9,C,0000,1","02100,1,9,N","020000,1,N,1","+0118,1","+0075,1","10278,1",,,"6,1,03,1","6,1,03,1",,"08,99,1,08,1,05,1,02250,1,99,9,99,9",,,"99999,9,09863,1","2,1,004,1,+999,9","60,1",SYN066AAXX  21091 57328 41870 80000 10118 20075 40278 52004 76066 885//;,Q01+999990APOSP 
11-21T12:00:00,4,31.2,107.5,344.0,"DA XIAN, CH",FM-12,99999,V020,"040,1,N,0010,1","99999,9,9,N","018000,1,N,1","+0109,1","+0093,1","10293,1","06,0008,9,1",,"6,1,06,1",,,"08,99,1,08,1,00,1,99999,9,02,1,99,9",,,"99999,9,09877,1","2,1,014,1,+999,9","00,1",SYN078AAXX  21121 57328 11968 80401 10109 20093 39877 40293 52014 69971 70060 8802/;,
11-21T15:00:00,4,31.2,107.5,344.0,"DA XIAN, CH",FM-12,99999,V020,"180,1,N,0010,1","99999,9,9,N","015000,1,N,1","+0111,1","+0091,1","10302,1",,,,,,"08,99,1,08,1,00,1,99999,9,02,1,99,9",,,"99999,9,09886,1","2,1,008,1,+999,9",,SYN060AAXX  21151 57328 42965 81801 10111 20091 40302 52008 8802/;,Q01+999990APOSP 
11-21T18:00:00,4,31.2,107.5,344.0,"DA XIAN, CH",FM-12,99999,V020,"180,1,N,0010,1","99999,9,9,N","015000,1,N,1","+0108,1","+0092,1","10286,1","06,0000,9,1",,,,,"08,99,1,08,1,00,1,99999,9,02,1,99,9",,"999,M,+0127,1","99999,9,09871,1","7,1,014,1,+999,9",,SYN076AAXX  21181 57328 32965 81801 10108 20092 39871 40286 57014 8802/ 333 10127;,Q01  00002PRCP06
11-21T21:00:00,4,31.2,107.5,344.0,"DA XIAN, CH",FM-12,99999,V020,"999,9,C,0000,1","02100,1,9,N","012000,1,N,1","+0106,1","+0092,1","10270,1","24,0020,9,1",,,,,"08,99,1,08,1,05,1,02250,1,99,9,99,9",,,"99999,9,09854,1","7,1,016,1,+999,9",,SYN070AAXX  21211 57328 42862 80000 10106 20092 40270 57016 885// 333 70021;,Q01+999990APOSP 
11-22T00:00:00,4,31.2,107.5,344.0,"DA XIAN, CH",FM-12,99999,V020,"020,1,N,0020,1","02100,1,9,N","004000,1,N,1","+0106,1","+0094,1","10270,1","06,0000,9,1","24,0020,9,1",,,,"08,99,1,08,1,05,1,02250,1,99,9,99,9",,,"99999,9,09854,1","7,1,001,1,-010,1","10,1",SYN088AAXX  22001 57328 31840 80202 10106 20094 39854 40270 57001 71000 885// 333 05151 70021;,Q01  00002PRCP06
11-22T03:00:00,4,31.2,107.5,344.0,"DA XIAN, CH",FM-12,99999,V020,"040,1,N,0020,1","02100,1,9,N","004000,1,N,1","+0118,1","+0097,1","10273,1",,,,,,"08,99,1,08,1,05,1,02250,1,99,9,99,9",,,"99999,9,09859,1","2,1,004,1,+999,9","10,1",SYN066AAXX  22031 57328 41840 80402 10118 20097 40273 52004 71000 885//;,Q01+999990APOSP 
11-22T06:00:00,4,31.2,107.5,344.0,"DA XIAN, CH",FM-12,99999,V020,"040,1,N,0020,1","99999,9,9,N","015000,1,N,1","+0147,1","+0096,1","10226,1","06,0000,9,1",,,,,"07,99,1,07,1,00,1,99999,9,04,1,99,9",,"999,N,+0104,1","99999,9,09815,1","7,1,043,1,+999,9",,SYN076AAXX  22061 57328 32965 70402 10147 20096 39815 40226 57043 8704/ 333 20104;,Q01  00002PRCP06
11-22T09:00:00,4,31.2,107.5,344.0,"DA XIAN, CH",FM-12,99999,V020,"360,1,N,0030,1","22000,1,9,N","025000,1,N,1","+0146,1","+0084,1","10200,1",,,,,"00,1,+99999,9,99,9","00,99,1,00,1,00,1,99999,9,00,1,00,1",,,"99999,9,09793,1","7,1,025,1,+999,9",,SYN054AAXX  22091 57328 42975 03603 10146 20084 40200 57025;,Q01+999990APOSP 
11-22T12:00:00,4,31.2,107.5,344.0,"DA XIAN, CH",FM-12,99999,V020,"040,1,N,0020,1","22000,1,9,N","015000,1,N,1","+0121,1","+0085,1","10213,1","06,0000,9,1",,,,"00,1,+99999,9,99,9","00,99,1,00,1,00,1,99999,9,00,1,00,1",,,"99999,9,09800,1","2,1,010,1,+999,9",,SYN060AAXX  22121 57328 32965 00402 10121 20085 39800 40213 52010;,Q01  00002PRCP06
11-22T15:00:00,4,31.2,107.5,344.0,"DA XIAN, CH",FM-12,99999,V020,"020,1,N,0020,1","99999,9,9,N","012000,1,N,1","+0111,1","+0087,1","10229,1",,,,,,"08,99,1,08,1,00,1,99999,9,07,1,99,9",,,"99999,9,09815,1","2,1,016,1,+999,9",,SYN060AAXX  22151 57328 42962 80202 10111 20087 40229 52016 8807/;,Q01+999990APOSP 
11-22T18:00:00,4,31.2,107.5,344.0,"DA XIAN, CH",FM-12,99999,V020,"040,1,N,0020,1","99999,9,9,N","011000,1,N,1","+0116,1","+0084,1","10216,1","06,0000,9,1",,,,,"08,99,1,08,1,00,1,99999,9,07,1,99,9",,"999,M,+0152,1","99999,9,09806,1","7,1,010,1,+999,9",,SYN076AAXX  22181 57328 32961 80402 10116 20084 39806 40216 57010 8807/ 333 10152;,Q01  00002PRCP06
11-22T21:00:00,4,31.2,107.5,344.0,"DA XIAN, CH",FM-12,99999,V020,"999,9,C,0000,1","99999,9,9,N","007000,1,N,1","+0112,1","+0086,1","10204,1",,,,,,"08,99,1,08,1,00,1,99999,9,07,1,99,9",,,"99999,9,09792,1","7,1,012,1,+999,9","10,1",SYN066AAXX  22211 57328 41957 80000 10112 20086 40204 57012 71000 8807/;,Q01+999990APOSP 
11-23T00:00:00,4,31.2,107.5,344.0,"DA XIAN, CH",FM-12,99999,V020,"070,1,N,0010,1","02100,1,9,N","015000,1,N,1","+0116,1","+0082,1","10230,1","06,9999,9,9","24,0000,2,1","6,1,06,1",,,"08,99,1,08,1,05,1,02250,1,99,9,99,9",,,"99999,9,09817,1","2,1,023,1,-040,1","21,1",SYN094AAXX  23001 57328 11865 80701 10116 20082 39817 40230 52023 69901 72160 885// 333 05401 79999;,
11-23T03:00:00,4,31.2,107.5,344.0,"DA XIAN, CH",FM-12,99999,V020,"040,1,N,0020,1","99999,9,9,N","011000,1,N,1","+0121,1","+0081,1","10239,1",,,,,,"08,99,1,08,1,00,1,99999,9,07,1,99,9",,,"99999,9,09826,1","2,1,009,1,+999,9",,SYN060AAXX  23031 57328 42961 80402 10121 20081 40239 52009 8807/;,Q01+999990APOSP 
11-23T06:00:00,4,31.2,107.5,344.0,"DA XIAN, CH",FM-12,99999,V020,"040,1,N,0010,1","99999,9,9,N","011000,1,N,1","+0130,1","+0087,1","10216,1","06,0000,2,1",,,,,"08,99,1,08,1,00,1,99999,9,07,1,99,9",,"999,N,+0109,1","99999,9,09805,1","7,1,021,1,+999,9",,SYN076AAXX  23061 57328 32961 80401 10130 20087 39805 40216 57021 8807/ 333 20109;,
11-23T09:00:00,4,31.2,107.5,344.0,"DA XIAN, CH",FM-12,99999,V020,"040,1,N,0020,1","99999,9,9,N","008000,1,N,1","+0135,1","+0090,1","10210,1",,,,,,"08,99,1,08,1,00,1,99999,9,07,1,99,9",,,"99999,9,09801,1","7,1,006,1,+999,9","10,1",SYN066AAXX  23091 57328 41958 80402 10135 20090 40210 57006 71000 8807/;,Q01+999990APOSP 
11-23T12:00:00,4,31.2,107.5,344.0,"DA XIAN, CH",FM-12,99999,V020,"040,1,N,0020,1","99999,9,9,N","008000,1,N,1","+0126,1","+0097,1","10235,1","06,0000,9,1",,,,,"08,99,1,08,1,00,1,99999,9,07,1,99,9",,,"99999,9,09823,1","2,1,024,1,+999,9","10,1",SYN072AAXX  23121 57328 31958 80402 10126 20097 39823 40235 52024 71000 8807/;,Q01  00002PRCP06
11-23T15:00:00,4,31.2,107.5,344.0,"DA XIAN, CH",FM-12,99999,V020,"999,9,C,0000,1","99999,9,9,N","008000,1,N,1","+0119,1","+0100,1","10254,1",,,,,,"08,99,1,08,1,00,1,99999,9,07,1,99,9",,,"99999,9,09841,1","2,1,018,1,+999,9","10,1",SYN066AAXX  23151 57328 41958 80000 10119 20100 40254 52018 71000 8807/;,Q01+999990APOSP 
11-23T18:00:00,4,31.2,107.5,344.0,"DA XIAN, CH",FM-12,99999,V020,"999,9,C,0000,1","99999,9,9,N","006000,1,N,1","+0115,1","+0102,1","10254,1","06,0000,9,1",,,,,"08,99,1,08,1,00,1,99999,9,07,1,99,9",,"999,M,+0137,1","99999,9,09841,1","4,1,000,1,+999,9","10,1",SYN082AAXX  23181 57328 31956 80000 10115 20102 39841 40254 54000 71000 8807/ 333 10137;,Q01  00002PRCP06
11-23T21:00:00,4,31.2,107.5,344.0,"DA XIAN, CH",FM-12,99999,V020,"040,1,N,0010,1","22000,1,9,N","002000,1,N,1","+0098,1","+0090,1","10251,1","24,0000,2,1",,,,"00,1,+99999,9,99,9","00,99,1,00,1,00,1,99999,9,00,1,00,1",,,"99999,9,09835,1","7,1,004,1,+999,9","10,1",SYN070AAXX  23211 57328 41920 00401 10098 20090 40251 57004 71000 333 79999;,Q01+999990APOSP 
11-24T00:00:00,4,31.2,107.5,344.0,"DA XIAN, CH",FM-12,99999,V020,"090,1,N,0010,1","99999,9,9,N","001200,1,N,1","+0090,1","+0084,1","10255,1","06,0000,9,1",,"4,1,06,1",,,"07,99,1,07,1,00,1,99999,9,04,1,99,9",,,"99999,9,09840,1","2,1,003,1,+002,1","28,1",SYN082AAXX  24001 57328 31912 70901 10090 20084 39840 40255 52003 72840 8704/ 333 00253;,Q01  00002PRCP06
11-24T03:00:00,4,31.2,107.5,344.0,"DA XIAN, CH",FM-12,99999,V020,"999,9,C,0000,1","99999,9,9,N","005000,1,N,1","+0119,1","+0100,1","10280,1",,,,,,"08,99,1,08,1,00,1,99999,9,07,1,99,9",,,"99999,9,09866,1","2,1,025,1,+999,9","10,1",SYN066AAXX  24031 57328 41950 80000 10119 20100 40280 52025 71000 8807/;,Q01+999990APOSP 
11-24T06:00:00,4,31.2,107.5,344.0,"DA XIAN, CH",FM-12,99999,V020,"360,1,N,0010,1","99999,9,9,N","006000,1,N,1","+0143,1","+0101,1","10252,1","06,0000,9,1",,,,,"08,99,1,08,1,00,1,99999,9,07,1,99,9",,"999,N,+0088,1","99999,9,09840,1","7,1,025,1,+999,9","10,1",SYN082AAXX  24061 57328 31956 83601 10143 20101 39840 40252 57025 71000 8807/ 333 20088;,Q01  00002PRCP06
11-24T09:00:00,4,31.2,107.5,344.0,"DA XIAN, CH",FM-12,99999,V020,"200,1,N,0010,1","99999,9,9,N","003000,1,N,1","+0138,1","+0104,1","10249,1",,,,,,"08,99,1,08,1,00,1,99999,9,07,1,99,9",,,"99999,9,09838,1","7,1,004,1,+999,9","10,1",SYN066AAXX  24091 57328 41930 82001 10138 20104 40249 57004 71000 8807/;,Q01+999990APOSP 
11-24T12:00:00,4,31.2,107.5,344.0,"DA XIAN, CH",FM-12,99999,V020,"999,9,C,0000,1","99999,9,9,N","005000,1,N,1","+0131,1","+0108,1","10264,1","06,0000,9,1",,,,,"08,99,1,08,1,00,1,99999,9,07,1,99,9",,,"99999,9,09849,1","2,1,013,1,+999,9","10,1",SYN072AAXX  24121 57328 31950 80000 10131 20108 39849 40264 52013 71000 8807/;,Q01  00002PRCP06
11-24T15:00:00,4,31.2,107.5,344.0,"DA XIAN, CH",FM-12,99999,V020,"180,1,N,0010,1","99999,9,9,N","005000,1,N,1","+0124,1","+0107,1","10288,1",,,,,,"08,99,1,08,1,00,1,99999,9,07,1,99,9",,,"99999,9,09874,1","2,1,024,1,+999,9","10,1",SYN066AAXX  24151 57328 41950 81801 10124 20107 40288 52024 71000 8807/;,Q01+999990APOSP 
11-24T18:00:00,4,31.2,107.5,344.0,"DA XIAN, CH",FM-12,99999,V020,"999,9,C,0000,1","02100,1,9,N","004000,1,N,1","+0121,1","+0108,1","10283,1","06,9999,9,9",,"6,1,06,1",,,"08,99,1,08,1,05,1,02250,1,99,9,99,9",,"999,M,+0146,1","99999,9,09870,1","7,1,003,1,+999,9","60,1",SYN088AAXX  24181 57328 11840 80000 10121 20108 39870 40283 57003 69921 76060 885// 333 10146;,
11-24T21:00:00,4,31.2,107.5,344.0,"DA XIAN, CH",FM-12,99999,V020,"070,1,N,0010,1","02100,1,9,N","001500,1,N,1","+0117,1","+0111,1","10274,1","24,0010,9,1",,"6,1,03,1","6,1,03,1",,"08,99,1,08,1,05,1,02250,1,99,9,99,9",,,"99999,9,09860,1","7,1,009,1,+999,9","60,1",SYN076AAXX  24211 57328 41815 80701 10117 20111 40274 57009 76066 885// 333 70010;,
11-25T00:00:00,4,31.2,107.5,344.0,"DA XIAN, CH",FM-12,99999,V020,"999,9,C,0000,1","02100,1,9,N","001200,1,N,1","+0112,1","+0106,1","10273,1","06,0020,9,2","24,0018,9,2","6,1,06,1","6,1,06,1",,"08,99,1,08,1,05,1,02250,1,99,9,99,9",,,"99999,9,09859,1","7,1,002,1,+020,1","60,1",SYN094AAXX  25001 57328 11812 80000 10112 20106 39859 40273 57002 60021 76066 885// 333 00202 70019;,
11-25T03:00:00,4,31.2,107.5,344.0,"DA XIAN, CH",FM-12,99999,V020,"040,1,N,0010,1","02100,1,9,N","001200,1,N,1","+0115,1","+0109,1","10277,1",,,"6,1,03,1","6,1,03,1",,"08,99,1,08,1,05,1,02250,1,99,9,99,9",,,"99999,9,09862,1","2,1,004,1,+999,9","60,1",SYN066AAXX  25031 57328 41812 80401 10115 20109 40277 52004 76066 885//;,Q01+999990APOSP 
11-25T06:00:00,4,31.2,107.5,344.0,"DA XIAN, CH",FM-12,99999,V020,"040,1,N,0020,1","02100,1,9,N","001200,1,N,1","+0117,1","+0111,1","10241,1","06,0020,9,1",,"6,1,06,1","6,1,06,1",,"08,99,1,08,1,05,1,02250,1,99,9,99,9",,"999,N,+0111,1","99999,9,09828,1","7,1,035,1,+999,9","60,1",SYN088AAXX  25061 57328 11812 80402 10117 20111 39828 40241 57035 60021 76066 885// 333 20111;,
11-25T09:00:00,4,31.2,107.5,344.0,"DA XIAN, CH",FM-12,99999,V020,"040,1,N,0020,1","02100,1,9,N","004000,1,N,1","+0118,1","+0112,1","10240,1",,,"6,1,03,1","6,1,03,1",,"08,99,1,08,1,05,1,02250,1,99,9,99,9",,,"99999,9,09827,1","7,1,001,1,+999,9","60,1",SYN066AAXX  25091 57328 41840 80402 10118 20112 40240 57001 76066 885//;,Q01+999990APOSP 
11-25T12:00:00,4,31.2,107.5,344.0,"DA XIAN, CH",FM-12,99999,V020,"040,1,N,0020,1","02100,1,9,N","003000,1,N,1","+0115,1","+0107,1","10261,1","06,0041,9,1",,"6,1,06,1","6,1,06,1",,"08,99,1,08,1,05,1,02250,1,99,9,99,9",,,"99999,9,09846,1","2,1,019,1,+999,9","60,1",SYN078AAXX  25121 57328 11830 80402 10115 20107 39846 40261 52019 60041 76066 885//;,
11-25T15:00:00,4,31.2,107.5,344.0,"DA XIAN, CH",FM-12,99999,V020,"040,1,N,0050,1","00420,1,9,N","007000,1,N,1","+0108,1","+0088,1","10286,1",,,"6,1,03,1","6,1,03,1",,"08,99,1,08,1,05,1,00450,1,99,9,99,9",,,"99999,9,09870,1","2,1,024,1,+999,9","60,1",SYN066AAXX  25151 57328 41457 80405 10108 20088 40286 52024 76066 885//;,Q01+999990APOSP 
11-25T18:00:00,4,31.2,107.5,344.0,"DA XIAN, CH",FM-12,99999,V020,"040,1,N,0010,1","02100,1,9,N","015000,1,N,1","+0098,1","+0062,1","10292,1","06,0020,9,1",,"6,1,06,1","6,1,06,1",,"08,99,1,08,1,05,1,02250,1,99,9,99,9",,"999,M,+0120,1","99999,9,09875,1","2,1,005,1,+999,9","60,1",SYN088AAXX  25181 57328 11865 80401 10098 20062 39875 40292 52005 60021 76066 885// 333 10120;,
11-25T21:00:00,4,31.2,107.5,344.0,"DA XIAN, CH",FM-12,99999,V020,"090,1,N,0010,1","02100,1,9,N","018000,1,N,1","+0098,1","+0071,1","10292,1","24,0086,9,1",,"6,1,03,1",,,"08,99,1,08,1,05,1,02250,1,99,9,99,9",,,"99999,9,09874,1","4,1,000,1,+999,9","00,1",SYN076AAXX  25211 57328 41868 80901 10098 20071 40292 54000 70060 885// 333 70087;,Q01+999990APOSP 
11-26T00:00:00,4,31.2,107.5,344.0,"DA XIAN, CH",FM-12,99999,V020,"040,1,N,0010,1","99999,9,9,N","025000,1,N,1","+0098,1","+0071,1","10306,1","06,9999,9,9","24,0079,9,1","6,1,06,1",,,"08,99,1,08,1,00,1,99999,9,07,1,99,9",,,"99999,9,09889,1","2,1,014,1,+030,1","00,1",SYN094AAXX  26001 57328 11975 80401 10098 20071 39889 40306 52014 69911 70060 8807/ 333 00351 70078;,
11-26T03:00:00,4,31.2,107.5,344.0,"DA XIAN, CH",FM-12,99999,V020,"040,1,N,0030,1","99999,9,9,N","018000,1,N,1","+0127,1","+0034,1","10314,1",,,,,,"07,99,1,07,1,00,1,99999,9,04,1,99,9",,,"99999,9,09899,1","2,1,009,1,+999,9",,SYN060AAXX  26031 57328 42968 70403 10127 20034 40314 52009 8704/;,Q01+999990APOSP 
11-26T06:00:00,4,31.2,107.5,344.0,"DA XIAN, CH",FM-12,99999,V020,"090,1,N,0010,1","99999,9,9,N","030000,1,N,1","+0140,1","+0014,1","10290,1","06,0000,9,1",,,,,"08,99,1,08,1,00,1,99999,9,07,1,99,9",,"999,N,+0095,1","99999,9,09875,1","7,1,023,1,+999,9",,SYN076AAXX  26061 57328 32980 80901 10140 20014 39875 40290 57023 8807/ 333 20095;,Q01  00002PRCP06
11-26T09:00:00,4,31.2,107.5,344.0,"DA XIAN, CH",FM-12,99999,V020,"160,1,N,0010,1","99999,9,9,N","030000,1,N,1","+0141,1","+0040,1","10281,1",,,,,,"07,99,1,07,1,00,1,99999,9,04,1,99,9",,,"99999,9,09870,1","7,1,009,1,+999,9",,SYN060AAXX  26091 57328 42980 71601 10141 20040 40281 57009 8704/;,Q01+999990APOSP 
11-26T12:00:00,4,31.2,107.5,344.0,"DA XIAN, CH",FM-12,99999,V020,"999,9,C,0000,1","22000,1,9,N","012000,1,N,1","+0109,1","+0063,1","10292,1","06,0000,9,1",,,,"00,1,+99999,9,99,9","00,99,1,00,1,00,1,99999,9,00,1,00,1",,,"99999,9,09875,1","2,1,009,1,+999,9",,SYN060AAXX  26121 57328 32962 00000 10109 20063 39875 40292 52009;,Q01  00002PRCP06
11-26T15:00:00,4,31.2,107.5,344.0,"DA XIAN, CH",FM-12,99999,V020,"040,1,N,0030,1","99999,9,9,N","007000,1,N,1","+0081,1","+0068,1","10295,1",,,,,,"07,99,1,07,1,00,1,99999,9,04,1,99,9",,,"99999,9,09874,1","2,1,003,1,+999,9","10,1",SYN066AAXX  26151 57328 41957 70403 10081 20068 40295 52003 71000 8704/;,Q01+999990APOSP 
11-26T18:00:00,4,31.2,107.5,344.0,"DA XIAN, CH",FM-12,99999,V020,"040,1,N,0020,1","22000,1,9,N","005000,1,N,1","+0071,1","+0062,1","10286,1","06,0000,9,1",,,,"00,1,+99999,9,99,9","00,99,1,00,1,00,1,99999,9,00,1,00,1",,"999,M,+0147,1","99999,9,09869,1","7,1,009,1,+999,9","10,1",SYN076AAXX  26181 57328 31950 00402 10071 20062 39869 40286 57009 71000 333 10147;,Q01  00002PRCP06
11-27T00:00:00,4,31.2,107.5,344.0,"DA XIAN, CH",FM-12,99999,V020,"040,1,N,0030,1","99999,9,9,N","005000,1,N,1","+0055,1","+0043,1","10275,1","06,0000,9,1",,,,,"07,99,1,07,1,00,1,99999,9,04,1,99,9","999,+0040,9",,"99999,9,09855,1","2,1,001,1,-030,1","10,1",SYN088AAXX  27001 57328 31950 70403 10055 20043 39855 40275 52001 71000 8704/ 333 05354 30046;,Q01  00002PRCP06
11-27T03:00:00,4,31.2,107.5,344.0,"DA XIAN, CH",FM-12,99999,V020,"040,1,N,0020,1","99999,9,9,N","011000,1,N,1","+0098,1","+0050,1","10272,1",,,,,,"08,99,1,08,1,00,1,99999,9,07,1,99,9",,,"99999,9,09855,1","7,1,001,1,+999,9",,SYN060AAXX  27031 57328 42961 80402 10098 20050 40272 57001 8807/;,
11-27T06:00:00,4,31.2,107.5,344.0,"DA XIAN, CH",FM-12,99999,V020,"040,1,N,0010,1","22000,1,9,N","015000,1,N,1","+0137,1","+0061,1","10225,1","06,0000,9,1",,,,,"03,99,1,01,1,01,1,01250,1,04,1,00,1",,"999,N,+0054,1","99999,9,09811,1","7,1,043,1,+999,9",,SYN076AAXX  27061 57328 32665 30401 10137 20061 39811 40225 57043 81140 333 20054;,Q01  00002PRCP06
11-27T09:00:00,4,31.2,107.5,344.0,"DA XIAN, CH",FM-12,99999,V020,"290,1,N,0010,1","99999,9,9,N","020000,1,N,1","+0142,1","+0062,1","10209,1",,,,,,"08,99,1,08,1,00,1,99999,9,07,1,99,9",,,"99999,9,09801,1","7,1,016,1,+999,9",,SYN060AAXX  27091 57328 42970 82901 10142 20062 40209 57016 8807/;,Q01+999990APOSP 
11-27T12:00:00,4,31.2,107.5,344.0,"DA XIAN, CH",FM-12,99999,V020,"160,1,N,0020,1","02100,1,9,N","008000,1,N,1","+0122,1","+0086,1","10224,1","06,9999,9,9",,"6,1,06,1",,,"08,99,1,08,1,05,1,02250,1,99,9,99,9",,,"99999,9,09807,1","2,1,012,1,+999,9","60,1",SYN078AAXX  27121 57328 11858 81602 10122 20086 39807 40224 52012 69901 76060 885//;,
11-27T15:00:00,4,31.2,107.5,344.0,"DA XIAN, CH",FM-12,99999,V020,"040,1,N,0030,1","02100,1,9,N","007000,1,N,1","+0108,1","+0096,1","10253,1",,,"6,1,03,1","6,1,03,1",,"08,99,1,08,1,05,1,02250,1,99,9,99,9",,,"99999,9,09838,1","2,1,030,1,+999,9","60,1",SYN066AAXX  27151 57328 41857 80403 10108 20096 40253 52030 76066 885//;,Q01+999990APOSP 
11-27T18:00:00,4,31.2,107.5,344.0,"DA XIAN, CH",FM-12,99999,V020,"040,1,N,0020,1","02100,1,9,N","008000,1,N,1","+0105,1","+0091,1","10256,1","06,0005,9,1",,"6,1,06,1","6,1,06,1",,"08,99,1,08,1,05,1,02250,1,99,9,99,9",,"999,M,+0153,1","99999,9,09843,1","2,1,006,1,+999,9","21,1",SYN088AAXX  27181 57328 11858 80402 10105 20091 39843 40256 52006 69941 72166 885// 333 10153;,
11-27T21:00:00,4,31.2,107.5,344.0,"DA XIAN, CH",FM-12,99999,V020,"999,9,C,0000,1","02100,1,9,N","011000,1,N,1","+0103,1","+0074,1","10260,1","24,0005,9,1",,"6,1,03,1",,,"08,99,1,08,1,05,1,02250,1,99,9,99,9",,,"99999,9,09844,1","2,1,004,1,+999,9","21,1",SYN076AAXX  27211 57328 41861 80000 10103 20074 40260 52004 72160 885// 333 70005;,
11-28T00:00:00,4,31.2,107.5,344.0,"DA XIAN, CH",FM-12,99999,V020,"020,1,N,0010,1","99999,9,9,N","015000,1,N,1","+0095,1","+0076,1","10284,1","06,9999,9,9","24,0005,9,1","6,1,06,1",,,"07,99,1,07,1,00,1,99999,9,04,1,00,1",,,"99999,9,09868,1","2,1,021,1,+010,1","00,1",SYN094AAXX  28001 57328 11965 70201 10095 20076 39868 40284 52021 69911 70060 87040 333 00104 70005;,
11-28T03:00:00,4,31.2,107.5,344.0,"DA XIAN, CH",FM-12,99999,V020,"020,1,N,0010,1","99999,9,9,N","020000,1,N,1","+0117,1","+0067,1","10300,1",,,,,,"07,99,1,07,1,00,1,99999,9,04,1,99,9",,,"99999,9,09884,1","2,1,016,1,+999,9",,SYN060AAXX  28031 57328 42970 70201 10117 20067 40300 52016 8704/;,Q01+999990APOSP 
11-28T06:00:00,4,31.2,107.5,344.0,"DA XIAN, CH",FM-12,99999,V020,"999,9,C,0000,1","03600,1,9,N","030000,1,N,1","+0147,1","+0040,1","10271,1","06,0000,9,1",,,,,"06,99,1,01,1,01,1,01250,1,04,1,00,1",,"999,N,+0095,1","99999,9,09858,1","7,1,026,1,+999,9",,SYN076AAXX  28061 57328 32680 60000 10147 20040 39858 40271 57026 81140 333 20095;,Q01  00002PRCP06
11-28T09:00:00,4,31.2,107.5,344.0,"DA XIAN, CH",FM-12,99999,V020,"160,1,N,0020,1","99999,9,9,N","030000,1,N,1","+0131,1","+0060,1","10271,1",,,,,,"07,99,1,07,1,00,1,99999,9,04,1,99,9",,,"99999,9,09859,1","7,1,001,1,+999,9",,SYN060AAXX  28091 57328 42980 71602 10131 20060 40271 57001 8704/;,Q01+999990APOSP 
11-28T12:00:00,4,31.2,107.5,344.0,"DA XIAN, CH",FM-12,99999,V020,"160,1,N,0010,1","22000,1,9,N","003000,1,N,1","+0107,1","+0074,1","10298,1","06,0000,9,1",,,,"00,1,+99999,9,99,9","00,99,1,00,1,00,1,99999,9,00,1,00,1",,,"99999,9,09880,1","2,1,023,1,+999,9","10,1",SYN066AAXX  28121 57328 31930 01601 10107 20074 39880 40298 52023 71000;,Q01  00002PRCP06
11-28T15:00:00,4,31.2,107.5,344.0,"DA XIAN, CH",FM-12,99999,V020,"070,1,N,0010,1","22000,1,9,N","003000,1,N,1","+0089,1","+0072,1","10313,1",,,,,"00,1,+99999,9,99,9","00,99,1,00,1,00,1,99999,9,00,1,00,1",,,"99999,9,09893,1","2,1,015,1,+999,9","10,1",SYN060AAXX  28151 57328 41930 00701 10089 20072 40313 52015 71000;,Q01+999990APOSP 
11-28T18:00:00,4,31.2,107.5,344.0,"DA XIAN, CH",FM-12,99999,V020,"040,1,N,0020,1","22000,1,9,N","002000,1,N,1","+0079,1","+0071,1","10303,1","06,0000,9,1",,,,"00,1,+99999,9,99,9","00,99,1,00,1,00,1,99999,9,00,1,00,1",,"999,M,+0164,1","99999,9,09887,1","7,1,008,1,+999,9","10,1",SYN076AAXX  28181 57328 31920 00402 10079 20071 39887 40303 57008 71000 333 10164;,Q01  00002PRCP06
11-28T21:00:00,4,31.2,107.5,344.0,"DA XIAN, CH",FM-12,99999,V020,"040,1,N,0030,1","00015,1,9,N","000000,1,N,1","+0062,1","+0060,1","10292,1",,,"4,1,03,1",,"09,1,+99999,9,99,9","09,99,1,09,1,99,9,99999,9,99,9,99,9",,,"99999,9,09869,1","7,1,013,1,+999,9","45,1",SYN060AAXX  28211 57328 41/00 90403 10062 20060 40292 57013 74540;,Q01+999990APOSP 
11-29T00:00:00,4,31.2,107.5,344.0,"DA XIAN, CH",FM-12,99999,V020,"040,1,N,0040,1","02100,1,9,N","001200,1,N,1","+0058,1","+0051,1","10295,1","06,0000,9,1",,"4,1,06,1",,,"08,99,1,08,1,05,1,02250,1,99,9,99,9",,,"99999,9,09875,1","2,1,001,1,+001,1","28,1",SYN082AAXX  29001 57328 31812 80404 10058 20051 39875 40295 52001 72840 885// 333 00154;,Q01  00002PRCP06
11-29T03:00:00,4,31.2,107.5,344.0,"DA XIAN, CH",FM-12,99999,V020,"020,1,N,0030,1","02100,1,9,N","005000,1,N,1","+0081,1","+0059,1","10298,1",,,,,,"07,99,1,07,1,05,1,02250,1,99,9,99,9",,,"99999,9,09877,1","2,1,003,1,+999,9","10,1",SYN066AAXX  29031 57328 41850 70203 10081 20059 40298 52003 71000 875//;,Q01+999990APOSP 
11-29T06:00:00,4,31.2,107.5,344.0,"DA XIAN, CH",FM-12,99999,V020,"160,1,N,0010,1","99999,9,9,N","008000,1,N,1","+0115,1","+0063,1","10258,1","06,0000,9,1",,,,,"08,99,1,08,1,00,1,99999,9,07,1,99,9",,"999,N,+0054,1","99999,9,09841,1","7,1,037,1,+999,9","10,1",SYN082AAXX  29061 57328 31958 81601 10115 20063 39841 40258 57037 71000 8807/ 333 20054;,Q01  00002PRCP06
11-29T09:00:00,4,31.2,107.5,344.0,"DA XIAN, CH",FM-12,99999,V020,"270,1,N,0010,1","22000,1,9,N","008000,1,N,1","+0127,1","+0055,1","10231,1",,,,,,"01,99,1,01,1,01,1,01250,1,00,1,00,1",,,"99999,9,09820,1","7,1,026,1,+999,9","10,1",SYN066AAXX  29091 57328 41658 12701 10127 20055 40231 57026 71000 81100;,Q01+999990APOSP 
11-29T12:00:00,4,31.2,107.5,344.0,"DA XIAN, CH",FM-12,99999,V020,"040,1,N,0020,1","22000,1,9,N","008000,1,N,1","+0088,1","+0065,1","10234,1","06,0000,9,1",,,,"00,1,+99999,9,99,9","00,99,1,00,1,00,1,99999,9,00,1,00,1",,,"99999,9,09815,1","4,1,000,1,+999,9","10,1",SYN066AAXX  29121 57328 31958 00402 10088 20065 39815 40234 54000 71000;,Q01  00002PRCP06
11-29T15:00:00,4,31.2,107.5,344.0,"DA XIAN, CH",FM-12,99999,V020,"040,1,N,0010,1","22000,1,9,N","006000,1,N,1","+0070,1","+0059,1","10238,1",,,,,"00,1,+99999,9,99,9","00,99,1,00,1,00,1,99999,9,00,1,00,1",,,"99999,9,09818,1","2,1,004,1,+999,9","10,1",SYN060AAXX  29151 57328 41956 00401 10070 20059 40238 52004 71000;,Q01+999990APOSP 
11-29T18:00:00,4,31.2,107.5,344.0,"DA XIAN, CH",FM-12,99999,V020,"040,1,N,0020,1","22000,1,9,N","006000,1,N,1","+0064,1","+0055,1","10229,1","06,0000,9,1",,,,"00,1,+99999,9,99,9","00,99,1,00,1,00,1,99999,9,00,1,00,1",,"999,M,+0131,1","99999,9,09812,1","7,1,007,1,+999,9","10,1",SYN076AAXX  29181 57328 31956 00402 10064 20055 39812 40229 57007 71000 333 10131;,Q01  00002PRCP06
11-29T21:00:00,4,31.2,107.5,344.0,"DA XIAN, CH",FM-12,99999,V020,"040,1,N,0020,1","22000,1,9,N","003000,1,N,1","+0055,1","+0050,1","10214,1",,,,,"00,1,+99999,9,99,9","00,99,1,00,1,00,1,99999,9,00,1,00,1",,,"99999,9,09793,1","7,1,014,1,+999,9","10,1",SYN060AAXX  29211 57328 41930 00402 10055 20050 40214 57014 71000;,Q01+999990APOSP 
11-30T00:00:00,4,31.2,107.5,344.0,"DA XIAN, CH",FM-12,99999,V020,"020,1,N,0030,1","22000,1,9,N","001100,1,N,1","+0051,1","+0046,1","10230,1","06,0000,9,1",,"4,1,06,1",,,"02,99,1,02,1,00,1,99999,9,04,1,00,1","999,+0040,9",,"99999,9,09810,1","2,1,012,1,-070,1","28,1",SYN088AAXX  30001 57328 31911 20203 10051 20046 39810 40230 52012 72840 82040 333 05751 30045;,Q01  00002PRCP06
11-30T03:00:00,4,31.2,107.5,344.0,"DA XIAN, CH",FM-12,99999,V020,"040,1,N,0010,1","99999,9,9,N","005000,1,N,1","+0083,1","+0061,1","10239,1",,,,,,"08,99,1,08,1,00,1,99999,9,07,1,99,9",,,"99999,9,09821,1","2,1,010,1,+999,9","10,1",SYN066AAXX  30031 57328 41950 80401 10083 20061 40239 52010 71000 8807/;,Q01+999990APOSP 
11-30T06:00:00,4,31.2,107.5,344.0,"DA XIAN, CH",FM-12,99999,V020,"020,1,N,0020,1","99999,9,9,N","007000,1,N,1","+0108,1","+0062,1","10204,1","06,0000,9,1",,,,,"08,99,1,08,1,00,1,99999,9,07,1,99,9",,"999,N,+0048,1","99999,9,09788,1","7,1,032,1,+999,9","10,1",SYN082AAXX  30061 57328 31957 80202 10108 20062 39788 40204 57032 71000 8807/ 333 20048;,Q01  00002PRCP06
11-30T09:00:00,4,31.2,107.5,344.0,"DA XIAN, CH",FM-12,99999,V020,"020,1,N,0010,1","99999,9,9,N","008000,1,N,1","+0118,1","+0064,1","10185,1",,,,,,"08,99,1,08,1,00,1,99999,9,07,1,99,9",,,"99999,9,09774,1","7,1,018,1,+999,9","10,1",SYN066AAXX  30091 57328 41958 80201 10118 20064 40185 57018 71000 8807/;,Q01+999990APOSP 
11-30T12:00:00,4,31.2,107.5,344.0,"DA XIAN, CH",FM-12,99999,V020,"040,1,N,0010,1","99999,9,9,N","005000,1,N,1","+0110,1","+0080,1","10196,1","06,0000,9,1",,,,,"08,99,1,08,1,00,1,99999,9,07,1,99,9",,,"99999,9,09779,1","2,1,009,1,+999,9","10,1",SYN072AAXX  30121 57328 31950 80401 10110 20080 39779 40196 52009 71000 8807/;,Q01  00002PRCP06
11-30T15:00:00,4,31.2,107.5,344.0,"DA XIAN, CH",FM-12,99999,V020,"160,1,N,0020,1","99999,9,9,N","004000,1,N,1","+0105,1","+0081,1","10209,1",,,,,,"08,99,1,08,1,00,1,99999,9,07,1,99,9",,,"99999,9,09795,1","2,1,015,1,+999,9","10,1",SYN066AAXX  30151 57328 41940 81602 10105 20081 40209 52015 71000 8807/;,Q01+999990APOSP 
11-30T18:00:00,4,31.2,107.5,344.0,"DA XIAN, CH",FM-12,99999,V020,"040,1,N,0010,1","99999,9,9,N","003000,1,N,1","+0099,1","+0085,1","10207,1","06,0000,9,1",,,,,"08,99,1,08,1,00,1,99999,9,07,1,99,9",,"999,M,+0119,1","99999,9,09793,1","7,1,001,1,+999,9","10,1",SYN082AAXX  30181 57328 31930 80401 10099 20085 39793 40207 57001 71000 8807/ 333 10119;,Q01  00002PRCP06
11-30T21:00:00,4,31.2,107.5,344.0,"DA XIAN, CH",FM-12,99999,V020,"999,9,C,0000,1","99999,9,9,N","005000,1,N,1","+0100,1","+0082,1","10210,1",,,,,,"08,99,1,08,1,00,1,99999,9,07,1,99,9",,,"99999,9,09796,1","2,1,004,1,+999,9","10,1",SYN066AAXX  30211 57328 41950 80000 10100 20082 40210 52004 71000 8807/;,Q01+999990APOSP 
12-01T00:00:00,4,31.2,107.5,344.0,"DA XIAN, CH",FM-12,99999,V020,"999,9,C,0000,1","02100,1,9,N","003000,1,N,1","+0101,1","+0083,1","10233,1","06,0000,9,1",,,,,"08,99,1,08,1,05,1,02250,1,99,9,99,9",,,"99999,9,09818,1","2,1,021,1,+001,1","10,1",SYN082AAXX  01001 57328 31830 80000 10101 20083 39818 40233 52021 71000 885// 333 00105;,Q01  00002PRCP06
12-01T03:00:00,4,31.2,107.5,344.0,"DA XIAN, CH",FM-12,99999,V020,"999,9,C,0000,1","99999,9,9,N","002000,1,N,1","+0109,1","+0085,1","10253,1",,,"6,1,03,1",,,"08,99,1,08,1,00,1,99999,9,07,1,99,9",,,"99999,9,09838,1","2,1,020,1,+999,9","10,1",SYN066AAXX  01031 57328 41920 80000 10109 20085 40253 52020 71060 8807/;,Q01+999990APOSP 
12-01T06:00:00,4,31.2,107.5,344.0,"DA XIAN, CH",FM-12,99999,V020,"999,9,C,0000,1","99999,9,9,N","002000,1,N,1","+0115,1","+0091,1","10241,1","06,9999,9,9",,"6,1,06,1",,,"08,99,1,08,1,00,1,99999,9,02,1,99,9",,"999,N,+0098,1","99999,9,09826,1","7,1,012,1,+999,9","10,1",SYN088AAXX  01061 57328 11920 80000 10115 20091 39826 40241 57012 69901 71060 8802/ 333 20098;,
12-01T09:00:00,4,31.2,107.5,344.0,"DA XIAN, CH",FM-12,99999,V020,"999,9,C,0000,1","99999,9,9,N","008000,1,N,1","+0113,1","+0085,1","10241,1",,,,,,"08,99,1,08,1,00,1,99999,9,02,1,99,9",,,"99999,9,09827,1","4,1,000,1,+999,9","10,1",SYN066AAXX  01091 57328 41958 80000 10113 20085 40241 54000 71000 8802/;,Q01+999990APOSP 
12-01T12:00:00,4,31.2,107.5,344.0,"DA XIAN, CH",FM-12,99999,V020,"040,1,N,0010,1","99999,9,9,N","005000,1,N,1","+0103,1","+0091,1","10254,1","06,9999,9,9",,"6,1,06,1",,,"08,99,1,08,1,00,1,99999,9,02,1,99,9",,,"99999,9,09838,1","2,1,012,1,+999,9","60,1",SYN078AAXX  01121 57328 11950 80401 10103 20091 39838 40254 52012 69911 76060 8802/;,
12-01T15:00:00,4,31.2,107.5,344.0,"DA XIAN, CH",FM-12,99999,V020,"040,1,N,0010,1","99999,9,9,N","002000,1,N,1","+0101,1","+0095,1","10262,1",,,"6,1,03,1","6,1,03,1",,"08,99,1,08,1,00,1,99999,9,02,1,99,9",,,"99999,9,09846,1","2,1,008,1,+999,9","60,1",SYN066AAXX  01151 57328 41920 80401 10101 20095 40262 52008 76066 8802/;,Q01+999990APOSP 
12-01T18:00:00,4,31.2,107.5,344.0,"DA XIAN, CH",FM-12,99999,V020,"999,9,C,0000,1","02100,1,9,N","004000,1,N,1","+0101,1","+0093,1","10254,1","06,9999,9,9",,"6,1,06,1",,,"08,99,1,08,1,05,1,02250,1,99,9,99,9",,"999,M,+0116,1","99999,9,09839,1","7,1,007,1,+999,9","60,1",SYN088AAXX  01181 57328 11840 80000 10101 20093 39839 40254 57007 69921 76060 885// 333 10116;,
12-01T21:00:00,4,31.2,107.5,344.0,"DA XIAN, CH",FM-12,99999,V020,"999,9,C,0000,1","99999,9,9,N","005000,1,N,1","+0100,1","+0090,1","10241,1","24,0003,9,1",,"6,1,03,1","6,1,03,1",,"08,99,1,08,1,00,1,99999,9,02,1,99,9",,,"99999,9,09825,1","7,1,013,1,+999,9","60,1",SYN076AAXX  01211 57328 41950 80000 10100 20090 40241 57013 76066 8802/ 333 70003;,Q01+999990APOSP 
12-02T00:00:00,4,31.2,107.5,344.0,"DA XIAN, CH",FM-12,99999,V020,"040,1,N,0010,1","02100,1,9,N","002500,1,N,1","+0100,1","+0090,1","10251,1","06,9999,9,9","24,0003,9,1","6,1,06,1",,,"08,99,1,08,1,05,1,02250,1,99,9,99,9",,,"99999,9,09835,1","2,1,009,1,+020,1","10,1",SYN094AAXX  02001 57328 11825 80401 10100 20090 39835 40251 52009 69901 71060 885// 333 00200 70003;,
12-02T03:00:00,4,31.2,107.5,344.0,"DA XIAN, CH",FM-12,99999,V020,"999,9,C,0000,1","99999,9,9,N","005000,1,N,1","+0107,1","+0093,1","10256,1",,,,,,"08,99,1,08,1,00,1,99999,9,02,1,99,9",,,"99999,9,09841,1","2,1,005,1,+999,9","10,1",SYN066AAXX  02031 57328 41950 80000 10107 20093 40256 52005 71000 8802/;,Q01+999990APOSP 
12-02T06:00:00,4,31.2,107.5,344.0,"DA XIAN, CH",FM-12,99999,V020,"070,1,N,0010,1","99999,9,9,N","008000,1,N,1","+0111,1","+0089,1","10234,1","06,9999,9,9",,"6,1,06,1",,,"08,99,1,08,1,00,1,99999,9,02,1,99,9",,"999,N,+0099,1","99999,9,09819,1","7,1,021,1,+999,9","60,1",SYN088AAXX  02061 57328 11958 80701 10111 20089 39819 40234 57021 69901 76060 8802/ 333 20099;,
12-02T09:00:00,4,31.2,107.5,344.0,"DA XIAN, CH",FM-12,99999,V020,"040,1,N,0020,1","02100,1,9,N","003000,1,N,1","+0110,1","+0092,1","10232,1",,,"6,1,03,1",,,"08,99,1,08,1,05,1,02250,1,99,9,99,9",,,"99999,9,09818,1","7,1,002,1,+999,9","60,1",SYN066AAXX  02091 57328 41830 80402 10110 20092 40232 57002 76060 885//;,Q01+999990APOSP 
12-02T12:00:00,4,31.2,107.5,344.0,"DA XIAN, CH",FM-12,99999,V020,"999,9,C,0000,1","02100,1,9,N","004000,1,N,1","+0103,1","+0097,1","10245,1","06,9999,9,9",,"6,1,06,1",,,"08,99,1,08,1,05,1,02250,1,99,9,99,9",,,"99999,9,09829,1","2,1,012,1,+999,9","10,1",SYN078AAXX  02121 57328 11840 80000 10103 20097 39829 40245 52012 69901 71060 885//;,
12-02T15:00:00,4,31.2,107.5,344.0,"DA XIAN, CH",FM-12,99999,V020,"999,9,C,0000,1","02100,1,9,N","003000,1,N,1","+0101,1","+0093,1","10260,1",,,,,,"08,99,1,08,1,05,1,02250,1,99,9,99,9",,,"99999,9,09844,1","2,1,015,1,+999,9","10,1",SYN066AAXX  02151 57328 41830 80000 10101 20093 40260 52015 71000 885//;,Q01+999990APOSP 
12-02T18:00:00,4,31.2,107.5,344.0,"DA XIAN, CH",FM-12,99999,V020,"999,9,C,0000,1","02100,1,9,N","003000,1,N,1","+0099,1","+0091,1","10243,1","06,0000,9,1",,,,,"08,99,1,08,1,05,1,02250,1,99,9,99,9",,"999,M,+0111,1","99999,9,09828,1","7,1,016,1,+999,9","10,1",SYN082AAXX  02181 57328 31830 80000 10099 20091 39828 40243 57016 71000 885// 333 10111;,Q01  00002PRCP06
12-02T21:00:00,4,31.2,107.5,344.0,"DA XIAN, CH",FM-12,99999,V020,"999,9,C,0000,1","02100,1,9,N","003000,1,N,1","+0097,1","+0091,1","10228,1","24,0000,2,1",,,,,"08,99,1,08,1,05,1,02250,1,99,9,99,9",,,"99999,9,09813,1","7,1,015,1,+999,9","10,1",SYN076AAXX  02211 57328 41830 80000 10097 20091 40228 57015 71000 885// 333 79999;,Q01+999990APOSP 
12-03T00:00:00,4,31.2,107.5,344.0,"DA XIAN, CH",FM-12,99999,V020,"999,9,C,0000,1","99999,9,9,N","001500,1,N,1","+0097,1","+0089,1","10224,1","06,0000,9,1","24,0000,2,1",,,,"08,99,1,08,1,00,1,99999,9,02,1,99,9",,,"99999,9,09809,1","7,1,004,1,-030,1","10,1",SYN088AAXX  03001 57328 31915 80000 10097 20089 39809 40224 57004 71000 8802/ 333 05300 79999;,Q01  00002PRCP06
12-03T03:00:00,4,31.2,107.5,344.0,"DA XIAN, CH",FM-12,99999,V020,"040,1,N,0030,1","99999,9,9,N","002000,1,N,1","+0099,1","+0091,1","10225,1",,,"6,1,03,1",,,"08,99,1,08,1,00,1,99999,9,02,1,99,9",,,"99999,9,09810,1","2,1,001,1,+999,9","60,1",SYN066AAXX  03031 57328 41920 80403 10099 20091 40225 52001 76060 8802/;,Q01+999990APOSP 
12-03T06:00:00,4,31.2,107.5,344.0,"DA XIAN, CH",FM-12,99999,V020,"040,1,N,0010,1","99999,9,9,N","003000,1,N,1","+0098,1","+0090,1","10183,1","06,0005,9,1",,"6,1,06,1",,,"08,99,1,08,1,00,1,99999,9,02,1,99,9",,"999,N,+0095,1","99999,9,09769,1","7,1,041,1,+999,9","60,1",SYN088AAXX  03061 57328 11930 80401 10098 20090 39769 40183 57041 69961 76060 8802/ 333 20095;,
12-03T09:00:00,4,31.2,107.5,344.0,"DA XIAN, CH",FM-12,99999,V020,"040,1,N,0020,1","99999,9,9,N","002000,1,N,1","+0095,1","+0091,1","10167,1",,,"6,1,03,1","6,1,03,1",,"08,99,1,08,1,00,1,99999,9,02,1,99,9",,,"99999,9,09754,1","7,1,015,1,+999,9","60,1",SYN066AAXX  03091 57328 41920 80402 10095 20091 40167 57015 76066 8802/;,Q01+999990APOSP 
12-03T12:00:00,4,31.2,107.5,344.0,"DA XIAN, CH",FM-12,99999,V020,"040,1,N,0020,1","99999,9,9,N","002000,1,N,1","+0093,1","+0089,1","10178,1","06,0020,9,1",,"6,1,06,1","6,1,06,1",,"08,99,1,08,1,00,1,99999,9,02,1,99,9",,,"99999,9,09764,1","2,1,010,1,+999,9","60,1",SYN078AAXX  03121 57328 11920 80402 10093 20089 39764 40178 52010 60021 76066 8802/;,
12-03T15:00:00,4,31.2,107.5,344.0,"DA XIAN, CH",FM-12,99999,V020,"040,1,N,0020,1","99999,9,9,N","002000,1,N,1","+0093,1","+0087,1","10175,1",,,"6,1,03,1","6,1,03,1",,"08,99,1,08,1,00,1,99999,9,02,1,99,9",,,"99999,9,09761,1","7,1,003,1,+999,9","60,1",SYN066AAXX  03151 57328 41920 80402 10093 20087 40175 57003 76066 8802/;,Q01+999990APOSP 
12-03T18:00:00,4,31.2,107.5,344.0,"DA XIAN, CH",FM-12,99999,V020,"999,9,C,0000,1","99999,9,9,N","002000,1,N,1","+0093,1","+0089,1","10168,1","06,0005,9,1",,"6,1,06,1","6,1,06,1",,"08,99,1,08,1,00,1,99999,9,02,1,99,9",,"999,M,+0101,1","99999,9,09755,1","7,1,006,1,+999,9","60,1",SYN088AAXX  03181 57328 11920 80000 10093 20089 39755 40168 57006 69941 76066 8802/ 333 10101;,
12-03T21:00:00,4,31.2,107.5,344.0,"DA XIAN, CH",FM-12,99999,V020,"040,1,N,0010,1","99999,9,9,N","002000,1,N,1","+0095,1","+0091,1","10174,1","24,0056,9,1",,"6,1,03,1","6,1,03,1",,"08,99,1,08,1,00,1,99999,9,02,1,99,9",,,"99999,9,09760,1","2,1,005,1,+999,9","60,1",SYN076AAXX  03211 57328 41920 80401 10095 20091 40174 52005 76066 8802/ 333 70056;,Q01+999990APOSP 
12-04T00:00:00,4,31.2,107.5,344.0,"DA XIAN, CH",FM-12,99999,V020,"020,1,N,0010,1","02100,1,9,N","003000,1,N,1","+0095,1","+0089,1","10186,1","06,0030,9,1","24,0056,9,1","6,1,06,1","6,1,06,1",,"08,99,1,08,1,05,1,02250,1,99,9,99,9",,,"99999,9,09772,1","2,1,012,1,-040,1","21,1",SYN094AAXX  04001 57328 11830 80201 10095 20089 39772 40186 52012 60031 72166 885// 333 05400 70056;,
12-04T03:00:00,4,31.2,107.5,344.0,"DA XIAN, CH",FM-12,99999,V020,"999,9,C,0000,1","02100,1,9,N","005000,1,N,1","+0100,1","+0088,1","10210,1",,,,,,"08,99,1,08,1,05,1,02250,1,99,9,99,9",,,"99999,9,09796,1","2,1,023,1,+999,9","10,1",SYN066AAXX  04031 57328 41850 80000 10100 20088 40210 52023 71000 885//;,Q01+999990APOSP 
12-04T06:00:00,4,31.2,107.5,344.0,"DA XIAN, CH",FM-12,99999,V020,"040,1,N,0030,1","99999,9,9,N","006000,1,N,1","+0111,1","+0091,1","10177,1","06,0000,2,1",,,,,"08,99,1,08,1,00,1,99999,9,07,1,99,9",,"999,N,+0093,1","99999,9,09764,1","7,1,031,1,+999,9","10,1",SYN082AAXX  04061 57328 31956 80403 10111 20091 39764 40177 57031 71000 8807/ 333 20093;,
12-04T09:00:00,4,31.2,107.5,344.0,"DA XIAN, CH",FM-12,99999,V020,"040,1,N,0020,1","99999,9,9,N","007000,1,N,1","+0113,1","+0093,1","10177,1",,,,,,"08,99,1,08,1,00,1,99999,9,07,1,99,9",,,"99999,9,09766,1","4,1,000,1,+999,9","10,1",SYN066AAXX  04091 57328 41957 80402 10113 20093 40177 54000 71000 8807/;,Q01+999990APOSP 
12-04T12:00:00,4,31.2,107.5,344.0,"DA XIAN, CH",FM-12,99999,V020,"040,1,N,0030,1","99999,9,9,N","006000,1,N,1","+0107,1","+0085,1","10196,1","06,0000,9,1",,,,,"08,99,1,08,1,00,1,99999,9,07,1,99,9",,,"99999,9,09782,1","2,1,018,1,+999,9","10,1",SYN072AAXX  04121 57328 31956 80403 10107 20085 39782 40196 52018 71000 8807/;,Q01  00002PRCP06
12-04T15:00:00,4,31.2,107.5,344.0,"DA XIAN, CH",FM-12,99999,V020,"040,1,N,0040,1","99999,9,9,N","012000,1,N,1","+0099,1","+0076,1","10188,1",,,,,,"07,99,1,07,1,00,1,99999,9,04,1,99,9",,,"99999,9,09774,1","7,1,008,1,+999,9",,SYN060AAXX  04151 57328 42962 70404 10099 20076 40188 57008 8704/;,Q01+999990APOSP 
12-04T18:00:00,4,31.2,107.5,344.0,"DA XIAN, CH",FM-12,99999,V020,"180,1,N,0010,1","02100,1,9,N","012000,1,N,1","+0101,1","+0065,1","10198,1","06,9999,9,9",,,,,"08,99,1,08,1,05,1,02250,1,99,9,99,9",,"999,M,+0115,1","99999,9,09785,1","2,1,011,1,+999,9","60,1",SYN088AAXX  04181 57328 11862 81801 10101 20065 39785 40198 52011 69901 76000 885// 333 10115;,
12-04T21:00:00,4,31.2,107.5,344.0,"DA XIAN, CH",FM-12,99999,V020,"040,1,N,0030,1","02100,1,9,N","015000,1,N,1","+0091,1","+0074,1","10205,1","24,0010,9,1",,"6,1,03,1","6,1,03,1",,"08,99,1,08,1,05,1,02250,1,99,9,99,9",,,"99999,9,09790,1","2,1,006,1,+999,9","60,1",SYN076AAXX  04211 57328 41865 80403 10091 20074 40205 52006 76066 885// 333 70009;,Q01+999990APOSP 
12-05T00:00:00,4,31.2,107.5,344.0,"DA XIAN, CH",FM-12,99999,V020,"040,1,N,0010,1","02100,1,9,N","012000,1,N,1","+0085,1","+0072,1","10230,1","06,0020,9,1","24,0023,9,1","6,1,06,1","6,1,06,1",,"08,99,1,08,1,05,1,02250,1,99,9,99,9",,,"99999,9,09814,1","2,1,023,1,+040,1","60,1",SYN094AAXX  05001 57328 11862 80401 10085 20072 39814 40230 52023 60021 76066 885// 333 00451 70022;,
12-05T03:00:00,4,31.2,107.5,344.0,"DA XIAN, CH",FM-12,99999,V020,"020,1,N,0030,1","02100,1,9,N","012000,1,N,1","+0083,1","+0066,1","10251,1",,,"6,1,03,1","6,1,03,1",,"08,99,1,08,1,05,1,02250,1,99,9,99,9",,,"99999,9,09833,1","2,1,020,1,+999,9","60,1",SYN066AAXX  05031 57328 41862 80203 10083 20066 40251 52020 76066 885//;,Q01+999990APOSP 
12-05T06:00:00,4,31.2,107.5,344.0,"DA XIAN, CH",FM-12,99999,V020,"999,9,C,0000,1","02100,1,9,N","025000,1,N,1","+0083,1","+0075,1","10240,1","06,0008,9,1",,"6,1,06,1","6,1,06,1",,"08,99,1,08,1,05,1,02250,1,99,9,99,9",,"999,N,+0082,1","99999,9,09823,1","7,1,011,1,+999,9","60,1",SYN088AAXX  05061 57328 11875 80000 10083 20075 39823 40240 57011 69971 76066 885// 333 20082;,
12-05T09:00:00,4,31.2,107.5,344.0,"DA XIAN, CH",FM-12,99999,V020,"999,9,C,0000,1","02100,1,9,N","025000,1,N,1","+0089,1","+0068,1","10240,1",,,"6,1,03,1",,,"08,99,1,08,1,05,1,02250,1,99,9,99,9",,,"99999,9,09823,1","4,1,000,1,+999,9","00,1",SYN066AAXX  05091 57328 41875 80000 10089 20068 40240 54000 70060 885//;,Q01+999990APOSP 
12-05T12:00:00,4,31.2,107.5,344.0,"DA XIAN, CH",FM-12,99999,V020,"999,9,C,0000,1","02100,1,9,N","015000,1,N,1","+0089,1","+0072,1","10263,1","06,9999,9,9",,"6,1,06,1",,,"08,99,1,08,1,05,1,02250,1,99,9,99,9",,,"99999,9,09845,1","2,1,022,1,+999,9","00,1",SYN078AAXX  05121 57328 11865 80000 10089 20072 39845 40263 52022 69901 70060 885//;,
12-05T15:00:00,4,31.2,107.5,344.0,"DA XIAN, CH",FM-12,99999,V020,"040,1,N,0010,1","99999,9,9,N","008000,1,N,1","+0089,1","+0079,1","10279,1",,,,,,"08,99,1,08,1,00,1,99999,9,04,1,99,9",,,"99999,9,09860,1","2,1,015,1,+999,9","10,1",SYN066AAXX  05151 57328 41958 80401 10089 20079 40279 52015 71000 8804/;,Q01+999990APOSP 
12-05T18:00:00,4,31.2,107.5,344.0,"DA XIAN, CH",FM-12,99999,V020,"020,1,N,0020,1","99999,9,9,N","008000,1,N,1","+0087,1","+0074,1","10279,1","06,0000,9,1",,,,,"08,99,1,08,1,00,1,99999,9,07,1,99,9",,"999,M,+0100,1","99999,9,09860,1","4,1,000,1,+999,9","10,1",SYN082AAXX  05181 57328 31958 80202 10087 20074 39860 40279 54000 71000 8807/ 333 10100;,Q01  00002PRCP06
12-05T21:00:00,4,31.2,107.5,344.0,"DA XIAN, CH",FM-12,99999,V020,"040,1,N,0010,1","02100,1,9,N","004000,1,N,1","+0084,1","+0062,1","10269,1","24,0020,9,1",,,,,"08,99,1,08,1,05,1,02250,1,99,9,99,9",,,"99999,9,09850,1","7,1,010,1,+999,9","10,1",SYN076AAXX  05211 57328 41840 80401 10084 20062 40269 57010 71000 885// 333 70020;,Q01+999990APOSP 
12-06T00:00:00,4,31.2,107.5,344.0,"DA XIAN, CH",FM-12,99999,V020,"040,1,N,0020,1","02100,1,9,N","015000,1,N,1","+0082,1","+0036,1","10275,1","06,0000,9,1","24,0008,9,1",,,,"08,99,1,08,1,05,1,02250,1,99,9,99,9",,,"99999,9,09856,1","2,1,006,1,+040,1",,SYN082AAXX  06001 57328 32865 80402 10082 20036 39856 40275 52006 885// 333 00400 70007;,Q01  00002PRCP06
12-06T03:00:00,4,31.2,107.5,344.0,"DA XIAN, CH",FM-12,99999,V020,"020,1,N,0020,1","02100,1,9,N","015000,1,N,1","+0090,1","+0048,1","10295,1",,,,,,"08,99,1,08,1,05,1,02250,1,99,9,99,9",,,"99999,9,09876,1","2,1,020,1,+999,9",,SYN060AAXX  06031 57328 42865 80202 10090 20048 40295 52020 885//;,Q01+999990APOSP 
12-06T06:00:00,4,31.2,107.5,344.0,"DA XIAN, CH",FM-12,99999,V020,"999,9,C,0000,1","02100,1,9,N","008000,1,N,1","+0093,1","+0063,1","10280,1","06,9999,9,9",,"6,1,06,1",,,"08,99,1,08,1,05,1,02250,1,99,9,99,9",,"999,N,+0079,1","99999,9,09861,1","7,1,015,1,+999,9","60,1",SYN088AAXX  06061 57328 11858 80000 10093 20063 39861 40280 57015 69921 76060 885// 333 20079;,
12-06T09:00:00,4,31.2,107.5,344.0,"DA XIAN, CH",FM-12,99999,V020,"090,1,N,0020,1","02100,1,9,N","008000,1,N,1","+0087,1","+0066,1","10276,1",,,"6,1,03,1","6,1,03,1",,"08,99,1,08,1,05,1,02250,1,99,9,99,9",,,"99999,9,09857,1","7,1,004,1,+999,9","60,1",SYN066AAXX  06091 57328 41858 80902 10087 20066 40276 57004 76066 885//;,Q01+999990APOSP 
12-06T12:00:00,4,31.2,107.5,344.0,"DA XIAN, CH",FM-12,99999,V020,"020,1,N,0020,1","02100,1,9,N","008000,1,N,1","+0083,1","+0064,1","10293,1","06,9999,9,9",,"6,1,06,1","6,1,06,1",,"08,99,1,08,1,05,1,02250,1,99,9,99,9",,,"99999,9,09873,1","2,1,016,1,+999,9","60,1",SYN078AAXX  06121 57328 11858 80202 10083 20064 39873 40293 52016 69921 76066 885//;,
12-06T15:00:00,4,31.2,107.5,344.0,"DA XIAN, CH",FM-12,99999,V020,"070,1,N,0010,1","02100,1,9,N","008000,1,N,1","+0085,1","+0064,1","10308,1",,,"6,1,03,1",,,"08,99,1,08,1,05,1,02250,1,99,9,99,9",,,"99999,9,09888,1","2,1,015,1,+999,9","10,1",SYN066AAXX  06151 57328 41858 80701 10085 20064 40308 52015 71060 885//;,Q01+999990APOSP 
12-06T18:00:00,4,31.2,107.5,344.0,"DA XIAN, CH",FM-12,99999,V020,"040,1,N,0020,1","02100,1,9,N","008000,1,N,1","+0085,1","+0064,1","10302,1","06,9999,9,9",,"6,1,06,1",,,"08,99,1,08,1,05,1,02250,1,99,9,99,9",,"999,M,+0095,1","99999,9,09882,1","7,1,006,1,+999,9","10,1",SYN088AAXX  06181 57328 11858 80402 10085 20064 39882 40302 57006 69901 71060 885// 333 10095;,
12-06T21:00:00,4,31.2,107.5,344.0,"DA XIAN, CH",FM-12,99999,V020,"999,9,C,0000,1","02100,1,9,N","008000,1,N,1","+0085,1","+0068,1","10295,1","24,0005,9,1",,,,,"08,99,1,08,1,05,1,02250,1,99,9,99,9",,,"99999,9,09875,1","7,1,007,1,+999,9","10,1",SYN076AAXX  06211 57328 41858 80000 10085 20068 40295 57007 71000 885// 333 70004;,Q01+999990APOSP 
12-07T03:00:00,4,31.2,107.5,344.0,"DA XIAN, CH",FM-12,99999,V020,"020,1,N,0020,1","99999,9,9,N","008000,1,N,1","+0094,1","+0062,1","10312,1",,,,,,"08,99,1,08,1,00,1,99999,9,07,1,99,9",,,"99999,9,09893,1","2,1,010,1,+999,9","10,1",SYN066AAXX  07031 57328 41958 80202 10094 20062 40312 52010 71000 8807/;,Q01+999990APOSP 
12-07T06:00:00,4,31.2,107.5,344.0,"DA XIAN, CH",FM-12,99999,V020,"090,1,N,0010,1","99999,9,9,N","008000,1,N,1","+0101,1","+0051,1","10297,1","06,9999,9,9",,,,,"08,99,1,08,1,00,1,99999,9,02,1,99,9",,"999,N,+0082,1","99999,9,09878,1","7,1,014,1,+999,9","60,1",SYN088AAXX  07061 57328 11958 80901 10101 20051 39878 40297 57014 69901 76000 8802/ 333 20082;,
12-07T09:00:00,4,31.2,107.5,344.0,"DA XIAN, CH",FM-12,99999,V020,"040,1,N,0030,1","99999,9,9,N","020000,1,N,1","+0099,1","+0022,1","10290,1",,,"6,1,03,1",,,"08,99,1,08,1,00,1,99999,9,02,1,99,9",,,"99999,9,09872,1","7,1,007,1,+999,9","60,1",SYN066AAXX  07091 57328 41970 80403 10099 20022 40290 57007 76060 8802/;,Q01+999990APOSP 
12-07T12:00:00,4,31.2,107.5,344.0,"DA XIAN, CH",FM-12,99999,V020,"070,1,N,0020,1","99999,9,9,N","008000,1,N,1","+0090,1","+0022,1","10306,1","06,9999,9,9",,"6,1,06,1",,,"08,99,1,08,1,00,1,99999,9,02,1,99,9",,,"99999,9,09886,1","2,1,015,1,+999,9","60,1",SYN078AAXX  07121 57328 11958 80702 10090 20022 39886 40306 52015 69901 76060 8802/;,
12-07T15:00:00,4,31.2,107.5,344.0,"DA XIAN, CH",FM-12,99999,V020,"040,1,N,0030,1","99999,9,9,N","008000,1,N,1","+0079,1","+0048,1","10315,1",,,"6,1,03,1","6,1,03,1",,"08,99,1,08,1,00,1,99999,9,02,1,99,9",,,"99999,9,09893,1","2,1,008,1,+999,9","60,1",SYN066AAXX  07151 57328 41958 80403 10079 20048 40315 52008 76066 8802/;,Q01+999990APOSP 
12-07T18:00:00,4,31.2,107.5,344.0,"DA XIAN, CH",FM-12,99999,V020,"070,1,N,0010,1","99999,9,9,N","008000,1,N,1","+0074,1","+0049,1","10303,1","06,9999,9,9",,"6,1,06,1","6,1,06,1",,"08,99,1,08,1,00,1,99999,9,02,1,99,9",,"999,M,+0103,1","99999,9,09883,1","7,1,011,1,+999,9","60,1",SYN088AAXX  07181 57328 11958 80701 10074 20049 39883 40303 57011 69911 76066 8802/ 333 10103;,
12-07T21:00:00,4,31.2,107.5,344.0,"DA XIAN, CH",FM-12,99999,V020,"360,1,N,0010,1","02100,1,9,N","008000,1,N,1","+0073,1","+0046,1","10290,1","24,0000,2,1",,"6,1,03,1","6,1,03,1",,"08,99,1,08,1,05,1,02250,1,99,9,99,9",,,"99999,9,09869,1","7,1,013,1,+999,9","60,1",SYN076AAXX  07211 57328 41858 83601 10073 20046 40290 57013 76066 885// 333 70001;,Q01+999990APOSP 
12-08T00:00:00,4,31.2,107.5,344.0,"DA XIAN, CH",FM-12,99999,V020,"999,9,C,0000,1","03600,1,9,N","008000,1,N,1","+0069,1","+0056,1","10299,1","06,9999,9,9","24,0003,9,1","6,1,06,1","6,1,06,1",,"08,99,1,01,1,07,1,00800,1,02,1,99,9",,,"99999,9,09878,1","2,1,008,1,+000,1","60,1",SYN094AAXX  08001 57328 11558 80000 10069 20056 39878 40299 52008 69921 76066 8172/ 333 00052 70003;,
12-08T03:00:00,4,31.2,107.5,344.0,"DA XIAN, CH",FM-12,99999,V020,"040,1,N,0010,1","03600,1,9,N","011000,1,N,1","+0074,1","+0061,1","10316,1",,,"6,1,03,1","6,1,03,1",,"08,99,1,02,1,07,1,00800,1,02,1,99,9",,,"99999,9,09894,1","2,1,016,1,+999,9","60,1",SYN066AAXX  08031 57328 41561 80401 10074 20061 40316 52016 76066 8272/;,
12-08T06:00:00,4,31.2,107.5,344.0,"DA XIAN, CH",FM-12,99999,V020,"020,1,N,0010,1","02100,1,9,N","012000,1,N,1","+0081,1","+0052,1","10287,1","06,0030,9,1",,"6,1,06,1","6,1,06,1",,"08,99,1,08,1,05,1,02250,1,99,9,99,9",,"999,N,+0066,1","99999,9,09866,1","7,1,028,1,+999,9","60,1",SYN088AAXX  08061 57328 11862 80201 10081 20052 39866 40287 57028 60031 76066 885// 333 20066;,
12-08T09:00:00,4,31.2,107.5,344.0,"DA XIAN, CH",FM-12,99999,V020,"020,1,N,0010,1","99999,9,9,N","015000,1,N,1","+0081,1","+0052,1","10283,1",,,"6,1,03,1",,,"08,99,1,08,1,00,1,99999,9,07,1,99,9",,,"99999,9,09863,1","7,1,004,1,+999,9","00,1",SYN066AAXX  08091 57328 41965 80201 10081 20052 40283 57004 70060 8807/;,
12-08T12:00:00,4,31.2,107.5,344.0,"DA XIAN, CH",FM-12,99999,V020,"999,9,C,0000,1","99999,9,9,N","020000,1,N,1","+0077,1","+0057,1","10302,1","06,9999,9,9",,"6,1,06,1",,,"07,99,1,07,1,00,1,99999,9,04,1,99,9",,,"99999,9,09880,1","2,1,018,1,+999,9","00,1",SYN078AAXX  08121 57328 11970 70000 10077 20057 39880 40302 52018 69901 70060 8704/;,
12-08T15:00:00,4,31.2,107.5,344.0,"DA XIAN, CH",FM-12,99999,V020,"999,9,C,0000,1","02100,1,9,N","020000,1,N,1","+0073,1","+0064,1","10323,1",,,,,,"08,99,1,08,1,05,1,02250,1,99,9,99,9",,,"99999,9,09900,1","2,1,020,1,+999,9",,SYN060AAXX  08151 57328 42870 80000 10073 20064 40323 52020 885//;,
12-08T18:00:00,4,31.2,107.5,344.0,"DA XIAN, CH",FM-12,99999,V020,"040,1,N,0010,1","99999,9,9,N","015000,1,N,1","+0072,1","+0063,1","10315,1","06,0000,9,1",,,,,"07,99,1,07,1,00,1,99999,9,04,1,99,9",,"999,M,+0083,1","99999,9,09893,1","7,1,007,1,+999,9",,SYN076AAXX  08181 57328 32965 70401 10072 20063 39893 40315 57007 8704/ 333 10083;,Q01  00002PRCP06
12-08T21:00:00,4,31.2,107.5,344.0,"DA XIAN, CH",FM-12,99999,V020,"040,1,N,0020,1","99999,9,9,N","008000,1,N,1","+0073,1","+0062,1","10308,1","24,0028,9,1",,,,,"08,99,1,08,1,00,1,99999,9,07,1,99,9",,,"99999,9,09886,1","7,1,007,1,+999,9","10,1",SYN076AAXX  08211 57328 41958 80402 10073 20062 40308 57007 71000 8807/ 333 70029;,
12-09T00:00:00,4,31.2,107.5,344.0,"DA XIAN, CH",FM-12,99999,V020,"999,9,C,0000,1","02100,1,9,N","004000,1,N,1","+0073,1","+0060,1","10302,1","06,0000,9,1","24,0028,9,1",,,,"08,99,1,08,1,05,1,02250,1,99,9,99,9",,,"99999,9,09880,1","7,1,006,1,+000,1","10,1",SYN088AAXX  09001 57328 31840 80000 10073 20060 39880 40302 57006 71000 885// 333 00000 70027;,Q01  00002PRCP06
12-09T03:00:00,4,31.2,107.5,344.0,"DA XIAN, CH",FM-12,99999,V020,"360,1,N,0030,1","02100,1,9,N","007000,1,N,1","+0081,1","+0064,1","10309,1",,,,,,"08,99,1,08,1,05,1,02250,1,99,9,99,9",,,"99999,9,09888,1","2,1,007,1,+999,9","10,1",SYN066AAXX  09031 57328 41857 83603 10081 20064 40309 52007 71000 885//;,
12-09T06:00:00,4,31.2,107.5,344.0,"DA XIAN, CH",FM-12,99999,V020,"290,1,N,0010,1","99999,9,9,N","011000,1,N,1","+0098,1","+0057,1","10278,1","06,0000,9,1",,,,,"08,99,1,08,1,00,1,99999,9,07,1,99,9",,"999,N,+0069,1","99999,9,09859,1","7,1,028,1,+999,9",,SYN076AAXX  09061 57328 32961 82901 10098 20057 39859 40278 57028 8807/ 333 20069;,Q01  00002PRCP06
12-09T09:00:00,4,31.2,107.5,344.0,"DA XIAN, CH",FM-12,99999,V020,"040,1,N,0020,1","02100,1,9,N","018000,1,N,1","+0095,1","+0054,1","10273,1",,,,,,"08,99,1,08,1,05,1,02250,1,99,9,99,9",,,"99999,9,09855,1","7,1,005,1,+999,9",,SYN060AAXX  09091 57328 42868 80402 10095 20054 40273 57005 885//;,
12-09T12:00:00,4,31.2,107.5,344.0,"DA XIAN, CH",FM-12,99999,V020,"040,1,N,0020,1","99999,9,9,N","007000,1,N,1","+0085,1","+0050,1","10291,1","06,0000,9,1",,,,,"08,99,1,08,1,00,1,99999,9,07,1,99,9",,,"99999,9,09870,1","2,1,016,1,+999,9","10,1",SYN072AAXX  09121 57328 31957 80402 10085 20050 39870 40291 52016 71000 8807/;,Q01  00002PRCP06
12-09T15:00:00,4,31.2,107.5,344.0,"DA XIAN, CH",FM-12,99999,V020,"040,1,N,0010,1","99999,9,9,N","007000,1,N,1","+0081,1","+0050,1","10300,1",,,,,,"08,99,1,08,1,00,1,99999,9,07,1,99,9",,,"99999,9,09879,1","2,1,009,1,+999,9","10,1",SYN066AAXX  09151 57328 41957 80401 10081 20050 40300 52009 71000 8807/;,
12-09T18:00:00,4,31.2,107.5,344.0,"DA XIAN, CH",FM-12,99999,V020,"999,9,C,0000,1","99999,9,9,N","012000,1,N,1","+0077,1","+0055,1","10295,1","06,0000,9,1",,,,,"08,99,1,08,1,00,1,99999,9,07,1,99,9",,"999,M,+0098,1","99999,9,09875,1","7,1,004,1,+999,9",,SYN076AAXX  09181 57328 32962 80000 10077 20055 39875 40295 57004 8807/ 333 10098;,Q01  00002PRCP06
12-09T21:00:00,4,31.2,107.5,344.0,"DA XIAN, CH",FM-12,99999,V020,"040,1,N,0010,1","99999,9,9,N","008000,1,N,1","+0074,1","+0059,1","10294,1",,,,,,"08,99,1,08,1,00,1,99999,9,07,1,99,9",,,"99999,9,09872,1","7,1,001,1,+999,9","10,1",SYN066AAXX  09211 57328 41958 80401 10074 20059 40294 57001 71000 8807/;,
12-10T00:00:00,4,31.2,107.5,344.0,"DA XIAN, CH",FM-12,99999,V020,"999,9,C,0000,1","99999,9,9,N","007000,1,N,1","+0073,1","+0058,1","10304,1","06,0000,9,1",,,,,"07,99,1,07,1,00,1,99999,9,04,1,99,9",,,"99999,9,09883,1","2,1,009,1,+000,1","10,1",SYN082AAXX  10001 57328 31957 70000 10073 20058 39883 40304 52009 71000 8704/ 333 00000;,Q01  00002PRCP06
12-10T03:00:00,4,31.2,107.5,344.0,"DA XIAN, CH",FM-12,99999,V020,"999,9,C,0000,1","22000,1,9,N","009000,1,N,1","+0093,1","+0044,1","10319,1",,,,,,"03,99,1,02,1,01,1,01250,1,00,1,02,1",,,"99999,9,09899,1","2,1,015,1,+999,9","10,1",SYN066AAXX  10031 57328 41659 30000 10093 20044 40319 52015 71000 82102;,Q01+999990APOSP 
12-10T06:00:00,4,31.2,107.5,344.0,"DA XIAN, CH",FM-12,99999,V020,"360,1,N,0010,1","02100,1,9,N","012000,1,N,1","+0114,1","+0041,1","10288,1","06,0000,9,1",,,,,"06,99,1,06,1,05,1,02250,1,00,1,00,1",,"999,N,+0070,1","99999,9,09870,1","7,1,028,1,+999,9",,SYN076AAXX  10061 57328 32862 63601 10114 20041 39870 40288 57028 86500 333 20070;,Q01  00002PRCP06
12-10T09:00:00,4,31.2,107.5,344.0,"DA XIAN, CH",FM-12,99999,V020,"180,1,N,0010,1","22000,1,9,N","012000,1,N,1","+0113,1","+0055,1","10283,1",,,,,,"04,99,1,04,1,00,1,99999,9,04,1,00,1",,,"99999,9,09868,1","7,1,005,1,+999,9",,SYN060AAXX  10091 57328 42962 41801 10113 20055 40283 57005 84040;,Q01+999990APOSP 
12-10T12:00:00,4,31.2,107.5,344.0,"DA XIAN, CH",FM-12,99999,V020,"999,9,C,0000,1","99999,9,9,N","007000,1,N,1","+0089,1","+0052,1","10302,1","06,0000,9,1",,,,,"07,99,1,07,1,00,1,99999,9,04,1,99,9",,,"99999,9,09881,1","2,1,016,1,+999,9","10,1",SYN072AAXX  10121 57328 31957 70000 10089 20052 39881 40302 52016 71000 8704/;,Q01  00002PRCP06
12-10T15:00:00,4,31.2,107.5,344.0,"DA XIAN, CH",FM-12,99999,V020,"999,9,C,0000,1","99999,9,9,N","006000,1,N,1","+0081,1","+0061,1","10314,1",,,,,,"07,99,1,07,1,00,1,99999,9,04,1,99,9",,,"99999,9,09893,1","2,1,012,1,+999,9","10,1",SYN066AAXX  10151 57328 41956 70000 10081 20061 40314 52012 71000 8704/;,Q01+999990APOSP 
12-10T18:00:00,4,31.2,107.5,344.0,"DA XIAN, CH",FM-12,99999,V020,"040,1,N,0020,1","99999,9,9,N","004000,1,N,1","+0079,1","+0064,1","10310,1","06,0000,9,1",,,,,"08,99,1,08,1,00,1,99999,9,07,1,99,9",,"999,M,+0123,1","99999,9,09891,1","7,1,002,1,+999,9","10,1",SYN082AAXX  10181 57328 31940 80402 10079 20064 39891 40310 57002 71000 8807/ 333 10123;,Q01  00002PRCP06
12-10T21:00:00,4,31.2,107.5,344.0,"DA XIAN, CH",FM-12,99999,V020,"040,1,N,0020,1","99999,9,9,N","003000,1,N,1","+0079,1","+0066,1","10301,1",,,,,,"08,99,1,08,1,00,1,99999,9,07,1,99,9",,,"99999,9,09880,1","7,1,009,1,+999,9","10,1",SYN066AAXX  10211 57328 41930 80402 10079 20066 40301 57009 71000 8807/;,Q01+999990APOSP 
12-11T00:00:00,4,31.2,107.5,344.0,"DA XIAN, CH",FM-12,99999,V020,"070,1,N,0010,1","02100,1,9,N","002000,1,N,1","+0076,1","+0065,1","10315,1","06,0000,9,1",,,,,"08,99,1,08,1,05,1,02250,1,99,9,99,9",,,"99999,9,09894,1","2,1,012,1,+001,1","10,1",SYN082AAXX  11001 57328 31820 80701 10076 20065 39894 40315 52012 71000 885// 333 00100;,Q01  00002PRCP06
12-11T03:00:00,4,31.2,107.5,344.0,"DA XIAN, CH",FM-12,99999,V020,"999,9,C,0000,1","22000,1,9,N","012000,1,N,1","+0114,1","+0049,1","10319,1",,,,,,"04,99,1,04,1,01,1,00800,1,00,1,00,1",,,"99999,9,09902,1","2,1,006,1,+999,9",,SYN060AAXX  11031 57328 42562 40000 10114 20049 40319 52006 84100;,Q01+999990APOSP 
12-11T06:00:00,4,31.2,107.5,344.0,"DA XIAN, CH",FM-12,99999,V020,"140,1,N,0010,1","22000,1,9,N","030000,1,N,1","+0129,1","+0048,1","10281,1","06,0000,9,1",,,,,"03,99,1,03,1,01,1,00800,1,00,1,00,1",,"999,N,+0073,1","99999,9,09864,1","7,1,036,1,+999,9",,SYN076AAXX  11061 57328 32580 31401 10129 20048 39864 40281 57036 83100 333 20073;,Q01  00002PRCP06
12-11T09:00:00,4,31.2,107.5,344.0,"DA XIAN, CH",FM-12,99999,V020,"160,1,N,0010,1","22000,1,9,N","030000,1,N,1","+0133,1","+0037,1","10272,1",,,,,,"01,99,1,01,1,01,1,01250,1,00,1,00,1",,,"99999,9,09860,1","7,1,008,1,+999,9",,SYN060AAXX  11091 57328 42680 11601 10133 20037 40272 57008 81100;,Q01+999990APOSP 
12-11T12:00:00,4,31.2,107.5,344.0,"DA XIAN, CH",FM-12,99999,V020,"999,9,C,0000,1","22000,1,9,N","012000,1,N,1","+0089,1","+0054,1","10298,1","06,0000,9,1",,,,"00,1,+99999,9,99,9","00,99,1,00,1,00,1,99999,9,00,1,00,1",,,"99999,9,09877,1","2,1,021,1,+999,9",,SYN060AAXX  11121 57328 32962 00000 10089 20054 39877 40298 52021;,Q01  00002PRCP06
12-11T15:00:00,4,31.2,107.5,344.0,"DA XIAN, CH",FM-12,99999,V020,"040,1,N,0030,1","22000,1,9,N","007000,1,N,1","+0059,1","+0048,1","10306,1",,,,,"00,1,+99999,9,99,9","00,99,1,00,1,00,1,99999,9,00,1,00,1",,,"99999,9,09882,1","2,1,009,1,+999,9","10,1",SYN060AAXX  11151 57328 41957 00403 10059 20048 40306 52009 71000;,Q01+999990APOSP 
12-11T18:00:00,4,31.2,107.5,344.0,"DA XIAN, CH",FM-12,99999,V020,"040,1,N,0030,1","99999,9,9,N","005000,1,N,1","+0052,1","+0040,1","10297,1","06,0000,9,1",,,,,"07,99,1,07,1,00,1,99999,9,04,1,99,9",,"999,M,+0140,1","99999,9,09878,1","7,1,008,1,+999,9","10,1",SYN082AAXX  11181 57328 31950 70403 10052 20040 39878 40297 57008 71000 8704/ 333 10140;,Q01  00002PRCP06
12-11T21:00:00,4,31.2,107.5,344.0,"DA XIAN, CH",FM-12,99999,V020,"040,1,N,0020,1","99999,9,9,N","004000,1,N,1","+0062,1","+0039,1","10294,1",,,,,,"08,99,1,08,1,00,1,99999,9,07,1,99,9",,,"99999,9,09871,1","7,1,002,1,+999,9","10,1",SYN066AAXX  11211 57328 41940 80402 10062 20039 40294 57002 71000 8807/;,Q01+999990APOSP 
12-12T00:00:00,4,31.2,107.5,344.0,"DA XIAN, CH",FM-12,99999,V020,"020,1,N,0030,1","99999,9,9,N","008000,1,N,1","+0065,1","+0037,1","10304,1","06,0000,9,1",,,,,"08,99,1,08,1,00,1,99999,9,07,1,99,9","999,+0040,9",,"99999,9,09882,1","2,1,006,1,-010,1","10,1",SYN088AAXX  12001 57328 31958 80203 10065 20037 39882 40304 52006 71000 8807/ 333 05151 30045;,Q01  00002PRCP06
12-12T03:00:00,4,31.2,107.5,344.0,"DA XIAN, CH",FM-12,99999,V020,"040,1,N,0020,1","99999,9,9,N","008000,1,N,1","+0077,1","+0035,1","10323,1",,,,,,"08,99,1,08,1,00,1,99999,9,07,1,99,9",,,"99999,9,09901,1","2,1,017,1,+999,9","10,1",SYN066AAXX  12031 57328 41958 80402 10077 20035 40323 52017 71000 8807/;,Q01+999990APOSP 
12-12T06:00:00,4,31.2,107.5,344.0,"DA XIAN, CH",FM-12,99999,V020,"040,1,N,0020,1","99999,9,9,N","011000,1,N,1","+0093,1","+0039,1","10294,1","06,0000,9,1",,,,,"08,99,1,08,1,00,1,99999,9,07,1,99,9",,"999,N,+0050,1","99999,9,09872,1","7,1,027,1,+999,9",,SYN076AAXX  12061 57328 32961 80402 10093 20039 39872 40294 57027 8807/ 333 20050;,Q01  00002PRCP06
12-12T09:00:00,4,31.2,107.5,344.0,"DA XIAN, CH",FM-12,99999,V020,"020,1,N,0010,1","22000,1,9,N","012000,1,N,1","+0105,1","+0043,1","10291,1",,,,,,"03,99,1,03,1,00,1,99999,9,04,1,00,1",,,"99999,9,09874,1","7,1,001,1,+999,9",,SYN060AAXX  12091 57328 42962 30201 10105 20043 40291 57001 83040;,Q01+999990APOSP 
12-12T12:00:00,4,31.2,107.5,344.0,"DA XIAN, CH",FM-12,99999,V020,"070,1,N,0010,1","22000,1,9,N","008000,1,N,1","+0071,1","+0048,1","10303,1","06,0000,9,1",,,,"00,1,+99999,9,99,9","00,99,1,00,1,00,1,99999,9,00,1,00,1",,,"99999,9,09880,1","2,1,009,1,+999,9","10,1",SYN066AAXX  12121 57328 31958 00701 10071 20048 39880 40303 52009 71000;,Q01  00002PRCP06
12-12T15:00:00,4,31.2,107.5,344.0,"DA XIAN, CH",FM-12,99999,V020,"040,1,N,0020,1","22000,1,9,N","008000,1,N,1","+0051,1","+0042,1","10314,1",,,,,"00,1,+99999,9,99,9","00,99,1,00,1,00,1,99999,9,00,1,00,1",,,"99999,9,09888,1","2,1,010,1,+999,9","10,1",SYN060AAXX  12151 57328 41958 00402 10051 20042 40314 52010 71000;,Q01+999990APOSP 
12-12T18:00:00,4,31.2,107.5,344.0,"DA XIAN, CH",FM-12,99999,V020,"040,1,N,0020,1","22000,1,9,N","000000,1,N,1","+0037,1","+0035,1","10312,1","06,0000,9,1",,"4,1,06,1",,"00,1,+99999,9,99,9","00,99,1,00,1,00,1,99999,9,00,1,00,1",,"999,M,+0105,1","99999,9,09888,1","7,1,002,1,+999,9","44,1",SYN076AAXX  12181 57328 31900 00402 10037 20035 39888 40312 57002 74440 333 10105;,Q01  00002PRCP06
12-12T21:00:00,4,31.2,107.5,344.0,"DA XIAN, CH",FM-12,99999,V020,"110,1,N,0020,1","00015,1,9,N","000000,1,N,1","+0029,1","+0029,1","10306,1",,,"4,1,03,1","4,1,03,1","09,1,+99999,9,99,9","09,99,1,09,1,99,9,99999,9,99,9,99,9",,,"99999,9,09877,1","7,1,005,1,+999,9","45,1",SYN060AAXX  12211 57328 41/00 91102 10029 20029 40306 57005 74544;,Q01+999990APOSP 
12-13T00:00:00,4,31.2,107.5,344.0,"DA XIAN, CH",FM-12,99999,V020,"040,1,N,0040,1","00015,1,9,N","000000,1,N,1","+0028,1","+0028,1","10310,1","06,0000,9,1",,"4,1,06,1","4,1,06,1","09,1,+99999,9,99,9","09,99,1,09,1,99,9,99999,9,99,9,99,9","999,+0030,9",,"99999,9,09884,1","2,1,001,1,+000,1","45,1",SYN082AAXX  13001 57328 31/00 90404 10028 20028 39884 40310 52001 74544 333 00054 30035;,Q01  00002PRCP06
12-13T03:00:00,4,31.2,107.5,344.0,"DA XIAN, CH",FM-12,99999,V020,"020,1,N,0020,1","22000,1,9,N","002000,1,N,1","+0045,1","+0038,1","10320,1",,,"4,1,03,1","4,1,03,1","00,1,+99999,9,99,9","00,99,1,00,1,00,1,99999,9,00,1,00,1",,,"99999,9,09893,1","2,1,009,1,+999,9","28,1",SYN060AAXX  13031 57328 41920 00202 10045 20038 40320 52009 72844;,Q01+999990APOSP 
12-13T06:00:00,4,31.2,107.5,344.0,"DA XIAN, CH",FM-12,99999,V020,"320,1,N,0020,1","22000,1,9,N","007000,1,N,1","+0105,1","+0038,1","10279,1","06,0000,9,1",,"4,1,06,1",,"00,1,+99999,9,99,9","00,99,1,00,1,00,1,99999,9,00,1,00,1",,"999,N,+0022,1","99999,9,09858,1","7,1,035,1,+999,9","10,1",SYN076AAXX  13061 57328 31957 03202 10105 20038 39858 40279 57035 71040 333 20022;,Q01  00002PRCP06
12-13T09:00:00,4,31.2,107.5,344.0,"DA XIAN, CH",FM-12,99999,V020,"999,9,C,0000,1","22000,1,9,N","010000,1,N,1","+0123,1","+0048,1","10265,1",,,,,,"01,99,1,00,1,00,1,99999,9,00,1,02,1",,,"99999,9,09852,1","7,1,013,1,+999,9",,SYN060AAXX  13091 57328 42960 10000 10123 20048 40265 57013 80002;,Q01+999990APOSP 
12-13T12:00:00,4,31.2,107.5,344.0,"DA XIAN, CH",FM-12,99999,V020,"999,9,C,0000,1","22000,1,9,N","008000,1,N,1","+0082,1","+0053,1","10285,1","06,0000,9,1",,,,"00,1,+99999,9,99,9","00,99,1,00,1,00,1,99999,9,00,1,00,1",,,"99999,9,09861,1","2,1,016,1,+999,9","10,1",SYN066AAXX  13121 57328 31958 00000 10082 20053 39861 40285 52016 71000;,Q01  00002PRCP06
12-13T15:00:00,4,31.2,107.5,344.0,"DA XIAN, CH",FM-12,99999,V020,"040,1,N,0040,1","22000,1,9,N","006000,1,N,1","+0060,1","+0046,1","10292,1",,,,,"00,1,+99999,9,99,9","00,99,1,00,1,00,1,99999,9,00,1,00,1",,,"99999,9,09869,1","2,1,006,1,+999,9","10,1",SYN060AAXX  13151 57328 41956 00404 10060 20046 40292 52006 71000;,Q01+999990APOSP 
12-13T18:00:00,4,31.2,107.5,344.0,"DA XIAN, CH",FM-12,99999,V020,"040,1,N,0030,1","22000,1,9,N","004000,1,N,1","+0046,1","+0041,1","10287,1","06,0000,9,1",,,,"00,1,+99999,9,99,9","00,99,1,00,1,00,1,99999,9,00,1,00,1",,"999,M,+0124,1","99999,9,09866,1","7,1,001,1,+999,9","10,1",SYN076AAXX  13181 57328 31940 00403 10046 20041 39866 40287 57001 71000 333 10124;,Q01  00002PRCP06
12-13T21:00:00,4,31.2,107.5,344.0,"DA XIAN, CH",FM-12,99999,V020,"999,9,C,0000,1","99999,9,9,N","002000,1,N,1","+0039,1","+0034,1","10281,1",,,"4,1,03,1",,,"07,99,1,07,1,00,1,99999,9,04,1,99,9",,,"99999,9,09855,1","7,1,005,1,+999,9","28,1",SYN066AAXX  13211 57328 41920 70000 10039 20034 40281 57005 72840 8704/;,Q01+999990APOSP 
12-14T00:00:00,4,31.2,107.5,344.0,"DA XIAN, CH",FM-12,99999,V020,"020,1,N,0020,1","99999,9,9,N","004000,1,N,1","+0045,1","+0040,1","10291,1","06,0000,9,1",,"4,1,06,1",,,"08,99,1,08,1,00,1,99999,9,07,1,99,9","999,+0020,9",,"99999,9,09868,1","2,1,007,1,-020,1","10,1",SYN088AAXX  14001 57328 31940 80202 10045 20040 39868 40291 52007 71040 8807/ 333 05202 30028;,Q01  00002PRCP06
12-14T03:00:00,4,31.2,107.5,344.0,"DA XIAN, CH",FM-12,99999,V020,"040,1,N,0030,1","99999,9,9,N","006000,1,N,1","+0066,1","+0045,1","10301,1",,,,,,"08,99,1,08,1,00,1,99999,9,07,1,99,9",,,"99999,9,09878,1","2,1,009,1,+999,9","10,1",SYN066AAXX  14031 57328 41956 80403 10066 20045 40301 52009 71000 8807/;,Q01+999990APOSP 
12-14T06:00:00,4,31.2,107.5,344.0,"DA XIAN, CH",FM-12,99999,V020,"360,1,N,0010,1","99999,9,9,N","006000,1,N,1","+0083,1","+0047,1","10271,1","06,0000,9,1",,,,,"08,99,1,08,1,00,1,99999,9,02,1,99,9",,"999,N,+0038,1","99999,9,09849,1","7,1,028,1,+999,9","10,1",SYN082AAXX  14061 57328 31956 83601 10083 20047 39849 40271 57028 71000 8802/ 333 20038;,Q01  00002PRCP06
12-14T09:00:00,4,31.2,107.5,344.0,"DA XIAN, CH",FM-12,99999,V020,"040,1,N,0020,1","99999,9,9,N","006000,1,N,1","+0088,1","+0055,1","10263,1",,,,,,"08,99,1,08,1,00,1,99999,9,02,1,99,9",,,"99999,9,09845,1","7,1,008,1,+999,9","10,1",SYN066AAXX  14091 57328 41956 80402 10088 20055 40263 57008 71000 8802/;,Q01+999990APOSP 
12-14T12:00:00,4,31.2,107.5,344.0,"DA XIAN, CH",FM-12,99999,V020,"040,1,N,0020,1","99999,9,9,N","004000,1,N,1","+0083,1","+0057,1","10269,1","06,0000,9,1",,,,,"08,99,1,08,1,00,1,99999,9,02,1,99,9",,,"99999,9,09847,1","2,1,006,1,+999,9","10,1",SYN072AAXX  14121 57328 31940 80402 10083 20057 39847 40269 52006 71000 8802/;,Q01  00002PRCP06
12-14T15:00:00,4,31.2,107.5,344.0,"DA XIAN, CH",FM-12,99999,V020,"040,1,N,0010,1","99999,9,9,N","004000,1,N,1","+0079,1","+0057,1","10271,1",,,,,,"08,99,1,08,1,00,1,99999,9,02,1,99,9",,,"99999,9,09851,1","2,1,003,1,+999,9","10,1",SYN066AAXX  14151 57328 41940 80401 10079 20057 40271 52003 71000 8802/;,Q01+999990APOSP 
12-14T18:00:00,4,31.2,107.5,344.0,"DA XIAN, CH",FM-12,99999,V020,"070,1,N,0010,1","99999,9,9,N","004000,1,N,1","+0077,1","+0062,1","10263,1","06,0000,9,1",,,,,"08,99,1,08,1,00,1,99999,9,02,1,99,9",,"999,M,+0089,1","99999,9,09844,1","7,1,006,1,+999,9","10,1",SYN082AAXX  14181 57328 31940 80701 10077 20062 39844 40263 57006 71000 8802/ 333 10089;,Q01  00002PRCP06
12-14T21:00:00,4,31.2,107.5,344.0,"DA XIAN, CH",FM-12,99999,V020,"999,9,C,0000,1","99999,9,9,N","005000,1,N,1","+0075,1","+0062,1","10258,1",,,,,,"08,99,1,08,1,00,1,99999,9,02,1,99,9",,,"99999,9,09838,1","7,1,005,1,+999,9","10,1",SYN066AAXX  14211 57328 41950 80000 10075 20062 40258 57005 71000 8802/;,Q01+999990APOSP 
12-15T00:00:00,4,31.2,107.5,344.0,"DA XIAN, CH",FM-12,99999,V020,"999,9,C,0000,1","99999,9,9,N","003000,1,N,1","+0076,1","+0063,1","10263,1","06,0000,9,1",,,,,"08,99,1,08,1,00,1,99999,9,02,1,99,9",,,"99999,9,09843,1","2,1,004,1,+003,1","10,1",SYN082AAXX  15001 57328 31930 80000 10076 20063 39843 40263 52004 71000 8802/ 333 05303;,Q01  00002PRCP06
12-15T03:00:00,4,31.2,107.5,344.0,"DA XIAN, CH",FM-12,99999,V020,"360,1,N,0010,1","99999,9,9,N","003000,1,N,1","+0083,1","+0066,1","10275,1",,,,,,"08,99,1,08,1,00,1,99999,9,02,1,99,9",,,"99999,9,09856,1","2,1,012,1,+999,9","10,1",SYN066AAXX  15031 57328 41930 83601 10083 20066 40275 52012 71000 8802/;,Q01+999990APOSP 
12-15T06:00:00,4,31.2,107.5,344.0,"DA XIAN, CH",FM-12,99999,V020,"999,9,C,0000,1","99999,9,9,N","002000,1,N,1","+0088,1","+0069,1","10246,1","06,0000,9,1",,,,,"08,99,1,08,1,00,1,99999,9,02,1,99,9",,"999,N,+0074,1","99999,9,09828,1","7,1,027,1,+999,9","10,1",SYN082AAXX  15061 57328 31920 80000 10088 20069 39828 40246 57027 71000 8802/ 333 20074;,Q01  00002PRCP06
12-15T09:00:00,4,31.2,107.5,344.0,"DA XIAN, CH",FM-12,99999,V020,"070,1,N,0010,1","99999,9,9,N","002000,1,N,1","+0089,1","+0072,1","10242,1",,,,,,"08,99,1,08,1,00,1,99999,9,02,1,99,9",,,"99999,9,09825,1","7,1,004,1,+999,9","10,1",SYN066AAXX  15091 57328 41920 80701 10089 20072 40242 57004 71000 8802/;,Q01+999990APOSP 
12-15T12:00:00,4,31.2,107.5,344.0,"DA XIAN, CH",FM-12,99999,V020,"070,1,N,0010,1","99999,9,9,N","003000,1,N,1","+0088,1","+0071,1","10256,1","06,0000,9,1",,,,,"08,99,1,08,1,00,1,99999,9,02,1,99,9",,,"99999,9,09837,1","2,1,013,1,+999,9","10,1",SYN072AAXX  15121 57328 31930 80701 10088 20071 39837 40256 52013 71000 8802/;,Q01  00002PRCP06
12-15T15:00:00,4,31.2,107.5,344.0,"DA XIAN, CH",FM-12,99999,V020,"999,9,C,0000,1","99999,9,9,N","003000,1,N,1","+0085,1","+0077,1","10266,1",,,,,,"08,99,1,08,1,00,1,99999,9,02,1,99,9",,,"99999,9,09847,1","2,1,010,1,+999,9","10,1",SYN066AAXX  15151 57328 41930 80000 10085 20077 40266 52010 71000 8802/;,Q01+999990APOSP 
12-15T18:00:00,4,31.2,107.5,344.0,"DA XIAN, CH",FM-12,99999,V020,"200,1,N,0010,1","99999,9,9,N","002000,1,N,1","+0083,1","+0072,1","10269,1","06,0000,9,1",,,,,"08,99,1,08,1,00,1,99999,9,02,1,99,9",,"999,M,+0089,1","99999,9,09850,1","2,1,003,1,+999,9","10,1",SYN082AAXX  15181 57328 31920 82001 10083 20072 39850 40269 52003 71000 8802/ 333 10089;,Q01  00002PRCP06
12-15T21:00:00,4,31.2,107.5,344.0,"DA XIAN, CH",FM-12,99999,V020,"999,9,C,0000,1","99999,9,9,N","001500,1,N,1","+0083,1","+0075,1","10265,1",,,,,,"08,99,1,08,1,00,1,99999,9,07,1,99,9",,,"99999,9,09846,1","7,1,004,1,+999,9","10,1",SYN066AAXX  15211 57328 41915 80000 10083 20075 40265 57004 71000 8807/;,Q01+999990APOSP 
12-16T03:00:00,4,31.2,107.5,344.0,"DA XIAN, CH",FM-12,99999,V020,"140,1,N,0010,1","99999,9,9,N","001500,1,N,1","+0101,1","+0081,1","10276,1",,,,,,"08,99,1,08,1,00,1,99999,9,07,1,99,9",,,"99999,9,09859,1","2,1,002,1,+999,9","10,1",SYN066AAXX  16031 57328 41915 81401 10101 20081 40276 52002 71000 8807/;,Q01+999990APOSP 
12-16T06:00:00,4,31.2,107.5,344.0,"DA XIAN, CH",FM-12,99999,V020,"160,1,N,0030,1","99999,9,9,N","003000,1,N,1","+0117,1","+0076,1","10235,1","06,0000,9,1",,,,,"07,99,1,07,1,00,1,99999,9,04,1,00,1",,"999,N,+0082,1","99999,9,09820,1","7,1,038,1,+999,9","10,1",SYN082AAXX  16061 57328 31930 71603 10117 20076 39820 40235 57038 71000 87040 333 20082;,Q01  00002PRCP06
12-16T09:00:00,4,31.2,107.5,344.0,"DA XIAN, CH",FM-12,99999,V020,"160,1,N,0010,1","22000,1,9,N","004000,1,N,1","+0113,1","+0070,1","10225,1",,,,,"00,1,+99999,9,99,9","00,99,1,00,1,00,1,99999,9,00,1,00,1",,,"99999,9,09812,1","7,1,010,1,+999,9","10,1",SYN060AAXX  16091 57328 41940 01601 10113 20070 40225 57010 71000;,Q01+999990APOSP 
12-16T12:00:00,4,31.2,107.5,344.0,"DA XIAN, CH",FM-12,99999,V020,"999,9,C,0000,1","99999,9,9,N","003000,1,N,1","+0105,1","+0072,1","10242,1","06,0000,9,1",,,,,"08,99,1,08,1,00,1,99999,9,07,1,99,9",,,"99999,9,09825,1","2,1,015,1,+999,9","10,1",SYN072AAXX  16121 57328 31930 80000 10105 20072 39825 40242 52015 71000 8807/;,Q01  00002PRCP06
12-16T15:00:00,4,31.2,107.5,344.0,"DA XIAN, CH",FM-12,99999,V020,"999,9,C,0000,1","99999,9,9,N","003000,1,N,1","+0095,1","+0076,1","10241,1",,,,,,"08,99,1,08,1,00,1,99999,9,07,1,99,9",,,"99999,9,09825,1","4,1,000,1,+999,9","10,1",SYN066AAXX  16151 57328 41930 80000 10095 20076 40241 54000 71000 8807/;,Q01+999990APOSP 
12-16T18:00:00,4,31.2,107.5,344.0,"DA XIAN, CH",FM-12,99999,V020,"999,9,C,0000,1","99999,9,9,N","002000,1,N,1","+0093,1","+0076,1","10228,1","06,0000,9,1",,,,,"08,99,1,08,1,00,1,99999,9,07,1,99,9",,"999,M,+0123,1","99999,9,09814,1","7,1,011,1,+999,9","10,1",SYN082AAXX  16181 57328 31920 80000 10093 20076 39814 40228 57011 71000 8807/ 333 10123;,Q01  00002PRCP06
12-16T21:00:00,4,31.2,107.5,344.0,"DA XIAN, CH",FM-12,99999,V020,"999,9,C,0000,1","99999,9,9,N","003000,1,N,1","+0086,1","+0080,1","10227,1","24,0003,9,1",,"6,1,03,1",,,"08,99,1,08,1,00,1,99999,9,02,1,99,9",,,"99999,9,09810,1","7,1,002,1,+999,9","60,1",SYN076AAXX  16211 57328 41930 80000 10086 20080 40227 57002 76060 8802/ 333 70002;,Q01+999990APOSP 
12-17T00:00:00,4,31.2,107.5,344.0,"DA XIAN, CH",FM-12,99999,V020,"090,1,N,0010,1","02100,1,9,N","002000,1,N,1","+0085,1","+0081,1","10228,1","06,0010,9,1","24,0010,9,1","6,1,06,1",,,"08,99,1,08,1,05,1,02250,1,99,9,99,9",,,"99999,9,09812,1","4,1,000,1,-040,1","60,1",SYN094AAXX  17001 57328 11820 80901 10085 20081 39812 40228 54000 60011 76060 885// 333 05400 70010;,
12-17T03:00:00,4,31.2,107.5,344.0,"DA XIAN, CH",FM-12,99999,V020,"999,9,C,0000,1","02100,1,9,N","001500,1,N,1","+0087,1","+0083,1","10232,1",,,"6,1,03,1","6,1,03,1",,"08,99,1,08,1,05,1,02250,1,99,9,99,9",,,"99999,9,09815,1","2,1,003,1,+999,9","60,1",SYN066AAXX  17031 57328 41815 80000 10087 20083 40232 52003 76066 885//;,Q01+999990APOSP 
12-17T06:00:00,4,31.2,107.5,344.0,"DA XIAN, CH",FM-12,99999,V020,"040,1,N,0020,1","02100,1,9,N","001400,1,N,1","+0085,1","+0081,1","10203,1","06,0005,9,1",,"6,1,06,1","6,1,06,1",,"08,99,1,08,1,05,1,02250,1,99,9,99,9",,"999,N,+0085,1","99999,9,09787,1","7,1,028,1,+999,9","60,1",SYN088AAXX  17061 57328 11814 80402 10085 20081 39787 40203 57028 69951 76066 885// 333 20085;,
12-17T09:00:00,4,31.2,107.5,344.0,"DA XIAN, CH",FM-12,99999,V020,"040,1,N,0010,1","02100,1,9,N","002000,1,N,1","+0081,1","+0079,1","10205,1",,,"6,1,03,1","6,1,03,1",,"08,99,1,08,1,05,1,02250,1,99,9,99,9",,,"99999,9,09788,1","2,1,001,1,+999,9","60,1",SYN066AAXX  17091 57328 41820 80401 10081 20079 40205 52001 76066 885//;,Q01+999990APOSP 
12-17T12:00:00,4,31.2,107.5,344.0,"DA XIAN, CH",FM-12,99999,V020,"040,1,N,0030,1","02100,1,9,N","002000,1,N,1","+0083,1","+0079,1","10225,1","06,0020,9,1",,"6,1,06,1","6,1,06,1",,"08,99,1,08,1,05,1,02250,1,99,9,99,9",,,"99999,9,09808,1","2,1,020,1,+999,9","60,1",SYN078AAXX  17121 57328 11820 80403 10083 20079 39808 40225 52020 60021 76066 885//;,
12-17T15:00:00,4,31.2,107.5,344.0,"DA XIAN, CH",FM-12,99999,V020,"040,1,N,0040,1","02100,1,9,N","005000,1,N,1","+0073,1","+0067,1","10251,1",,,"6,1,03,1","6,1,03,1",,"08,99,1,08,1,05,1,02250,1,99,9,99,9",,,"99999,9,09831,1","2,1,024,1,+999,9","60,1",SYN066AAXX  17151 57328 41850 80404 10073 20067 40251 52024 76066 885//;,Q01+999990APOSP 
12-17T18:00:00,4,31.2,107.5,344.0,"DA XIAN, CH",FM-12,99999,V020,"040,1,N,0070,1","02100,1,9,N","015000,1,N,1","+0054,1","+0045,1","10276,1","06,0030,9,1",,"6,1,06,1","6,1,06,1",,"08,99,1,08,1,05,1,02250,1,99,9,99,9",,"999,M,+0092,1","99999,9,09854,1","2,1,022,1,+999,9","60,1",SYN088AAXX  17181 57328 11865 80407 10054 20045 39854 40276 52022 60031 76066 885// 333 10092;,
12-17T21:00:00,4,31.2,107.5,344.0,"DA XIAN, CH",FM-12,99999,V020,"040,1,N,0010,1","02100,1,9,N","005000,1,N,1","+0053,1","+0034,1","10288,1","24,0061,9,1",,"6,1,03,1","6,1,03,1",,"08,99,1,08,1,05,1,02250,1,99,9,99,9",,,"99999,9,09864,1","2,1,012,1,+999,9","60,1",SYN076AAXX  17211 57328 41850 80401 10053 20034 40288 52012 76066 885// 333 70061;,Q01+999990APOSP 
12-18T00:00:00,4,31.2,107.5,344.0,"DA XIAN, CH",FM-12,99999,V020,"040,1,N,0020,1","02100,1,9,N","030000,1,N,1","+0059,1","+0028,1","10314,1","06,0003,9,1","24,0053,9,1","6,1,06,1",,,"08,99,1,08,1,05,1,02250,1,99,9,99,9",,,"99999,9,09891,1","2,1,025,1,+080,1","00,1",SYN094AAXX  18001 57328 11880 80402 10059 20028 39891 40314 52025 69931 70060 885// 333 00853 70053;,
12-18T03:00:00,4,31.2,107.5,344.0,"DA XIAN, CH",FM-12,99999,V020,"020,1,N,0010,1","99999,9,9,N","030000,1,N,1","+0072,1","+0029,1","10347,1",,,,,,"08,99,1,08,1,00,1,99999,9,07,1,99,9",,,"99999,9,09923,1","2,1,032,1,+999,9",,SYN060AAXX  18031 57328 42980 80201 10072 20029 40347 52032 8807/;,Q01+999990APOSP 
12-18T06:00:00,4,31.2,107.5,344.0,"DA XIAN, CH",FM-12,99999,V020,"999,9,C,0000,1","99999,9,9,N","030000,1,N,1","+0089,1","+0014,1","10337,1","06,0000,9,1",,,,,"08,99,1,08,1,00,1,99999,9,07,1,99,9",,"999,N,+0052,1","99999,9,09913,1","7,1,010,1,+999,9",,SYN076AAXX  18061 57328 32980 80000 10089 20014 39913 40337 57010 8807/ 333 20052;,Q01  00002PRCP06
12-18T09:00:00,4,31.2,107.5,344.0,"DA XIAN, CH",FM-12,99999,V020,"160,1,N,0020,1","22000,1,9,N","020000,1,N,1","+0097,1","+0036,1","10344,1",,,,,"00,1,+99999,9,99,9","00,99,1,00,1,00,1,99999,9,00,1,00,1",,,"99999,9,09924,1","2,1,007,1,+999,9",,SYN054AAXX  18091 57328 42970 01602 10097 20036 40344 52007;,Q01+999990APOSP 
12-18T12:00:00,4,31.2,107.5,344.0,"DA XIAN, CH",FM-12,99999,V020,"180,1,N,0010,1","22000,1,9,N","012000,1,N,1","+0067,1","+0029,1","10372,1","06,0000,9,1",,,,"00,1,+99999,9,99,9","00,99,1,00,1,00,1,99999,9,00,1,00,1",,,"99999,9,09946,1","2,1,026,1,+999,9",,SYN060AAXX  18121 57328 32962 01801 10067 20029 39946 40372 52026;,Q01  00002PRCP06
12-18T15:00:00,4,31.2,107.5,344.0,"DA XIAN, CH",FM-12,99999,V020,"040,1,N,0010,1","22000,1,9,N","008000,1,N,1","+0041,1","+0029,1","10397,1",,,,,"00,1,+99999,9,99,9","00,99,1,00,1,00,1,99999,9,00,1,00,1",,,"99999,9,09966,1","2,1,023,1,+999,9","10,1",SYN060AAXX  18151 57328 41958 00401 10041 20029 40397 52023 71000;,Q01+999990APOSP 
12-18T18:00:00,4,31.2,107.5,344.0,"DA XIAN, CH",FM-12,99999,V020,"040,1,N,0010,1","22000,1,9,N","000200,1,N,1","+0019,1","+0016,1","10401,1","06,0000,9,1",,,,"00,1,+99999,9,99,9","00,99,1,00,1,00,1,99999,9,00,1,00,1",,"999,M,+0101,1","99999,9,09972,1","2,1,003,1,+999,9","46,1",SYN076AAXX  18181 57328 31902 00401 10019 20016 39972 40401 52003 74600 333 10101;,Q01  00002PRCP06
12-18T21:00:00,4,31.2,107.5,344.0,"DA XIAN, CH",FM-12,99999,V020,"040,1,N,0010,1","00015,1,9,N","000000,1,N,1","+0013,1","+0013,1","10399,1","24,0000,2,1",,"4,1,03,1","4,1,03,1","09,1,+99999,9,99,9","09,99,1,09,1,99,9,99999,9,99,9,99,9",,,"99999,9,09964,1","7,1,002,1,+999,9","47,1",SYN070AAXX  18211 57328 41/00 90401 10013 20013 40399 57002 74744 333 79999;,Q01+999990APOSP 
12-19T00:00:00,4,31.2,107.5,344.0,"DA XIAN, CH",FM-12,99999,V020,"090,1,N,0010,1","00015,1,9,N","000000,1,N,1","+0011,1","+0011,1","10410,1","06,0000,9,1",,"4,1,06,1","4,1,06,1","09,1,+99999,9,99,9","09,99,1,09,1,99,9,99999,9,99,9,99,9","999,+0010,9",,"99999,9,09978,1","2,1,008,1,+090,1","45,1",SYN082AAXX  19001 57328 31/00 90901 10011 20011 39978 40410 52008 74544 333 00955 30016;,Q01  00002PRCP06
12-19T03:00:00,4,31.2,107.5,344.0,"DA XIAN, CH",FM-12,99999,V020,"360,1,N,0010,1","99999,9,9,N","008000,1,N,1","+0036,1","+0023,1","10418,1",,,"4,1,03,1",,,"07,99,1,07,1,00,1,99999,9,04,1,00,1",,,"99999,9,09986,1","2,1,008,1,+999,9","10,1",SYN066AAXX  19031 57328 41958 73601 10036 20023 40418 52008 71040 87040;,Q01+999990APOSP 
12-19T06:00:00,4,31.2,107.5,344.0,"DA XIAN, CH",FM-12,99999,V020,"360,1,N,0010,1","22000,1,9,N","020000,1,N,1","+0083,1","+0018,1","10369,1","06,0000,9,1",,"4,1,06,1",,"00,1,+99999,9,99,9","00,99,1,00,1,00,1,99999,9,00,1,00,1",,"999,N,+0009,1","99999,9,09941,1","7,1,045,1,+999,9","00,1",SYN076AAXX  19061 57328 31970 03601 10083 20018 39941 40369 57045 70040 333 20009;,Q01  00002PRCP06
12-19T09:00:00,4,31.2,107.5,344.0,"DA XIAN, CH",FM-12,99999,V020,"999,9,C,0000,1","22000,1,9,N","025000,1,N,1","+0094,1","+0003,1","10345,1",,,,,"00,1,+99999,9,99,9","00,99,1,00,1,00,1,99999,9,00,1,00,1",,,"99999,9,09924,1","7,1,023,1,+999,9",,SYN054AAXX  19091 57328 42975 00000 10094 20003 40345 57023;,Q01+999990APOSP 
12-19T12:00:00,4,31.2,107.5,344.0,"DA XIAN, CH",FM-12,99999,V020,"999,9,C,0000,1","22000,1,9,N","008000,1,N,1","+0061,1","+0027,1","10364,1","06,0000,9,1",,,,"00,1,+99999,9,99,9","00,99,1,00,1,00,1,99999,9,00,1,00,1",,,"99999,9,09934,1","2,1,016,1,+999,9","10,1",SYN066AAXX  19121 57328 31958 00000 10061 20027 39934 40364 52016 71000;,Q01  00002PRCP06
12-19T15:00:00,4,31.2,107.5,344.0,"DA XIAN, CH",FM-12,99999,V020,"070,1,N,0010,1","22000,1,9,N","006000,1,N,1","+0034,1","+0024,1","10373,1",,,,,"00,1,+99999,9,99,9","00,99,1,00,1,00,1,99999,9,00,1,00,1",,,"99999,9,09942,1","2,1,008,1,+999,9","10,1",SYN060AAXX  19151 57328 41956 00701 10034 20024 40373 52008 71000;,Q01+999990APOSP 
12-19T18:00:00,4,31.2,107.5,344.0,"DA XIAN, CH",FM-12,99999,V020,"040,1,N,0010,1","22000,1,9,N","003000,1,N,1","+0021,1","+0016,1","10367,1","06,0000,9,1",,,,"00,1,+99999,9,99,9","00,99,1,00,1,00,1,99999,9,00,1,00,1",,"999,M,+0108,1","99999,9,09939,1","7,1,003,1,+999,9","10,1",SYN076AAXX  19181 57328 31930 00401 10021 20016 39939 40367 57003 71000 333 10108;,Q01  00002PRCP06
12-19T21:00:00,4,31.2,107.5,344.0,"DA XIAN, CH",FM-12,99999,V020,"040,1,N,0040,1","99999,9,9,N","004000,1,N,1","+0027,1","+0014,1","10355,1",,,,,,"07,99,1,07,1,00,1,99999,9,04,1,99,9",,,"99999,9,09924,1","7,1,010,1,+999,9","10,1",SYN066AAXX  19211 57328 41940 70404 10027 20014 40355 57010 71000 8704/;,Q01+999990APOSP 
12-20T00:00:00,4,31.2,107.5,344.0,"DA XIAN, CH",FM-12,99999,V020,"040,1,N,0020,1","99999,9,9,N","011000,1,N,1","+0036,1","+0013,1","10351,1","06,0000,9,1",,,,,"08,99,1,08,1,00,1,99999,9,07,1,99,9","999,+0010,9",,"99999,9,09923,1","7,1,006,1,-060,1",,SYN082AAXX  20001 57328 32961 80402 10036 20013 39923 40351 57006 8807/ 333 05603 30014;,Q01  00002PRCP06
12-20T03:00:00,4,31.2,107.5,344.0,"DA XIAN, CH",FM-12,99999,V020,"360,1,N,0010,1","99999,9,9,N","011000,1,N,1","+0056,1","+0016,1","10365,1",,,,,,"08,99,1,08,1,00,1,99999,9,07,1,99,9",,,"99999,9,09938,1","2,1,013,1,+999,9",,SYN060AAXX  20031 57328 42961 83601 10056 20016 40365 52013 8807/;,Q01+999990APOSP 
12-20T06:00:00,4,31.2,107.5,344.0,"DA XIAN, CH",FM-12,99999,V020,"999,9,C,0000,1","99999,9,9,N","011000,1,N,1","+0087,1","+0015,1","10326,1","06,0000,9,1",,,,,"07,99,1,07,1,00,1,99999,9,04,1,99,9",,"999,N,+0018,1","99999,9,09900,1","7,1,036,1,+999,9",,SYN076AAXX  20061 57328 32961 70000 10087 20015 39900 40326 57036 8704/ 333 20018;,Q01  00002PRCP06
12-20T09:00:00,4,31.2,107.5,344.0,"DA XIAN, CH",FM-12,99999,V020,"999,9,C,0000,1","99999,9,9,N","012000,1,N,1","+0097,1","+0022,1","10311,1",,,,,,"07,99,1,07,1,00,1,99999,9,04,1,99,9",,,"99999,9,09892,1","7,1,013,1,+999,9",,SYN060AAXX  20091 57328 42962 70000 10097 20022 40311 57013 8704/;,Q01+999990APOSP 
12-20T12:00:00,4,31.2,107.5,344.0,"DA XIAN, CH",FM-12,99999,V020,"040,1,N,0010,1","99999,9,9,N","008000,1,N,1","+0076,1","+0032,1","10325,1","06,0000,9,1",,,,,"08,99,1,08,1,00,1,99999,9,07,1,99,9",,,"99999,9,09899,1","2,1,012,1,+999,9","10,1",SYN072AAXX  20121 57328 31958 80401 10076 20032 39899 40325 52012 71000 8807/;,Q01  00002PRCP06
12-20T15:00:00,4,31.2,107.5,344.0,"DA XIAN, CH",FM-12,99999,V020,"040,1,N,0010,1","99999,9,9,N","006000,1,N,1","+0067,1","+0039,1","10330,1",,,,,,"08,99,1,08,1,00,1,99999,9,07,1,99,9",,,"99999,9,09906,1","2,1,006,1,+999,9","10,1",SYN066AAXX  20151 57328 41956 80401 10067 20039 40330 52006 71000 8807/;,Q01+999990APOSP 
12-20T18:00:00,4,31.2,107.5,344.0,"DA XIAN, CH",FM-12,99999,V020,"040,1,N,0020,1","99999,9,9,N","006000,1,N,1","+0062,1","+0041,1","10320,1","06,0000,9,1",,,,,"08,99,1,08,1,00,1,99999,9,07,1,99,9",,"999,M,+0097,1","99999,9,09897,1","7,1,008,1,+999,9","10,1",SYN082AAXX  20181 57328 31956 80402 10062 20041 39897 40320 57008 71000 8807/ 333 10097;,Q01  00002PRCP06
12-20T21:00:00,4,31.2,107.5,344.0,"DA XIAN, CH",FM-12,99999,V020,"999,9,C,0000,1","99999,9,9,N","005000,1,N,1","+0061,1","+0045,1","10312,1",,,,,,"08,99,1,08,1,00,1,99999,9,07,1,99,9",,,"99999,9,09888,1","7,1,007,1,+999,9","10,1",SYN066AAXX  20211 57328 41950 80000 10061 20045 40312 57007 71000 8807/;,Q01+999990APOSP 
12-21T00:00:00,4,31.2,107.5,344.0,"DA XIAN, CH",FM-12,99999,V020,"040,1,N,0010,1","99999,9,9,N","004000,1,N,1","+0060,1","+0046,1","10320,1","06,0000,9,1",,,,,"08,99,1,08,1,00,1,99999,9,07,1,99,9",,,"99999,9,09896,1","2,1,006,1,+003,1","10,1",SYN082AAXX  21001 57328 31940 80401 10060 20046 39896 40320 52006 71000 8807/ 333 05302;,Q01  00002PRCP06
12-21T03:00:00,4,31.2,107.5,344.0,"DA XIAN, CH",FM-12,99999,V020,"040,1,N,0010,1","99999,9,9,N","003000,1,N,1","+0070,1","+0047,1","10326,1",,,,,,"08,99,1,08,1,00,1,99999,9,07,1,99,9",,,"99999,9,09903,1","2,1,006,1,+999,9","10,1",SYN066AAXX  21031 57328 41930 80401 10070 20047 40326 52006 71000 8807/;,Q01+999990APOSP 
12-21T06:00:00,4,31.2,107.5,344.0,"DA XIAN, CH",FM-12,99999,V020,"160,1,N,0010,1","99999,9,9,N","005000,1,N,1","+0096,1","+0037,1","10293,1","06,0000,9,1",,,,,"08,99,1,08,1,00,1,99999,9,07,1,99,9",,"999,N,+0057,1","99999,9,09872,1","7,1,030,1,+999,9","10,1",SYN082AAXX  21061 57328 31950 81601 10096 20037 39872 40293 57030 71000 8807/ 333 20057;,Q01  00002PRCP06
12-21T09:00:00,4,31.2,107.5,344.0,"DA XIAN, CH",FM-12,99999,V020,"999,9,C,0000,1","99999,9,9,N","005000,1,N,1","+0101,1","+0038,1","10281,1",,,,,,"08,99,1,08,1,00,1,99999,9,07,1,99,9",,,"99999,9,09864,1","7,1,011,1,+999,9","10,1",SYN066AAXX  21091 57328 41950 80000 10101 20038 40281 57011 71000 8807/;,Q01+999990APOSP 
12-21T12:00:00,4,31.2,107.5,344.0,"DA XIAN, CH",FM-12,99999,V020,"160,1,N,0010,1","99999,9,9,N","003000,1,N,1","+0087,1","+0042,1","10294,1","06,0000,9,1",,,,,"08,99,1,08,1,00,1,99999,9,07,1,99,9",,,"99999,9,09872,1","2,1,011,1,+999,9","10,1",SYN072AAXX  21121 57328 31930 81601 10087 20042 39872 40294 52011 71000 8807/;,Q01  00002PRCP06
12-21T15:00:00,4,31.2,107.5,344.0,"DA XIAN, CH",FM-12,99999,V020,"999,9,C,0000,1","99999,9,9,N","003000,1,N,1","+0074,1","+0052,1","10302,1",,,,,,"08,99,1,08,1,00,1,99999,9,07,1,99,9",,,"99999,9,09880,1","2,1,008,1,+999,9","10,1",SYN066AAXX  21151 57328 41930 80000 10074 20052 40302 52008 71000 8807/;,Q01+999990APOSP 
12-21T18:00:00,4,31.2,107.5,344.0,"DA XIAN, CH",FM-12,99999,V020,"999,9,C,0000,1","99999,9,9,N","003000,1,N,1","+0069,1","+0051,1","10299,1","06,0000,9,1",,,,,"08,99,1,08,1,00,1,99999,9,07,1,99,9",,"999,M,+0103,1","99999,9,09878,1","7,1,002,1,+999,9","10,1",SYN082AAXX  21181 57328 31930 80000 10069 20051 39878 40299 57002 71000 8807/ 333 10103;,Q01  00002PRCP06
12-21T21:00:00,4,31.2,107.5,344.0,"DA XIAN, CH",FM-12,99999,V020,"999,9,C,0000,1","99999,9,9,N","003000,1,N,1","+0065,1","+0052,1","10290,1",,,,,,"08,99,1,08,1,00,1,99999,9,07,1,99,9",,,"99999,9,09867,1","7,1,008,1,+999,9","10,1",SYN066AAXX  21211 57328 41930 80000 10065 20052 40290 57008 71000 8807/;,Q01+999990APOSP 
12-22T00:00:00,4,31.2,107.5,344.0,"DA XIAN, CH",FM-12,99999,V020,"999,9,C,0000,1","99999,9,9,N","001500,1,N,1","+0063,1","+0054,1","10292,1","06,0000,9,1",,,,,"08,99,1,08,1,00,1,99999,9,07,1,99,9",,,"99999,9,09871,1","2,1,001,1,+003,1","10,1",SYN082AAXX  22001 57328 31915 80000 10063 20054 39871 40292 52001 71000 8807/ 333 05300;,Q01  00002PRCP06
12-22T03:00:00,4,31.2,107.5,344.0,"DA XIAN, CH",FM-12,99999,V020,"070,1,N,0010,1","22000,1,9,N","003000,1,N,1","+0095,1","+0051,1","10299,1",,,,,"00,1,+99999,9,99,9","00,99,1,00,1,00,1,99999,9,00,1,00,1",,,"99999,9,09880,1","2,1,008,1,+999,9","10,1",SYN060AAXX  22031 57328 41930 00701 10095 20051 40299 52008 71000;,Q01+999990APOSP 
12-22T06:00:00,4,31.2,107.5,344.0,"DA XIAN, CH",FM-12,99999,V020,"140,1,N,0010,1","22000,1,9,N","008000,1,N,1","+0126,1","+0006,1","10253,1","06,0000,9,1",,,,"00,1,+99999,9,99,9","00,99,1,00,1,00,1,99999,9,00,1,00,1",,"999,N,+0061,1","99999,9,09836,1","7,1,043,1,+999,9","10,1",SYN076AAXX  22061 57328 31958 01401 10126 20006 39836 40253 57043 71000 333 20061;,Q01  00002PRCP06
12-22T09:00:00,4,31.2,107.5,344.0,"DA XIAN, CH",FM-12,99999,V020,"250,1,N,0010,1","22000,1,9,N","008000,1,N,1","+0124,1","+0027,1","10237,1",,,,,"00,1,+99999,9,99,9","00,99,1,00,1,00,1,99999,9,00,1,00,1",,,"99999,9,09825,1","7,1,015,1,+999,9","10,1",SYN060AAXX  22091 57328 41958 02501 10124 20027 40237 57015 71000;,Q01+999990APOSP 
12-22T12:00:00,4,31.2,107.5,344.0,"DA XIAN, CH",FM-12,99999,V020,"999,9,C,0000,1","22000,1,9,N","007000,1,N,1","+0081,1","+0040,1","10247,1","06,0000,9,1",,,,"00,1,+99999,9,99,9","00,99,1,00,1,00,1,99999,9,00,1,00,1",,,"99999,9,09827,1","2,1,006,1,+999,9","10,1",SYN066AAXX  22121 57328 31957 00000 10081 20040 39827 40247 52006 71000;,Q01  00002PRCP06
12-22T15:00:00,4,31.2,107.5,344.0,"DA XIAN, CH",FM-12,99999,V020,"070,1,N,0020,1","22000,1,9,N","005000,1,N,1","+0053,1","+0034,1","10259,1",,,,,"00,1,+99999,9,99,9","00,99,1,00,1,00,1,99999,9,00,1,00,1",,,"99999,9,09836,1","2,1,012,1,+999,9","10,1",SYN060AAXX  22151 57328 41950 00702 10053 20034 40259 52012 71000;,Q01+999990APOSP 
12-22T18:00:00,4,31.2,107.5,344.0,"DA XIAN, CH",FM-12,99999,V020,"040,1,N,0010,1","22000,1,9,N","005000,1,N,1","+0039,1","+0029,1","10251,1","06,0000,9,1",,,,"00,1,+99999,9,99,9","00,99,1,00,1,00,1,99999,9,00,1,00,1",,"999,M,+0131,1","99999,9,09832,1","7,1,007,1,+999,9","10,1",SYN076AAXX  22181 57328 31950 00401 10039 20029 39832 40251 57007 71000 333 10131;,Q01  00002PRCP06
12-22T21:00:00,4,31.2,107.5,344.0,"DA XIAN, CH",FM-12,99999,V020,"040,1,N,0020,1","22000,1,9,N","002000,1,N,1","+0032,1","+0027,1","10247,1",,,,,"00,1,+99999,9,99,9","00,99,1,00,1,00,1,99999,9,00,1,00,1",,,"99999,9,09821,1","7,1,004,1,+999,9","10,1",SYN060AAXX  22211 57328 41920 00402 10032 20027 40247 57004 71000;,Q01+999990APOSP 
12-23T00:00:00,4,31.2,107.5,344.0,"DA XIAN, CH",FM-12,99999,V020,"040,1,N,0020,1","00015,1,9,N","000000,1,N,1","+0020,1","+0020,1","10256,1","06,0000,9,1",,"4,1,06,1",,"09,1,+99999,9,99,9","09,99,1,09,1,99,9,99999,9,99,9,99,9","999,+0020,9",,"99999,9,09832,1","2,1,004,1,-040,1","45,1",SYN082AAXX  23001 57328 31/00 90402 10020 20020 39832 40256 52004 74540 333 05454 30021;,Q01  00002PRCP06
12-23T03:00:00,4,31.2,107.5,344.0,"DA XIAN, CH",FM-12,99999,V020,"040,1,N,0030,1","22000,1,9,N","002000,1,N,1","+0051,1","+0029,1","10263,1",,,"4,1,03,1","4,1,03,1","00,1,+99999,9,99,9","00,99,1,00,1,00,1,99999,9,00,1,00,1",,,"99999,9,09839,1","2,1,007,1,+999,9","28,1",SYN060AAXX  23031 57328 41920 00403 10051 20029 40263 52007 72844;,Q01+999990APOSP 
12-23T06:00:00,4,31.2,107.5,344.0,"DA XIAN, CH",FM-12,99999,V020,"999,9,C,0000,1","22000,1,9,N","004000,1,N,1","+0118,1","+0041,1","10223,1","06,0000,9,1",,"4,1,06,1",,"00,1,+99999,9,99,9","00,99,1,00,1,00,1,99999,9,00,1,00,1",,"999,N,+0018,1","99999,9,09805,1","7,1,034,1,+999,9","10,1",SYN076AAXX  23061 57328 31940 00000 10118 20041 39805 40223 57034 71040 333 20018;,Q01  00002PRCP06
12-23T09:00:00,4,31.2,107.5,344.0,"DA XIAN, CH",FM-12,99999,V020,"270,1,N,0020,1","22000,1,9,N","006000,1,N,1","+0125,1","+0037,1","10213,1",,,,,"00,1,+99999,9,99,9","00,99,1,00,1,00,1,99999,9,00,1,00,1",,,"99999,9,09802,1","7,1,010,1,+999,9","10,1",SYN060AAXX  23091 57328 41956 02702 10125 20037 40213 57010 71000;,Q01+999990APOSP 
12-23T12:00:00,4,31.2,107.5,344.0,"DA XIAN, CH",FM-12,99999,V020,"999,9,C,0000,1","22000,1,9,N","003000,1,N,1","+0086,1","+0053,1","10232,1","06,0000,9,1",,,,"00,1,+99999,9,99,9","00,99,1,00,1,00,1,99999,9,00,1,00,1",,,"99999,9,09810,1","2,1,015,1,+999,9","10,1",SYN066AAXX  23121 57328 31930 00000 10086 20053 39810 40232 52015 71000;,Q01  00002PRCP06
12-23T15:00:00,4,31.2,107.5,344.0,"DA XIAN, CH",FM-12,99999,V020,"040,1,N,0020,1","22000,1,9,N","002000,1,N,1","+0055,1","+0046,1","10243,1",,,,,"00,1,+99999,9,99,9","00,99,1,00,1,00,1,99999,9,00,1,00,1",,,"99999,9,09821,1","2,1,010,1,+999,9","10,1",SYN060AAXX  23151 57328 41920 00402 10055 20046 40243 52010 71000;,Q01+999990APOSP 
12-23T18:00:00,4,31.2,107.5,344.0,"DA XIAN, CH",FM-12,99999,V020,"999,9,C,0000,1","22000,1,9,N","001200,1,N,1","+0041,1","+0036,1","10235,1","06,0000,9,1",,,,"00,1,+99999,9,99,9","00,99,1,00,1,00,1,99999,9,00,1,00,1",,"999,M,+0134,1","99999,9,09817,1","7,1,003,1,+999,9","10,1",SYN076AAXX  23181 57328 31912 00000 10041 20036 39817 40235 57003 71000 333 10134;,Q01  00002PRCP06
12-23T21:00:00,4,31.2,107.5,344.0,"DA XIAN, CH",FM-12,99999,V020,"040,1,N,0010,1","00015,1,9,N","000000,1,N,1","+0032,1","+0032,1","10226,1",,,"4,1,03,1",,"09,1,+99999,9,99,9","09,99,1,09,1,99,9,99999,9,99,9,99,9",,,"99999,9,09801,1","7,1,009,1,+999,9","45,1",SYN060AAXX  23211 57328 41/00 90401 10032 20032 40226 57009 74540;,Q01+999990APOSP 
12-24T00:00:00,4,31.2,107.5,344.0,"DA XIAN, CH",FM-12,99999,V020,"040,1,N,0020,1","99999,9,9,N","002000,1,N,1","+0041,1","+0036,1","10237,1","06,0000,9,1",,"4,1,06,1",,,"08,99,1,08,1,00,1,99999,9,02,1,99,9","999,+0030,9",,"99999,9,09816,1","2,1,008,1,-020,1","10,1",SYN088AAXX  24001 57328 31920 80402 10041 20036 39816 40237 52008 71040 8802/ 333 05202 30031;,Q01  00002PRCP06
12-24T03:00:00,4,31.2,107.5,344.0,"DA XIAN, CH",FM-12,99999,V020,"040,1,N,0020,1","99999,9,9,N","002000,1,N,1","+0057,1","+0038,1","10247,1",,,,,,"08,99,1,08,1,00,1,99999,9,02,1,99,9",,,"99999,9,09825,1","2,1,009,1,+999,9","10,1",SYN066AAXX  24031 57328 41920 80402 10057 20038 40247 52009 71000 8802/;,Q01+999990APOSP 
12-24T06:00:00,4,31.2,107.5,344.0,"DA XIAN, CH",FM-12,99999,V020,"020,1,N,0020,1","99999,9,9,N","002000,1,N,1","+0072,1","+0047,1","10225,1","06,0000,9,1",,,,,"08,99,1,08,1,00,1,99999,9,02,1,99,9",,"999,N,+0032,1","99999,9,09804,1","7,1,021,1,+999,9","10,1",SYN082AAXX  24061 57328 31920 80202 10072 20047 39804 40225 57021 71000 8802/ 333 20032;,Q01  00002PRCP06
12-24T09:00:00,4,31.2,107.5,344.0,"DA XIAN, CH",FM-12,99999,V020,"070,1,N,0020,1","99999,9,9,N","003000,1,N,1","+0074,1","+0045,1","10231,1",,,,,,"08,99,1,08,1,00,1,99999,9,07,1,99,9",,,"99999,9,09812,1","2,1,005,1,+999,9","10,1",SYN066AAXX  24091 57328 41930 80702 10074 20045 40231 52005 71000 8807/;,Q01+999990APOSP 
12-24T12:00:00,4,31.2,107.5,344.0,"DA XIAN, CH",FM-12,99999,V020,"999,9,C,0000,1","99999,9,9,N","003000,1,N,1","+0071,1","+0049,1","10248,1","06,0000,9,1",,,,,"08,99,1,08,1,00,1,99999,9,02,1,99,9",,,"99999,9,09826,1","2,1,017,1,+999,9","10,1",SYN072AAXX  24121 57328 31930 80000 10071 20049 39826 40248 52017 71000 8802/;,Q01  00002PRCP06
12-24T15:00:00,4,31.2,107.5,344.0,"DA XIAN, CH",FM-12,99999,V020,"040,1,N,0010,1","99999,9,9,N","003000,1,N,1","+0071,1","+0056,1","10268,1",,,,,,"08,99,1,08,1,00,1,99999,9,02,1,99,9",,,"99999,9,09847,1","2,1,020,1,+999,9","10,1",SYN066AAXX  24151 57328 41930 80401 10071 20056 40268 52020 71000 8802/;,Q01+999990APOSP 
12-24T18:00:00,4,31.2,107.5,344.0,"DA XIAN, CH",FM-12,99999,V020,"999,9,C,0000,1","99999,9,9,N","003000,1,N,1","+0067,1","+0056,1","10270,1","06,0000,9,1",,,,,"08,99,1,08,1,00,1,99999,9,02,1,99,9",,"999,M,+0074,1","99999,9,09849,1","2,1,003,1,+999,9","10,1",SYN082AAXX  24181 57328 31930 80000 10067 20056 39849 40270 52003 71000 8802/ 333 10074;,Q01  00002PRCP06
12-24T21:00:00,4,31.2,107.5,344.0,"DA XIAN, CH",FM-12,99999,V020,"090,1,N,0010,1","99999,9,9,N","003000,1,N,1","+0066,1","+0055,1","10275,1",,,,,,"08,99,1,08,1,00,1,99999,9,02,1,99,9",,,"99999,9,09853,1","2,1,005,1,+999,9","10,1",SYN066AAXX  24211 57328 41930 80901 10066 20055 40275 52005 71000 8802/;,Q01+999990APOSP 
12-25T00:00:00,4,31.2,107.5,344.0,"DA XIAN, CH",FM-12,99999,V020,"040,1,N,0010,1","99999,9,9,N","002000,1,N,1","+0064,1","+0055,1","10285,1","06,0000,9,1",,,,,"08,99,1,08,1,00,1,99999,9,02,1,99,9",,,"99999,9,09863,1","2,1,009,1,+005,1","10,1",SYN082AAXX  25001 57328 31920 80401 10064 20055 39863 40285 52009 71000 8802/ 333 00502;,Q01  00002PRCP06
12-25T03:00:00,4,31.2,107.5,344.0,"DA XIAN, CH",FM-12,99999,V020,"999,9,C,0000,1","99999,9,9,N","002000,1,N,1","+0082,1","+0060,1","10298,1",,,,,,"08,99,1,08,1,00,1,99999,9,02,1,99,9",,,"99999,9,09877,1","2,1,014,1,+999,9","10,1",SYN066AAXX  25031 57328 41920 80000 10082 20060 40298 52014 71000 8802/;,Q01+999990APOSP 
12-25T06:00:00,4,31.2,107.5,344.0,"DA XIAN, CH",FM-12,99999,V020,"360,1,N,0040,1","99999,9,9,N","025000,1,N,1","+0087,1","-0013,1","10279,1","06,0000,9,1",,,,,"08,99,1,08,1,00,1,99999,9,07,1,99,9",,"999,N,+0052,1","99999,9,09858,1","7,1,019,1,+999,9",,SYN076AAXX  25061 57328 32975 83604 10087 21013 39858 40279 57019 8807/ 333 20052;,Q01  00002PRCP06
12-25T09:00:00,4,31.2,107.5,344.0,"DA XIAN, CH",FM-12,99999,V020,"020,1,N,0010,1","99999,9,9,N","025000,1,N,1","+0079,1","+0004,1","10285,1",,,"6,1,03,1",,,"05,99,1,05,1,00,1,99999,9,04,1,00,1",,,"99999,9,09865,1","2,1,006,1,+999,9","00,1",SYN066AAXX  25091 57328 41975 50201 10079 20004 40285 52006 70060 85040;,Q01+999990APOSP 
12-25T12:00:00,4,31.2,107.5,344.0,"DA XIAN, CH",FM-12,99999,V020,"040,1,N,0010,1","22000,1,9,N","012000,1,N,1","+0053,1","+0018,1","10301,1","06,9999,9,9",,"6,1,06,1",,"00,1,+99999,9,99,9","00,99,1,00,1,00,1,99999,9,00,1,00,1",,,"99999,9,09877,1","2,1,013,1,+999,9","00,1",SYN072AAXX  25121 57328 11962 00401 10053 20018 39877 40301 52013 69901 70060;,
12-25T15:00:00,4,31.2,107.5,344.0,"DA XIAN, CH",FM-12,99999,V020,"040,1,N,0020,1","99999,9,9,N","008000,1,N,1","+0039,1","+0022,1","10319,1",,,,,,"07,99,1,07,1,00,1,99999,9,04,1,99,9",,,"99999,9,09891,1","2,1,017,1,+999,9","10,1",SYN066AAXX  25151 57328 41958 70402 10039 20022 40319 52017 71000 8704/;,Q01+999990APOSP 
12-25T18:00:00,4,31.2,107.5,344.0,"DA XIAN, CH",FM-12,99999,V020,"090,1,N,0010,1","22000,1,9,N","006000,1,N,1","+0024,1","+0014,1","10321,1","06,0000,9,1",,,,"00,1,+99999,9,99,9","00,99,1,00,1,00,1,99999,9,00,1,00,1",,"999,M,+0090,1","99999,9,09896,1","2,1,002,1,+999,9","10,1",SYN076AAXX  25181 57328 31956 00901 10024 20014 39896 40321 52002 71000 333 10090;,Q01  00002PRCP06
12-25T21:00:00,4,31.2,107.5,344.0,"DA XIAN, CH",FM-12,99999,V020,"070,1,N,0010,1","22000,1,9,N","008000,1,N,1","+0019,1","+0006,1","10318,1","24,0000,9,1",,,,"00,1,+99999,9,99,9","00,99,1,00,1,00,1,99999,9,00,1,00,1",,,"99999,9,09887,1","7,1,004,1,+999,9","10,1",SYN070AAXX  25211 57328 41958 00701 10019 20006 40318 57004 71000 333 79999;,Q01+999990APOSP Q02  00002PRCP24
12-26T00:00:00,4,31.2,107.5,344.0,"DA XIAN, CH",FM-12,99999,V020,"040,1,N,0020,1","22000,1,9,N","001200,1,N,1","+0009,1","+0004,1","10337,1","06,0000,9,1","24,0000,9,1",,,"00,1,+99999,9,99,9","00,99,1,00,1,00,1,99999,9,00,1,00,1","999,-0007,9",,"99999,9,09907,1","2,1,015,1,+040,1","10,1",SYN088AAXX  26001 57328 31912 00402 10009 20004 39907 40337 52015 71000 333 00456 31007 79999;,Q01  00002PRCP06Q02  00002PRCP24
12-26T03:00:00,4,31.2,107.5,344.0,"DA XIAN, CH",FM-12,99999,V020,"110,1,N,0010,1","99999,9,9,N","003000,1,N,1","+0037,1","+0009,1","10350,1",,,,,,"07,99,1,07,1,00,1,99999,9,04,1,99,9",,,"99999,9,09921,1","2,1,014,1,+999,9","10,1",SYN066AAXX  26031 57328 41930 71101 10037 20009 40350 52014 71000 8704/;,Q01+999990APOSP 
12-26T06:00:00,4,31.2,107.5,344.0,"DA XIAN, CH",FM-12,99999,V020,"020,1,N,0010,1","22000,1,9,N","012000,1,N,1","+0096,1","+0024,1","10305,1","06,0000,9,1",,,,,"01,99,1,01,1,01,1,00800,1,00,1,00,1",,"999,N,+0005,1","99999,9,09881,1","7,1,040,1,+999,9",,SYN076AAXX  26061 57328 32562 10201 10096 20024 39881 40305 57040 81100 333 20005;,Q01  00002PRCP06
12-26T09:00:00,4,31.2,107.5,344.0,"DA XIAN, CH",FM-12,99999,V020,"110,1,N,0020,1","22000,1,9,N","020000,1,N,1","+0107,1","+0032,1","10294,1",,,,,"00,1,+99999,9,99,9","00,99,1,00,1,00,1,99999,9,00,1,00,1",,,"99999,9,09877,1","7,1,010,1,+999,9",,SYN054AAXX  26091 57328 42970 01102 10107 20032 40294 57010;,Q01+999990APOSP 
12-26T12:00:00,4,31.2,107.5,344.0,"DA XIAN, CH",FM-12,99999,V020,"040,1,N,0020,1","22000,1,9,N","004000,1,N,1","+0069,1","+0041,1","10312,1","06,0000,9,1",,,,"00,1,+99999,9,99,9","00,99,1,00,1,00,1,99999,9,00,1,00,1",,,"99999,9,09884,1","2,1,013,1,+999,9","10,1",SYN066AAXX  26121 57328 31940 00402 10069 20041 39884 40312 52013 71000;,Q01  00002PRCP06
12-26T15:00:00,4,31.2,107.5,344.0,"DA XIAN, CH",FM-12,99999,V020,"040,1,N,0020,1","22000,1,9,N","003000,1,N,1","+0043,1","+0031,1","10311,1",,,,,"00,1,+99999,9,99,9","00,99,1,00,1,00,1,99999,9,00,1,00,1",,,"99999,9,09884,1","4,1,000,1,+999,9","10,1",SYN060AAXX  26151 57328 41930 00402 10043 20031 40311 54000 71000;,Q01+999990APOSP 
12-26T18:00:00,4,31.2,107.5,344.0,"DA XIAN, CH",FM-12,99999,V020,"040,1,N,0020,1","22000,1,9,N","002000,1,N,1","+0031,1","+0023,1","10300,1","06,0000,9,1",,,,"00,1,+99999,9,99,9","00,99,1,00,1,00,1,99999,9,00,1,00,1",,"999,M,+0115,1","99999,9,09877,1","7,1,007,1,+999,9","10,1",SYN076AAXX  26181 57328 31920 00402 10031 20023 39877 40300 57007 71000 333 10115;,Q01  00002PRCP06
12-26T21:00:00,4,31.2,107.5,344.0,"DA XIAN, CH",FM-12,99999,V020,"360,1,N,0030,1","99999,9,9,N","002000,1,N,1","+0027,1","+0022,1","10284,1",,,,,,"08,99,1,08,1,00,1,99999,9,07,1,99,9",,,"99999,9,09856,1","7,1,015,1,+999,9","10,1",SYN066AAXX  26211 57328 41920 83603 10027 20022 40284 57015 71000 8807/;,Q01+999990APOSP 
12-27T00:00:00,4,31.2,107.5,344.0,"DA XIAN, CH",FM-12,99999,V020,"040,1,N,0030,1","99999,9,9,N","005000,1,N,1","+0038,1","+0026,1","10289,1","06,0000,9,1",,,,,"08,99,1,08,1,00,1,99999,9,07,1,99,9","999,+0010,9",,"99999,9,09865,1","2,1,003,1,-040,1","10,1",SYN088AAXX  27001 57328 31950 80403 10038 20026 39865 40289 52003 71000 8807/ 333 05403 30010;,Q01  00002PRCP06
12-27T03:00:00,4,31.2,107.5,344.0,"DA XIAN, CH",FM-12,99999,V020,"040,1,N,0020,1","99999,9,9,N","007000,1,N,1","+0053,1","+0029,1","10300,1",,,,,,"08,99,1,08,1,00,1,99999,9,07,1,99,9",,,"99999,9,09875,1","2,1,009,1,+999,9","10,1",SYN066AAXX  27031 57328 41957 80402 10053 20029 40300 52009 71000 8807/;,Q01+999990APOSP 
12-27T06:00:00,4,31.2,107.5,344.0,"DA XIAN, CH",FM-12,99999,V020,"360,1,N,0020,1","99999,9,9,N","005000,1,N,1","+0069,1","+0026,1","10256,1","06,0000,9,1",,,,,"08,99,1,08,1,00,1,99999,9,07,1,99,9",,"999,N,+0021,1","99999,9,09832,1","7,1,042,1,+999,9","10,1",SYN082AAXX  27061 57328 31950 83602 10069 20026 39832 40256 57042 71000 8807/ 333 20021;,Q01  00002PRCP06
12-27T09:00:00,4,31.2,107.5,344.0,"DA XIAN, CH",FM-12,99999,V020,"040,1,N,0020,1","99999,9,9,N","005000,1,N,1","+0071,1","+0029,1","10246,1",,,,,,"08,99,1,08,1,00,1,99999,9,07,1,99,9",,,"99999,9,09826,1","7,1,009,1,+999,9","10,1",SYN066AAXX  27091 57328 41950 80402 10071 20029 40246 57009 71000 8807/;,Q01+999990APOSP 
12-27T12:00:00,4,31.2,107.5,344.0,"DA XIAN, CH",FM-12,99999,V020,"360,1,N,0010,1","99999,9,9,N","003000,1,N,1","+0070,1","+0040,1","10262,1","06,0000,9,1",,,,,"08,99,1,08,1,00,1,99999,9,07,1,99,9",,,"99999,9,09839,1","2,1,016,1,+999,9","10,1",SYN072AAXX  27121 57328 31930 83601 10070 20040 39839 40262 52016 71000 8807/;,Q01  00002PRCP06
12-27T18:00:00,4,31.2,107.5,344.0,"DA XIAN, CH",FM-12,99999,V020,"999,9,C,0000,1","99999,9,9,N","004000,1,N,1","+0064,1","+0046,1","10253,1","06,0000,9,1",,,,,"08,99,1,08,1,00,1,99999,9,07,1,99,9",,"999,M,+0071,1","99999,9,09832,1","7,1,007,1,+999,9","10,1",SYN082AAXX  27181 57328 31940 80000 10064 20046 39832 40253 57007 71000 8807/ 333 10071;,Q01  00002PRCP06
12-27T21:00:00,4,31.2,107.5,344.0,"DA XIAN, CH",FM-12,99999,V020,"999,9,C,0000,1","99999,9,9,N","002000,1,N,1","+0063,1","+0047,1","10254,1",,,,,,"08,99,1,08,1,00,1,99999,9,07,1,99,9",,,"99999,9,09833,1","2,1,001,1,+999,9","10,1",SYN066AAXX  27211 57328 41920 80000 10063 20047 40254 52001 71000 8807/;,Q01+999990APOSP 
12-28T00:00:00,4,31.2,107.5,344.0,"DA XIAN, CH",FM-12,99999,V020,"999,9,C,0000,1","99999,9,9,N","002000,1,N,1","+0065,1","+0047,1","10271,1","06,0000,9,1",,,,,"08,99,1,08,1,00,1,99999,9,02,1,99,9",,,"99999,9,09849,1","2,1,016,1,+002,1","10,1",SYN082AAXX  28001 57328 31920 80000 10065 20047 39849 40271 52016 71000 8802/ 333 05203;,Q01  00002PRCP06
12-28T03:00:00,4,31.2,107.5,344.0,"DA XIAN, CH",FM-12,99999,V020,"040,1,N,0020,1","99999,9,9,N","002000,1,N,1","+0067,1","+0051,1","10291,1",,,"6,1,03,1",,,"08,99,1,08,1,00,1,99999,9,02,1,99,9",,,"99999,9,09869,1","2,1,020,1,+999,9","60,1",SYN066AAXX  28031 57328 41920 80402 10067 20051 40291 52020 76060 8802/;,Q01+999990APOSP 
12-28T06:00:00,4,31.2,107.5,344.0,"DA XIAN, CH",FM-12,99999,V020,"220,1,N,0010,1","99999,9,9,N","002000,1,N,1","+0073,1","+0053,1","10265,1","06,9999,9,9",,"6,1,06,1",,,"08,99,1,08,1,00,1,99999,9,02,1,99,9",,"999,N,+0061,1","99999,9,09844,1","7,1,025,1,+999,9","10,1",SYN088AAXX  28061 57328 11920 82201 10073 20053 39844 40265 57025 69901 71060 8802/ 333 20061;,
12-28T09:00:00,4,31.2,107.5,344.0,"DA XIAN, CH",FM-12,99999,V020,"999,9,C,0000,1","99999,9,9,N","001500,1,N,1","+0074,1","+0047,1","10265,1",,,,,,"08,99,1,08,1,00,1,99999,9,02,1,99,9",,,"99999,9,09845,1","4,1,000,1,+999,9","21,1",SYN066AAXX  28091 57328 41915 80000 10074 20047 40265 54000 72100 8802/;,Q01+999990APOSP 
12-28T12:00:00,4,31.2,107.5,344.0,"DA XIAN, CH",FM-12,99999,V020,"040,1,N,0010,1","99999,9,9,N","002000,1,N,1","+0072,1","+0054,1","10288,1","06,9999,9,9",,"6,1,06,1",,,"08,99,1,08,1,00,1,99999,9,02,1,99,9",,,"99999,9,09866,1","2,1,022,1,+999,9","10,1",SYN078AAXX  28121 57328 11920 80401 10072 20054 39866 40288 52022 69901 71060 8802/;,
12-28T15:00:00,4,31.2,107.5,344.0,"DA XIAN, CH",FM-12,99999,V020,"999,9,C,0000,1","99999,9,9,N","001200,1,N,1","+0069,1","+0056,1","10295,1",,,,,,"08,99,1,08,1,00,1,99999,9,02,1,99,9",,,"99999,9,09873,1","2,1,006,1,+999,9","10,1",SYN066AAXX  28151 57328 41912 80000 10069 20056 40295 52006 71000 8802/;,Q01+999990APOSP 
12-28T18:00:00,4,31.2,107.5,344.0,"DA XIAN, CH",FM-12,99999,V020,"020,1,N,0010,1","99999,9,9,N","001100,1,N,1","+0066,1","+0055,1","10283,1","06,0000,9,1",,,,,"08,99,1,08,1,00,1,99999,9,02,1,99,9",,"999,M,+0074,1","99999,9,09861,1","7,1,011,1,+999,9","10,1",SYN082AAXX  28181 57328 31911 80201 10066 20055 39861 40283 57011 71000 8802/ 333 10074;,Q01  00002PRCP06
12-28T21:00:00,4,31.2,107.5,344.0,"DA XIAN, CH",FM-12,99999,V020,"090,1,N,0010,1","99999,9,9,N","001100,1,N,1","+0064,1","+0055,1","10277,1","24,0000,2,1",,,,,"08,99,1,08,1,00,1,99999,9,02,1,99,9",,,"99999,9,09855,1","7,1,006,1,+999,9","10,1",SYN076AAXX  28211 57328 41911 80901 10064 20055 40277 57006 71000 8802/ 333 79999;,Q01+999990APOSP 
12-29T00:00:00,4,31.2,107.5,344.0,"DA XIAN, CH",FM-12,99999,V020,"999,9,C,0000,1","99999,9,9,N","000800,1,N,1","+0064,1","+0055,1","10289,1","06,9999,9,9","24,0000,2,1","4,1,06,1",,,"08,99,1,08,1,00,1,99999,9,02,1,99,9",,,"99999,9,09867,1","2,1,012,1,+020,1","60,1",SYN094AAXX  29001 57328 11908 80000 10064 20055 39867 40289 52012 69911 76040 8802/ 333 00200 70001;,
12-29T03:00:00,4,31.2,107.5,344.0,"DA XIAN, CH",FM-12,99999,V020,"999,9,C,0000,1","99999,9,9,N","000700,1,N,1","+0065,1","+0054,1","10302,1",,,"6,1,03,1","4,1,03,1",,"08,99,1,08,1,00,1,99999,9,02,1,99,9",,,"99999,9,09879,1","2,1,012,1,+999,9","60,1",SYN066AAXX  29031 57328 41907 80000 10065 20054 40302 52012 76064 8802/;,Q01+999990APOSP 
12-29T06:00:00,4,31.2,107.5,344.0,"DA XIAN, CH",FM-12,99999,V020,"040,1,N,0010,1","99999,9,9,N","002000,1,N,1","+0062,1","+0046,1","10277,1","06,0008,9,1",,"6,1,06,1","4,1,06,1",,"08,99,1,08,1,00,1,99999,9,02,1,99,9",,"999,N,+0060,1","99999,9,09855,1","7,1,024,1,+999,9","60,1",SYN088AAXX  29061 57328 11920 80401 10062 20046 39855 40277 57024 69971 76064 8802/ 333 20060;,
12-29T09:00:00,4,31.2,107.5,344.0,"DA XIAN, CH",FM-12,99999,V020,"040,1,N,0030,1","99999,9,9,N","004000,1,N,1","+0052,1","+0045,1","10281,1",,,"6,1,03,1","6,1,03,1",,"08,99,1,08,1,00,1,99999,9,02,1,99,9",,,"99999,9,09857,1","2,1,003,1,+999,9","60,1",SYN066AAXX  29091 57328 41940 80403 10052 20045 40281 52003 76066 8802/;,Q01+999990APOSP 
12-29T12:00:00,4,31.2,107.5,344.0,"DA XIAN, CH",FM-12,99999,V020,"040,1,N,0020,1","99999,9,9,N","008000,1,N,1","+0049,1","+0035,1","10297,1","06,0008,9,1",,"6,1,06,1","6,1,06,1",,"08,99,1,08,1,00,1,99999,9,02,1,99,9",,,"99999,9,09873,1","2,1,015,1,+999,9","60,1",SYN078AAXX  29121 57328 11958 80402 10049 20035 39873 40297 52015 69971 76066 8802/;,
12-29T15:00:00,4,31.2,107.5,344.0,"DA XIAN, CH",FM-12,99999,V020,"040,1,N,0010,1","02100,1,9,N","008000,1,N,1","+0045,1","+0033,1","10300,1",,,"6,1,03,1","6,1,03,1",,"08,99,1,08,1,05,1,02250,1,99,9,99,9",,,"99999,9,09874,1","2,1,002,1,+999,9","60,1",SYN066AAXX  29151 57328 41858 80401 10045 20033 40300 52002 76066 885//;,Q01+999990APOSP 
12-29T18:00:00,4,31.2,107.5,344.0,"DA XIAN, CH",FM-12,99999,V020,"040,1,N,0020,1","02100,1,9,N","015000,1,N,1","+0041,1","+0026,1","10292,1","06,0041,9,1",,"6,1,06,1","6,1,06,1",,"08,99,1,08,1,05,1,02250,1,99,9,99,9",,"999,M,+0067,1","99999,9,09867,1","7,1,008,1,+999,9","60,1",SYN088AAXX  29181 57328 11865 80402 10041 20026 39867 40292 57008 60041 76066 885// 333 10067;,
12-29T21:00:00,4,31.2,107.5,344.0,"DA XIAN, CH",FM-12,99999,V020,"040,1,N,0010,1","02100,1,9,N","012000,1,N,1","+0039,1","+0029,1","10297,1","24,0051,9,1",,"6,1,03,1","6,1,03,1",,"08,99,1,08,1,05,1,02250,1,99,9,99,9",,,"99999,9,09870,1","2,1,004,1,+999,9","60,1",SYN076AAXX  29211 57328 41862 80401 10039 20029 40297 52004 76066 885// 333 70052;,Q01+999990APOSP 
12-30T00:00:00,4,31.2,107.5,344.0,"DA XIAN, CH",FM-12,99999,V020,"040,1,N,0010,1","02100,1,9,N","004000,1,N,1","+0041,1","+0031,1","10305,1","06,0003,9,1","24,0051,9,1","6,1,06,1","6,1,06,1",,"08,99,1,08,1,05,1,02250,1,99,9,99,9","999,+0043,9",,"99999,9,09879,1","2,1,008,1,+010,1","60,1",SYN100AAXX  30001 57328 11840 80401 10041 20031 39879 40305 52008 69931 76066 885// 333 00152 30043 70052;,
12-30T03:00:00,4,31.2,107.5,344.0,"DA XIAN, CH",FM-12,99999,V020,"090,1,N,0010,1","02100,1,9,N","015000,1,N,1","+0049,1","+0032,1","10323,1",,,,,,"08,99,1,08,1,05,1,02250,1,99,9,99,9",,,"99999,9,09897,1","2,1,017,1,+999,9",,SYN060AAXX  30031 57328 42865 80901 10049 20032 40323 52017 885//;,
12-30T06:00:00,4,31.2,107.5,344.0,"DA XIAN, CH",FM-12,99999,V020,"140,1,N,0010,1","02100,1,9,N","008000,1,N,1","+0066,1","+0036,1","10287,1","06,0000,2,1",,,,,"08,99,1,08,1,05,1,02250,1,99,9,99,9",,"999,N,+0037,1","99999,9,09863,1","7,1,033,1,+999,9","10,1",SYN082AAXX  30061 57328 31858 81401 10066 20036 39863 40287 57033 71000 885// 333 20037;,
12-30T09:00:00,4,31.2,107.5,344.0,"DA XIAN, CH",FM-12,99999,V020,"220,1,N,0010,1","22000,1,9,N","012000,1,N,1","+0080,1","+0036,1","10279,1",,,,,,"01,99,1,01,1,01,1,01250,1,00,1,00,1",,,"99999,9,09859,1","7,1,007,1,+999,9",,SYN060AAXX  30091 57328 42662 12201 10080 20036 40279 57007 81100;,Q01+999990APOSP 
12-30T12:00:00,4,31.2,107.5,344.0,"DA XIAN, CH",FM-12,99999,V020,"040,1,N,0020,1","22000,1,9,N","005000,1,N,1","+0049,1","+0040,1","10303,1","06,0000,9,1",,,,"00,1,+99999,9,99,9","00,99,1,00,1,00,1,99999,9,00,1,00,1",,,"99999,9,09877,1","2,1,021,1,+999,9","10,1",SYN066AAXX  30121 57328 31950 00402 10049 20040 39877 40303 52021 71000;,Q01  00002PRCP06
12-30T15:00:00,4,31.2,107.5,344.0,"DA XIAN, CH",FM-12,99999,V020,"040,1,N,0020,1","22000,1,9,N","001200,1,N,1","+0031,1","+0031,1","10304,1",,,,,"00,1,+99999,9,99,9","00,99,1,00,1,00,1,99999,9,00,1,00,1",,,"99999,9,09876,1","4,1,000,1,+999,9","10,1",SYN060AAXX  30151 57328 41912 00402 10031 20031 40304 54000 71000;,Q01+999990APOSP 
12-30T18:00:00,4,31.2,107.5,344.0,"DA XIAN, CH",FM-12,99999,V020,"360,1,N,0020,1","00015,1,9,N","000000,1,N,1","+0021,1","+0021,1","10293,1","06,0000,9,1",,"4,1,06,1",,"09,1,+99999,9,99,9","09,99,1,09,1,99,9,99999,9,99,9,99,9",,"999,M,+0080,1","99999,9,09867,1","7,1,010,1,+999,9","45,1",SYN076AAXX  30181 57328 31/00 93602 10021 20021 39867 40293 57010 74540 333 10080;,Q01  00002PRCP06
12-30T21:00:00,4,31.2,107.5,344.0,"DA XIAN, CH",FM-12,99999,V020,"020,1,N,0050,1","00015,1,9,N","000000,1,N,1","+0025,1","+0025,1","10284,1","24,0000,2,1",,"4,1,03,1","4,1,03,1","09,1,+99999,9,99,9","09,99,1,09,1,99,9,99999,9,99,9,99,9",,,"99999,9,09856,1","7,1,007,1,+999,9","45,1",SYN070AAXX  30211 57328 41/00 90205 10025 20025 40284 57007 74544 333 70001;,
12-31T00:00:00,4,31.2,107.5,344.0,"DA XIAN, CH",FM-12,99999,V020,"040,1,N,0020,1","99999,9,9,N","001500,1,N,1","+0027,1","+0024,1","10282,1","06,0000,9,1",,"4,1,06,1",,,"08,99,1,08,1,00,1,99999,9,02,1,99,9","999,+0010,9",,"99999,9,09856,1","7,1,004,1,-020,1","10,1",SYN088AAXX  31001 57328 31915 80402 10027 20024 39856 40282 57004 71040 8802/ 333 05251 30014;,Q01  00002PRCP06
12-31T03:00:00,4,31.2,107.5,344.0,"DA XIAN, CH",FM-12,99999,V020,"220,1,N,0010,1","99999,9,9,N","001500,1,N,1","+0037,1","+0027,1","10289,1",,,,,,"08,99,1,08,1,00,1,99999,9,02,1,99,9",,,"99999,9,09862,1","2,1,006,1,+999,9","10,1",SYN066AAXX  31031 57328 41915 82201 10037 20027 40289 52006 71000 8802/;,Q01+999990APOSP 
12-31T06:00:00,4,31.2,107.5,344.0,"DA XIAN, CH",FM-12,99999,V020,"200,1,N,0010,1","22000,1,9,N","004000,1,N,1","+0066,1","+0031,1","10242,1","06,0000,9,1",,,,,"03,99,1,03,1,01,1,01250,1,00,1,00,1",,"999,N,+0019,1","99999,9,09818,1","7,1,044,1,+999,9","10,1",SYN082AAXX  31061 57328 31640 32001 10066 20031 39818 40242 57044 71000 83100 333 20019;,Q01  00002PRCP06
12-31T09:00:00,4,31.2,107.5,344.0,"DA XIAN, CH",FM-12,99999,V020,"290,1,N,0010,1","22000,1,9,N","008000,1,N,1","+0083,1","+0021,1","10224,1",,,,,,"02,99,1,02,1,01,1,01250,1,00,1,00,1",,,"99999,9,09807,1","7,1,016,1,+999,9","10,1",SYN066AAXX  31091 57328 41658 22901 10083 20021 40224 57016 71000 82100;,Q01+999990APOSP 
12-31T12:00:00,4,31.2,107.5,344.0,"DA XIAN, CH",FM-12,99999,V020,"999,9,C,0000,1","22000,1,9,N","004000,1,N,1","+0055,1","+0034,1","10239,1","06,0000,9,1",,,,"00,1,+99999,9,99,9","00,99,1,00,1,00,1,99999,9,00,1,00,1",,,"99999,9,09815,1","2,1,013,1,+999,9","10,1",SYN066AAXX  31121 57328 31940 00000 10055 20034 39815 40239 52013 71000;,Q01  00002PRCP06
12-31T15:00:00,4,31.2,107.5,344.0,"DA XIAN, CH",FM-12,99999,V020,"140,1,N,0010,1","99999,9,9,N","003000,1,N,1","+0053,1","+0037,1","10250,1",,,,,,"08,99,1,08,1,00,1,99999,9,07,1,99,9",,,"99999,9,09827,1","2,1,011,1,+999,9","10,1",SYN066AAXX  31151 57328 41930 81401 10053 20037 40250 52011 71000 8807/;,Q01+999990APOSP 
12-31T18:00:00,4,31.2,107.5,344.0,"DA XIAN, CH",FM-12,99999,V020,"999,9,C,0000,1","99999,9,9,N","003000,1,N,1","+0053,1","+0034,1","10251,1","06,0000,9,1",,,,,"08,99,1,08,1,00,1,99999,9,07,1,99,9",,"999,M,+0088,1","99999,9,09829,1","2,1,003,1,+999,9","10,1",SYN082AAXX  31181 57328 31930 80000 10053 20034 39829 40251 52003 71000 8807/ 333 10088;,Q01  00002PRCP06
12-31T21:00:00,4,31.2,107.5,344.0,"DA XIAN, CH",FM-12,99999,V020,"180,1,N,0010,1","99999,9,9,N","003000,1,N,1","+0053,1","+0039,1","10246,1",,,,,,"08,99,1,08,1,00,1,99999,9,07,1,99,9",,,"99999,9,09823,1","7,1,004,1,+999,9","10,1",SYN066AAXX  31211 57328 41930 81801 10053 20039 40246 57004 71000 8807/;,Q01+999990APOSP 
