DATE,SOURCE,LATITUDE,LONGITUDE,ELEVATION,NAME,REPORT_TYPE,CALL_SIGN,QUALITY_CONTROL,WND,CIG,VIS,TMP,DEW,SLP,AA1,AA2,AY1,AY2,GA1,GF1,IA2,KA1,MA1,MD1,MW1,OA1,REM,EQD
01-01T00:00:00,4,31.2,107.5,344.0,"DA XIAN, CH",FM-12,99999,V020,"070,1,N,0010,1","99999,9,9,N","002000,1,N,1","+0048,1","+0039,1","10266,1","06,0000,9,1",,,,,"08,99,1,08,1,00,1,99999,9,07,1,99,9","999,+0020,9",,"99999,9,09842,1","2,1,017,1,-010,1","10,1",,SYN088AAXX  01001 57328 31920 80701 10048 20039 39842 40266 52017 71000 8807/ 333 05102 30027;,Q01  00002PRCP06
01-01T03:00:00,4,31.2,107.5,344.0,"DA XIAN, CH",FM-12,99999,V020,"999,9,C,0000,1","99999,9,9,N","002000,1,N,1","+0062,1","+0046,1","10288,1",,,,,,"08,99,1,08,1,00,1,99999,9,07,1,99,9",,,,"2,1,022,1,+999,9","10,1",,SYN066AAXX  01031 57328 41920 80000 10062 20046 40288 52022 71000 8807/;,
01-01T06:00:00,4,31.2,107.5,344.0,"DA XIAN, CH",FM-12,99999,V020,"140,1,N,0010,1","99999,9,9,N","002000,1,N,1","+0079,1","+0038,1","10264,1","06,0000,9,1",,,,,"08,99,1,08,1,00,1,99999,9,07,1,99,9",,"999,N,+0047,1","99999,9,09842,1","7,1,022,1,+999,9","10,1",,SYN082AAXX  01061 57328 31920 81401 10079 20038 39842 40264 57022 71000 8807/ 333 20047;,Q01  00002PRCP06
01-01T09:00:00,4,31.2,107.5,344.0,"DA XIAN, CH",FM-12,99999,V020,"020,1,N,0010,1","99999,9,9,N","004000,1,N,1","+0091,1","+0047,1","10256,1",,,,,,"07,99,1,07,1,00,1,99999,9,04,1,99,9",,,,"7,1,006,1,+999,9","10,1",,SYN066AAXX  01091 57328 41940 70201 10091 20047 40256 57006 71000 8704/;,
01-01T12:00:00,4,31.2,107.5,344.0,"DA XIAN, CH",FM-12,99999,V020,"999,9,C,0000,1","99999,9,9,N","003000,1,N,1","+0067,1","+0049,1","10293,1","06,0000,9,1",,,,,"07,99,1,07,1,00,1,99999,9,04,1,99,9",,,"99999,9,09869,1","2,1,033,1,+999,9","10,1",,SYN072AAXX  01121 57328 31930 70000 10067 20049 39869 40293 52033 71000 8704/;,Q01  00002PRCP06
01-01T15:00:00,4,31.2,107.5,344.0,"DA XIAN, CH",FM-12,99999,V020,"040,1,N,0010,1","99999,9,9,N","003000,1,N,1","+0057,1","+0043,1","10307,1",,,,,,"08,99,1,08,1,00,1,99999,9,07,1,99,9",,,,"2,1,014,1,+999,9","10,1",,SYN066AAXX  01151 57328 41930 80401 10057 20043 40307 52014 71000 8807/;,
01-01T18:00:00,4,31.2,107.5,344.0,"DA XIAN, CH",FM-12,99999,V020,"040,1,N,0030,1","99999,9,9,N","002000,1,N,1","+0052,1","+0045,1","10295,1","06,0000,9,1",,,,,"08,99,1,08,1,00,1,99999,9,07,1,99,9",,"999,M,+0091,1","99999,9,09872,1","7,1,011,1,+999,9","10,1",,SYN082AAXX  01181 57328 31920 80403 10052 20045 39872 40295 57011 71000 8807/ 333 10091;,Q01  00002PRCP06
01-01T21:00:00,4,31.2,107.5,344.0,"DA XIAN, CH",FM-12,99999,V020,"999,9,C,0000,1","99999,9,9,N","003000,1,N,1","+0051,1","+0042,1","10284,1",,,,,,"08,99,1,08,1,00,1,99999,9,07,1,99,9",,,,"7,1,010,1,+999,9","10,1",,SYN066AAXX  01211 57328 41930 80000 10051 20042 40284 57010 71000 8807/;,
01-02T00:00:00,4,31.2,107.5,344.0,"DA XIAN, CH",FM-12,99999,V020,"040,1,N,0010,1","00015,1,9,N","000000,1,N,1","+0036,1","+0034,1","10291,1","06,0000,9,1",,"4,1,06,1",,"09,1,+99999,9,99,9","09,99,1,09,1,99,9,99999,9,99,9,99,9","999,+0020,9",,"99999,9,09866,1","2,1,004,1,+020,1","47,1",,SYN082AAXX  02001 57328 31/00 90401 10036 20034 39866 40291 52004 74740 333 00251 30026;,Q01  00002PRCP06
01-02T03:00:00,4,31.2,107.5,344.0,"DA XIAN, CH",FM-12,99999,V020,"040,1,N,0020,1","99999,9,9,N","002000,1,N,1","+0050,1","+0043,1","10286,1",,,"4,1,03,1",,,"08,99,1,08,1,00,1,99999,9,07,1,99,9",,,,"7,1,004,1,+999,9","10,1",,SYN066AAXX  02031 57328 41920 80402 10050 20043 40286 57004 71040 8807/;,
01-02T09:00:00,4,31.2,107.5,344.0,"DA XIAN, CH",FM-12,99999,V020,"999,9,C,0000,1","22000,1,9,N","020000,1,N,1","+0115,1","+0051,1","10210,1",,,,,,"01,99,1,00,1,00,1,99999,9,00,1,01,1",,,,"7,1,027,1,+999,9",,,SYN060AAXX  02091 57328 42970 10000 10115 20051 40210 57027 80001;,
01-02T12:00:00,4,31.2,107.5,344.0,"DA XIAN, CH",FM-12,99999,V020,"040,1,N,0030,1","99999,9,9,N","006000,1,N,1","+0074,1","+0049,1","10237,1","06,0000,9,1",,,,,"08,99,1,08,1,00,1,99999,9,07,1,99,9",,,"99999,9,09815,1","2,1,022,1,+999,9","10,1",,SYN072AAXX  02121 57328 31956 80403 10074 20049 39815 40237 52022 71000 8807/;,Q01  00002PRCP06
01-02T15:00:00,4,31.2,107.5,344.0,"DA XIAN, CH",FM-12,99999,V020,"040,1,N,0020,1","99999,9,9,N","006000,1,N,1","+0069,1","+0051,1","10238,1",,,,,,"08,99,1,08,1,00,1,99999,9,07,1,99,9",,,,"2,1,002,1,+999,9","10,1",,SYN066AAXX  02151 57328 41956 80402 10069 20051 40238 52002 71000 8807/;,
01-02T18:00:00,4,31.2,107.5,344.0,"DA XIAN, CH",FM-12,99999,V020,"040,1,N,0010,1","22000,1,9,N","004000,1,N,1","+0065,1","+0044,1","10223,1","06,0000,9,1",,,,"00,1,+99999,9,99,9","00,99,1,00,1,00,1,99999,9,00,1,00,1",,"999,M,+0123,1","99999,9,09805,1","7,1,012,1,+999,9","10,1",,SYN076AAXX  02181 57328 31940 00401 10065 20044 39805 40223 57012 71000 333 10123;,Q01  00002PRCP06
01-02T21:00:00,4,31.2,107.5,344.0,"DA XIAN, CH",FM-12,99999,V020,"040,1,N,0020,1","99999,9,9,N","005000,1,N,1","+0055,1","+0039,1","10215,1",,,,,,"08,99,1,08,1,00,1,99999,9,07,1,99,9",,,,"7,1,007,1,+999,9","10,1",,SYN066AAXX  02211 57328 41950 80402 10055 20039 40215 57007 71000 8807/;,
01-03T00:00:00,4,31.2,107.5,344.0,"DA XIAN, CH",FM-12,99999,V020,"070,1,N,0010,1","99999,9,9,N","007000,1,N,1","+0057,1","+0038,1","10229,1","06,0000,9,1",,,,,"08,99,1,08,1,00,1,99999,9,07,1,99,9","999,+0040,9",,"99999,9,09809,1","2,1,011,1,-060,1","10,1",,SYN088AAXX  03001 57328 31957 80701 10057 20038 39809 40229 52011 71000 8807/ 333 05602 30043;,Q01  00002PRCP06
01-03T03:00:00,4,31.2,107.5,344.0,"DA XIAN, CH",FM-12,99999,V020,"040,1,N,0020,1","99999,9,9,N","006000,1,N,1","+0076,1","+0042,1","10241,1",,,,,,"08,99,1,08,1,00,1,99999,9,07,1,99,9",,,,"2,1,012,1,+999,9","10,1",,SYN066AAXX  03031 57328 41956 80402 10076 20042 40241 52012 71000 8807/;,
01-03T06:00:00,4,31.2,107.5,344.0,"DA XIAN, CH",FM-12,99999,V020,"999,9,C,0000,1","99999,9,9,N","005000,1,N,1","+0097,1","+0049,1","10215,1","06,0000,9,1",,,,,"08,99,1,08,1,00,1,99999,9,07,1,99,9",,"999,N,+0053,1","99999,9,09798,1","7,1,023,1,+999,9","10,1",,SYN082AAXX  03061 57328 31950 80000 10097 20049 39798 40215 57023 71000 8807/ 333 20053;,Q01  00002PRCP06
01-03T09:00:00,4,31.2,107.5,344.0,"DA XIAN, CH",FM-12,99999,V020,"999,9,C,0000,1","99999,9,9,N","006000,1,N,1","+0107,1","+0053,1","10203,1",,,,,,"07,99,1,07,1,00,1,99999,9,04,1,99,9",,,,"7,1,012,1,+999,9","10,1",,SYN066AAXX  03091 57328 41956 70000 10107 20053 40203 57012 71000 8704/;,
01-03T12:00:00,4,31.2,107.5,344.0,"DA XIAN, CH",FM-12,99999,V020,"040,1,N,0010,1","99999,9,9,N","006000,1,N,1","+0077,1","+0050,1","10228,1","06,0000,9,1",,,,,"07,99,1,07,1,00,1,99999,9,04,1,99,9",,,"99999,9,09808,1","2,1,022,1,+999,9","10,1",,SYN072AAXX  03121 57328 31956 70401 10077 20050 39808 40228 52022 71000 8704/;,Q01  00002PRCP06
01-03T15:00:00,4,31.2,107.5,344.0,"DA XIAN, CH",FM-12,99999,V020,"040,1,N,0020,1","99999,9,9,N","004000,1,N,1","+0066,1","+0050,1","10243,1",,,,,,"08,99,1,08,1,00,1,99999,9,07,1,99,9",,,,"2,1,015,1,+999,9","10,1",,SYN066AAXX  03151 57328 41940 80402 10066 20050 40243 52015 71000 8807/;,
01-03T18:00:00,4,31.2,107.5,344.0,"DA XIAN, CH",FM-12,99999,V020,"040,1,N,0020,1","99999,9,9,N","004000,1,N,1","+0066,1","+0046,1","10237,1","06,0000,9,1",,,,,"08,99,1,08,1,00,1,99999,9,07,1,99,9",,"999,M,+0107,1","99999,9,09819,1","7,1,004,1,+999,9","10,1",,SYN082AAXX  03181 57328 31940 80402 10066 20046 39819 40237 57004 71000 8807/ 333 10107;,Q01  00002PRCP06
01-03T21:00:00,4,31.2,107.5,344.0,"DA XIAN, CH",FM-12,99999,V020,"999,9,C,0000,1","99999,9,9,N","003000,1,N,1","+0066,1","+0046,1","10230,1",,,,,,"08,99,1,08,1,00,1,99999,9,07,1,99,9",,,,"7,1,006,1,+999,9","10,1",,SYN066AAXX  03211 57328 41930 80000 10066 20046 40230 57006 71000 8807/;,
01-04T00:00:00,4,31.2,107.5,344.0,"DA XIAN, CH",FM-12,99999,V020,"020,1,N,0020,1","99999,9,9,N","005000,1,N,1","+0065,1","+0044,1","10237,1","06,0000,9,1",,,,,"08,99,1,08,1,00,1,99999,9,07,1,99,9",,,"99999,9,09817,1","2,1,004,1,+001,1","10,1",,SYN082AAXX  04001 57328 31950 80202 10065 20044 39817 40237 52004 71000 8807/ 333 00101;,Q01  00002PRCP06
01-04T03:00:00,4,31.2,107.5,344.0,"DA XIAN, CH",FM-12,99999,V020,"180,1,N,0010,1","99999,9,9,N","003000,1,N,1","+0079,1","+0050,1","10264,1",,,,,,"08,99,1,08,1,00,1,99999,9,02,1,99,9",,,,"2,1,026,1,+999,9","10,1",,SYN066AAXX  04031 57328 41930 81801 10079 20050 40264 52026 71000 8802/;,
01-04T06:00:00,4,31.2,107.5,344.0,"DA XIAN, CH",FM-12,99999,V020,"070,1,N,0010,1","99999,9,9,N","003000,1,N,1","+0093,1","+0051,1","10228,1","06,0000,9,1",,,,,"08,99,1,08,1,00,1,99999,9,07,1,99,9",,"999,N,+0060,1","99999,9,09810,1","7,1,033,1,+999,9","10,1",,SYN082AAXX  04061 57328 31930 80701 10093 20051 39810 40228 57033 71000 8807/ 333 20060;,Q01  00002PRCP06
01-04T09:00:00,4,31.2,107.5,344.0,"DA XIAN, CH",FM-12,99999,V020,"999,9,C,0000,1","99999,9,9,N","003000,1,N,1","+0094,1","+0060,1","10221,1",,,,,,"08,99,1,08,1,00,1,99999,9,07,1,99,9",,,,"7,1,007,1,+999,9","10,1",,SYN066AAXX  04091 57328 41930 80000 10094 20060 40221 57007 71000 8807/;,
01-04T12:00:00,4,31.2,107.5,344.0,"DA XIAN, CH",FM-12,99999,V020,"040,1,N,0010,1","99999,9,9,N","003000,1,N,1","+0086,1","+0062,1","10236,1","06,0000,9,1",,,,,"08,99,1,08,1,00,1,99999,9,02,1,99,9",,,"99999,9,09817,1","2,1,014,1,+999,9","10,1",,SYN072AAXX  04121 57328 31930 80401 10086 20062 39817 40236 52014 71000 8802/;,Q01  00002PRCP06
01-04T15:00:00,4,31.2,107.5,344.0,"DA XIAN, CH",FM-12,99999,V020,"020,1,N,0010,1","99999,9,9,N","003000,1,N,1","+0076,1","+0061,1","10246,1",,,,,,"08,99,1,08,1,00,1,99999,9,02,1,99,9",,,,"2,1,010,1,+999,9","10,1",,SYN066AAXX  04151 57328 41930 80201 10076 20061 40246 52010 71000 8802/;,
01-04T18:00:00,4,31.2,107.5,344.0,"DA XIAN, CH",FM-12,99999,V020,"999,9,C,0000,1","99999,9,9,N","003000,1,N,1","+0065,1","+0056,1","10248,1","06,0000,9,1",,,,,"07,99,1,07,1,00,1,99999,9,04,1,99,9",,"999,M,+0095,1","99999,9,09829,1","2,1,002,1,+999,9","10,1",,SYN082AAXX  04181 57328 31930 70000 10065 20056 39829 40248 52002 71000 8704/ 333 10095;,Q01  00002PRCP06
01-04T21:00:00,4,31.2,107.5,344.0,"DA XIAN, CH",FM-12,99999,V020,"999,9,C,0000,1","99999,9,9,N","000500,1,N,1","+0054,1","+0049,1","10231,1",,,,,,"08,99,1,08,1,00,1,99999,9,07,1,99,9",,,,"7,1,017,1,+999,9","46,1",,SYN066AAXX  04211 57328 41905 80000 10054 20049 40231 57017 74600 8807/;,
01-05T00:00:00,4,31.2,107.5,344.0,"DA XIAN, CH",FM-12,99999,V020,"999,9,C,0000,1","00015,1,9,N","000000,1,N,1","+0052,1","+0047,1","10252,1","06,0000,9,1",,"4,1,06,1",,"09,1,+99999,9,99,9","09,99,1,09,1,99,9,99999,9,99,9,99,9","999,+0030,9",,"99999,9,09831,1","2,1,019,1,+010,1","47,1",,SYN082AAXX  05001 57328 31/00 90000 10052 20047 39831 40252 52019 74740 333 00151 30038;,Q01  00002PRCP06
01-05T03:00:00,4,31.2,107.5,344.0,"DA XIAN, CH",FM-12,99999,V020,"070,1,N,0010,1","00030,1,9,N","000300,1,N,1","+0065,1","+0056,1","10271,1",,,"4,1,03,1","4,1,03,1","09,1,+99999,9,99,9","09,99,1,09,1,99,9,99999,9,99,9,99,9",,,,"2,1,019,1,+999,9","43,1",,SYN060AAXX  05031 57328 41/03 90701 10065 20056 40271 52019 74344;,
01-05T06:00:00,4,31.2,107.5,344.0,"DA XIAN, CH",FM-12,99999,V020,"220,1,N,0010,1","22000,1,9,N","001500,1,N,1","+0113,1","+0065,1","10238,1","06,0000,9,1",,"4,1,06,1",,"00,1,+99999,9,99,9","00,99,1,00,1,00,1,99999,9,00,1,00,1",,"999,N,+0049,1","99999,9,09821,1","7,1,029,1,+999,9","10,1",,SYN076AAXX  05061 57328 31915 02201 10113 20065 39821 40238 57029 71040 333 20049;,Q01  00002PRCP06
01-05T09:00:00,4,31.2,107.5,344.0,"DA XIAN, CH",FM-12,99999,V020,"999,9,C,0000,1","22000,1,9,N","003000,1,N,1","+0129,1","+0053,1","10233,1",,,,,"00,1,+99999,9,99,9","00,99,1,00,1,00,1,99999,9,00,1,00,1",,,,"7,1,005,1,+999,9","10,1",,SYN060AAXX  05091 57328 41930 00000 10129 20053 40233 57005 71000;,
01-05T12:00:00,4,31.2,107.5,344.0,"DA XIAN, CH",FM-12,99999,V020,"040,1,N,0010,1","22000,1,9,N","003000,1,N,1","+0087,1","+0052,1","10246,1","06,0000,9,1",,,,"00,1,+99999,9,99,9","00,99,1,00,1,00,1,99999,9,00,1,00,1",,,"99999,9,09826,1","2,1,010,1,+999,9","10,1",,SYN066AAXX  05121 57328 31930 00401 10087 20052 39826 40246 52010 71000;,Q01  00002PRCP06
01-05T15:00:00,4,31.2,107.5,344.0,"DA XIAN, CH",FM-12,99999,V020,"040,1,N,0010,1","22000,1,9,N","002000,1,N,1","+0063,1","+0049,1","10274,1",,,,,"00,1,+99999,9,99,9","00,99,1,00,1,00,1,99999,9,00,1,00,1",,,,"2,1,026,1,+999,9","10,1",,SYN060AAXX  05151 57328 41920 00401 10063 20049 40274 52026 71000;,
01-05T18:00:00,4,31.2,107.5,344.0,"DA XIAN, CH",FM-12,99999,V020,"999,9,C,0000,1","22000,1,9,N","002000,1,N,1","+0053,1","+0044,1","10278,1","06,0000,9,1",,,,"00,1,+99999,9,99,9","00,99,1,00,1,00,1,99999,9,00,1,00,1",,"999,M,+0132,1","99999,9,09858,1","2,1,006,1,+999,9","10,1",,SYN076AAXX  05181 57328 31920 00000 10053 20044 39858 40278 52006 71000 333 10132;,Q01  00002PRCP06
01-05T21:00:00,4,31.2,107.5,344.0,"DA XIAN, CH",FM-12,99999,V020,"040,1,N,0010,1","00030,1,9,N","000200,1,N,1","+0035,1","+0030,1","10264,1",,,"4,1,03,1",,"09,1,+99999,9,99,9","09,99,1,09,1,99,9,99999,9,99,9,99,9",,,,"7,1,013,1,+999,9","47,1",,SYN060AAXX  05211 57328 41/02 90401 10035 20030 40264 57013 74740;,
01-06T00:00:00,4,31.2,107.5,344.0,"DA XIAN, CH",FM-12,99999,V020,"040,1,N,0020,1","00015,1,9,N","000000,1,N,1","+0033,1","+0033,1","10273,1","06,0000,9,1",,"4,1,06,1",,"09,1,+99999,9,99,9","09,99,1,09,1,99,9,99999,9,99,9,99,9","999,+0020,9",,"99999,9,09850,1","2,1,005,1,+020,1","47,1",,SYN082AAXX  06001 57328 31/00 90402 10033 20033 39850 40273 52005 74740 333 00252 30028;,Q01  00002PRCP06
01-06T03:00:00,4,31.2,107.5,344.0,"DA XIAN, CH",FM-12,99999,V020,"040,1,N,0020,1","99999,9,9,N","001200,1,N,1","+0045,1","+0043,1","10282,1",,,"4,1,03,1","4,1,03,1",,"08,99,1,08,1,00,1,99999,9,07,1,99,9",,,,"2,1,008,1,+999,9","28,1",,SYN066AAXX  06031 57328 41912 80402 10045 20043 40282 52008 72844 8807/;,
01-06T06:00:00,4,31.2,107.5,344.0,"DA XIAN, CH",FM-12,99999,V020,"999,9,C,0000,1","99999,9,9,N","002000,1,N,1","+0088,1","+0060,1","10247,1","06,0000,9,1",,"4,1,06,1",,,"08,99,1,08,1,00,1,99999,9,07,1,99,9",,"999,N,+0032,1","99999,9,09827,1","7,1,031,1,+999,9","10,1",,SYN082AAXX  06061 57328 31920 80000 10088 20060 39827 40247 57031 71040 8807/ 333 20032;,Q01  00002PRCP06
01-06T09:00:00,4,31.2,107.5,344.0,"DA XIAN, CH",FM-12,99999,V020,"999,9,C,0000,1","99999,9,9,N","004000,1,N,1","+0109,1","+0058,1","10232,1",,,,,,"07,99,1,07,1,00,1,99999,9,04,1,00,1",,,,"7,1,014,1,+999,9","10,1",,SYN066AAXX  06091 57328 41940 70000 10109 20058 40232 57014 71000 87040;,
01-06T12:00:00,4,31.2,107.5,344.0,"DA XIAN, CH",FM-12,99999,V020,"040,1,N,0010,1","99999,9,9,N","004000,1,N,1","+0094,1","+0064,1","10233,1","06,0000,9,1",,,,,"08,99,1,08,1,00,1,99999,9,07,1,99,9",,,"99999,9,09812,1","7,1,001,1,+999,9","10,1",,SYN072AAXX  06121 57328 31940 80401 10094 20064 39812 40233 57001 71000 8807/;,Q01  00002PRCP06
01-06T15:00:00,4,31.2,107.5,344.0,"DA XIAN, CH",FM-12,99999,V020,"040,1,N,0020,1","99999,9,9,N","004000,1,N,1","+0087,1","+0061,1","10236,1",,,,,,"08,99,1,08,1,00,1,99999,9,07,1,99,9",,,,"2,1,004,1,+999,9","10,1",,SYN066AAXX  06151 57328 41940 80402 10087 20061 40236 52004 71000 8807/;,
01-06T18:00:00,4,31.2,107.5,344.0,"DA XIAN, CH",FM-12,99999,V020,"040,1,N,0020,1","99999,9,9,N","004000,1,N,1","+0086,1","+0062,1","10231,1","06,0000,9,1",,,,,"08,99,1,08,1,00,1,99999,9,07,1,99,9",,"999,M,+0109,1","99999,9,09814,1","7,1,002,1,+999,9","10,1",,SYN082AAXX  06181 57328 31940 80402 10086 20062 39814 40231 57002 71000 8807/ 333 10109;,Q01  00002PRCP06
01-06T21:00:00,4,31.2,107.5,344.0,"DA XIAN, CH",FM-12,99999,V020,"999,9,C,0000,1","99999,9,9,N","004000,1,N,1","+0084,1","+0069,1","10221,1",,,,,,"08,99,1,08,1,00,1,99999,9,07,1,99,9",,,,"7,1,008,1,+999,9","10,1",,SYN066AAXX  06211 57328 41940 80000 10084 20069 40221 57008 71000 8807/;,
01-07T00:00:00,4,31.2,107.5,344.0,"DA XIAN, CH",FM-12,99999,V020,"999,9,C,0000,1","99999,9,9,N","003000,1,N,1","+0085,1","+0070,1","10234,1","06,0000,9,1",,,,,"08,99,1,08,1,00,1,99999,9,07,1,99,9",,,"99999,9,09817,1","2,1,011,1,+003,1","10,1",,SYN082AAXX  07001 57328 31930 80000 10085 20070 39817 40234 52011 71000 8807/ 333 05305;,Q01  00002PRCP06
01-07T06:00:00,4,31.2,107.5,344.0,"DA XIAN, CH",FM-12,99999,V020,"040,1,N,0020,1","99999,9,9,N","001100,1,N,1","+0085,1","+0081,1","10233,1","06,0003,9,1",,"6,1,06,1",,,"08,99,1,08,1,00,1,99999,9,02,1,99,9",,"999,N,+0081,1","99999,9,09816,1","7,1,022,1,+999,9","60,1",,SYN088AAXX  07061 57328 11911 80402 10085 20081 39816 40233 57022 69931 76060 8802/ 333 20081;,
01-07T09:00:00,4,31.2,107.5,344.0,"DA XIAN, CH",FM-12,99999,V020,"040,1,N,0020,1","99999,9,9,N","001000,1,N,1","+0085,1","+0081,1","10237,1",,,"6,1,03,1","6,1,03,1",,"08,99,1,08,1,00,1,99999,9,02,1,99,9",,,,"2,1,003,1,+999,9","60,1",,SYN066AAXX  07091 57328 41910 80402 10085 20081 40237 52003 76066 8802/;,
01-07T12:00:00,4,31.2,107.5,344.0,"DA XIAN, CH",FM-12,99999,V020,"040,1,N,0020,1","99999,9,9,N","001400,1,N,1","+0081,1","+0070,1","10258,1","06,0005,9,1",,"6,1,06,1",,,"08,99,1,08,1,00,1,99999,9,02,1,99,9",,,"99999,9,09839,1","2,1,020,1,+999,9","10,1",,SYN078AAXX  07121 57328 11914 80402 10081 20070 39839 40258 52020 69941 71060 8802/;,
01-07T15:00:00,4,31.2,107.5,344.0,"DA XIAN, CH",FM-12,99999,V020,"999,9,C,0000,1","02100,1,9,N","005000,1,N,1","+0079,1","+0057,1","10268,1",,,,,,"08,99,1,08,1,05,1,02250,1,99,9,99,9",,,,"2,1,010,1,+999,9","10,1",,SYN066AAXX  07151 57328 41850 80000 10079 20057 40268 52010 71000 885//;,
01-07T18:00:00,4,31.2,107.5,344.0,"DA XIAN, CH",FM-12,99999,V020,"040,1,N,0020,1","99999,9,9,N","006000,1,N,1","+0079,1","+0048,1","10270,1","06,0000,9,1",,,,,"08,99,1,08,1,00,1,99999,9,07,1,99,9",,"999,M,+0088,1","99999,9,09851,1","2,1,002,1,+999,9","10,1",,SYN082AAXX  07181 57328 31956 80402 10079 20048 39851 40270 52002 71000 8807/ 333 10088;,Q01  00002PRCP06
01-07T21:00:00,4,31.2,107.5,344.0,"DA XIAN, CH",FM-12,99999,V020,"040,1,N,0010,1","99999,9,9,N","006000,1,N,1","+0077,1","+0043,1","10268,1","24,0008,9,1",,,,,"08,99,1,08,1,00,1,99999,9,07,1,99,9",,,,"7,1,003,1,+999,9","10,1",,SYN076AAXX  07211 57328 41956 80401 10077 20043 40268 57003 71000 8807/ 333 70007;,
01-08T00:00:00,4,31.2,107.5,344.0,"DA XIAN, CH",FM-12,99999,V020,"040,1,N,0010,1","99999,9,9,N","008000,1,N,1","+0074,1","+0042,1","10275,1","06,0000,9,1","24,0008,9,1",,,,"08,99,1,08,1,00,1,99999,9,07,1,99,9",,,"99999,9,09855,1","2,1,007,1,+040,1","10,1",,SYN088AAXX  08001 57328 31958 80401 10074 20042 39855 40275 52007 71000 8807/ 333 00451 70007;,Q01  00002PRCP06
01-08T03:00:00,4,31.2,107.5,344.0,"DA XIAN, CH",FM-12,99999,V020,"070,1,N,0010,1","99999,9,9,N","007000,1,N,1","+0088,1","+0048,1","10286,1",,,,,,"08,99,1,08,1,00,1,99999,9,07,1,99,9",,,,"2,1,011,1,+999,9","10,1",,SYN066AAXX  08031 57328 41957 80701 10088 20048 40286 52011 71000 8807/;,
01-08T06:00:00,4,31.2,107.5,344.0,"DA XIAN, CH",FM-12,99999,V020,"020,1,N,0010,1","99999,9,9,N","011000,1,N,1","+0103,1","+0041,1","10252,1","06,0000,9,1",,,,,"08,99,1,08,1,00,1,99999,9,07,1,99,9",,"999,N,+0072,1","99999,9,09835,1","7,1,031,1,+999,9",,,SYN076AAXX  08061 57328 32961 80201 10103 20041 39835 40252 57031 8807/ 333 20072;,Q01  00002PRCP06
01-08T09:00:00,4,31.2,107.5,344.0,"DA XIAN, CH",FM-12,99999,V020,"040,1,N,0010,1","99999,9,9,N","012000,1,N,1","+0109,1","+0048,1","10249,1",,,,,,"08,99,1,08,1,00,1,99999,9,07,1,99,9",,,,"7,1,003,1,+999,9",,,SYN060AAXX  08091 57328 42962 80401 10109 20048 40249 57003 8807/;,
01-08T12:00:00,4,31.2,107.5,344.0,"DA XIAN, CH",FM-12,99999,V020,"999,9,C,0000,1","99999,9,9,N","006000,1,N,1","+0093,1","+0049,1","10261,1","06,0000,9,1",,,,,"08,99,1,08,1,00,1,99999,9,07,1,99,9",,,"99999,9,09842,1","2,1,010,1,+999,9","10,1",,SYN072AAXX  08121 57328 31956 80000 10093 20049 39842 40261 52010 71000 8807/;,Q01  00002PRCP06
01-08T15:00:00,4,31.2,107.5,344.0,"DA XIAN, CH",FM-12,99999,V020,"020,1,N,0010,1","22000,1,9,N","006000,1,N,1","+0071,1","+0051,1","10270,1",,,,,"00,1,+99999,9,99,9","00,99,1,00,1,00,1,99999,9,00,1,00,1",,,,"2,1,008,1,+999,9","10,1",,SYN060AAXX  08151 57328 41956 00201 10071 20051 40270 52008 71000;,
01-08T18:00:00,4,31.2,107.5,344.0,"DA XIAN, CH",FM-12,99999,V020,"040,1,N,0010,1","99999,9,9,N","005000,1,N,1","+0056,1","+0040,1","10261,1","06,0000,9,1",,,,,"07,99,1,07,1,00,1,99999,9,04,1,99,9",,"999,M,+0109,1","99999,9,09842,1","7,1,008,1,+999,9","10,1",,SYN082AAXX  08181 57328 31950 70401 10056 20040 39842 40261 57008 71000 8704/ 333 10109;,Q01  00002PRCP06
01-08T21:00:00,4,31.2,107.5,344.0,"DA XIAN, CH",FM-12,99999,V020,"040,1,N,0010,1","99999,9,9,N","005000,1,N,1","+0063,1","+0040,1","10252,1",,,,,,"08,99,1,08,1,00,1,99999,9,07,1,99,9",,,,"7,1,008,1,+999,9","10,1",,SYN066AAXX  08211 57328 41950 80401 10063 20040 40252 57008 71000 8807/;,
01-09T00:00:00,4,31.2,107.5,344.0,"DA XIAN, CH",FM-12,99999,V020,"040,1,N,0010,1","99999,9,9,N","005000,1,N,1","+0065,1","+0042,1","10262,1","06,0000,9,1",,,,,"08,99,1,08,1,00,1,99999,9,07,1,99,9","999,+0040,9",,"99999,9,09842,1","2,1,008,1,-010,1","10,1",,SYN088AAXX  09001 57328 31950 80401 10065 20042 39842 40262 52008 71000 8807/ 333 05151 30044;,Q01  00002PRCP06
01-09T03:00:00,4,31.2,107.5,344.0,"DA XIAN, CH",FM-12,99999,V020,"360,1,N,0010,1","22000,1,9,N","008000,1,N,1","+0099,1","+0036,1","10256,1",,,,,"00,1,+99999,9,99,9","00,99,1,00,1,00,1,99999,9,00,1,00,1",,,,"7,1,004,1,+999,9","10,1",,SYN060AAXX  09031 57328 41958 03601 10099 20036 40256 57004 71000;,
01-09T06:00:00,4,31.2,107.5,344.0,"DA XIAN, CH",FM-12,99999,V020,"999,9,C,0000,1","22000,1,9,N","030000,1,N,1","+0127,1","+0040,1","10224,1","06,0000,9,1",,,,,"01,99,1,01,1,01,1,01250,1,00,1,01,1",,"999,N,+0053,1","99999,9,09808,1","7,1,030,1,+999,9",,,SYN076AAXX  09061 57328 32680 10000 10127 20040 39808 40224 57030 81101 333 20053;,Q01  00002PRCP06
01-09T09:00:00,4,31.2,107.5,344.0,"DA XIAN, CH",FM-12,99999,V020,"999,9,C,0000,1","22000,1,9,N","030000,1,N,1","+0125,1","+0043,1","10214,1",,,,,,"01,99,1,00,1,00,1,99999,9,00,1,01,1",,,,"7,1,009,1,+999,9",,,SYN060AAXX  09091 57328 42980 10000 10125 20043 40214 57009 80001;,
01-09T12:00:00,4,31.2,107.5,344.0,"DA XIAN, CH",FM-12,99999,V020,"040,1,N,0010,1","99999,9,9,N","015000,1,N,1","+0099,1","+0049,1","10225,1","06,0000,9,1",,,,,"08,99,1,08,1,00,1,99999,9,07,1,99,9",,,"99999,9,09807,1","2,1,008,1,+999,9",,,SYN066AAXX  09121 57328 32965 80401 10099 20049 39807 40225 52008 8807/;,Q01  00002PRCP06
01-09T15:00:00,4,31.2,107.5,344.0,"DA XIAN, CH",FM-12,99999,V020,"020,1,N,0010,1","99999,9,9,N","008000,1,N,1","+0091,1","+0059,1","10226,1",,,,,,"08,99,1,08,1,00,1,99999,9,07,1,99,9",,,,"2,1,003,1,+999,9","10,1",,SYN066AAXX  09151 57328 41958 80201 10091 20059 40226 52003 71000 8807/;,
01-09T18:00:00,4,31.2,107.5,344.0,"DA XIAN, CH",FM-12,99999,V020,"040,1,N,0020,1","99999,9,9,N","006000,1,N,1","+0087,1","+0061,1","10213,1","06,0000,9,1",,,,,"08,99,1,08,1,00,1,99999,9,07,1,99,9",,"999,M,+0142,1","99999,9,09799,1","7,1,011,1,+999,9","10,1",,SYN082AAXX  09181 57328 31956 80402 10087 20061 39799 40213 57011 71000 8807/ 333 10142;,Q01  00002PRCP06
01-09T21:00:00,4,31.2,107.5,344.0,"DA XIAN, CH",FM-12,99999,V020,"999,9,C,0000,1","99999,9,9,N","005000,1,N,1","+0085,1","+0066,1","10212,1",,,,,,"08,99,1,08,1,00,1,99999,9,07,1,99,9",,,,"7,1,001,1,+999,9","10,1",,SYN066AAXX  09211 57328 41950 80000 10085 20066 40212 57001 71000 8807/;,
01-10T00:00:00,4,31.2,107.5,344.0,"DA XIAN, CH",FM-12,99999,V020,"180,1,N,0010,1","99999,9,9,N","004000,1,N,1","+0084,1","+0063,1","10235,1","06,0000,9,1",,,,,"08,99,1,08,1,00,1,99999,9,07,1,99,9","999,+0040,9",,"99999,9,09818,1","2,1,020,1,-020,1","10,1",,SYN088AAXX  10001 57328 31940 81801 10084 20063 39818 40235 52020 71000 8807/ 333 05202 30040;,Q01  00002PRCP06
01-10T03:00:00,4,31.2,107.5,344.0,"DA XIAN, CH",FM-12,99999,V020,"999,9,C,0000,1","99999,9,9,N","003000,1,N,1","+0099,1","+0068,1","10266,1",,,,,,"08,99,1,08,1,00,1,99999,9,07,1,99,9",,,,"2,1,031,1,+999,9","10,1",,SYN066AAXX  10031 57328 41930 80000 10099 20068 40266 52031 71000 8807/;,
01-10T06:00:00,4,31.2,107.5,344.0,"DA XIAN, CH",FM-12,99999,V020,"040,1,N,0010,1","99999,9,9,N","006000,1,N,1","+0105,1","+0072,1","10253,1","06,0000,9,1",,,,,"08,99,1,08,1,00,1,99999,9,07,1,99,9",,"999,N,+0081,1","99999,9,09836,1","7,1,013,1,+999,9","10,1",,SYN082AAXX  10061 57328 31956 80401 10105 20072 39836 40253 57013 71000 8807/ 333 20081;,Q01  00002PRCP06
01-10T09:00:00,4,31.2,107.5,344.0,"DA XIAN, CH",FM-12,99999,V020,"360,1,N,0040,1","99999,9,9,N","007000,1,N,1","+0107,1","+0060,1","10256,1",,,,,,"08,99,1,08,1,00,1,99999,9,07,1,99,9",,,,"2,1,003,1,+999,9","10,1",,SYN066AAXX  10091 57328 41957 83604 10107 20060 40256 52003 71000 8807/;,
01-10T12:00:00,4,31.2,107.5,344.0,"DA XIAN, CH",FM-12,99999,V020,"090,1,N,0010,1","99999,9,9,N","008000,1,N,1","+0093,1","+0059,1","10277,1","06,0000,9,1",,,,,"08,99,1,08,1,00,1,99999,9,07,1,99,9",,,"99999,9,09858,1","2,1,019,1,+999,9","10,1",,SYN072AAXX  10121 57328 31958 80901 10093 20059 39858 40277 52019 71000 8807/;,Q01  00002PRCP06
01-10T15:00:00,4,31.2,107.5,344.0,"DA XIAN, CH",FM-12,99999,V020,"040,1,N,0030,1","22000,1,9,N","007000,1,N,1","+0065,1","+0052,1","10291,1",,,,,"00,1,+99999,9,99,9","00,99,1,00,1,00,1,99999,9,00,1,00,1",,,,"2,1,013,1,+999,9","10,1",,SYN060AAXX  10151 57328 41957 00403 10065 20052 40291 52013 71000;,
01-10T18:00:00,4,31.2,107.5,344.0,"DA XIAN, CH",FM-12,99999,V020,"040,1,N,0030,1","99999,9,9,N","003000,1,N,1","+0050,1","+0043,1","10293,1","06,0000,9,1",,,,,"07,99,1,07,1,00,1,99999,9,04,1,99,9",,"999,M,+0109,1","99999,9,09872,1","2,1,001,1,+999,9","10,1",,SYN082AAXX  10181 57328 31930 70403 10050 20043 39872 40293 52001 71000 8704/ 333 10109;,Q01  00002PRCP06
01-10T21:00:00,4,31.2,107.5,344.0,"DA XIAN, CH",FM-12,99999,V020,"040,1,N,0020,1","99999,9,9,N","004000,1,N,1","+0057,1","+0048,1","10284,1",,,,,,"08,99,1,08,1,00,1,99999,9,07,1,99,9",,,,"7,1,008,1,+999,9","10,1",,SYN066AAXX  10211 57328 41940 80402 10057 20048 40284 57008 71000 8807/;,
01-11T00:00:00,4,31.2,107.5,344.0,"DA XIAN, CH",FM-12,99999,V020,"040,1,N,0030,1","99999,9,9,N","006000,1,N,1","+0063,1","+0049,1","10291,1","06,0000,9,1",,,,,"08,99,1,08,1,00,1,99999,9,07,1,99,9","999,+0030,9",,"99999,9,09870,1","2,1,006,1,+050,1","10,1",,SYN088AAXX  11001 57328 31956 80403 10063 20049 39870 40291 52006 71000 8807/ 333 00552 30033;,Q01  00002PRCP06
01-11T03:00:00,4,31.2,107.5,344.0,"DA XIAN, CH",FM-12,99999,V020,"020,1,N,0010,1","99999,9,9,N","007000,1,N,1","+0081,1","+0052,1","10298,1",,,,,,"08,99,1,08,1,00,1,99999,9,07,1,99,9",,,,"2,1,006,1,+999,9","10,1",,SYN066AAXX  11031 57328 41957 80201 10081 20052 40298 52006 71000 8807/;,
01-11T06:00:00,4,31.2,107.5,344.0,"DA XIAN, CH",FM-12,99999,V020,"020,1,N,0030,1","99999,9,9,N","013000,1,N,1","+0108,1","+0039,1","10264,1","06,0000,9,1",,,,,"08,99,1,08,1,00,1,99999,9,07,1,99,9",,"999,N,+0049,1","99999,9,09844,1","7,1,032,1,+999,9",,,SYN076AAXX  11061 57328 32963 80203 10108 20039 39844 40264 57032 8807/ 333 20049;,Q01  00002PRCP06
01-11T09:00:00,4,31.2,107.5,344.0,"DA XIAN, CH",FM-12,99999,V020,"020,1,N,0030,1","99999,9,9,N","015000,1,N,1","+0110,1","+0039,1","10254,1",,,,,,"07,99,1,07,1,00,1,99999,9,04,1,99,9",,,,"7,1,009,1,+999,9",,,SYN060AAXX  11091 57328 42965 70203 10110 20039 40254 57009 8704/;,
01-11T12:00:00,4,31.2,107.5,344.0,"DA XIAN, CH",FM-12,99999,V020,"020,1,N,0030,1","99999,9,9,N","006000,1,N,1","+0093,1","+0049,1","10266,1","06,0000,9,1",,,,,"07,99,1,07,1,00,1,99999,9,04,1,99,9",,,"99999,9,09846,1","2,1,011,1,+999,9","10,1",,SYN072AAXX  11121 57328 31956 70203 10093 20049 39846 40266 52011 71000 8704/;,Q01  00002PRCP06
01-11T15:00:00,4,31.2,107.5,344.0,"DA XIAN, CH",FM-12,99999,V020,"020,1,N,0020,1","99999,9,9,N","006000,1,N,1","+0072,1","+0042,1","10280,1",,,,,,"08,99,1,08,1,00,1,99999,9,07,1,99,9",,,,"2,1,013,1,+999,9","10,1",,SYN066AAXX  11151 57328 41956 80202 10072 20042 40280 52013 71000 8807/;,
01-11T18:00:00,4,31.2,107.5,344.0,"DA XIAN, CH",FM-12,99999,V020,"020,1,N,0020,1","22000,1,9,N","006000,1,N,1","+0062,1","+0041,1","10283,1","06,0000,9,1",,,,"00,1,+99999,9,99,9","00,99,1,00,1,00,1,99999,9,00,1,00,1",,"999,M,+0115,1","99999,9,09863,1","2,1,004,1,+999,9","10,1",,SYN076AAXX  11181 57328 31956 00202 10062 20041 39863 40283 52004 71000 333 10115;,Q01  00002PRCP06
01-11T21:00:00,4,31.2,107.5,344.0,"DA XIAN, CH",FM-12,99999,V020,"040,1,N,0030,1","99999,9,9,N","006000,1,N,1","+0047,1","+0035,1","10285,1",,,,,,"07,99,1,07,1,00,1,99999,9,04,1,99,9",,,,"2,1,001,1,+999,9","10,1",,SYN066AAXX  11211 57328 41956 70403 10047 20035 40285 52001 71000 8704/;,
01-12T00:00:00,4,31.2,107.5,344.0,"DA XIAN, CH",FM-12,99999,V020,"070,1,N,0020,1","99999,9,9,N","008000,1,N,1","+0041,1","+0031,1","10292,1","06,0000,9,1",,,,,"07,99,1,07,1,00,1,99999,9,04,1,99,9","999,+0020,9",,"99999,9,09869,1","2,1,005,1,+000,1","10,1",,SYN088AAXX  12001 57328 31958 70702 10041 20031 39869 40292 52005 71000 8704/ 333 00052 30022;,Q01  00002PRCP06
01-12T03:00:00,4,31.2,107.5,344.0,"DA XIAN, CH",FM-12,99999,V020,"040,1,N,0020,1","99999,9,9,N","008000,1,N,1","+0069,1","+0039,1","10319,1",,,,,,"07,99,1,07,1,00,1,99999,9,04,1,99,9",,,,"2,1,027,1,+999,9","10,1",,SYN066AAXX  12031 57328 41958 70402 10069 20039 40319 52027 71000 8704/;,
01-12T06:00:00,4,31.2,107.5,344.0,"DA XIAN, CH",FM-12,99999,V020,"040,1,N,0020,1","99999,9,9,N","008000,1,N,1","+0109,1","+0035,1","10285,1","06,0000,9,1",,,,,"07,99,1,07,1,00,1,99999,9,04,1,99,9",,"999,N,+0039,1","99999,9,09865,1","7,1,031,1,+999,9","10,1",,SYN082AAXX  12061 57328 31958 70402 10109 20035 39865 40285 57031 71000 8704/ 333 20039;,Q01  00002PRCP06
01-12T09:00:00,4,31.2,107.5,344.0,"DA XIAN, CH",FM-12,99999,V020,"999,9,C,0000,1","99999,9,9,N","012000,1,N,1","+0117,1","+0048,1","10274,1",,,,,,"07,99,1,07,1,00,1,99999,9,04,1,99,9",,,,"7,1,011,1,+999,9",,,SYN060AAXX  12091 57328 42962 70000 10117 20048 40274 57011 8704/;,
01-12T12:00:00,4,31.2,107.5,344.0,"DA XIAN, CH",FM-12,99999,V020,"040,1,N,0010,1","99999,9,9,N","006000,1,N,1","+0086,1","+0051,1","10280,1","06,0000,9,1",,,,,"07,99,1,07,1,00,1,99999,9,04,1,99,9",,,"99999,9,09857,1","2,1,003,1,+999,9","10,1",,SYN072AAXX  12121 57328 31956 70401 10086 20051 39857 40280 52003 71000 8704/;,Q01  00002PRCP06
01-12T15:00:00,4,31.2,107.5,344.0,"DA XIAN, CH",FM-12,99999,V020,"999,9,C,0000,1","99999,9,9,N","006000,1,N,1","+0065,1","+0052,1","10279,1",,,,,,"08,99,1,08,1,00,1,99999,9,07,1,99,9",,,,"4,1,000,1,+999,9","10,1",,SYN066AAXX  12151 57328 41956 80000 10065 20052 40279 54000 71000 8807/;,
01-12T18:00:00,4,31.2,107.5,344.0,"DA XIAN, CH",FM-12,99999,V020,"040,1,N,0030,1","99999,9,9,N","004000,1,N,1","+0055,1","+0041,1","10260,1","06,0000,9,1",,,,,"08,99,1,08,1,00,1,99999,9,02,1,99,9",,"999,M,+0122,1","99999,9,09841,1","7,1,016,1,+999,9","10,1",,SYN082AAXX  12181 57328 31940 80403 10055 20041 39841 40260 57016 71000 8802/ 333 10122;,Q01  00002PRCP06
01-12T21:00:00,4,31.2,107.5,344.0,"DA XIAN, CH",FM-12,99999,V020,"040,1,N,0020,1","22000,1,9,N","005000,1,N,1","+0050,1","+0038,1","10241,1",,,,,"00,1,+99999,9,99,9","00,99,1,00,1,00,1,99999,9,00,1,00,1",,,,"7,1,018,1,+999,9","10,1",,SYN060AAXX  12211 57328 41950 00402 10050 20038 40241 57018 71000;,
01-13T00:00:00,4,31.2,107.5,344.0,"DA XIAN, CH",FM-12,99999,V020,"020,1,N,0030,1","99999,9,9,N","004000,1,N,1","+0050,1","+0038,1","10241,1","06,0000,9,1",,,,,"08,99,1,08,1,00,1,99999,9,07,1,99,9","999,+0030,9",,"99999,9,09821,1","7,1,002,1,-050,1","10,1",,SYN088AAXX  13001 57328 31940 80203 10050 20038 39821 40241 57002 71000 8807/ 333 05501 30038;,Q01  00002PRCP06
01-13T03:00:00,4,31.2,107.5,344.0,"DA XIAN, CH",FM-12,99999,V020,"040,1,N,0020,1","99999,9,9,N","004000,1,N,1","+0057,1","+0043,1","10246,1",,,"6,1,03,1",,,"08,99,1,08,1,00,1,99999,9,07,1,99,9",,,,"2,1,003,1,+999,9","60,1",,SYN066AAXX  13031 57328 41940 80402 10057 20043 40246 52003 76060 8807/;,
01-13T06:00:00,4,31.2,107.5,344.0,"DA XIAN, CH",FM-12,99999,V020,"020,1,N,0030,1","02100,1,9,N","004000,1,N,1","+0067,1","+0056,1","10215,1","06,0010,9,1",,"6,1,06,1",,,"08,99,1,08,1,05,1,02250,1,99,9,99,9",,"999,N,+0047,1","99999,9,09795,1","7,1,029,1,+999,9","60,1",,SYN088AAXX  13061 57328 11840 80203 10067 20056 39795 40215 57029 60011 76060 885// 333 20047;,
01-13T09:00:00,4,31.2,107.5,344.0,"DA XIAN, CH",FM-12,99999,V020,"040,1,N,0020,1","02100,1,9,N","012000,1,N,1","+0075,1","+0053,1","10204,1",,,"6,1,03,1",,,"08,99,1,08,1,05,1,02250,1,99,9,99,9",,,,"7,1,011,1,+999,9","60,1",,SYN066AAXX  13091 57328 41862 80402 10075 20053 40204 57011 76060 885//;,
01-13T12:00:00,4,31.2,107.5,344.0,"DA XIAN, CH",FM-12,99999,V020,"040,1,N,0020,1","99999,9,9,N","012000,1,N,1","+0067,1","+0037,1","10209,1","06,9999,9,9",,"6,1,06,1",,,"08,99,1,08,1,00,1,99999,9,07,1,99,9",,,"99999,9,09789,1","2,1,005,1,+999,9","00,1",,SYN078AAXX  13121 57328 11962 80402 10067 20037 39789 40209 52005 69911 70060 8807/;,
01-13T15:00:00,4,31.2,107.5,344.0,"DA XIAN, CH",FM-12,99999,V020,"040,1,N,0010,1","99999,9,9,N","012000,1,N,1","+0064,1","+0034,1","10212,1",,,,,,"08,99,1,08,1,00,1,99999,9,07,1,99,9",,,,"2,1,003,1,+999,9",,,SYN060AAXX  13151 57328 42962 80401 10064 20034 40212 52003 8807/;,
01-13T18:00:00,4,31.2,107.5,344.0,"DA XIAN, CH",FM-12,99999,V020,"999,9,C,0000,1","99999,9,9,N","005000,1,N,1","+0061,1","+0038,1","10200,1","06,0000,9,1",,,,,"08,99,1,08,1,00,1,99999,9,07,1,99,9",,"999,M,+0075,1","99999,9,09781,1","7,1,011,1,+999,9","10,1",,SYN082AAXX  13181 57328 31950 80000 10061 20038 39781 40200 57011 71000 8807/ 333 10075;,Q01  00002PRCP06
01-13T21:00:00,4,31.2,107.5,344.0,"DA XIAN, CH",FM-12,99999,V020,"040,1,N,0020,1","99999,9,9,N","007000,1,N,1","+0061,1","+0030,1","10187,1","24,0015,9,1",,,,,"08,99,1,08,1,00,1,99999,9,07,1,99,9",,,,"7,1,012,1,+999,9","10,1",,SYN076AAXX  13211 57328 41957 80402 10061 20030 40187 57012 71000 8807/ 333 70014;,
01-14T00:00:00,4,31.2,107.5,344.0,"DA XIAN, CH",FM-12,99999,V020,"040,1,N,0020,1","02100,1,9,N","008000,1,N,1","+0060,1","+0029,1","10188,1","06,0000,9,1","24,0015,9,1",,,,"08,99,1,08,1,05,1,02250,1,99,9,99,9",,,"99999,9,09769,1","4,1,000,1,-050,1","10,1",,SYN088AAXX  14001 57328 31858 80402 10060 20029 39769 40188 54000 71000 885// 333 05501 70014;,Q01  00002PRCP06
01-14T03:00:00,4,31.2,107.5,344.0,"DA XIAN, CH",FM-12,99999,V020,"040,1,N,0020,1","99999,9,9,N","008000,1,N,1","+0067,1","+0034,1","10198,1",,,,,,"08,99,1,08,1,00,1,99999,9,02,1,99,9",,,,"2,1,010,1,+999,9","10,1",,SYN066AAXX  14031 57328 41958 80402 10067 20034 40198 52010 71000 8802/;,
01-14T06:00:00,4,31.2,107.5,344.0,"DA XIAN, CH",FM-12,99999,V020,"999,9,C,0000,1","99999,9,9,N","012000,1,N,1","+0082,1","+0036,1","10173,1","06,0000,9,1",,,,,"08,99,1,08,1,00,1,99999,9,07,1,99,9",,"999,N,+0057,1","99999,9,09756,1","7,1,023,1,+999,9",,,SYN076AAXX  14061 57328 32962 80000 10082 20036 39756 40173 57023 8807/ 333 20057;,Q01  00002PRCP06
01-14T09:00:00,4,31.2,107.5,344.0,"DA XIAN, CH",FM-12,99999,V020,"999,9,C,0000,1","99999,9,9,N","012000,1,N,1","+0083,1","+0032,1","10174,1",,,,,,"08,99,1,08,1,00,1,99999,9,02,1,99,9",,,,"2,1,001,1,+999,9",,,SYN060AAXX  14091 57328 42962 80000 10083 20032 40174 52001 8802/;,
01-14T12:00:00,4,31.2,107.5,344.0,"DA XIAN, CH",FM-12,99999,V020,"999,9,C,0000,1","99999,9,9,N","004000,1,N,1","+0075,1","+0048,1","10194,1","06,9999,9,9",,"6,1,06,1",,,"08,99,1,08,1,00,1,99999,9,02,1,99,9",,,"99999,9,09776,1","2,1,019,1,+999,9","10,1",,SYN078AAXX  14121 57328 11940 80000 10075 20048 39776 40194 52019 69901 71060 8802/;,
01-14T15:00:00,4,31.2,107.5,344.0,"DA XIAN, CH",FM-12,99999,V020,"999,9,C,0000,1","99999,9,9,N","003000,1,N,1","+0070,1","+0050,1","10203,1",,,,,,"08,99,1,08,1,00,1,99999,9,02,1,99,9",,,,"2,1,008,1,+999,9","10,1",,SYN066AAXX  14151 57328 41930 80000 10070 20050 40203 52008 71000 8802/;,
01-14T18:00:00,4,31.2,107.5,344.0,"DA XIAN, CH",FM-12,99999,V020,"999,9,C,0000,1","99999,9,9,N","003000,1,N,1","+0067,1","+0049,1","10193,1","06,0000,9,1",,,,,"08,99,1,08,1,00,1,99999,9,02,1,99,9",,"999,M,+0083,1","99999,9,09776,1","7,1,008,1,+999,9","10,1",,SYN082AAXX  14181 57328 31930 80000 10067 20049 39776 40193 57008 71000 8802/ 333 10083;,Q01  00002PRCP06
01-14T21:00:00,4,31.2,107.5,344.0,"DA XIAN, CH",FM-12,99999,V020,"999,9,C,0000,1","99999,9,9,N","003000,1,N,1","+0066,1","+0046,1","10185,1","24,0000,2,1",,"6,1,03,1",,,"08,99,1,08,1,00,1,99999,9,02,1,99,9",,,,"7,1,008,1,+999,9","60,1",,SYN076AAXX  14211 57328 41930 80000 10066 20046 40185 57008 76060 8802/ 333 79999;,
01-15T00:00:00,4,31.2,107.5,344.0,"DA XIAN, CH",FM-12,99999,V020,"160,1,N,0010,1","99999,9,9,N","003000,1,N,1","+0062,1","+0053,1","10200,1","06,0005,9,1","24,0005,9,1","6,1,06,1",,,"08,99,1,08,1,00,1,99999,9,02,1,99,9",,,"99999,9,09781,1","2,1,013,1,+010,1","60,1",,SYN094AAXX  15001 57328 11930 81601 10062 20053 39781 40200 52013 69951 76060 8802/ 333 00100 70005;,
01-15T03:00:00,4,31.2,107.5,344.0,"DA XIAN, CH",FM-12,99999,V020,"140,1,N,0010,1","99999,9,9,N","003000,1,N,1","+0066,1","+0057,1","10223,1",,,"6,1,03,1","6,1,03,1",,"08,99,1,08,1,00,1,99999,9,02,1,99,9",,,,"2,1,022,1,+999,9","60,1",,SYN066AAXX  15031 57328 41930 81401 10066 20057 40223 52022 76066 8802/;,
01-15T06:00:00,4,31.2,107.5,344.0,"DA XIAN, CH",FM-12,99999,V020,"999,9,C,0000,1","02100,1,9,N","005000,1,N,1","+0067,1","+0054,1","10204,1","06,0030,9,1",,"6,1,06,1","6,1,06,1",,"08,99,1,08,1,05,1,02250,1,99,9,99,9",,"999,N,+0060,1","99999,9,09785,1","7,1,018,1,+999,9","60,1",,SYN088AAXX  15061 57328 11850 80000 10067 20054 39785 40204 57018 60031 76066 885// 333 20060;,
01-15T09:00:00,4,31.2,107.5,344.0,"DA XIAN, CH",FM-12,99999,V020,"020,1,N,0020,1","02100,1,9,N","012000,1,N,1","+0067,1","+0047,1","10213,1",,,"6,1,03,1","6,1,03,1",,"08,99,1,08,1,05,1,02250,1,99,9,99,9",,,,"2,1,009,1,+999,9","60,1",,SYN066AAXX  15091 57328 41862 80202 10067 20047 40213 52009 76066 885//;,
01-15T12:00:00,4,31.2,107.5,344.0,"DA XIAN, CH",FM-12,99999,V020,"999,9,C,0000,1","02100,1,9,N","005000,1,N,1","+0066,1","+0055,1","10243,1","06,0008,9,1",,"6,1,06,1",,,"08,99,1,08,1,05,1,02250,1,99,9,99,9",,,"99999,9,09822,1","2,1,028,1,+999,9","10,1",,SYN078AAXX  15121 57328 11850 80000 10066 20055 39822 40243 52028 69971 71060 885//;,
01-15T15:00:00,4,31.2,107.5,344.0,"DA XIAN, CH",FM-12,99999,V020,"999,9,C,0000,1","02100,1,9,N","006000,1,N,1","+0065,1","+0049,1","10258,1",,,,,,"08,99,1,08,1,05,1,02250,1,99,9,99,9",,,,"2,1,015,1,+999,9","10,1",,SYN066AAXX  15151 57328 41856 80000 10065 20049 40258 52015 71000 885//;,
01-15T18:00:00,4,31.2,107.5,344.0,"DA XIAN, CH",FM-12,99999,V020,"090,1,N,0010,1","02100,1,9,N","005000,1,N,1","+0062,1","+0051,1","10260,1","06,0000,9,1",,,,,"08,99,1,08,1,05,1,02250,1,99,9,99,9",,"999,M,+0069,1","99999,9,09838,1","2,1,001,1,+999,9","10,1",,SYN082AAXX  15181 57328 31850 80901 10062 20051 39838 40260 52001 71000 885// 333 10069;,Q01  00002PRCP06
01-15T21:00:00,4,31.2,107.5,344.0,"DA XIAN, CH",FM-12,99999,V020,"040,1,N,0020,1","99999,9,9,N","001500,1,N,1","+0051,1","+0046,1","10254,1","24,0041,9,1",,,,,"07,99,1,07,1,00,1,99999,9,04,1,99,9",,,,"7,1,006,1,+999,9","10,1",,SYN076AAXX  15211 57328 41915 70402 10051 20046 40254 57006 71000 8704/ 333 70041;,
01-16T00:00:00,4,31.2,107.5,344.0,"DA XIAN, CH",FM-12,99999,V020,"040,1,N,0020,1","99999,9,9,N","002000,1,N,1","+0049,1","+0049,1","10273,1","06,0000,9,1","24,0036,9,1","4,1,06,1",,,"08,99,1,08,1,00,1,99999,9,07,1,99,9","999,+0038,9",,"99999,9,09850,1","2,1,018,1,+070,1","10,1",,SYN094AAXX  16001 57328 31920 80402 10049 20049 39850 40273 52018 71040 8807/ 333 00751 30038 70036;,Q01  00002PRCP06
01-16T03:00:00,4,31.2,107.5,344.0,"DA XIAN, CH",FM-12,99999,V020,"040,1,N,0020,1","99999,9,9,N","006000,1,N,1","+0057,1","+0046,1","10278,1",,,,,,"08,99,1,08,1,00,1,99999,9,07,1,99,9",,,,"2,1,005,1,+999,9","10,1",,SYN066AAXX  16031 57328 41956 80402 10057 20046 40278 52005 71000 8807/;,
01-16T06:00:00,4,31.2,107.5,344.0,"DA XIAN, CH",FM-12,99999,V020,"020,1,N,0020,1","99999,9,9,N","004000,1,N,1","+0069,1","+0046,1","10245,1","06,0000,9,1",,,,,"08,99,1,08,1,00,1,99999,9,07,1,99,9",,"999,N,+0043,1","99999,9,09824,1","7,1,031,1,+999,9","10,1",,SYN082AAXX  16061 57328 31940 80202 10069 20046 39824 40245 57031 71000 8807/ 333 20043;,Q01  00002PRCP06
01-16T09:00:00,4,31.2,107.5,344.0,"DA XIAN, CH",FM-12,99999,V020,"040,1,N,0030,1","99999,9,9,N","007000,1,N,1","+0079,1","+0048,1","10236,1",,,,,,"08,99,1,08,1,00,1,99999,9,07,1,99,9",,,,"7,1,009,1,+999,9","10,1",,SYN066AAXX  16091 57328 41957 80403 10079 20048 40236 57009 71000 8807/;,
01-16T12:00:00,4,31.2,107.5,344.0,"DA XIAN, CH",FM-12,99999,V020,"040,1,N,0010,1","99999,9,9,N","006000,1,N,1","+0071,1","+0039,1","10242,1","06,0000,9,1",,,,,"08,99,1,08,1,00,1,99999,9,07,1,99,9",,,"99999,9,09820,1","2,1,005,1,+999,9","10,1",,SYN072AAXX  16121 57328 31956 80401 10071 20039 39820 40242 52005 71000 8807/;,Q01  00002PRCP06
01-16T15:00:00,4,31.2,107.5,344.0,"DA XIAN, CH",FM-12,99999,V020,"020,1,N,0020,1","99999,9,9,N","005000,1,N,1","+0065,1","+0042,1","10245,1",,,,,,"08,99,1,08,1,00,1,99999,9,07,1,99,9",,,,"2,1,003,1,+999,9","10,1",,SYN066AAXX  16151 57328 41950 80202 10065 20042 40245 52003 71000 8807/;,
01-16T18:00:00,4,31.2,107.5,344.0,"DA XIAN, CH",FM-12,99999,V020,"020,1,N,0010,1","99999,9,9,N","005000,1,N,1","+0062,1","+0041,1","10225,1","06,0000,9,1",,,,,"08,99,1,08,1,00,1,99999,9,07,1,99,9",,"999,M,+0083,1","99999,9,09805,1","7,1,018,1,+999,9","10,1",,SYN082AAXX  16181 57328 31950 80201 10062 20041 39805 40225 57018 71000 8807/ 333 10083;,Q01  00002PRCP06
01-16T21:00:00,4,31.2,107.5,344.0,"DA XIAN, CH",FM-12,99999,V020,"040,1,N,0020,1","99999,9,9,N","004000,1,N,1","+0060,1","+0039,1","10213,1",,,,,,"08,99,1,08,1,00,1,99999,9,07,1,99,9",,,,"7,1,011,1,+999,9","10,1",,SYN066AAXX  16211 57328 41940 80402 10060 20039 40213 57011 71000 8807/;,
01-17T00:00:00,4,31.2,107.5,344.0,"DA XIAN, CH",FM-12,99999,V020,"020,1,N,0020,1","99999,9,9,N","007000,1,N,1","+0056,1","+0040,1","10214,1","06,0000,9,1",,,,,"08,99,1,08,1,00,1,99999,9,07,1,99,9","999,+0040,9",,"99999,9,09794,1","4,1,000,1,-060,1","10,1",,SYN088AAXX  17001 57328 31957 80202 10056 20040 39794 40214 54000 71000 8807/ 333 05601 30041;,Q01  00002PRCP06
01-17T06:00:00,4,31.2,107.5,344.0,"DA XIAN, CH",FM-12,99999,V020,"040,1,N,0020,1","99999,9,9,N","010000,1,N,1","+0089,1","+0034,1","10183,1","06,0000,9,1",,,,,"08,99,1,08,1,00,1,99999,9,07,1,99,9",,"999,N,+0053,1","99999,9,09766,1","7,1,035,1,+999,9",,,SYN076AAXX  17061 57328 32960 80402 10089 20034 39766 40183 57035 8807/ 333 20053;,Q01  00002PRCP06
01-17T09:00:00,4,31.2,107.5,344.0,"DA XIAN, CH",FM-12,99999,V020,"040,1,N,0020,1","99999,9,9,N","012000,1,N,1","+0091,1","+0026,1","10178,1",,,,,,"08,99,1,08,1,00,1,99999,9,07,1,99,9",,,,"7,1,005,1,+999,9",,,SYN060AAXX  17091 57328 42962 80402 10091 20026 40178 57005 8807/;,
01-17T12:00:00,4,31.2,107.5,344.0,"DA XIAN, CH",FM-12,99999,V020,"999,9,C,0000,1","99999,9,9,N","011000,1,N,1","+0084,1","+0033,1","10208,1","06,0000,9,1",,,,,"08,99,1,08,1,00,1,99999,9,07,1,99,9",,,"99999,9,09789,1","2,1,028,1,+999,9",,,SYN066AAXX  17121 57328 32961 80000 10084 20033 39789 40208 52028 8807/;,Q01  00002PRCP06
01-17T15:00:00,4,31.2,107.5,344.0,"DA XIAN, CH",FM-12,99999,V020,"999,9,C,0000,1","99999,9,9,N","010000,1,N,1","+0075,1","+0038,1","10228,1",,,,,,"08,99,1,08,1,00,1,99999,9,07,1,99,9",,,,"2,1,020,1,+999,9",,,SYN060AAXX  17151 57328 42960 80000 10075 20038 40228 52020 8807/;,
01-17T18:00:00,4,31.2,107.5,344.0,"DA XIAN, CH",FM-12,99999,V020,"040,1,N,0020,1","99999,9,9,N","012000,1,N,1","+0079,1","+0002,1","10244,1","06,0000,9,1",,,,,"08,99,1,08,1,00,1,99999,9,07,1,99,9",,"999,M,+0091,1","99999,9,09826,1","2,1,017,1,+999,9",,,SYN076AAXX  17181 57328 32962 80402 10079 20002 39826 40244 52017 8807/ 333 10091;,Q01  00002PRCP06
01-17T21:00:00,4,31.2,107.5,344.0,"DA XIAN, CH",FM-12,99999,V020,"040,1,N,0030,1","99999,9,9,N","012000,1,N,1","+0072,1","-0021,1","10243,1",,,,,,"08,99,1,08,1,00,1,99999,9,07,1,99,9",,,,"7,1,001,1,+999,9",,,SYN060AAXX  17211 57328 42962 80403 10072 21021 40243 57001 8807/;,
01-18T00:00:00,4,31.2,107.5,344.0,"DA XIAN, CH",FM-12,99999,V020,"070,1,N,0020,1","99999,9,9,N","015000,1,N,1","+0067,1","-0018,1","10262,1","06,0000,9,1",,,,,"08,99,1,08,1,00,1,99999,9,07,1,99,9","999,+0040,9",,"99999,9,09842,1","2,1,017,1,+050,1",,,SYN082AAXX  18001 57328 32965 80702 10067 21018 39842 40262 52017 8807/ 333 00501 30048;,Q01  00002PRCP06
01-18T03:00:00,4,31.2,107.5,344.0,"DA XIAN, CH",FM-12,99999,V020,"020,1,N,0050,1","99999,9,9,N","012000,1,N,1","+0069,1","-0009,1","10285,1",,,"6,1,03,1",,,"08,99,1,08,1,00,1,99999,9,02,1,99,9",,,,"2,1,021,1,+999,9","60,1",,SYN066AAXX  18031 57328 41962 80205 10069 21009 40285 52021 76060 8802/;,
01-18T06:00:00,4,31.2,107.5,344.0,"DA XIAN, CH",FM-12,99999,V020,"020,1,N,0040,1","99999,9,9,N","015000,1,N,1","+0060,1","-0002,1","10259,1","06,9999,9,9",,"6,1,06,1",,,"08,99,1,08,1,00,1,99999,9,02,1,99,9",,"999,N,+0056,1","99999,9,09838,1","7,1,025,1,+999,9","60,1",,SYN088AAXX  18061 57328 11965 80204 10060 21002 39838 40259 57025 69901 76060 8802/ 333 20056;,
01-18T09:00:00,4,31.2,107.5,344.0,"DA XIAN, CH",FM-12,99999,V020,"040,1,N,0030,1","99999,9,9,N","015000,1,N,1","+0065,1","+0010,1","10250,1",,,"6,1,03,1","6,1,03,1",,"08,99,1,08,1,00,1,99999,9,02,1,99,9",,,,"7,1,009,1,+999,9","60,1",,SYN066AAXX  18091 57328 41965 80403 10065 20010 40250 57009 76066 8802/;,
01-18T12:00:00,4,31.2,107.5,344.0,"DA XIAN, CH",FM-12,99999,V020,"040,1,N,0030,1","99999,9,9,N","012000,1,N,1","+0058,1","-0004,1","10264,1","06,9999,9,9",,"6,1,06,1",,,"08,99,1,08,1,00,1,99999,9,02,1,99,9",,,"99999,9,09842,1","2,1,013,1,+999,9","60,1",,SYN078AAXX  18121 57328 11962 80403 10058 21004 39842 40264 52013 69901 76060 8802/;,
01-18T15:00:00,4,31.2,107.5,344.0,"DA XIAN, CH",FM-12,99999,V020,"070,1,N,0020,1","99999,9,9,N","012000,1,N,1","+0056,1","+0002,1","10280,1",,,"6,1,03,1","6,1,03,1",,"08,99,1,08,1,00,1,99999,9,02,1,99,9",,,,"2,1,015,1,+999,9","60,1",,SYN066AAXX  18151 57328 41962 80702 10056 20002 40280 52015 76066 8802/;,
01-18T18:00:00,4,31.2,107.5,344.0,"DA XIAN, CH",FM-12,99999,V020,"040,1,N,0020,1","99999,9,9,N","011000,1,N,1","+0054,1","+0000,1","10274,1","06,9999,9,9",,"6,1,06,1","6,1,06,1",,"08,99,1,08,1,00,1,99999,9,02,1,99,9",,"999,M,+0080,1","99999,9,09851,1","7,1,006,1,+999,9","60,1",,SYN088AAXX  18181 57328 11961 80402 10054 20000 39851 40274 57006 69901 76066 8802/ 333 10080;,
01-18T21:00:00,4,31.2,107.5,344.0,"DA XIAN, CH",FM-12,99999,V020,"040,1,N,0010,1","99999,9,9,N","008000,1,N,1","+0052,1","+0003,1","10261,1","24,0000,2,1",,"6,1,03,1",,,"08,99,1,08,1,00,1,99999,9,07,1,99,9",,,,"7,1,013,1,+999,9","10,1",,SYN076AAXX  18211 57328 41958 80401 10052 20003 40261 57013 71060 8807/ 333 79999;,
01-19T00:00:00,4,31.2,107.5,344.0,"DA XIAN, CH",FM-12,99999,V020,"040,1,N,0010,1","99999,9,9,N","015000,1,N,1","+0052,1","-0006,1","10267,1","06,9999,9,9","24,0000,2,1","6,1,06,1",,,"08,99,1,08,1,00,1,99999,9,02,1,99,9","999,+0042,9",,"99999,9,09844,1","2,1,006,1,+000,1","60,1",,SYN100AAXX  19001 57328 11965 80401 10052 21006 39844 40267 52006 69901 76060 8802/ 333 00052 30042 79999;,
01-19T03:00:00,4,31.2,107.5,344.0,"DA XIAN, CH",FM-12,99999,V020,"070,1,N,0010,1","03600,1,9,N","012000,1,N,1","+0062,1","+0021,1","10296,1",,,"6,1,03,1","6,1,03,1",,"08,99,1,01,1,07,1,00800,1,02,1,99,9",,,,"2,1,028,1,+999,9","60,1",,SYN066AAXX  19031 57328 41562 80701 10062 20021 40296 52028 76066 8172/;,
01-19T06:00:00,4,31.2,107.5,344.0,"DA XIAN, CH",FM-12,99999,V020,"250,1,N,0010,1","99999,9,9,N","008000,1,N,1","+0054,1","+0017,1","10272,1","06,9999,9,9",,"6,1,06,1","6,1,06,1",,"08,99,1,08,1,00,1,99999,9,02,1,99,9",,"999,N,+0050,1","99999,9,09848,1","7,1,024,1,+999,9","60,1",,SYN088AAXX  19061 57328 11958 82501 10054 20017 39848 40272 57024 69911 76066 8802/ 333 20050;,
01-19T09:00:00,4,31.2,107.5,344.0,"DA XIAN, CH",FM-12,99999,V020,"160,1,N,0010,1","99999,9,9,N","008000,1,N,1","+0051,1","+0029,1","10265,1",,,"6,1,03,1","6,1,03,1",,"08,99,1,08,1,00,1,99999,9,02,1,99,9",,,,"7,1,007,1,+999,9","60,1",,SYN066AAXX  19091 57328 41958 81601 10051 20029 40265 57007 76066 8802/;,
01-19T12:00:00,4,31.2,107.5,344.0,"DA XIAN, CH",FM-12,99999,V020,"999,9,C,0000,1","03600,1,9,N","008000,1,N,1","+0050,1","+0033,1","10270,1","06,0010,9,1",,"6,1,06,1","6,1,06,1",,"08,99,1,01,1,07,1,00800,1,02,1,99,9",,,"99999,9,09846,1","2,1,005,1,+999,9","60,1",,SYN078AAXX  19121 57328 11558 80000 10050 20033 39846 40270 52005 60011 76066 8172/;,
01-19T15:00:00,4,31.2,107.5,344.0,"DA XIAN, CH",FM-12,99999,V020,"160,1,N,0020,1","99999,9,9,N","008000,1,N,1","+0047,1","+0033,1","10278,1",,,"6,1,03,1","6,1,03,1",,"08,99,1,08,1,00,1,99999,9,07,1,99,9",,,,"2,1,008,1,+999,9","21,1",,SYN066AAXX  19151 57328 41958 81602 10047 20033 40278 52008 72166 8807/;,
01-19T21:00:00,4,31.2,107.5,344.0,"DA XIAN, CH",FM-12,99999,V020,"040,1,N,0010,1","02100,1,9,N","004000,1,N,1","+0031,1","+0021,1","10278,1","24,0051,9,1",,"6,1,03,1","6,1,03,1",,"08,99,1,08,1,05,1,02250,1,99,9,99,9",,,,"2,1,004,1,+999,9","60,1",,SYN076AAXX  19211 57328 41840 80401 10031 20021 40278 52004 76066 885// 333 70051;,
01-20T00:00:00,4,31.2,107.5,344.0,"DA XIAN, CH",FM-12,99999,V020,"040,1,N,0020,1","00420,1,9,N","007000,1,N,1","+0019,1","+0016,1","10285,1","06,0051,9,1","24,0061,9,1","6,1,06,1","6,1,06,1",,"08,99,1,08,1,05,1,00450,1,99,9,99,9","999,+0031,9",,"99999,9,09858,1","2,1,006,1,+010,1","60,1",,SYN100AAXX  20001 57328 11457 80402 10019 20016 39858 40285 52006 60051 76066 885// 333 00153 30031 70062;,
01-20T03:00:00,4,31.2,107.5,344.0,"DA XIAN, CH",FM-12,99999,V020,"040,1,N,0010,1","02100,1,9,N","025000,1,N,1","+0029,1","+0016,1","10306,1",,,"6,1,03,1",,,"08,99,1,08,1,05,1,02250,1,99,9,99,9",,,,"2,1,021,1,+999,9","00,1",,SYN066AAXX  20031 57328 41875 80401 10029 20016 40306 52021 70060 885//;,
01-20T06:00:00,4,31.2,107.5,344.0,"DA XIAN, CH",FM-12,99999,V020,"040,1,N,0020,1","02100,1,9,N","025000,1,N,1","+0045,1","+0009,1","10288,1","06,9999,9,9",,"6,1,06,1",,,"08,99,1,08,1,05,1,02250,1,99,9,99,9",,"999,N,+0018,1","99999,9,09862,1","7,1,017,1,+999,9","60,1",,SYN088AAXX  20061 57328 11875 80402 10045 20009 39862 40288 57017 69921 76060 885// 333 20018;,
01-20T09:00:00,4,31.2,107.5,344.0,"DA XIAN, CH",FM-12,99999,V020,"140,1,N,0020,1","09000,1,9,N","025000,1,N,1","+0059,1","+0009,1","10281,1",,,"6,1,03,1",,,"06,99,1,01,1,01,1,01250,1,00,1,02,1",,,,"7,1,006,1,+999,9","00,1",,SYN066AAXX  20091 57328 41675 61402 10059 20009 40281 57006 70060 81102;,
01-20T15:00:00,4,31.2,107.5,344.0,"DA XIAN, CH",FM-12,99999,V020,"999,9,C,0000,1","22000,1,9,N","004000,1,N,1","+0023,1","+0015,1","10324,1",,,,,"00,1,+99999,9,99,9","00,99,1,00,1,00,1,99999,9,00,1,00,1",,,,"2,1,014,1,+999,9","10,1",,SYN060AAXX  20151 57328 41940 00000 10023 20015 40324 52014 71000;,
01-20T18:00:00,4,31.2,107.5,344.0,"DA XIAN, CH",FM-12,99999,V020,"040,1,N,0030,1","00015,1,9,N","000000,1,N,1","+0008,1","+0008,1","10324,1","06,0000,9,1",,"4,1,06,1",,"09,1,+99999,9,99,9","09,99,1,09,1,99,9,99999,9,99,9,99,9",,"999,M,+0060,1","99999,9,09894,1","4,1,000,1,+999,9","47,1",,SYN076AAXX  20181 57328 31/00 90403 10008 20008 39894 40324 54000 74740 333 10060;,Q01  00002PRCP06
01-20T21:00:00,4,31.2,107.5,344.0,"DA XIAN, CH",FM-12,99999,V020,"999,9,C,0000,1","00015,1,9,N","000000,1,N,1","+0005,1","+0005,1","10316,1","24,0013,9,1",,"4,1,03,1","4,1,03,1","09,1,+99999,9,99,9","09,99,1,09,1,99,9,99999,9,99,9,99,9",,,,"7,1,007,1,+999,9","45,1",,SYN070AAXX  20211 57328 41/00 90000 10005 20005 40316 57007 74544 333 70013;,
01-21T00:00:00,4,31.2,107.5,344.0,"DA XIAN, CH",FM-12,99999,V020,"040,1,N,0020,1","00030,1,9,N","000200,1,N,1","+0010,1","+0010,1","10315,1","06,0000,9,1","24,0003,9,1","4,1,06,1","4,1,06,1","09,1,+99999,9,99,9","09,99,1,09,1,99,9,99999,9,99,9,99,9","999,+0010,9",,"99999,9,09885,1","7,1,002,1,+030,1","45,1",,SYN088AAXX  21001 57328 31/02 90402 10010 20010 39885 40315 57002 74544 333 00351 30010 70002;,Q01  00002PRCP06
01-21T03:00:00,4,31.2,107.5,344.0,"DA XIAN, CH",FM-12,99999,V020,"040,1,N,0020,1","22000,1,9,N","006000,1,N,1","+0047,1","+0020,1","10321,1",,,"4,1,03,1",,,"04,99,1,04,1,00,1,99999,9,04,1,00,1",,,,"2,1,007,1,+999,9","10,1",,SYN066AAXX  21031 57328 41956 40402 10047 20020 40321 52007 71040 84040;,
01-21T06:00:00,4,31.2,107.5,344.0,"DA XIAN, CH",FM-12,99999,V020,"320,1,N,0020,1","03600,1,9,N","015000,1,N,1","+0081,1","-0022,1","10286,1","06,0000,9,1",,"4,1,06,1",,,"06,99,1,02,1,01,1,00800,1,04,1,00,1",,"999,N,+0003,1","99999,9,09860,1","7,1,032,1,+999,9","00,1",,SYN082AAXX  21061 57328 31565 63202 10081 21022 39860 40286 57032 70040 82140 333 20003;,Q01  00002PRCP06
01-21T09:00:00,4,31.2,107.5,344.0,"DA XIAN, CH",FM-12,99999,V020,"270,1,N,0020,1","22000,1,9,N","015000,1,N,1","+0089,1","-0014,1","10272,1",,,,,,"01,99,1,01,1,01,1,00800,1,00,1,00,1",,,,"7,1,013,1,+999,9",,,SYN060AAXX  21091 57328 42565 12702 10089 21014 40272 57013 81100;,
01-21T12:00:00,4,31.2,107.5,344.0,"DA XIAN, CH",FM-12,99999,V020,"040,1,N,0020,1","22000,1,9,N","007000,1,N,1","+0049,1","+0008,1","10278,1","06,0000,9,1",,,,"00,1,+99999,9,99,9","00,99,1,00,1,00,1,99999,9,00,1,00,1",,,"99999,9,09850,1","2,1,003,1,+999,9","10,1",,SYN066AAXX  21121 57328 31957 00402 10049 20008 39850 40278 52003 71000;,Q01  00002PRCP06
01-21T15:00:00,4,31.2,107.5,344.0,"DA XIAN, CH",FM-12,99999,V020,"040,1,N,0020,1","22000,1,9,N","005000,1,N,1","+0027,1","+0009,1","10287,1",,,,,"00,1,+99999,9,99,9","00,99,1,00,1,00,1,99999,9,00,1,00,1",,,,"2,1,010,1,+999,9","10,1",,SYN060AAXX  21151 57328 41950 00402 10027 20009 40287 52010 71000;,
01-21T18:00:00,4,31.2,107.5,344.0,"DA XIAN, CH",FM-12,99999,V020,"040,1,N,0020,1","99999,9,9,N","004000,1,N,1","+0023,1","+0007,1","10270,1","06,0000,9,1",,,,,"07,99,1,07,1,00,1,99999,9,04,1,99,9",,"999,M,+0093,1","99999,9,09846,1","7,1,014,1,+999,9","10,1",,SYN082AAXX  21181 57328 31940 70402 10023 20007 39846 40270 57014 71000 8704/ 333 10093;,Q01  00002PRCP06
01-21T21:00:00,4,31.2,107.5,344.0,"DA XIAN, CH",FM-12,99999,V020,"040,1,N,0020,1","99999,9,9,N","005000,1,N,1","+0021,1","+0008,1","10253,1",,,,,,"08,99,1,08,1,00,1,99999,9,07,1,99,9",,,,"7,1,016,1,+999,9","10,1",,SYN066AAXX  21211 57328 41950 80402 10021 20008 40253 57016 71000 8807/;,
01-22T00:00:00,4,31.2,107.5,344.0,"DA XIAN, CH",FM-12,99999,V020,"040,1,N,0030,1","99999,9,9,N","008000,1,N,1","+0022,1","+0009,1","10252,1","06,0000,9,1",,,,,"08,99,1,08,1,00,1,99999,9,07,1,99,9","999,+0010,9",,"99999,9,09826,1","7,1,004,1,-060,1","10,1",,SYN088AAXX  22001 57328 31958 80403 10022 20009 39826 40252 57004 71000 8807/ 333 05601 30015;,Q01  00002PRCP06
01-22T03:00:00,4,31.2,107.5,344.0,"DA XIAN, CH",FM-12,99999,V020,"020,1,N,0040,1","99999,9,9,N","008000,1,N,1","+0046,1","+0008,1","10260,1",,,,,,"08,99,1,08,1,00,1,99999,9,07,1,99,9",,,,"2,1,008,1,+999,9","10,1",,SYN066AAXX  22031 57328 41958 80204 10046 20008 40260 52008 71000 8807/;,
01-22T06:00:00,4,31.2,107.5,344.0,"DA XIAN, CH",FM-12,99999,V020,"999,9,C,0000,1","99999,9,9,N","008000,1,N,1","+0079,1","+0005,1","10227,1","06,0000,9,1",,,,,"08,99,1,08,1,00,1,99999,9,07,1,99,9",,"999,N,+0018,1","99999,9,09805,1","7,1,029,1,+999,9","10,1",,SYN082AAXX  22061 57328 31958 80000 10079 20005 39805 40227 57029 71000 8807/ 333 20018;,Q01  00002PRCP06
01-22T09:00:00,4,31.2,107.5,344.0,"DA XIAN, CH",FM-12,99999,V020,"200,1,N,0010,1","99999,9,9,N","008000,1,N,1","+0079,1","+0025,1","10224,1",,,,,,"08,99,1,08,1,00,1,99999,9,07,1,99,9",,,,"7,1,003,1,+999,9","10,1",,SYN066AAXX  22091 57328 41958 82001 10079 20025 40224 57003 71000 8807/;,
01-22T12:00:00,4,31.2,107.5,344.0,"DA XIAN, CH",FM-12,99999,V020,"200,1,N,0010,1","99999,9,9,N","007000,1,N,1","+0055,1","+0023,1","10248,1","06,0000,9,1",,,,,"07,99,1,07,1,00,1,99999,9,04,1,99,9",,,"99999,9,09823,1","2,1,021,1,+999,9","10,1",,SYN072AAXX  22121 57328 31957 72001 10055 20023 39823 40248 52021 71000 8704/;,Q01  00002PRCP06
01-22T21:00:00,4,31.2,107.5,344.0,"DA XIAN, CH",FM-12,99999,V020,"070,1,N,0020,1","99999,9,9,N","003000,1,N,1","+0021,1","+0013,1","10283,1",,,,,,"08,99,1,08,1,00,1,99999,9,07,1,99,9",,,,"2,1,003,1,+999,9","10,1",,SYN066AAXX  22211 57328 41930 80702 10021 20013 40283 52003 71000 8807/;,
01-23T00:00:00,4,31.2,107.5,344.0,"DA XIAN, CH",FM-12,99999,V020,"999,9,C,0000,1","99999,9,9,N","001500,1,N,1","+0023,1","+0013,1","10306,1","06,0000,9,1",,,,,"08,99,1,08,1,00,1,99999,9,07,1,99,9","999,+0000,9",,"99999,9,09879,1","2,1,021,1,+050,1","10,1",,SYN088AAXX  23001 57328 31915 80000 10023 20013 39879 40306 52021 71000 8807/ 333 00500 30005;,Q01  00002PRCP06
01-23T06:00:00,4,31.2,107.5,344.0,"DA XIAN, CH",FM-12,99999,V020,"020,1,N,0050,1","22000,1,9,N","030000,1,N,1","+0101,1","-0080,1","10300,1","06,0000,9,1",,"4,1,06,1",,"00,1,+99999,9,99,9","00,99,1,00,1,00,1,99999,9,00,1,00,1",,"999,N,+0013,1","99999,9,09876,1","7,1,025,1,+999,9","00,1",,SYN076AAXX  23061 57328 31980 00205 10101 21080 39876 40300 57025 70040 333 20013;,Q01  00002PRCP06
01-23T09:00:00,4,31.2,107.5,344.0,"DA XIAN, CH",FM-12,99999,V020,"999,9,C,0000,1","22000,1,9,N","030000,1,N,1","+0115,1","-0047,1","10292,1",,,,,"00,1,+99999,9,99,9","00,99,1,00,1,00,1,99999,9,00,1,00,1",,,,"7,1,006,1,+999,9",,,SYN054AAXX  23091 57328 42980 00000 10115 21047 40292 57006;,
01-23T12:00:00,4,31.2,107.5,344.0,"DA XIAN, CH",FM-12,99999,V020,"160,1,N,0010,1","22000,1,9,N","015000,1,N,1","+0071,1","-0020,1","10316,1","06,0000,9,1",,,,"00,1,+99999,9,99,9","00,99,1,00,1,00,1,99999,9,00,1,00,1",,,"99999,9,09889,1","2,1,019,1,+999,9",,,SYN060AAXX  23121 57328 32965 01601 10071 21020 39889 40316 52019;,Q01  00002PRCP06
01-23T15:00:00,4,31.2,107.5,344.0,"DA XIAN, CH",FM-12,99999,V020,"040,1,N,0010,1","22000,1,9,N","008000,1,N,1","+0027,1","-0015,1","10330,1",,,,,"00,1,+99999,9,99,9","00,99,1,00,1,00,1,99999,9,00,1,00,1",,,,"2,1,011,1,+999,9","10,1",,SYN060AAXX  23151 57328 41958 00401 10027 21015 40330 52011 71000;,
01-23T18:00:00,4,31.2,107.5,344.0,"DA XIAN, CH",FM-12,99999,V020,"020,1,N,0030,1","22000,1,9,N","008000,1,N,1","+0009,1","-0011,1","10327,1","06,0000,9,1",,,,"00,1,+99999,9,99,9","00,99,1,00,1,00,1,99999,9,00,1,00,1",,"999,M,+0120,1","99999,9,09901,1","2,1,001,1,+999,9","10,1",,SYN076AAXX  23181 57328 31958 00203 10009 21011 39901 40327 52001 71000 333 10120;,Q01  00002PRCP06
01-23T21:00:00,4,31.2,107.5,344.0,"DA XIAN, CH",FM-12,99999,V020,"020,1,N,0020,1","22000,1,9,N","005000,1,N,1","+0001,1","-0019,1","10316,1",,,,,"00,1,+99999,9,99,9","00,99,1,00,1,00,1,99999,9,00,1,00,1",,,,"7,1,010,1,+999,9","10,1",,SYN060AAXX  23211 57328 41950 00202 10001 21019 40316 57010 71000;,
01-24T00:00:00,4,31.2,107.5,344.0,"DA XIAN, CH",FM-12,99999,V020,"040,1,N,0020,1","22000,1,9,N","020000,1,N,1","-0010,1","-0028,1","10329,1","06,0000,9,1",,,,"00,1,+99999,9,99,9","00,99,1,00,1,00,1,99999,9,00,1,00,1","999,-0010,9",,"99999,9,09899,1","2,1,008,1,+020,1",,,SYN076AAXX  24001 57328 32970 00402 11010 21028 39899 40329 52008 333 00253 31015;,Q01  00002PRCP06
01-24T03:00:00,4,31.2,107.5,344.0,"DA XIAN, CH",FM-12,99999,V020,"020,1,N,0020,1","22000,1,9,N","030000,1,N,1","+0058,1","-0082,1","10325,1",,,,,"00,1,+99999,9,99,9","00,99,1,00,1,00,1,99999,9,00,1,00,1",,,,"7,1,002,1,+999,9",,,SYN054AAXX  24031 57328 42980 00202 10058 21082 40325 57002;,
01-24T06:00:00,4,31.2,107.5,344.0,"DA XIAN, CH",FM-12,99999,V020,"220,1,N,0010,1","22000,1,9,N","030000,1,N,1","+0099,1","-0108,1","10290,1","06,0000,9,1",,,,"00,1,+99999,9,99,9","00,99,1,00,1,00,1,99999,9,00,1,00,1",,"999,N,-0011,1","99999,9,09866,1","7,1,031,1,+999,9",,,SYN070AAXX  24061 57328 32980 02201 10099 21108 39866 40290 57031 333 21011;,Q01  00002PRCP06
01-24T09:00:00,4,31.2,107.5,344.0,"DA XIAN, CH",FM-12,99999,V020,"999,9,C,0000,1","99999,9,9,N","030000,1,N,1","+0105,1","-0066,1","10267,1",,,,,,"07,99,1,07,1,00,1,99999,9,04,1,99,9",,,,"7,1,023,1,+999,9",,,SYN060AAXX  24091 57328 42980 70000 10105 21066 40267 57023 8704/;,
01-24T12:00:00,4,31.2,107.5,344.0,"DA XIAN, CH",FM-12,99999,V020,"040,1,N,0010,1","99999,9,9,N","030000,1,N,1","+0071,1","-0030,1","10273,1","06,0000,9,1",,,,,"07,99,1,07,1,00,1,99999,9,04,1,99,9",,,"99999,9,09846,1","2,1,003,1,+999,9",,,SYN066AAXX  24121 57328 32980 70401 10071 21030 39846 40273 52003 8704/;,Q01  00002PRCP06
01-24T15:00:00,4,31.2,107.5,344.0,"DA XIAN, CH",FM-12,99999,V020,"040,1,N,0020,1","99999,9,9,N","015000,1,N,1","+0044,1","-0013,1","10263,1",,,,,,"08,99,1,08,1,00,1,99999,9,07,1,99,9",,,,"7,1,007,1,+999,9",,,SYN060AAXX  24151 57328 42965 80402 10044 21013 40263 57007 8807/;,
01-24T18:00:00,4,31.2,107.5,344.0,"DA XIAN, CH",FM-12,99999,V020,"040,1,N,0020,1","99999,9,9,N","011000,1,N,1","+0045,1","-0015,1","10245,1","06,0000,9,1",,,,,"08,99,1,08,1,00,1,99999,9,07,1,99,9",,"999,M,+0119,1","99999,9,09825,1","7,1,014,1,+999,9",,,SYN076AAXX  24181 57328 32961 80402 10045 21015 39825 40245 57014 8807/ 333 10119;,Q01  00002PRCP06
01-24T21:00:00,4,31.2,107.5,344.0,"DA XIAN, CH",FM-12,99999,V020,"040,1,N,0020,1","99999,9,9,N","011000,1,N,1","+0044,1","-0022,1","10239,1",,,,,,"08,99,1,08,1,00,1,99999,9,07,1,99,9",,,,"7,1,005,1,+999,9",,,SYN060AAXX  24211 57328 42961 80402 10044 21022 40239 57005 8807/;,
01-25T00:00:00,4,31.2,107.5,344.0,"DA XIAN, CH",FM-12,99999,V020,"040,1,N,0030,1","02100,1,9,N","020000,1,N,1","+0046,1","-0034,1","10254,1","06,9999,9,9","24,0000,2,1",,,,"08,99,1,08,1,05,1,02250,1,99,9,99,9","999,+0037,9",,"99999,9,09832,1","2,1,012,1,-070,1","60,1",,SYN100AAXX  25001 57328 11870 80403 10046 21034 39832 40254 52012 69901 76000 885// 333 05706 30037 79999;,
01-25T03:00:00,4,31.2,107.5,344.0,"DA XIAN, CH",FM-12,99999,V020,"020,1,N,0050,1","99999,9,9,N","012000,1,N,1","+0039,1","+0024,1","10263,1",,,"6,1,03,1","6,1,03,1",,"08,99,1,08,1,00,1,99999,9,02,1,99,9",,,,"2,1,006,1,+999,9","60,1",,SYN066AAXX  25031 57328 41962 80205 10039 20024 40263 52006 76066 8802/;,
01-25T06:00:00,4,31.2,107.5,344.0,"DA XIAN, CH",FM-12,99999,V020,"040,1,N,0010,1","02100,1,9,N","015000,1,N,1","+0058,1","+0022,1","10224,1","06,0008,9,1",,"6,1,06,1","6,1,06,1",,"08,99,1,08,1,05,1,02250,1,99,9,99,9",,"999,N,+0036,1","99999,9,09802,1","7,1,036,1,+999,9","60,1",,SYN088AAXX  25061 57328 11865 80401 10058 20022 39802 40224 57036 69981 76066 885// 333 20036;,
01-25T09:00:00,4,31.2,107.5,344.0,"DA XIAN, CH",FM-12,99999,V020,"090,1,N,0030,1","02100,1,9,N","018000,1,N,1","+0067,1","-0011,1","10224,1",,,"6,1,03,1",,,"08,99,1,08,1,05,1,02250,1,99,9,99,9",,,,"2,1,001,1,+999,9","00,1",,SYN066AAXX  25091 57328 41868 80903 10067 21011 40224 52001 70060 885//;,
01-25T12:00:00,4,31.2,107.5,344.0,"DA XIAN, CH",FM-12,99999,V020,"040,1,N,0030,1","02100,1,9,N","020000,1,N,1","+0059,1","+0000,1","10233,1","06,9999,9,9",,"6,1,06,1",,,"08,99,1,08,1,05,1,02250,1,99,9,99,9",,,"99999,9,09811,1","2,1,008,1,+999,9","00,1",,SYN078AAXX  25121 57328 11870 80403 10059 20000 39811 40233 52008 69901 70060 885//;,
01-25T15:00:00,4,31.2,107.5,344.0,"DA XIAN, CH",FM-12,99999,V020,"040,1,N,0010,1","99999,9,9,N","020000,1,N,1","+0049,1","+9999,9","99999,9",,,,,,"08,99,1,99,9,99,9,02250,1,99,9,99,9",,,,,,,SYN058AAXX  25151 57328 42870 80401 10049 200 40244 52009 885//;,
01-25T18:00:00,4,31.2,107.5,344.0,"DA XIAN, CH",FM-12,99999,V020,"040,1,N,0010,1","02100,1,9,N","015000,1,N,1","+0036,1","+0010,1","10246,1","06,0000,9,1",,,,,"08,99,1,08,1,05,1,02250,1,99,9,99,9",,"999,M,+0069,1","99999,9,09822,1","2,1,002,1,+999,9",,,SYN076AAXX  25181 57328 32865 80401 10036 20010 39822 40246 52002 885// 333 10069;,Q01  00002PRCP06
01-25T21:00:00,4,31.2,107.5,344.0,"DA XIAN, CH",FM-12,99999,V020,"999,9,C,0000,1","02100,1,9,N","012000,1,N,1","+0035,1","+0017,1","10248,1","24,0008,9,1",,,,,"08,99,1,08,1,05,1,02250,1,99,9,99,9",,,,"2,1,003,1,+999,9",,,SYN070AAXX  25211 57328 42862 80000 10035 20017 40248 52003 885// 333 70008;,
01-26T00:00:00,4,31.2,107.5,344.0,"DA XIAN, CH",FM-12,99999,V020,"040,1,N,0010,1","99999,9,9,N","012000,1,N,1","+0027,1","+0014,1","10259,1","06,0000,9,1","24,0008,9,1",,,,"08,99,1,08,1,00,1,99999,9,07,1,99,9","999,+0023,9",,"99999,9,09834,1","2,1,009,1,+000,1",,,SYN088AAXX  26001 57328 32962 80401 10027 20014 39834 40259 52009 8807/ 333 00052 30023 70008;,Q01  00002PRCP06
01-26T03:00:00,4,31.2,107.5,344.0,"DA XIAN, CH",FM-12,99999,V020,"290,1,N,0010,1","99999,9,9,N","012000,1,N,1","+0055,1","+0010,1","10273,1",,,,,,"07,99,1,07,1,00,1,99999,9,04,1,00,1",,,,"2,1,015,1,+999,9",,,SYN060AAXX  26031 57328 42962 72901 10055 20010 40273 52015 87040;,
01-26T06:00:00,4,31.2,107.5,344.0,"DA XIAN, CH",FM-12,99999,V020,"290,1,N,0010,1","03600,1,9,N","012000,1,N,1","+0073,1","-0003,1","10254,1","06,0000,9,1",,,,,"08,99,1,01,1,01,1,00800,1,07,1,99,9",,"999,N,+0025,1","99999,9,09831,1","7,1,018,1,+999,9",,,SYN076AAXX  26061 57328 32562 82901 10073 21003 39831 40254 57018 8117/ 333 20025;,Q01  00002PRCP06
01-26T09:00:00,4,31.2,107.5,344.0,"DA XIAN, CH",FM-12,99999,V020,"250,1,N,0020,1","99999,9,9,N","015000,1,N,1","+0084,1","-0004,1","10249,1",,,,,,"07,99,1,07,1,00,1,99999,9,04,1,99,9",,,,"7,1,004,1,+999,9",,,SYN060AAXX  26091 57328 42965 72502 10084 21004 40249 57004 8704/;,
01-26T12:00:00,4,31.2,107.5,344.0,"DA XIAN, CH",FM-12,99999,V020,"999,9,C,0000,1","22000,1,9,N","008000,1,N,1","+0061,1","+0005,1","10271,1","06,0000,9,1",,,,"00,1,+99999,9,99,9","00,99,1,00,1,00,1,99999,9,00,1,00,1",,,"99999,9,09846,1","2,1,019,1,+999,9","10,1",,SYN066AAXX  26121 57328 31958 00000 10061 20005 39846 40271 52019 71000;,Q01  00002PRCP06
01-26T15:00:00,4,31.2,107.5,344.0,"DA XIAN, CH",FM-12,99999,V020,"040,1,N,0010,1","22000,1,9,N","007000,1,N,1","+0027,1","+0011,1","10287,1",,,,,"00,1,+99999,9,99,9","00,99,1,00,1,00,1,99999,9,00,1,00,1",,,,"2,1,015,1,+999,9","10,1",,SYN060AAXX  26151 57328 41957 00401 10027 20011 40287 52015 71000;,
01-26T18:00:00,4,31.2,107.5,344.0,"DA XIAN, CH",FM-12,99999,V020,"040,1,N,0020,1","22000,1,9,N","006000,1,N,1","+0011,1","+0003,1","10294,1","06,0000,9,1",,,,"00,1,+99999,9,99,9","00,99,1,00,1,00,1,99999,9,00,1,00,1",,"999,M,+0085,1","99999,9,09868,1","2,1,007,1,+999,9","10,1",,SYN076AAXX  26181 57328 31956 00402 10011 20003 39868 40294 52007 71000 333 10085;,Q01  00002PRCP06
01-26T21:00:00,4,31.2,107.5,344.0,"DA XIAN, CH",FM-12,99999,V020,"020,1,N,0020,1","99999,9,9,N","006000,1,N,1","+0010,1","+0005,1","10290,1",,,,,,"07,99,1,07,1,00,1,99999,9,04,1,99,9",,,,"7,1,003,1,+999,9","10,1",,SYN066AAXX  26211 57328 41956 70202 10010 20005 40290 57003 71000 8704/;,
01-27T00:00:00,4,31.2,107.5,344.0,"DA XIAN, CH",FM-12,99999,V020,"090,1,N,0010,1","99999,9,9,N","005000,1,N,1","+0013,1","-0001,1","10293,1","06,0000,9,1",,,,,"07,99,1,07,1,00,1,99999,9,04,1,99,9","999,+0000,9",,"99999,9,09866,1","2,1,001,1,+030,1","10,1",,SYN088AAXX  27001 57328 31950 70901 10013 21001 39866 40293 52001 71000 8704/ 333 00351 30004;,Q01  00002PRCP06
01-27T03:00:00,4,31.2,107.5,344.0,"DA XIAN, CH",FM-12,99999,V020,"360,1,N,0030,1","22000,1,9,N","005000,1,N,1","+0042,1","+0020,1","10306,1",,,,,"00,1,+99999,9,99,9","00,99,1,00,1,00,1,99999,9,00,1,00,1",,,,"2,1,012,1,+999,9","10,1",,SYN060AAXX  27031 57328 41950 03603 10042 20020 40306 52012 71000;,
01-27T06:00:00,4,31.2,107.5,344.0,"DA XIAN, CH",FM-12,99999,V020,"340,1,N,0020,1","22000,1,9,N","015000,1,N,1","+0097,1","-0008,1","10260,1","06,0000,9,1",,,,,"04,99,1,04,1,01,1,01250,1,00,1,00,1",,"999,N,+0009,1","99999,9,09837,1","7,1,041,1,+999,9",,,SYN076AAXX  27061 57328 32665 43402 10097 21008 39837 40260 57041 84100 333 20009;,Q01  00002PRCP06
01-27T09:00:00,4,31.2,107.5,344.0,"DA XIAN, CH",FM-12,99999,V020,"200,1,N,0010,1","22000,1,9,N","020000,1,N,1","+0103,1","+0010,1","10237,1",,,,,,"03,99,1,03,1,01,1,01250,1,00,1,00,1",,,,"7,1,022,1,+999,9",,,SYN060AAXX  27091 57328 42670 32001 10103 20010 40237 57022 83100;,
01-27T12:00:00,4,31.2,107.5,344.0,"DA XIAN, CH",FM-12,99999,V020,"999,9,C,0000,1","22000,1,9,N","012000,1,N,1","+0067,1","+0021,1","10245,1","06,0000,9,1",,,,"00,1,+99999,9,99,9","00,99,1,00,1,00,1,99999,9,00,1,00,1",,,"99999,9,09820,1","2,1,005,1,+999,9",,,SYN060AAXX  27121 57328 32962 00000 10067 20021 39820 40245 52005;,Q01  00002PRCP06
01-27T15:00:00,4,31.2,107.5,344.0,"DA XIAN, CH",FM-12,99999,V020,"040,1,N,0030,1","99999,9,9,N","004000,1,N,1","+0044,1","+0016,1","10240,1",,,,,,"07,99,1,07,1,00,1,99999,9,04,1,99,9",,,,"7,1,004,1,+999,9","10,1",,SYN066AAXX  27151 57328 41940 70403 10044 20016 40240 57004 71000 8704/;,
01-27T18:00:00,4,31.2,107.5,344.0,"DA XIAN, CH",FM-12,99999,V020,"040,1,N,0030,1","99999,9,9,N","004000,1,N,1","+0037,1","+0022,1","10221,1","06,0000,9,1",,,,,"08,99,1,08,1,00,1,99999,9,07,1,99,9",,"999,M,+0112,1","99999,9,09801,1","7,1,015,1,+999,9","10,1",,SYN082AAXX  27181 57328 31940 80403 10037 20022 39801 40221 57015 71000 8807/ 333 10112;,Q01  00002PRCP06
01-27T21:00:00,4,31.2,107.5,344.0,"DA XIAN, CH",FM-12,99999,V020,"020,1,N,0030,1","99999,9,9,N","004000,1,N,1","+0040,1","+0017,1","10197,1",,,,,,"08,99,1,08,1,00,1,99999,9,07,1,99,9",,,,"7,1,022,1,+999,9","10,1",,SYN066AAXX  27211 57328 41940 80203 10040 20017 40197 57022 71000 8807/;,
01-28T00:00:00,4,31.2,107.5,344.0,"DA XIAN, CH",FM-12,99999,V020,"040,1,N,0030,1","99999,9,9,N","008000,1,N,1","+0043,1","+0015,1","10205,1","06,0000,9,1",,,,,"08,99,1,08,1,00,1,99999,9,07,1,99,9","999,+0030,9",,"99999,9,09784,1","2,1,005,1,-080,1","10,1",,SYN088AAXX  28001 57328 31958 80403 10043 20015 39784 40205 52005 71000 8807/ 333 05803 30033;,Q01  00002PRCP06
01-28T03:00:00,4,31.2,107.5,344.0,"DA XIAN, CH",FM-12,99999,V020,"020,1,N,0030,1","99999,9,9,N","008000,1,N,1","+0061,1","+0011,1","10205,1",,,,,,"08,99,1,08,1,00,1,99999,9,07,1,99,9",,,,"4,1,000,1,+999,9","10,1",,SYN066AAXX  28031 57328 41958 80203 10061 20011 40205 54000 71000 8807/;,
01-28T06:00:00,4,31.2,107.5,344.0,"DA XIAN, CH",FM-12,99999,V020,"320,1,N,0010,1","99999,9,9,N","012000,1,N,1","+0103,1","-0012,1","10156,1","06,0000,9,1",,,,,"07,99,1,07,1,00,1,99999,9,04,1,00,1",,"999,N,+0037,1","99999,9,09739,1","7,1,045,1,+999,9",,,SYN076AAXX  28061 57328 32962 73201 10103 21012 39739 40156 57045 87040 333 20037;,Q01  00002PRCP06
01-28T09:00:00,4,31.2,107.5,344.0,"DA XIAN, CH",FM-12,99999,V020,"290,1,N,0010,1","99999,9,9,N","012000,1,N,1","+0107,1","-0016,1","10142,1",,,,,,"07,99,1,07,1,00,1,99999,9,04,1,99,9",,,,"7,1,012,1,+999,9",,,SYN060AAXX  28091 57328 42962 72901 10107 21016 40142 57012 8704/;,
01-28T12:00:00,4,31.2,107.5,344.0,"DA XIAN, CH",FM-12,99999,V020,"040,1,N,0010,1","99999,9,9,N","010000,1,N,1","+0083,1","+0022,1","10160,1","06,0000,9,1",,,,,"07,99,1,07,1,00,1,99999,9,04,1,99,9",,,"99999,9,09742,1","2,1,015,1,+999,9",,,SYN066AAXX  28121 57328 32960 70401 10083 20022 39742 40160 52015 8704/;,Q01  00002PRCP06
01-28T15:00:00,4,31.2,107.5,344.0,"DA XIAN, CH",FM-12,99999,V020,"040,1,N,0020,1","99999,9,9,N","008000,1,N,1","+0069,1","+0016,1","10172,1",,,,,,"08,99,1,08,1,00,1,99999,9,07,1,99,9",,,,"2,1,012,1,+999,9","10,1",,SYN066AAXX  28151 57328 41958 80402 10069 20016 40172 52012 71000 8807/;,
01-28T18:00:00,4,31.2,107.5,344.0,"DA XIAN, CH",FM-12,99999,V020,"040,1,N,0020,1","99999,9,9,N","008000,1,N,1","+0061,1","+0022,1","10168,1","06,0000,9,1",,,,,"08,99,1,08,1,00,1,99999,9,07,1,99,9",,"999,M,+0108,1","99999,9,09753,1","7,1,001,1,+999,9","10,1",,SYN082AAXX  28181 57328 31958 80402 10061 20022 39753 40168 57001 71000 8807/ 333 10108;,Q01  00002PRCP06
01-28T21:00:00,4,31.2,107.5,344.0,"DA XIAN, CH",FM-12,99999,V020,"040,1,N,0010,1","22000,1,9,N","008000,1,N,1","+0054,1","+0025,1","10161,1",,,,,"00,1,+99999,9,99,9","00,99,1,00,1,00,1,99999,9,00,1,00,1",,,,"7,1,007,1,+999,9","10,1",,SYN060AAXX  28211 57328 41958 00401 10054 20025 40161 57007 71000;,
01-29T00:00:00,4,31.2,107.5,344.0,"DA XIAN, CH",FM-12,99999,V020,"040,1,N,0030,1","22000,1,9,N","007000,1,N,1","+0032,1","+0022,1","10179,1","06,0000,9,1",,,,"00,1,+99999,9,99,9","00,99,1,00,1,00,1,99999,9,00,1,00,1","999,+0010,9",,"99999,9,09760,1","2,1,014,1,-020,1","10,1",,SYN082AAXX  29001 57328 31957 00403 10032 20022 39760 40179 52014 71000 333 05251 30012;,Q01  00002PRCP06
01-29T03:00:00,4,31.2,107.5,344.0,"DA XIAN, CH",FM-12,99999,V020,"070,1,N,0010,1","22000,1,9,N","007000,1,N,1","+0076,1","+0029,1","10187,1",,,,,"00,1,+99999,9,99,9","00,99,1,00,1,00,1,99999,9,00,1,00,1",,,,"2,1,010,1,+999,9","10,1",,SYN060AAXX  29031 57328 41957 00701 10076 20029 40187 52010 71000;,
01-29T06:00:00,4,31.2,107.5,344.0,"DA XIAN, CH",FM-12,99999,V020,"999,9,C,0000,1","22000,1,9,N","011000,1,N,1","+0123,1","+0024,1","10161,1","06,0000,9,1",,,,,"02,99,1,02,1,01,1,01250,1,00,1,00,1",,"999,N,+0030,1","99999,9,09747,1","7,1,023,1,+999,9",,,SYN076AAXX  29061 57328 32661 20000 10123 20024 39747 40161 57023 82100 333 20030;,Q01  00002PRCP06
01-29T09:00:00,4,31.2,107.5,344.0,"DA XIAN, CH",FM-12,99999,V020,"020,1,N,0030,1","22000,1,9,N","012000,1,N,1","+0119,1","+0021,1","10150,1",,,,,,"03,99,1,03,1,01,1,01250,1,00,1,00,1",,,,"7,1,011,1,+999,9",,,SYN060AAXX  29091 57328 42662 30203 10119 20021 40150 57011 83100;,
01-29T12:00:00,4,31.2,107.5,344.0,"DA XIAN, CH",FM-12,99999,V020,"040,1,N,0030,1","22000,1,9,N","007000,1,N,1","+0079,1","+0028,1","10159,1","06,0000,9,1",,,,"00,1,+99999,9,99,9","00,99,1,00,1,00,1,99999,9,00,1,00,1",,,"99999,9,09740,1","2,1,004,1,+999,9","10,1",,SYN066AAXX  29121 57328 31957 00403 10079 20028 39740 40159 52004 71000;,Q01  00002PRCP06
01-29T15:00:00,4,31.2,107.5,344.0,"DA XIAN, CH",FM-12,99999,V020,"020,1,N,0020,1","22000,1,9,N","007000,1,N,1","+0047,1","+0023,1","10169,1",,,,,"00,1,+99999,9,99,9","00,99,1,00,1,00,1,99999,9,00,1,00,1",,,,"2,1,011,1,+999,9","10,1",,SYN060AAXX  29151 57328 41957 00202 10047 20023 40169 52011 71000;,
01-29T18:00:00,4,31.2,107.5,344.0,"DA XIAN, CH",FM-12,99999,V020,"020,1,N,0020,1","22000,1,9,N","006000,1,N,1","+0039,1","+0019,1","10159,1","06,0000,9,1",,,,"00,1,+99999,9,99,9","00,99,1,00,1,00,1,99999,9,00,1,00,1",,"999,M,+0129,1","99999,9,09744,1","7,1,007,1,+999,9","10,1",,SYN076AAXX  29181 57328 31956 00202 10039 20019 39744 40159 57007 71000 333 10129;,Q01  00002PRCP06
01-29T21:00:00,4,31.2,107.5,344.0,"DA XIAN, CH",FM-12,99999,V020,"040,1,N,0040,1","22000,1,9,N","006000,1,N,1","+0030,1","+0009,1","10148,1",,,,,"00,1,+99999,9,99,9","00,99,1,00,1,00,1,99999,9,00,1,00,1",,,,"7,1,012,1,+999,9","10,1",,SYN060AAXX  29211 57328 41956 00404 10030 20009 40148 57012 71000;,
01-30T00:00:00,4,31.2,107.5,344.0,"DA XIAN, CH",FM-12,99999,V020,"040,1,N,0030,1","99999,9,9,N","008000,1,N,1","+0026,1","+0005,1","10159,1","06,0000,9,1",,,,,"05,99,1,00,1,00,1,99999,9,00,1,02,1","999,+0010,9",,"99999,9,09740,1","2,1,008,1,-020,1","10,1",,SYN088AAXX  30001 57328 31958 50403 10026 20005 39740 40159 52008 71000 80002 333 05251 30013;,Q01  00002PRCP06
01-30T03:00:00,4,31.2,107.5,344.0,"DA XIAN, CH",FM-12,99999,V020,"040,1,N,0010,1","99999,9,9,N","008000,1,N,1","+0075,1","+0017,1","10166,1",,,,,,"07,99,1,07,1,00,1,99999,9,04,1,99,9",,,,"2,1,008,1,+999,9","10,1",,SYN066AAXX  30031 57328 41958 70401 10075 20017 40166 52008 71000 8704/;,
01-30T06:00:00,4,31.2,107.5,344.0,"DA XIAN, CH",FM-12,99999,V020,"999,9,C,0000,1","99999,9,9,N","012000,1,N,1","+0119,1","+0030,1","10129,1","06,0000,9,1",,,,,"07,99,1,07,1,00,1,99999,9,04,1,99,9",,"999,N,+0025,1","99999,9,09715,1","7,1,033,1,+999,9",,,SYN076AAXX  30061 57328 32962 70000 10119 20030 39715 40129 57033 8704/ 333 20025;,Q01  00002PRCP06
01-30T09:00:00,4,31.2,107.5,344.0,"DA XIAN, CH",FM-12,99999,V020,"999,9,C,0000,1","99999,9,9,N","012000,1,N,1","+0127,1","+0035,1","10111,1",,,,,,"08,99,1,08,1,00,1,99999,9,07,1,99,9",,,,"7,1,017,1,+999,9",,,SYN060AAXX  30091 57328 42962 80000 10127 20035 40111 57017 8807/;,
01-30T12:00:00,4,31.2,107.5,344.0,"DA XIAN, CH",FM-12,99999,V020,"180,1,N,0010,1","99999,9,9,N","006000,1,N,1","+0109,1","+0049,1","10135,1","06,0000,9,1",,,,,"08,99,1,08,1,00,1,99999,9,07,1,99,9",,,"99999,9,09719,1","2,1,021,1,+999,9","10,1",,SYN072AAXX  30121 57328 31956 81801 10109 20049 39719 40135 52021 71000 8807/;,Q01  00002PRCP06
01-30T15:00:00,4,31.2,107.5,344.0,"DA XIAN, CH",FM-12,99999,V020,"999,9,C,0000,1","99999,9,9,N","006000,1,N,1","+0095,1","+0056,1","10147,1",,,,,,"08,99,1,08,1,00,1,99999,9,07,1,99,9",,,,"2,1,014,1,+999,9","10,1",,SYN066AAXX  30151 57328 41956 80000 10095 20056 40147 52014 71000 8807/;,
01-30T18:00:00,4,31.2,107.5,344.0,"DA XIAN, CH",FM-12,99999,V020,"180,1,N,0010,1","99999,9,9,N","004000,1,N,1","+0090,1","+0053,1","10147,1","06,0000,9,1",,,,,"08,99,1,08,1,00,1,99999,9,07,1,99,9",,"999,M,+0131,1","99999,9,09736,1","2,1,003,1,+999,9","10,1",,SYN082AAXX  30181 57328 31940 81801 10090 20053 39736 40147 52003 71000 8807/ 333 10131;,Q01  00002PRCP06
01-30T21:00:00,4,31.2,107.5,344.0,"DA XIAN, CH",FM-12,99999,V020,"999,9,C,0000,1","99999,9,9,N","004000,1,N,1","+0084,1","+0046,1","10146,1",,,,,,"08,99,1,08,1,00,1,99999,9,07,1,99,9",,,,"7,1,001,1,+999,9","10,1",,SYN066AAXX  30211 57328 41940 80000 10084 20046 40146 57001 71000 8807/;,
01-31T00:00:00,4,31.2,107.5,344.0,"DA XIAN, CH",FM-12,99999,V020,"999,9,C,0000,1","99999,9,9,N","004000,1,N,1","+0080,1","+0051,1","10159,1","06,0000,9,1",,,,,"08,99,1,08,1,00,1,99999,9,07,1,99,9",,,"99999,9,09746,1","2,1,011,1,+001,1","10,1",,SYN082AAXX  31001 57328 31940 80000 10080 20051 39746 40159 52011 71000 8807/ 333 00105;,Q01  00002PRCP06
01-31T03:00:00,4,31.2,107.5,344.0,"DA XIAN, CH",FM-12,99999,V020,"999,9,C,0000,1","99999,9,9,N","004000,1,N,1","+0082,1","+0054,1","10183,1",,,"6,1,03,1",,,"08,99,1,08,1,00,1,99999,9,07,1,99,9",,,,"2,1,022,1,+999,9","60,1",,SYN066AAXX  31031 57328 41940 80000 10082 20054 40183 52022 76060 8807/;,
01-31T06:00:00,4,31.2,107.5,344.0,"DA XIAN, CH",FM-12,99999,V020,"999,9,C,0000,1","99999,9,9,N","002000,1,N,1","+0085,1","+0054,1","10170,1","06,9999,9,9",,"6,1,06,1",,,"08,99,1,08,1,00,1,99999,9,02,1,99,9",,"999,N,+0078,1","99999,9,09755,1","7,1,013,1,+999,9","60,1",,SYN088AAXX  31061 57328 11920 80000 10085 20054 39755 40170 57013 69901 76060 8802/ 333 20078;,
01-31T09:00:00,4,31.2,107.5,344.0,"DA XIAN, CH",FM-12,99999,V020,"999,9,C,0000,1","99999,9,9,N","002000,1,N,1","+0095,1","+0061,1","10154,1",,,"6,1,03,1",,,"08,99,1,08,1,00,1,99999,9,02,1,99,9",,,,"7,1,015,1,+999,9","10,1",,SYN066AAXX  31091 57328 41920 80000 10095 20061 40154 57015 71060 8802/;,
01-31T12:00:00,4,31.2,107.5,344.0,"DA XIAN, CH",FM-12,99999,V020,"999,9,C,0000,1","99999,9,9,N","003000,1,N,1","+0087,1","+0064,1","10168,1","06,9999,9,9",,"6,1,06,1",,,"08,99,1,08,1,00,1,99999,9,02,1,99,9",,,"99999,9,09753,1","2,1,013,1,+999,9","10,1",,SYN078AAXX  31121 57328 11930 80000 10087 20064 39753 40168 52013 69901 71060 8802/;,
01-31T15:00:00,4,31.2,107.5,344.0,"DA XIAN, CH",FM-12,99999,V020,"040,1,N,0010,1","99999,9,9,N","003000,1,N,1","+0080,1","+0058,1","10184,1",,,,,,"08,99,1,08,1,00,1,99999,9,02,1,99,9",,,,"2,1,015,1,+999,9","10,1",,SYN066AAXX  31151 57328 41930 80401 10080 20058 40184 52015 71000 8802/;,
01-31T18:00:00,4,31.2,107.5,344.0,"DA XIAN, CH",FM-12,99999,V020,"999,9,C,0000,1","99999,9,9,N","003000,1,N,1","+0078,1","+0061,1","10178,1","06,0000,9,1",,,,,"08,99,1,08,1,00,1,99999,9,02,1,99,9",,"999,M,+0095,1","99999,9,09762,1","7,1,006,1,+999,9","10,1",,SYN082AAXX  31181 57328 31930 80000 10078 20061 39762 40178 57006 71000 8802/ 333 10095;,Q01  00002PRCP06
01-31T21:00:00,4,31.2,107.5,344.0,"DA XIAN, CH",FM-12,99999,V020,"999,9,C,0000,1","99999,9,9,N","002000,1,N,1","+0073,1","+0060,1","10163,1","24,0000,2,1",,,,,"08,99,1,08,1,00,1,99999,9,02,1,99,9",,,,"7,1,014,1,+999,9","10,1",,SYN076AAXX  31211 57328 41920 80000 10073 20060 40163 57014 71000 8802/ 333 79999;,
02-01T00:00:00,4,31.2,107.5,344.0,"DA XIAN, CH",FM-12,99999,V020,"040,1,N,0020,1","99999,9,9,N","003000,1,N,1","+0071,1","+0058,1","10161,1","06,0000,9,1","24,0000,2,1",,,,"08,99,1,08,1,00,1,99999,9,07,1,99,9",,,"99999,9,09746,1","7,1,002,1,+000,1","10,1",,SYN088AAXX  01001 57328 31930 80402 10071 20058 39746 40161 57002 71000 8807/ 333 00051 79999;,Q01  00002PRCP06
02-01T03:00:00,4,31.2,107.5,344.0,"DA XIAN, CH",FM-12,99999,V020,"070,1,N,0020,1","99999,9,9,N","003000,1,N,1","+0081,1","+0050,1","10170,1",,,,,,"08,99,1,08,1,00,1,99999,9,02,1,99,9",,,,"2,1,008,1,+999,9","10,1",,SYN066AAXX  01031 57328 41930 80702 10081 20050 40170 52008 71000 8802/;,
02-01T06:00:00,4,31.2,107.5,344.0,"DA XIAN, CH",FM-12,99999,V020,"040,1,N,0020,1","99999,9,9,N","007000,1,N,1","+0109,1","+0033,1","10143,1","06,0000,9,1",,,,,"08,99,1,08,1,00,1,99999,9,02,1,99,9",,"999,N,+0067,1","99999,9,09730,1","7,1,024,1,+999,9","10,1",,SYN082AAXX  01061 57328 31957 80402 10109 20033 39730 40143 57024 71000 8802/ 333 20067;,Q01  00002PRCP06
02-01T09:00:00,4,31.2,107.5,344.0,"DA XIAN, CH",FM-12,99999,V020,"040,1,N,0050,1","99999,9,9,N","007000,1,N,1","+0092,1","+0038,1","10144,1",,,"6,1,03,1",,,"08,99,1,08,1,00,1,99999,9,02,1,99,9",,,,"4,1,000,1,+999,9","60,1",,SYN066AAXX  01091 57328 41957 80405 10092 20038 40144 54000 76060 8802/;,
02-01T12:00:00,4,31.2,107.5,344.0,"DA XIAN, CH",FM-12,99999,V020,"020,1,N,0060,1","99999,9,9,N","006000,1,N,1","+0073,1","+0020,1","10182,1","06,9999,9,9",,"6,1,06,1",,,"08,99,1,08,1,00,1,99999,9,02,1,99,9",,,"99999,9,09765,1","2,1,035,1,+999,9","60,1",,SYN078AAXX  01121 57328 11956 80206 10073 20020 39765 40182 52035 69901 76060 8802/;,
02-01T15:00:00,4,31.2,107.5,344.0,"DA XIAN, CH",FM-12,99999,V020,"040,1,N,0040,1","99999,9,9,N","008000,1,N,1","+0068,1","+0006,1","10207,1",,,"6,1,03,1","6,1,03,1",,"08,99,1,08,1,00,1,99999,9,02,1,99,9",,,,"2,1,024,1,+999,9","60,1",,SYN066AAXX  01151 57328 41958 80404 10068 20006 40207 52024 76066 8802/;,
02-01T18:00:00,4,31.2,107.5,344.0,"DA XIAN, CH",FM-12,99999,V020,"040,1,N,0040,1","99999,9,9,N","008000,1,N,1","+0069,1","-0015,1","10212,1","06,9999,9,9",,"6,1,06,1",,,"08,99,1,08,1,00,1,99999,9,02,1,99,9",,"999,M,+0109,1","99999,9,09796,1","2,1,007,1,+999,9","10,1",,SYN088AAXX  01181 57328 11958 80404 10069 21015 39796 40212 52007 69901 71060 8802/ 333 10109;,
02-01T21:00:00,4,31.2,107.5,344.0,"DA XIAN, CH",FM-12,99999,V020,"020,1,N,0060,1","02100,1,9,N","012000,1,N,1","+0053,1","-0001,1","10217,1","24,0000,2,1",,,,,"08,99,1,08,1,05,1,02250,1,99,9,99,9",,,,"2,1,002,1,+999,9","60,1",,SYN076AAXX  01211 57328 41862 80206 10053 21001 40217 52002 76000 885// 333 79999;,
02-02T00:00:00,4,31.2,107.5,344.0,"DA XIAN, CH",FM-12,99999,V020,"040,1,N,0030,1","99999,9,9,N","020000,1,N,1","+0047,1","-0003,1","10228,1","06,9999,9,9","24,0000,2,1","6,1,06,1",,,"08,99,1,08,1,00,1,99999,9,02,1,99,9","999,+0042,9",,"99999,9,09807,1","2,1,009,1,+060,1","60,1",,SYN100AAXX  02001 57328 11970 80403 10047 21003 39807 40228 52009 69901 76060 8802/ 333 00652 30042 79999;,
02-02T03:00:00,4,31.2,107.5,344.0,"DA XIAN, CH",FM-12,99999,V020,"020,1,N,0050,1","03600,1,9,N","015000,1,N,1","+0034,1","+0011,1","10251,1",,,"6,1,03,1","6,1,03,1",,"08,99,1,01,1,07,1,00800,1,02,1,99,9",,,,"2,1,021,1,+999,9","60,1",,SYN066AAXX  02031 57328 41565 80205 10034 20011 40251 52021 76066 8172/;,
02-02T06:00:00,4,31.2,107.5,344.0,"DA XIAN, CH",FM-12,99999,V020,"040,1,N,0020,1","99999,9,9,N","015000,1,N,1","+0035,1","+0017,1","10218,1","06,0008,9,1",,"6,1,06,1","6,1,06,1",,"08,99,1,08,1,00,1,99999,9,07,1,99,9",,"999,N,+0033,1","99999,9,09796,1","7,1,032,1,+999,9","60,1",,SYN088AAXX  02061 57328 11965 80402 10035 20017 39796 40218 57032 69981 76066 8807/ 333 20033;,
02-02T09:00:00,4,31.2,107.5,344.0,"DA XIAN, CH",FM-12,99999,V020,"040,1,N,0020,1","99999,9,9,N","012000,1,N,1","+0035,1","+0023,1","10217,1",,,"6,1,03,1","6,1,03,1",,"08,99,1,08,1,00,1,99999,9,07,1,99,9",,,,"7,1,002,1,+999,9","60,1",,SYN066AAXX  02091 57328 41962 80402 10035 20023 40217 57002 76066 8807/;,
02-02T12:00:00,4,31.2,107.5,344.0,"DA XIAN, CH",FM-12,99999,V020,"020,1,N,0030,1","03600,1,9,N","015000,1,N,1","+0033,1","+0018,1","10232,1","06,0030,9,1",,"6,1,06,1","6,1,06,1",,"08,99,1,01,1,07,1,00800,1,02,1,99,9",,,"99999,9,09808,1","2,1,014,1,+999,9","60,1",,SYN078AAXX  02121 57328 11565 80203 10033 20018 39808 40232 52014 60031 76066 8172/;,
02-02T15:00:00,4,31.2,107.5,344.0,"DA XIAN, CH",FM-12,99999,V020,"040,1,N,0030,1","99999,9,9,N","020000,1,N,1","+0036,1","-0004,1","10258,1",,,"6,1,03,1","6,1,03,1",,"08,99,1,08,1,00,1,99999,9,02,1,99,9",,,,"2,1,024,1,+999,9","60,1",,SYN066AAXX  02151 57328 41970 80403 10036 21004 40258 52024 76066 8802/;,
02-02T18:00:00,4,31.2,107.5,344.0,"DA XIAN, CH",FM-12,99999,V020,"040,1,N,0060,1","99999,9,9,N","012000,1,N,1","+0018,1","+0005,1","10276,1","06,0010,9,1",,"7,1,06,1","6,1,06,1",,"08,99,1,08,1,00,1,99999,9,02,1,99,9",,"999,M,+0069,1","99999,9,09848,1","2,1,016,1,+999,9","68,1",,SYN088AAXX  02181 57328 11962 80406 10018 20005 39848 40276 52016 60011 76876 8802/ 333 10069;,
02-02T21:00:00,4,31.2,107.5,344.0,"DA XIAN, CH",FM-12,99999,V020,"040,1,N,0050,1","99999,9,9,N","011000,1,N,1","+0014,1","+0006,1","10268,1","24,0069,9,1",,"7,1,03,1","6,1,03,1",,"08,99,1,08,1,00,1,99999,9,02,1,99,9",,,,"7,1,008,1,+999,9","68,1",,SYN076AAXX  02211 57328 41961 80405 10014 20006 40268 57008 76876 8802/ 333 70069;,
02-03T00:00:00,4,31.2,107.5,344.0,"DA XIAN, CH",FM-12,99999,V020,"040,1,N,0010,1","99999,9,9,N","015000,1,N,1","+0019,1","+0008,1","10285,1","06,0020,9,1","24,0071,9,1","7,1,06,1","6,1,06,1",,"08,99,1,08,1,00,1,99999,9,02,1,99,9","999,+0009,9",,"99999,9,09857,1","2,1,017,1,+050,1","60,1",,SYN100AAXX  03001 57328 11965 80401 10019 20008 39857 40285 52017 60021 76076 8802/ 333 00553 30009 70070;,
02-03T03:00:00,4,31.2,107.5,344.0,"DA XIAN, CH",FM-12,99999,V020,"070,1,N,0020,1","99999,9,9,N","020000,1,N,1","+0040,1","+0012,1","10298,1",,,"6,1,03,1",,,"07,99,1,07,1,00,1,99999,9,04,1,99,9",,,,"2,1,014,1,+999,9","00,1",,SYN066AAXX  03031 57328 41970 70702 10040 20012 40298 52014 70060 8704/;,
02-03T06:00:00,4,31.2,107.5,344.0,"DA XIAN, CH",FM-12,99999,V020,"250,1,N,0020,1","01200,1,9,N","030000,1,N,1","+0085,1","+0000,1","10256,1","06,9999,9,9",,"6,1,06,1",,,"06,99,1,05,1,01,1,01250,1,00,1,02,1",,"999,N,+0009,1","99999,9,09833,1","7,1,038,1,+999,9","00,1",,SYN088AAXX  03061 57328 11680 62502 10085 20000 39833 40256 57038 69901 70060 85102 333 20009;,
02-03T09:00:00,4,31.2,107.5,344.0,"DA XIAN, CH",FM-12,99999,V020,"220,1,N,0010,1","99999,9,9,N","025000,1,N,1","+0070,1","+0019,1","10243,1",,,,,,"07,99,1,07,1,00,1,99999,9,04,1,99,9",,,,"7,1,014,1,+999,9",,,SYN060AAXX  03091 57328 42975 72201 10070 20019 40243 57014 8704/;,
02-03T12:00:00,4,31.2,107.5,344.0,"DA XIAN, CH",FM-12,99999,V020,"180,1,N,0010,1","99999,9,9,N","020000,1,N,1","+0061,1","+0022,1","10255,1","06,0000,9,1",,,,,"08,99,1,08,1,00,1,99999,9,02,1,99,9",,,"99999,9,09830,1","2,1,011,1,+999,9",,,SYN066AAXX  03121 57328 32970 81801 10061 20022 39830 40255 52011 8802/;,Q01  00002PRCP06
02-03T15:00:00,4,31.2,107.5,344.0,"DA XIAN, CH",FM-12,99999,V020,"220,1,N,0010,1","99999,9,9,N","015000,1,N,1","+0053,1","+0029,1","10273,1",,,,,,"08,99,1,08,1,00,1,99999,9,02,1,99,9",,,,"2,1,018,1,+999,9",,,SYN060AAXX  03151 57328 42965 82201 10053 20029 40273 52018 8802/;,
02-03T18:00:00,4,31.2,107.5,344.0,"DA XIAN, CH",FM-12,99999,V020,"160,1,N,0010,1","99999,9,9,N","008000,1,N,1","+0046,1","+0029,1","10273,1","06,0000,9,1",,,,,"08,99,1,08,1,00,1,99999,9,02,1,99,9",,"999,M,+0085,1","99999,9,09851,1","2,1,003,1,+999,9","10,1",,SYN082AAXX  03181 57328 31958 81601 10046 20029 39851 40273 52003 71000 8802/ 333 10085;,Q01  00002PRCP06
02-03T21:00:00,4,31.2,107.5,344.0,"DA XIAN, CH",FM-12,99999,V020,"999,9,C,0000,1","99999,9,9,N","006000,1,N,1","+0045,1","+0028,1","10265,1","24,0000,2,1",,,,,"08,99,1,08,1,00,1,99999,9,07,1,99,9",,,,"7,1,009,1,+999,9","10,1",,SYN076AAXX  03211 57328 41956 80000 10045 20028 40265 57009 71000 8807/ 333 70001;,
02-04T00:00:00,4,31.2,107.5,344.0,"DA XIAN, CH",FM-12,99999,V020,"160,1,N,0020,1","99999,9,9,N","005000,1,N,1","+0043,1","+0026,1","10273,1","06,9999,9,9","24,0000,2,1","6,1,06,1",,,"08,99,1,08,1,00,1,99999,9,07,1,99,9","999,+0043,9",,"99999,9,09849,1","2,1,007,1,-010,1","60,1",,SYN100AAXX  04001 57328 11950 81602 10043 20026 39849 40273 52007 69901 76060 8807/ 333 05102 30043 79999;,
02-04T03:00:00,4,31.2,107.5,344.0,"DA XIAN, CH",FM-12,99999,V020,"200,1,N,0010,1","99999,9,9,N","004000,1,N,1","+0067,1","+0029,1","10283,1",,,"6,1,03,1",,,"07,99,1,07,1,00,1,99999,9,04,1,99,9",,,,"2,1,011,1,+999,9","10,1",,SYN066AAXX  04031 57328 41940 72001 10067 20029 40283 52011 71060 8704/;,
02-04T06:00:00,4,31.2,107.5,344.0,"DA XIAN, CH",FM-12,99999,V020,"070,1,N,0010,1","22000,1,9,N","012000,1,N,1","+0097,1","+0011,1","10246,1","06,9999,9,9",,"6,1,06,1",,,"02,99,1,02,1,01,1,01250,1,00,1,00,1",,"999,N,+0042,1","99999,9,09826,1","7,1,034,1,+999,9","00,1",,SYN088AAXX  04061 57328 11662 20701 10097 20011 39826 40246 57034 69901 70060 82100 333 20042;,
02-04T09:00:00,4,31.2,107.5,344.0,"DA XIAN, CH",FM-12,99999,V020,"250,1,N,0010,1","99999,9,9,N","012000,1,N,1","+0090,1","+0019,1","10236,1",,,,,,"08,99,1,08,1,00,1,99999,9,07,1,99,9",,,,"7,1,010,1,+999,9",,,SYN060AAXX  04091 57328 42962 82501 10090 20019 40236 57010 8807/;,
02-04T12:00:00,4,31.2,107.5,344.0,"DA XIAN, CH",FM-12,99999,V020,"999,9,C,0000,1","99999,9,9,N","007000,1,N,1","+0075,1","+0033,1","10269,1","06,9999,9,9",,"6,1,06,1",,,"08,99,1,08,1,00,1,99999,9,07,1,99,9",,,"99999,9,09846,1","2,1,030,1,+999,9","21,1",,SYN078AAXX  04121 57328 11957 80000 10075 20033 39846 40269 52030 69901 72160 8807/;,
02-04T15:00:00,4,31.2,107.5,344.0,"DA XIAN, CH",FM-12,99999,V020,"999,9,C,0000,1","99999,9,9,N","006000,1,N,1","+0061,1","+0038,1","10288,1",,,,,,"07,99,1,07,1,00,1,99999,9,01,1,99,9",,,,"2,1,019,1,+999,9","10,1",,SYN066AAXX  04151 57328 41956 70000 10061 20038 40288 52019 71000 8701/;,
02-04T18:00:00,4,31.2,107.5,344.0,"DA XIAN, CH",FM-12,99999,V020,"140,1,N,0020,1","99999,9,9,N","004000,1,N,1","+0043,1","+0028,1","10292,1","06,0000,2,1",,,,,"07,99,1,07,1,00,1,99999,9,04,1,99,9",,"999,M,+0104,1","99999,9,09870,1","2,1,005,1,+999,9","10,1",,SYN082AAXX  04181 57328 31940 71402 10043 20028 39870 40292 52005 71000 8704/ 333 10104;,
02-04T21:00:00,4,31.2,107.5,344.0,"DA XIAN, CH",FM-12,99999,V020,"070,1,N,0010,1","99999,9,9,N","003000,1,N,1","+0040,1","+0028,1","10288,1","24,0000,2,1",,,,,"08,99,1,08,1,00,1,99999,9,07,1,99,9",,,,"7,1,005,1,+999,9","10,1",,SYN076AAXX  04211 57328 41930 80701 10040 20028 40288 57005 71000 8807/ 333 79999;,
02-05T00:00:00,4,31.2,107.5,344.0,"DA XIAN, CH",FM-12,99999,V020,"999,9,C,0000,1","99999,9,9,N","003000,1,N,1","+0039,1","+0024,1","10300,1","06,9999,9,9","24,0000,2,1","6,1,06,1",,,"08,99,1,08,1,00,1,99999,9,07,1,99,9","999,+0033,9",,"99999,9,09876,1","2,1,011,1,+030,1","21,1",,SYN100AAXX  05001 57328 11930 80000 10039 20024 39876 40300 52011 69901 72160 8807/ 333 00300 30033 79999;,
02-05T03:00:00,4,31.2,107.5,344.0,"DA XIAN, CH",FM-12,99999,V020,"020,1,N,0010,1","99999,9,9,N","006000,1,N,1","+0072,1","+0035,1","10314,1",,,,,,"07,99,1,07,1,00,1,99999,9,04,1,99,9",,,,"2,1,014,1,+999,9","10,1",,SYN066AAXX  05031 57328 41956 70201 10072 20035 40314 52014 71000 8704/;,
02-05T06:00:00,4,31.2,107.5,344.0,"DA XIAN, CH",FM-12,99999,V020,"140,1,N,0020,1","99999,9,9,N","008000,1,N,1","+0088,1","+0035,1","10287,1","06,0000,2,1",,,,,"08,99,1,08,1,00,1,99999,9,07,1,99,9",,"999,N,+0037,1","99999,9,09864,1","7,1,026,1,+999,9","10,1",,SYN082AAXX  05061 57328 31958 81402 10088 20035 39864 40287 57026 71000 8807/ 333 20037;,
02-05T09:00:00,4,31.2,107.5,344.0,"DA XIAN, CH",FM-12,99999,V020,"040,1,N,0040,1","99999,9,9,N","015000,1,N,1","+0074,1","+0027,1","10275,1",,,"6,1,03,1",,,"07,99,1,07,1,00,1,99999,9,04,1,99,9",,,,"7,1,012,1,+999,9","00,1",,SYN066AAXX  05091 57328 41965 70404 10074 20027 40275 57012 70060 8704/;,
02-05T12:00:00,4,31.2,107.5,344.0,"DA XIAN, CH",FM-12,99999,V020,"040,1,N,0020,1","99999,9,9,N","012000,1,N,1","+0060,1","+0029,1","10296,1","06,0005,9,1",,"6,1,06,1",,,"07,99,1,07,1,00,1,99999,9,04,1,99,9",,,"99999,9,09871,1","2,1,019,1,+999,9","00,1",,SYN078AAXX  05121 57328 11962 70402 10060 20029 39871 40296 52019 69951 70060 8704/;,
02-05T15:00:00,4,31.2,107.5,344.0,"DA XIAN, CH",FM-12,99999,V020,"040,1,N,0010,1","22000,1,9,N","008000,1,N,1","+0053,1","+0029,1","10315,1",,,,,"00,1,+99999,9,99,9","00,99,1,00,1,00,1,99999,9,00,1,00,1",,,,"2,1,020,1,+999,9","10,1",,SYN060AAXX  05151 57328 41958 00401 10053 20029 40315 52020 71000;,
02-05T18:00:00,4,31.2,107.5,344.0,"DA XIAN, CH",FM-12,99999,V020,"999,9,C,0000,1","99999,9,9,N","007000,1,N,1","+0045,1","+0025,1","10315,1","06,0000,9,1",,,,,"06,99,1,06,1,00,1,99999,9,04,1,00,1",,"999,M,+0090,1","99999,9,09891,1","4,1,000,1,+999,9","10,1",,SYN082AAXX  05181 57328 31957 60000 10045 20025 39891 40315 54000 71000 86040 333 10090;,Q01  00002PRCP06
02-05T21:00:00,4,31.2,107.5,344.0,"DA XIAN, CH",FM-12,99999,V020,"999,9,C,0000,1","99999,9,9,N","011000,1,N,1","+0040,1","+0028,1","10316,1","24,0005,9,1",,,,,"08,99,1,08,1,00,1,99999,9,02,1,99,9",,,,"4,1,000,1,+999,9",,,SYN070AAXX  05211 57328 42961 80000 10040 20028 40316 54000 8802/ 333 70005;,
02-06T00:00:00,4,31.2,107.5,344.0,"DA XIAN, CH",FM-12,99999,V020,"070,1,N,0010,1","22000,1,9,N","006000,1,N,1","+0035,1","+0028,1","10333,1","06,0000,9,1","24,0005,9,1",,,"00,1,+99999,9,99,9","00,99,1,00,1,00,1,99999,9,00,1,00,1","999,+0027,9",,"99999,9,09906,1","2,1,015,1,+030,1","10,1",,SYN088AAXX  06001 57328 31956 00701 10035 20028 39906 40333 52015 71000 333 00300 30027 70005;,Q01  00002PRCP06
02-06T03:00:00,4,31.2,107.5,344.0,"DA XIAN, CH",FM-12,99999,V020,"020,1,N,0010,1","99999,9,9,N","012000,1,N,1","+0068,1","+0025,1","10349,1",,,,,,"07,99,1,07,1,00,1,99999,9,04,1,99,9",,,,"2,1,017,1,+999,9",,,SYN060AAXX  06031 57328 42962 70201 10068 20025 40349 52017 8704/;,
02-06T06:00:00,4,31.2,107.5,344.0,"DA XIAN, CH",FM-12,99999,V020,"040,1,N,0010,1","99999,9,9,N","030000,1,N,1","+0081,1","+0019,1","10319,1","06,0000,9,1",,,,,"08,99,1,08,1,00,1,99999,9,07,1,99,9",,"999,N,+0032,1","99999,9,09895,1","7,1,028,1,+999,9",,,SYN076AAXX  06061 57328 32980 80401 10081 20019 39895 40319 57028 8807/ 333 20032;,Q01  00002PRCP06
02-06T09:00:00,4,31.2,107.5,344.0,"DA XIAN, CH",FM-12,99999,V020,"020,1,N,0020,1","99999,9,9,N","030000,1,N,1","+0085,1","+0015,1","10296,1",,,,,,"08,99,1,08,1,00,1,99999,9,07,1,99,9",,,,"7,1,022,1,+999,9",,,SYN060AAXX  06091 57328 42980 80202 10085 20015 40296 57022 8807/;,
02-06T12:00:00,4,31.2,107.5,344.0,"DA XIAN, CH",FM-12,99999,V020,"140,1,N,0010,1","99999,9,9,N","012000,1,N,1","+0071,1","+0028,1","10319,1","06,0000,9,1",,,,,"08,99,1,08,1,00,1,99999,9,07,1,99,9",,,"99999,9,09893,1","2,1,020,1,+999,9",,,SYN066AAXX  06121 57328 32962 81401 10071 20028 39893 40319 52020 8807/;,Q01  00002PRCP06
02-06T15:00:00,4,31.2,107.5,344.0,"DA XIAN, CH",FM-12,99999,V020,"040,1,N,0020,1","22000,1,9,N","012000,1,N,1","+0049,1","+0025,1","10329,1",,,,,"00,1,+99999,9,99,9","00,99,1,00,1,00,1,99999,9,00,1,00,1",,,,"2,1,011,1,+999,9",,,SYN054AAXX  06151 57328 42962 00402 10049 20025 40329 52011;,
02-06T18:00:00,4,31.2,107.5,344.0,"DA XIAN, CH",FM-12,99999,V020,"040,1,N,0020,1","99999,9,9,N","008000,1,N,1","+0033,1","+0026,1","10333,1","06,0000,9,1",,,,,"07,99,1,07,1,00,1,99999,9,04,1,99,9",,"999,M,+0088,1","99999,9,09907,1","2,1,003,1,+999,9","10,1",,SYN082AAXX  06181 57328 31958 70402 10033 20026 39907 40333 52003 71000 8704/ 333 10088;,Q01  00002PRCP06
02-06T21:00:00,4,31.2,107.5,344.0,"DA XIAN, CH",FM-12,99999,V020,"999,9,C,0000,1","99999,9,9,N","004000,1,N,1","+0037,1","+0025,1","10327,1",,,,,,"08,99,1,08,1,00,1,99999,9,07,1,99,9",,,,"7,1,005,1,+999,9","10,1",,SYN066AAXX  06211 57328 41940 80000 10037 20025 40327 57005 71000 8807/;,
02-07T00:00:00,4,31.2,107.5,344.0,"DA XIAN, CH",FM-12,99999,V020,"070,1,N,0010,1","99999,9,9,N","004000,1,N,1","+0039,1","+0024,1","10340,1","06,9999,9,9","24,0000,2,1","6,1,06,1",,,"08,99,1,08,1,00,1,99999,9,07,1,99,9","999,+0019,9",,"99999,9,09914,1","2,1,012,1,+010,1","60,1",,SYN100AAXX  07001 57328 11940 80701 10039 20024 39914 40340 52012 69901 76060 8807/ 333 00100 30019 79999;,
02-07T03:00:00,4,31.2,107.5,344.0,"DA XIAN, CH",FM-12,99999,V020,"020,1,N,0010,1","02100,1,9,N","008000,1,N,1","+0057,1","+0033,1","10354,1",,,"6,1,03,1","6,1,03,1",,"08,99,1,08,1,05,1,02250,1,99,9,99,9",,,,"2,1,013,1,+999,9","60,1",,SYN066AAXX  07031 57328 41858 80201 10057 20033 40354 52013 76066 885//;,
02-07T06:00:00,4,31.2,107.5,344.0,"DA XIAN, CH",FM-12,99999,V020,"999,9,C,0000,1","01200,1,9,N","008000,1,N,1","+0088,1","+0033,1","10320,1","06,9999,9,9",,"6,1,06,1",,,"06,99,1,06,1,01,1,01250,1,00,1,00,1",,"999,N,+0031,1","99999,9,09895,1","7,1,032,1,+999,9","21,1",,SYN088AAXX  07061 57328 11658 60000 10088 20033 39895 40320 57032 69901 72160 86100 333 20031;,
02-07T09:00:00,4,31.2,107.5,344.0,"DA XIAN, CH",FM-12,99999,V020,"999,9,C,0000,1","99999,9,9,N","008000,1,N,1","+0083,1","+0042,1","10302,1",,,"6,1,03,1",,,"08,99,1,08,1,00,1,99999,9,07,1,99,9",,,,"7,1,017,1,+999,9","21,1",,SYN066AAXX  07091 57328 41958 80000 10083 20042 40302 57017 72160 8807/;,
02-07T12:00:00,4,31.2,107.5,344.0,"DA XIAN, CH",FM-12,99999,V020,"180,1,N,0010,1","99999,9,9,N","008000,1,N,1","+0065,1","+0037,1","10314,1","06,9999,9,9",,"6,1,06,1",,,"08,99,1,08,1,00,1,99999,9,07,1,99,9",,,"99999,9,09888,1","2,1,010,1,+999,9","10,1",,SYN078AAXX  07121 57328 11958 81801 10065 20037 39888 40314 52010 69901 71060 8807/;,
02-07T15:00:00,4,31.2,107.5,344.0,"DA XIAN, CH",FM-12,99999,V020,"040,1,N,0010,1","22000,1,9,N","006000,1,N,1","+0046,1","+0034,1","10327,1",,,,,"00,1,+99999,9,99,9","00,99,1,00,1,00,1,99999,9,00,1,00,1",,,,"2,1,013,1,+999,9","10,1",,SYN060AAXX  07151 57328 41956 00401 10046 20034 40327 52013 71000;,
02-07T18:00:00,4,31.2,107.5,344.0,"DA XIAN, CH",FM-12,99999,V020,"090,1,N,0010,1","22000,1,9,N","004000,1,N,1","+0031,1","+0026,1","10325,1","06,0000,9,1",,,,"00,1,+99999,9,99,9","00,99,1,00,1,00,1,99999,9,00,1,00,1",,"999,M,+0093,1","99999,9,09900,1","7,1,001,1,+999,9","10,1",,SYN076AAXX  07181 57328 31940 00901 10031 20026 39900 40325 57001 71000 333 10093;,Q01  00002PRCP06
02-07T21:00:00,4,31.2,107.5,344.0,"DA XIAN, CH",FM-12,99999,V020,"999,9,C,0000,1","99999,9,9,N","001200,1,N,1","+0023,1","+0020,1","10312,1","24,0000,2,1",,,,,"08,99,1,08,1,00,1,99999,9,07,1,99,9",,,,"7,1,013,1,+999,9","10,1",,SYN076AAXX  07211 57328 41912 80000 10023 20020 40312 57013 71000 8807/ 333 79999;,
02-08T00:00:00,4,31.2,107.5,344.0,"DA XIAN, CH",FM-12,99999,V020,"040,1,N,0010,1","99999,9,9,N","002000,1,N,1","+0031,1","+0029,1","10311,1","06,0000,9,1","24,0000,2,1",,,,"08,99,1,08,1,00,1,99999,9,07,1,99,9","999,+0016,9",,"99999,9,09885,1","7,1,002,1,-030,1","10,1",,SYN094AAXX  08001 57328 31920 80401 10031 20029 39885 40311 57002 71000 8807/ 333 05351 30016 79999;,Q01  00002PRCP06
02-08T03:00:00,4,31.2,107.5,344.0,"DA XIAN, CH",FM-12,99999,V020,"020,1,N,0010,1","99999,9,9,N","003000,1,N,1","+0055,1","+0036,1","10320,1",,,,,,"08,99,1,08,1,00,1,99999,9,07,1,99,9",,,,"2,1,009,1,+999,9","10,1",,SYN066AAXX  08031 57328 41930 80201 10055 20036 40320 52009 71000 8807/;,
02-08T06:00:00,4,31.2,107.5,344.0,"DA XIAN, CH",FM-12,99999,V020,"250,1,N,0020,1","03600,1,9,N","007000,1,N,1","+0089,1","+0026,1","10291,1","06,0000,9,1",,,,,"07,99,1,02,1,01,1,00800,1,04,1,99,9",,"999,N,+0018,1","99999,9,09867,1","7,1,027,1,+999,9","10,1",,SYN082AAXX  08061 57328 31557 72502 10089 20026 39867 40291 57027 71000 8214/ 333 20018;,Q01  00002PRCP06
02-08T09:00:00,4,31.2,107.5,344.0,"DA XIAN, CH",FM-12,99999,V020,"999,9,C,0000,1","99999,9,9,N","008000,1,N,1","+0092,1","+0035,1","10276,1",,,,,,"07,99,1,07,1,00,1,99999,9,04,1,99,9",,,,"7,1,014,1,+999,9","10,1",,SYN066AAXX  08091 57328 41958 70000 10092 20035 40276 57014 71000 8704/;,
02-08T12:00:00,4,31.2,107.5,344.0,"DA XIAN, CH",FM-12,99999,V020,"040,1,N,0010,1","22000,1,9,N","004000,1,N,1","+0061,1","+0033,1","10278,1","06,0000,9,1",,,,"00,1,+99999,9,99,9","00,99,1,00,1,00,1,99999,9,00,1,00,1",,,"99999,9,09853,1","4,1,000,1,+999,9","10,1",,SYN066AAXX  08121 57328 31940 00401 10061 20033 39853 40278 54000 71000;,Q01  00002PRCP06
02-08T15:00:00,4,31.2,107.5,344.0,"DA XIAN, CH",FM-12,99999,V020,"040,1,N,0010,1","22000,1,9,N","003000,1,N,1","+0038,1","+0026,1","10287,1",,,,,"00,1,+99999,9,99,9","00,99,1,00,1,00,1,99999,9,00,1,00,1",,,,"2,1,009,1,+999,9","10,1",,SYN060AAXX  08151 57328 41930 00401 10038 20026 40287 52009 71000;,
02-08T18:00:00,4,31.2,107.5,344.0,"DA XIAN, CH",FM-12,99999,V020,"040,1,N,0030,1","22000,1,9,N","003000,1,N,1","+0024,1","+0019,1","10288,1","06,0000,9,1",,,,"00,1,+99999,9,99,9","00,99,1,00,1,00,1,99999,9,00,1,00,1",,"999,M,+0094,1","99999,9,09864,1","2,1,002,1,+999,9","10,1",,SYN076AAXX  08181 57328 31930 00403 10024 20019 39864 40288 52002 71000 333 10094;,Q01  00002PRCP06
02-08T21:00:00,4,31.2,107.5,344.0,"DA XIAN, CH",FM-12,99999,V020,"070,1,N,0030,1","22000,1,9,N","001500,1,N,1","+0014,1","+0009,1","10278,1",,,,,"00,1,+99999,9,99,9","00,99,1,00,1,00,1,99999,9,00,1,00,1",,,,"7,1,010,1,+999,9","10,1",,SYN060AAXX  08211 57328 41915 00703 10014 20009 40278 57010 71000;,
02-09T00:00:00,4,31.2,107.5,344.0,"DA XIAN, CH",FM-12,99999,V020,"040,1,N,0030,1","99999,9,9,N","003000,1,N,1","+0016,1","+0011,1","10282,1","06,0000,9,1",,,,,"08,99,1,08,1,00,1,99999,9,07,1,99,9","999,+0000,9",,"99999,9,09856,1","2,1,002,1,-030,1","10,1",,SYN088AAXX  09001 57328 31930 80403 10016 20011 39856 40282 52002 71000 8807/ 333 05352 30004;,Q01  00002PRCP06
02-09T03:00:00,4,31.2,107.5,344.0,"DA XIAN, CH",FM-12,99999,V020,"040,1,N,0020,1","99999,9,9,N","005000,1,N,1","+0042,1","+0020,1","10296,1",,,,,,"08,99,1,08,1,00,1,99999,9,07,1,99,9",,,,"2,1,013,1,+999,9","10,1",,SYN066AAXX  09031 57328 41950 80402 10042 20020 40296 52013 71000 8807/;,
02-09T06:00:00,4,31.2,107.5,344.0,"DA XIAN, CH",FM-12,99999,V020,"040,1,N,0020,1","99999,9,9,N","008000,1,N,1","+0075,1","+0017,1","10274,1","06,0000,9,1",,,,,"08,99,1,08,1,00,1,99999,9,07,1,99,9",,"999,N,+0008,1","99999,9,09850,1","7,1,019,1,+999,9","10,1",,SYN082AAXX  09061 57328 31958 80402 10075 20017 39850 40274 57019 71000 8807/ 333 20008;,Q01  00002PRCP06
02-09T09:00:00,4,31.2,107.5,344.0,"DA XIAN, CH",FM-12,99999,V020,"360,1,N,0010,1","99999,9,9,N","008000,1,N,1","+0091,1","+0031,1","10261,1",,,,,,"08,99,1,08,1,00,1,99999,9,07,1,99,9",,,,"7,1,012,1,+999,9","10,1",,SYN066AAXX  09091 57328 41958 83601 10091 20031 40261 57012 71000 8807/;,
02-09T12:00:00,4,31.2,107.5,344.0,"DA XIAN, CH",FM-12,99999,V020,"020,1,N,0010,1","99999,9,9,N","005000,1,N,1","+0075,1","+0038,1","10275,1","06,0000,9,1",,,,,"06,99,1,06,1,00,1,99999,9,04,1,00,1",,,"99999,9,09850,1","2,1,012,1,+999,9","10,1",,SYN072AAXX  09121 57328 31950 60201 10075 20038 39850 40275 52012 71000 86040;,Q01  00002PRCP06
02-09T15:00:00,4,31.2,107.5,344.0,"DA XIAN, CH",FM-12,99999,V020,"999,9,C,0000,1","02100,1,9,N","003000,1,N,1","+0071,1","+0034,1","10294,1",,,,,,"08,99,1,08,1,05,1,02250,1,99,9,99,9",,,,"2,1,020,1,+999,9","10,1",,SYN066AAXX  09151 57328 41830 80000 10071 20034 40294 52020 71000 885//;,
02-09T18:00:00,4,31.2,107.5,344.0,"DA XIAN, CH",FM-12,99999,V020,"040,1,N,0020,1","99999,9,9,N","002000,1,N,1","+0053,1","+0034,1","10293,1","06,0000,9,1",,,,,"08,99,1,08,1,00,1,99999,9,07,1,99,9",,"999,M,+0092,1","99999,9,09870,1","4,1,000,1,+999,9","10,1",,SYN082AAXX  09181 57328 31920 80402 10053 20034 39870 40293 54000 71000 8807/ 333 10092;,Q01  00002PRCP06
02-09T21:00:00,4,31.2,107.5,344.0,"DA XIAN, CH",FM-12,99999,V020,"180,1,N,0010,1","99999,9,9,N","004000,1,N,1","+0045,1","+0031,1","10268,1",,,,,,"07,99,1,07,1,00,1,99999,9,04,1,99,9",,,,"7,1,023,1,+999,9","10,1",,SYN066AAXX  09211 57328 41940 71801 10045 20031 40268 57023 71000 8704/;,
02-10T00:00:00,4,31.2,107.5,344.0,"DA XIAN, CH",FM-12,99999,V020,"999,9,C,0000,1","99999,9,9,N","001500,1,N,1","+0035,1","+0030,1","10288,1","06,0000,9,1",,,,,"08,99,1,08,1,00,1,99999,9,07,1,99,9","999,+0010,9",,"99999,9,09864,1","2,1,017,1,+010,1","10,1",,SYN088AAXX  10001 57328 31915 80000 10035 20030 39864 40288 52017 71000 8807/ 333 00102 30018;,Q01  00002PRCP06
02-10T03:00:00,4,31.2,107.5,344.0,"DA XIAN, CH",FM-12,99999,V020,"360,1,N,0030,1","99999,9,9,N","002000,1,N,1","+0059,1","+0030,1","10291,1",,,,,,"08,99,1,08,1,00,1,99999,9,02,1,99,9",,,,"2,1,004,1,+999,9","10,1",,SYN066AAXX  10031 57328 41920 83603 10059 20030 40291 52004 71000 8802/;,
02-10T06:00:00,4,31.2,107.5,344.0,"DA XIAN, CH",FM-12,99999,V020,"250,1,N,0010,1","99999,9,9,N","003000,1,N,1","+0086,1","+0041,1","10259,1","06,0000,9,1",,,,,"08,99,1,08,1,00,1,99999,9,07,1,99,9",,"999,N,+0031,1","99999,9,09838,1","7,1,030,1,+999,9","10,1",,SYN082AAXX  10061 57328 31930 82501 10086 20041 39838 40259 57030 71000 8807/ 333 20031;,Q01  00002PRCP06
02-10T09:00:00,4,31.2,107.5,344.0,"DA XIAN, CH",FM-12,99999,V020,"040,1,N,0010,1","99999,9,9,N","007000,1,N,1","+0097,1","+0033,1","10223,1",,,,,,"08,99,1,08,1,00,1,99999,9,07,1,99,9",,,,"7,1,034,1,+999,9","10,1",,SYN066AAXX  10091 57328 41957 80401 10097 20033 40223 57034 71000 8807/;,
02-10T12:00:00,4,31.2,107.5,344.0,"DA XIAN, CH",FM-12,99999,V020,"999,9,C,0000,1","99999,9,9,N","006000,1,N,1","+0080,1","+0042,1","10228,1","06,0000,9,1",,,,,"07,99,1,07,1,00,1,99999,9,04,1,99,9",,,"99999,9,09807,1","2,1,003,1,+999,9","10,1",,SYN072AAXX  10121 57328 31956 70000 10080 20042 39807 40228 52003 71000 8704/;,Q01  00002PRCP06
02-10T15:00:00,4,31.2,107.5,344.0,"DA XIAN, CH",FM-12,99999,V020,"999,9,C,0000,1","99999,9,9,N","005000,1,N,1","+0069,1","+0046,1","10241,1",,,,,,"08,99,1,08,1,00,1,99999,9,07,1,99,9",,,,"2,1,013,1,+999,9","10,1",,SYN066AAXX  10151 57328 41950 80000 10069 20046 40241 52013 71000 8807/;,
02-10T18:00:00,4,31.2,107.5,344.0,"DA XIAN, CH",FM-12,99999,V020,"999,9,C,0000,1","99999,9,9,N","004000,1,N,1","+0066,1","+0046,1","10239,1","06,0000,9,1",,,,,"08,99,1,08,1,00,1,99999,9,07,1,99,9",,"999,M,+0097,1","99999,9,09820,1","4,1,000,1,+999,9","10,1",,SYN082AAXX  10181 57328 31940 80000 10066 20046 39820 40239 54000 71000 8807/ 333 10097;,Q01  00002PRCP06
02-10T21:00:00,4,31.2,107.5,344.0,"DA XIAN, CH",FM-12,99999,V020,"999,9,C,0000,1","99999,9,9,N","003000,1,N,1","+0066,1","+0046,1","10233,1",,,,,,"08,99,1,08,1,00,1,99999,9,07,1,99,9",,,,"7,1,005,1,+999,9","10,1",,SYN066AAXX  10211 57328 41930 80000 10066 20046 40233 57005 71000 8807/;,
02-11T00:00:00,4,31.2,107.5,344.0,"DA XIAN, CH",FM-12,99999,V020,"999,9,C,0000,1","99999,9,9,N","002000,1,N,1","+0067,1","+0049,1","10259,1","06,0000,9,1",,,,,"08,99,1,08,1,00,1,99999,9,07,1,99,9","999,+0040,9",,"99999,9,09839,1","2,1,024,1,-030,1","10,1",,SYN088AAXX  11001 57328 31920 80000 10067 20049 39839 40259 52024 71000 8807/ 333 05303 30047;,Q01  00002PRCP06
02-11T03:00:00,4,31.2,107.5,344.0,"DA XIAN, CH",FM-12,99999,V020,"999,9,C,0000,1","99999,9,9,N","001500,1,N,1","+0074,1","+0052,1","10284,1",,,,,,"08,99,1,08,1,00,1,99999,9,07,1,99,9",,,,"2,1,023,1,+999,9","10,1",,SYN066AAXX  11031 57328 41915 80000 10074 20052 40284 52023 71000 8807/;,
02-11T06:00:00,4,31.2,107.5,344.0,"DA XIAN, CH",FM-12,99999,V020,"180,1,N,0010,1","99999,9,9,N","002000,1,N,1","+0089,1","+0056,1","10278,1","06,0000,9,1",,,,,"08,99,1,08,1,00,1,99999,9,02,1,99,9",,"999,N,+0062,1","99999,9,09858,1","7,1,004,1,+999,9","10,1",,SYN082AAXX  11061 57328 31920 81801 10089 20056 39858 40278 57004 71000 8802/ 333 20062;,Q01  00002PRCP06
02-11T09:00:00,4,31.2,107.5,344.0,"DA XIAN, CH",FM-12,99999,V020,"999,9,C,0000,1","99999,9,9,N","003000,1,N,1","+0103,1","+0060,1","10274,1",,,,,,"08,99,1,08,1,00,1,99999,9,02,1,99,9",,,,"7,1,003,1,+999,9","10,1",,SYN066AAXX  11091 57328 41930 80000 10103 20060 40274 57003 71000 8802/;,
02-11T12:00:00,4,31.2,107.5,344.0,"DA XIAN, CH",FM-12,99999,V020,"999,9,C,0000,1","99999,9,9,N","002000,1,N,1","+0091,1","+0056,1","10298,1","06,0000,9,1",,,,,"08,99,1,08,1,00,1,99999,9,02,1,99,9",,,"99999,9,09877,1","2,1,022,1,+999,9","10,1",,SYN072AAXX  11121 57328 31920 80000 10091 20056 39877 40298 52022 71000 8802/;,Q01  00002PRCP06
02-11T15:00:00,4,31.2,107.5,344.0,"DA XIAN, CH",FM-12,99999,V020,"999,9,C,0000,1","99999,9,9,N","002000,1,N,1","+0065,1","+0051,1","10327,1",,,,,,"08,99,1,08,1,00,1,99999,9,02,1,99,9",,,,"2,1,026,1,+999,9","10,1",,SYN066AAXX  11151 57328 41920 80000 10065 20051 40327 52026 71000 8802/;,
02-11T18:00:00,4,31.2,107.5,344.0,"DA XIAN, CH",FM-12,99999,V020,"040,1,N,0030,1","99999,9,9,N","002000,1,N,1","+0047,1","+0042,1","10328,1","06,0000,9,1",,,,,"05,99,1,05,1,00,1,99999,9,04,1,00,1",,"999,M,+0103,1","99999,9,09904,1","2,1,001,1,+999,9","10,1",,SYN082AAXX  11181 57328 31920 50403 10047 20042 39904 40328 52001 71000 85040 333 10103;,Q01  00002PRCP06
02-11T21:00:00,4,31.2,107.5,344.0,"DA XIAN, CH",FM-12,99999,V020,"040,1,N,0030,1","99999,9,9,N","002000,1,N,1","+0045,1","+0035,1","10314,1",,,,,,"08,99,1,08,1,00,1,99999,9,02,1,99,9",,,,"7,1,012,1,+999,9","10,1",,SYN066AAXX  11211 57328 41920 80403 10045 20035 40314 57012 71000 8802/;,
02-12T00:00:00,4,31.2,107.5,344.0,"DA XIAN, CH",FM-12,99999,V020,"020,1,N,0010,1","99999,9,9,N","002000,1,N,1","+0050,1","+0041,1","10334,1","06,0000,9,1",,,,,"08,99,1,08,1,00,1,99999,9,02,1,99,9","999,+0030,9",,"99999,9,09910,1","2,1,018,1,+070,1","10,1",,SYN088AAXX  12001 57328 31920 80201 10050 20041 39910 40334 52018 71000 8802/ 333 00752 30033;,Q01  00002PRCP06
02-12T03:00:00,4,31.2,107.5,344.0,"DA XIAN, CH",FM-12,99999,V020,"999,9,C,0000,1","99999,9,9,N","003000,1,N,1","+0074,1","+0052,1","10347,1",,,,,,"07,99,1,07,1,00,1,99999,9,04,1,99,9",,,,"2,1,013,1,+999,9","10,1",,SYN066AAXX  12031 57328 41930 70000 10074 20052 40347 52013 71000 8704/;,
02-12T06:00:00,4,31.2,107.5,344.0,"DA XIAN, CH",FM-12,99999,V020,"160,1,N,0010,1","99999,9,9,N","003000,1,N,1","+0114,1","+0061,1","10326,1","06,0000,9,1",,,,,"07,99,1,07,1,00,1,99999,9,01,1,99,9",,"999,N,+0043,1","99999,9,09904,1","7,1,019,1,+999,9","10,1",,SYN082AAXX  12061 57328 31930 71601 10114 20061 39904 40326 57019 71000 8701/ 333 20043;,Q01  00002PRCP06
02-12T09:00:00,4,31.2,107.5,344.0,"DA XIAN, CH",FM-12,99999,V020,"200,1,N,0010,1","22000,1,9,N","003000,1,N,1","+0124,1","+0059,1","10315,1",,,,,,"02,99,1,00,1,00,1,99999,9,00,1,01,1",,,,"7,1,010,1,+999,9","10,1",,SYN066AAXX  12091 57328 41930 22001 10124 20059 40315 57010 71000 80001;,
02-12T12:00:00,4,31.2,107.5,344.0,"DA XIAN, CH",FM-12,99999,V020,"180,1,N,0010,1","99999,9,9,N","003000,1,N,1","+0096,1","+0064,1","10332,1","06,0000,9,1",,,,,"08,99,1,08,1,00,1,99999,9,07,1,99,9",,,"99999,9,09909,1","2,1,015,1,+999,9","10,1",,SYN072AAXX  12121 57328 31930 81801 10096 20064 39909 40332 52015 71000 8807/;,Q01  00002PRCP06
02-12T15:00:00,4,31.2,107.5,344.0,"DA XIAN, CH",FM-12,99999,V020,"999,9,C,0000,1","99999,9,9,N","003000,1,N,1","+0086,1","+0067,1","10341,1",,,,,,"08,99,1,08,1,00,1,99999,9,07,1,99,9",,,,"2,1,009,1,+999,9","10,1",,SYN066AAXX  12151 57328 41930 80000 10086 20067 40341 52009 71000 8807/;,
02-12T18:00:00,4,31.2,107.5,344.0,"DA XIAN, CH",FM-12,99999,V020,"999,9,C,0000,1","99999,9,9,N","003000,1,N,1","+0084,1","+0062,1","10334,1","06,0000,9,1",,,,,"08,99,1,08,1,00,1,99999,9,07,1,99,9",,"999,M,+0125,1","99999,9,09914,1","7,1,004,1,+999,9","10,1",,SYN082AAXX  12181 57328 31930 80000 10084 20062 39914 40334 57004 71000 8807/ 333 10125;,Q01  00002PRCP06
02-12T21:00:00,4,31.2,107.5,344.0,"DA XIAN, CH",FM-12,99999,V020,"999,9,C,0000,1","99999,9,9,N","002000,1,N,1","+0074,1","+0059,1","10317,1",,,,,,"08,99,1,08,1,00,1,99999,9,07,1,99,9",,,,"7,1,016,1,+999,9","10,1",,SYN066AAXX  12211 57328 41920 80000 10074 20059 40317 57016 71000 8807/;,
02-13T00:00:00,4,31.2,107.5,344.0,"DA XIAN, CH",FM-12,99999,V020,"999,9,C,0000,1","99999,9,9,N","002000,1,N,1","+0065,1","+0056,1","10320,1","06,0000,9,1",,,,,"08,99,1,08,1,00,1,99999,9,07,1,99,9","999,+0000,9",,"99999,9,09898,1","4,1,000,1,-010,1","10,1",,SYN088AAXX  13001 57328 31920 80000 10065 20056 39898 40320 54000 71000 8807/ 333 05102 30005;,Q01  00002PRCP06
02-13T03:00:00,4,31.2,107.5,344.0,"DA XIAN, CH",FM-12,99999,V020,"040,1,N,0010,1","99999,9,9,N","004000,1,N,1","+0089,1","+0054,1","10313,1",,,,,,"07,99,1,07,1,00,1,99999,9,04,1,99,9",,,,"7,1,005,1,+999,9","10,1",,SYN066AAXX  13031 57328 41940 70401 10089 20054 40313 57005 71000 8704/;,
02-13T06:00:00,4,31.2,107.5,344.0,"DA XIAN, CH",FM-12,99999,V020,"999,9,C,0000,1","22000,1,9,N","007000,1,N,1","+0120,1","+0049,1","10263,1","06,0000,9,1",,,,,"01,99,1,01,1,00,1,99999,9,04,1,00,1",,"999,N,+0061,1","99999,9,09847,1","7,1,046,1,+999,9","10,1",,SYN082AAXX  13061 57328 31957 10000 10120 20049 39847 40263 57046 71000 81040 333 20061;,Q01  00002PRCP06
02-13T09:00:00,4,31.2,107.5,344.0,"DA XIAN, CH",FM-12,99999,V020,"320,1,N,0010,1","22000,1,9,N","020000,1,N,1","+0142,1","+0052,1","10228,1",,,,,"00,1,+99999,9,99,9","00,99,1,00,1,00,1,99999,9,00,1,00,1",,,,"7,1,033,1,+999,9",,,SYN054AAXX  13091 57328 42970 03201 10142 20052 40228 57033;,
02-13T12:00:00,4,31.2,107.5,344.0,"DA XIAN, CH",FM-12,99999,V020,"040,1,N,0010,1","22000,1,9,N","008000,1,N,1","+0101,1","+0054,1","10222,1","06,0000,9,1",,,,"00,1,+99999,9,99,9","00,99,1,00,1,00,1,99999,9,00,1,00,1",,,"99999,9,09805,1","7,1,009,1,+999,9","10,1",,SYN066AAXX  13121 57328 31958 00401 10101 20054 39805 40222 57009 71000;,Q01  00002PRCP06
02-13T15:00:00,4,31.2,107.5,344.0,"DA XIAN, CH",FM-12,99999,V020,"040,1,N,0030,1","22000,1,9,N","004000,1,N,1","+0067,1","+0049,1","10223,1",,,,,"00,1,+99999,9,99,9","00,99,1,00,1,00,1,99999,9,00,1,00,1",,,,"4,1,000,1,+999,9","10,1",,SYN060AAXX  13151 57328 41940 00403 10067 20049 40223 54000 71000;,
02-13T18:00:00,4,31.2,107.5,344.0,"DA XIAN, CH",FM-12,99999,V020,"040,1,N,0020,1","22000,1,9,N","003000,1,N,1","+0053,1","+0041,1","10212,1","06,0000,9,1",,,,"00,1,+99999,9,99,9","00,99,1,00,1,00,1,99999,9,00,1,00,1",,"999,M,+0144,1","99999,9,09796,1","7,1,009,1,+999,9","10,1",,SYN076AAXX  13181 57328 31930 00402 10053 20041 39796 40212 57009 71000 333 10144;,Q01  00002PRCP06
02-13T21:00:00,4,31.2,107.5,344.0,"DA XIAN, CH",FM-12,99999,V020,"040,1,N,0040,1","22000,1,9,N","004000,1,N,1","+0045,1","+0026,1","10196,1",,,,,"00,1,+99999,9,99,9","00,99,1,00,1,00,1,99999,9,00,1,00,1",,,,"7,1,015,1,+999,9","10,1",,SYN060AAXX  13211 57328 41940 00404 10045 20026 40196 57015 71000;,
02-14T00:00:00,4,31.2,107.5,344.0,"DA XIAN, CH",FM-12,99999,V020,"020,1,N,0010,1","22000,1,9,N","004000,1,N,1","+0033,1","+0026,1","10207,1","06,0000,9,1",,,,"00,1,+99999,9,99,9","00,99,1,00,1,00,1,99999,9,00,1,00,1","999,+0020,9",,"99999,9,09788,1","2,1,007,1,-110,1","10,1",,SYN082AAXX  14001 57328 31940 00201 10033 20026 39788 40207 52007 71000 333 06153 30020;,Q01  00002PRCP06
02-14T03:00:00,4,31.2,107.5,344.0,"DA XIAN, CH",FM-12,99999,V020,"999,9,C,0000,1","22000,1,9,N","006000,1,N,1","+0093,1","+0034,1","10213,1",,,,,"00,1,+99999,9,99,9","00,99,1,00,1,00,1,99999,9,00,1,00,1",,,,"2,1,008,1,+999,9","10,1",,SYN060AAXX  14031 57328 41956 00000 10093 20034 40213 52008 71000;,
02-14T06:00:00,4,31.2,107.5,344.0,"DA XIAN, CH",FM-12,99999,V020,"200,1,N,0010,1","22000,1,9,N","010000,1,N,1","+0175,1","+0030,1","10171,1","06,0000,9,1",,,,"00,1,+99999,9,99,9","00,99,1,00,1,00,1,99999,9,00,1,00,1",,"999,N,+0030,1","99999,9,09760,1","7,1,036,1,+999,9",,,SYN070AAXX  14061 57328 32960 02001 10175 20030 39760 40171 57036 333 20030;,Q01  00002PRCP06
02-14T09:00:00,4,31.2,107.5,344.0,"DA XIAN, CH",FM-12,99999,V020,"999,9,C,0000,1","22000,1,9,N","010000,1,N,1","+0199,1","+0039,1","10136,1",,,,,"00,1,+99999,9,99,9","00,99,1,00,1,00,1,99999,9,00,1,00,1",,,,"7,1,032,1,+999,9",,,SYN054AAXX  14091 57328 42960 00000 10199 20039 40136 57032;,
02-14T12:00:00,4,31.2,107.5,344.0,"DA XIAN, CH",FM-12,99999,V020,"020,1,N,0010,1","22000,1,9,N","010000,1,N,1","+0133,1","+0053,1","10142,1","06,0000,9,1",,,,"00,1,+99999,9,99,9","00,99,1,00,1,00,1,99999,9,00,1,00,1",,,"99999,9,09728,1","4,1,000,1,+999,9",,,SYN060AAXX  14121 57328 32960 00201 10133 20053 39728 40142 54000;,Q01  00002PRCP06
02-14T15:00:00,4,31.2,107.5,344.0,"DA XIAN, CH",FM-12,99999,V020,"040,1,N,0040,1","22000,1,9,N","008000,1,N,1","+0085,1","+0055,1","10146,1",,,,,"00,1,+99999,9,99,9","00,99,1,00,1,00,1,99999,9,00,1,00,1",,,,"2,1,005,1,+999,9","10,1",,SYN060AAXX  14151 57328 41958 00404 10085 20055 40146 52005 71000;,
02-14T18:00:00,4,31.2,107.5,344.0,"DA XIAN, CH",FM-12,99999,V020,"020,1,N,0010,1","22000,1,9,N","006000,1,N,1","+0069,1","+0047,1","10133,1","06,0000,9,1",,,,"00,1,+99999,9,99,9","00,99,1,00,1,00,1,99999,9,00,1,00,1",,"999,M,+0201,1","99999,9,09725,1","7,1,008,1,+999,9","10,1",,SYN076AAXX  14181 57328 31956 00201 10069 20047 39725 40133 57008 71000 333 10201;,Q01  00002PRCP06
02-14T21:00:00,4,31.2,107.5,344.0,"DA XIAN, CH",FM-12,99999,V020,"040,1,N,0010,1","22000,1,9,N","008000,1,N,1","+0059,1","+0036,1","10118,1",,,,,"00,1,+99999,9,99,9","00,99,1,00,1,00,1,99999,9,00,1,00,1",,,,"7,1,014,1,+999,9","10,1",,SYN060AAXX  14211 57328 41958 00401 10059 20036 40118 57014 71000;,
02-15T00:00:00,4,31.2,107.5,344.0,"DA XIAN, CH",FM-12,99999,V020,"160,1,N,0010,1","22000,1,9,N","005000,1,N,1","+0058,1","+0037,1","10133,1","06,0000,9,1",,,,"00,1,+99999,9,99,9","00,99,1,00,1,00,1,99999,9,00,1,00,1","999,+0030,9",,"99999,9,09721,1","2,1,010,1,-070,1","10,1",,SYN082AAXX  15001 57328 31950 01601 10058 20037 39721 40133 52010 71000 333 05703 30038;,Q01  00002PRCP06
02-15T03:00:00,4,31.2,107.5,344.0,"DA XIAN, CH",FM-12,99999,V020,"320,1,N,0010,1","22000,1,9,N","003000,1,N,1","+0111,1","+0056,1","10147,1",,,,,"00,1,+99999,9,99,9","00,99,1,00,1,00,1,99999,9,00,1,00,1",,,,"2,1,014,1,+999,9","10,1",,SYN060AAXX  15031 57328 41930 03201 10111 20056 40147 52014 71000;,
02-15T06:00:00,4,31.2,107.5,344.0,"DA XIAN, CH",FM-12,99999,V020,"999,9,C,0000,1","22000,1,9,N","006000,1,N,1","+0176,1","+0078,1","10113,1","06,0000,9,1",,,,"00,1,+99999,9,99,9","00,99,1,00,1,00,1,99999,9,00,1,00,1",,"999,N,+0052,1","99999,9,09706,1","7,1,029,1,+999,9","10,1",,SYN076AAXX  15061 57328 31956 00000 10176 20078 39706 40113 57029 71000 333 20052;,Q01  00002PRCP06
02-15T09:00:00,4,31.2,107.5,344.0,"DA XIAN, CH",FM-12,99999,V020,"999,9,C,0000,1","22000,1,9,N","015000,1,N,1","+0215,1","+0075,1","10095,1",,,,,"00,1,+99999,9,99,9","00,99,1,00,1,00,1,99999,9,00,1,00,1",,,,"7,1,016,1,+999,9",,,SYN054AAXX  15091 57328 42965 00000 10215 20075 40095 57016;,
02-15T12:00:00,4,31.2,107.5,344.0,"DA XIAN, CH",FM-12,99999,V020,"999,9,C,0000,1","22000,1,9,N","006000,1,N,1","+0151,1","+0076,1","10121,1","06,0000,9,1",,,,"00,1,+99999,9,99,9","00,99,1,00,1,00,1,99999,9,00,1,00,1",,,"99999,9,09711,1","2,1,021,1,+999,9","10,1",,SYN066AAXX  15121 57328 31956 00000 10151 20076 39711 40121 52021 71000;,Q01  00002PRCP06
02-15T15:00:00,4,31.2,107.5,344.0,"DA XIAN, CH",FM-12,99999,V020,"020,1,N,0020,1","22000,1,9,N","006000,1,N,1","+0107,1","+0061,1","10147,1",,,,,"00,1,+99999,9,99,9","00,99,1,00,1,00,1,99999,9,00,1,00,1",,,,"2,1,025,1,+999,9","10,1",,SYN060AAXX  15151 57328 41956 00202 10107 20061 40147 52025 71000;,
02-15T18:00:00,4,31.2,107.5,344.0,"DA XIAN, CH",FM-12,99999,V020,"360,1,N,0010,1","99999,9,9,N","006000,1,N,1","+0104,1","+0060,1","10150,1","06,0000,9,1",,,,,"08,99,1,08,1,00,1,99999,9,07,1,99,9",,"999,M,+0216,1","99999,9,09744,1","2,1,008,1,+999,9","10,1",,SYN082AAXX  15181 57328 31956 83601 10104 20060 39744 40150 52008 71000 8807/ 333 10216;,Q01  00002PRCP06
02-15T21:00:00,4,31.2,107.5,344.0,"DA XIAN, CH",FM-12,99999,V020,"160,1,N,0020,1","02100,1,9,N","006000,1,N,1","+0115,1","+0070,1","10162,1","24,0003,9,1",,"6,1,03,1",,,"08,99,1,08,1,05,1,02250,1,99,9,99,9",,,,"2,1,015,1,+999,9","60,1",,SYN076AAXX  15211 57328 41856 81602 10115 20070 40162 52015 76060 885// 333 70002;,
02-16T00:00:00,4,31.2,107.5,344.0,"DA XIAN, CH",FM-12,99999,V020,"020,1,N,0040,1","02100,1,9,N","020000,1,N,1","+0133,1","+0043,1","10198,1","06,0005,9,1","24,0005,9,1","6,1,06,1",,,"08,99,1,08,1,05,1,02250,1,99,9,99,9",,,"99999,9,09790,1","2,1,031,1,+070,1","60,1",,SYN094AAXX  16001 57328 11870 80204 10133 20043 39790 40198 52031 69951 76060 885// 333 00708 70005;,
02-16T03:00:00,4,31.2,107.5,344.0,"DA XIAN, CH",FM-12,99999,V020,"040,1,N,0040,1","02100,1,9,N","015000,1,N,1","+0118,1","+0047,1","10244,1",,,"6,1,03,1","6,1,03,1",,"08,99,1,08,1,05,1,02250,1,99,9,99,9",,,,"2,1,040,1,+999,9","60,1",,SYN066AAXX  16031 57328 41865 80404 10118 20047 40244 52040 76066 885//;,
02-16T06:00:00,4,31.2,107.5,344.0,"DA XIAN, CH",FM-12,99999,V020,"040,1,N,0040,1","02100,1,9,N","020000,1,N,1","+0093,1","+0068,1","10242,1","06,0030,9,1",,"6,1,06,1","6,1,06,1",,"08,99,1,08,1,05,1,02250,1,99,9,99,9",,"999,N,+0087,1","99999,9,09826,1","7,1,004,1,+999,9","60,1",,SYN088AAXX  16061 57328 11870 80404 10093 20068 39826 40242 57004 60031 76066 885// 333 20087;,
02-16T09:00:00,4,31.2,107.5,344.0,"DA XIAN, CH",FM-12,99999,V020,"040,1,N,0050,1","99999,9,9,N","030000,1,N,1","+0103,1","+0053,1","10236,1",,,"6,1,03,1",,,"08,99,1,08,1,00,1,99999,9,07,1,99,9",,,,"7,1,004,1,+999,9","60,1",,SYN066AAXX  16091 57328 41980 80405 10103 20053 40236 57004 76060 8807/;,
02-16T12:00:00,4,31.2,107.5,344.0,"DA XIAN, CH",FM-12,99999,V020,"040,1,N,0020,1","99999,9,9,N","012000,1,N,1","+0088,1","+0073,1","10253,1","06,0010,9,1",,"6,1,06,1",,,"08,99,1,08,1,00,1,99999,9,02,1,99,9",,,"99999,9,09838,1","2,1,016,1,+999,9","60,1",,SYN078AAXX  16121 57328 11962 80402 10088 20073 39838 40253 52016 69991 76060 8802/;,
02-16T15:00:00,4,31.2,107.5,344.0,"DA XIAN, CH",FM-12,99999,V020,"040,1,N,0010,1","99999,9,9,N","011000,1,N,1","+0083,1","+0075,1","10269,1",,,"6,1,03,1","6,1,03,1",,"08,99,1,08,1,00,1,99999,9,07,1,99,9",,,,"2,1,014,1,+999,9","21,1",,SYN066AAXX  16151 57328 41961 80401 10083 20075 40269 52014 72166 8807/;,
02-16T18:00:00,4,31.2,107.5,344.0,"DA XIAN, CH",FM-12,99999,V020,"040,1,N,0010,1","99999,9,9,N","005000,1,N,1","+0077,1","+0071,1","10261,1","06,9999,9,9",,"6,1,06,1",,,"06,99,1,06,1,00,1,99999,9,04,1,00,1",,"999,M,+0137,1","99999,9,09842,1","7,1,010,1,+999,9","10,1",,SYN088AAXX  16181 57328 11950 60401 10077 20071 39842 40261 57010 69921 71060 86040 333 10137;,
02-16T21:00:00,4,31.2,107.5,344.0,"DA XIAN, CH",FM-12,99999,V020,"999,9,C,0000,1","99999,9,9,N","001200,1,N,1","+0069,1","+0065,1","10239,1","24,0046,9,1",,,,,"08,99,1,08,1,00,1,99999,9,07,1,99,9",,,,"7,1,021,1,+999,9","10,1",,SYN076AAXX  16211 57328 41912 80000 10069 20065 40239 57021 71000 8807/ 333 70045;,
02-17T00:00:00,4,31.2,107.5,344.0,"DA XIAN, CH",FM-12,99999,V020,"040,1,N,0020,1","00030,1,9,N","000200,1,N,1","+0065,1","+0061,1","10242,1","06,0000,9,1","24,0043,9,1",,,"09,1,+99999,9,99,9","09,99,1,09,1,99,9,99999,9,99,9,99,9",,,"99999,9,09823,1","2,1,002,1,+030,1","47,1",,SYN082AAXX  17001 57328 31/02 90402 10065 20061 39823 40242 52002 74700 333 00357 70042;,Q01  00002PRCP06
02-17T03:00:00,4,31.2,107.5,344.0,"DA XIAN, CH",FM-12,99999,V020,"180,1,N,0010,1","22000,1,9,N","001800,1,N,1","+0091,1","+0070,1","10245,1",,,"4,1,03,1",,"00,1,+99999,9,99,9","00,99,1,00,1,00,1,99999,9,00,1,00,1",,,,"2,1,004,1,+999,9","10,1",,SYN060AAXX  17031 57328 41918 01801 10091 20070 40245 52004 71040;,
02-17T06:00:00,4,31.2,107.5,344.0,"DA XIAN, CH",FM-12,99999,V020,"270,1,N,0010,1","01200,1,9,N","007000,1,N,1","+0141,1","+0073,1","10204,1","06,0000,9,1",,"4,1,06,1",,,"07,99,1,07,1,01,1,01250,1,00,1,00,1",,"999,N,+0059,1","99999,9,09791,1","7,1,036,1,+999,9","10,1",,SYN082AAXX  17061 57328 31657 72701 10141 20073 39791 40204 57036 71040 87100 333 20059;,Q01  00002PRCP06
02-17T09:00:00,4,31.2,107.5,344.0,"DA XIAN, CH",FM-12,99999,V020,"999,9,C,0000,1","22000,1,9,N","008000,1,N,1","+0153,1","+0083,1","10172,1",,,,,,"01,99,1,01,1,01,1,01250,1,00,1,00,1",,,,"7,1,030,1,+999,9","10,1",,SYN066AAXX  17091 57328 41658 10000 10153 20083 40172 57030 71000 81100;,
02-17T12:00:00,4,31.2,107.5,344.0,"DA XIAN, CH",FM-12,99999,V020,"040,1,N,0020,1","22000,1,9,N","006000,1,N,1","+0121,1","+0081,1","10182,1","06,0000,9,1",,,,"00,1,+99999,9,99,9","00,99,1,00,1,00,1,99999,9,00,1,00,1",,,"99999,9,09768,1","2,1,007,1,+999,9","10,1",,SYN066AAXX  17121 57328 31956 00402 10121 20081 39768 40182 52007 71000;,Q01  00002PRCP06
02-17T15:00:00,4,31.2,107.5,344.0,"DA XIAN, CH",FM-12,99999,V020,"040,1,N,0020,1","22000,1,9,N","006000,1,N,1","+0087,1","+0068,1","10184,1",,,,,"00,1,+99999,9,99,9","00,99,1,00,1,00,1,99999,9,00,1,00,1",,,,"2,1,001,1,+999,9","10,1",,SYN060AAXX  17151 57328 41956 00402 10087 20068 40184 52001 71000;,
02-17T18:00:00,4,31.2,107.5,344.0,"DA XIAN, CH",FM-12,99999,V020,"040,1,N,0010,1","22000,1,9,N","004000,1,N,1","+0068,1","+0059,1","10172,1","06,0000,9,1",,,,"00,1,+99999,9,99,9","00,99,1,00,1,00,1,99999,9,00,1,00,1",,"999,M,+0157,1","99999,9,09760,1","7,1,009,1,+999,9","10,1",,SYN076AAXX  17181 57328 31940 00401 10068 20059 39760 40172 57009 71000 333 10157;,Q01  00002PRCP06
02-17T21:00:00,4,31.2,107.5,344.0,"DA XIAN, CH",FM-12,99999,V020,"040,1,N,0010,1","22000,1,9,N","003000,1,N,1","+0055,1","+0050,1","10160,1",,,,,"00,1,+99999,9,99,9","00,99,1,00,1,00,1,99999,9,00,1,00,1",,,,"7,1,012,1,+999,9","10,1",,SYN060AAXX  17211 57328 41930 00401 10055 20050 40160 57012 71000;,
02-18T00:00:00,4,31.2,107.5,344.0,"DA XIAN, CH",FM-12,99999,V020,"020,1,N,0030,1","00015,1,9,N","000000,1,N,1","+0043,1","+0041,1","10164,1","06,0000,9,1",,"4,1,06,1",,"09,1,+99999,9,99,9","09,99,1,09,1,99,9,99999,9,99,9,99,9","999,+0040,9",,"99999,9,09749,1","2,1,001,1,-070,1","47,1",,SYN082AAXX  18001 57328 31/00 90203 10043 20041 39749 40164 52001 74740 333 05752 30041;,Q01  00002PRCP06
02-18T03:00:00,4,31.2,107.5,344.0,"DA XIAN, CH",FM-12,99999,V020,"020,1,N,0020,1","22000,1,9,N","008000,1,N,1","+0099,1","+0061,1","10166,1",,,"4,1,03,1",,"00,1,+99999,9,99,9","00,99,1,00,1,00,1,99999,9,00,1,00,1",,,,"2,1,003,1,+999,9","10,1",,SYN060AAXX  18031 57328 41958 00202 10099 20061 40166 52003 71040;,
02-18T06:00:00,4,31.2,107.5,344.0,"DA XIAN, CH",FM-12,99999,V020,"320,1,N,0010,1","22000,1,9,N","015000,1,N,1","+0162,1","+0078,1","10130,1","06,0000,9,1",,"4,1,06,1",,"00,1,+99999,9,99,9","00,99,1,00,1,00,1,99999,9,00,1,00,1",,"999,N,+0040,1","99999,9,09721,1","7,1,031,1,+999,9","00,1",,SYN076AAXX  18061 57328 31965 03201 10162 20078 39721 40130 57031 70040 333 20040;,Q01  00002PRCP06
02-18T09:00:00,4,31.2,107.5,344.0,"DA XIAN, CH",FM-12,99999,V020,"090,1,N,0010,1","22000,1,9,N","017000,1,N,1","+0185,1","+0063,1","10103,1",,,,,"00,1,+99999,9,99,9","00,99,1,00,1,00,1,99999,9,00,1,00,1",,,,"7,1,025,1,+999,9",,,SYN054AAXX  18091 57328 42967 00901 10185 20063 40103 57025;,
02-18T12:00:00,4,31.2,107.5,344.0,"DA XIAN, CH",FM-12,99999,V020,"020,1,N,0030,1","22000,1,9,N","014000,1,N,1","+0136,1","+0065,1","10107,1","06,0000,9,1",,,,"00,1,+99999,9,99,9","00,99,1,00,1,00,1,99999,9,00,1,00,1",,,"99999,9,09695,1","7,1,001,1,+999,9",,,SYN060AAXX  18121 57328 32964 00203 10136 20065 39695 40107 57001;,Q01  00002PRCP06
02-18T15:00:00,4,31.2,107.5,344.0,"DA XIAN, CH",FM-12,99999,V020,"070,1,N,0020,1","22000,1,9,N","007000,1,N,1","+0099,1","+0068,1","10118,1",,,,,"00,1,+99999,9,99,9","00,99,1,00,1,00,1,99999,9,00,1,00,1",,,,"2,1,012,1,+999,9","10,1",,SYN060AAXX  18151 57328 41957 00702 10099 20068 40118 52012 71000;,
02-18T18:00:00,4,31.2,107.5,344.0,"DA XIAN, CH",FM-12,99999,V020,"040,1,N,0040,1","22000,1,9,N","006000,1,N,1","+0081,1","+0059,1","10104,1","06,0000,9,1",,,,"00,1,+99999,9,99,9","00,99,1,00,1,00,1,99999,9,00,1,00,1",,"999,M,+0196,1","99999,9,09697,1","7,1,010,1,+999,9","10,1",,SYN076AAXX  18181 57328 31956 00404 10081 20059 39697 40104 57010 71000 333 10196;,Q01  00002PRCP06
02-18T21:00:00,4,31.2,107.5,344.0,"DA XIAN, CH",FM-12,99999,V020,"040,1,N,0040,1","22000,1,9,N","006000,1,N,1","+0080,1","+0051,1","10084,1",,,,,"00,1,+99999,9,99,9","00,99,1,00,1,00,1,99999,9,00,1,00,1",,,,"7,1,018,1,+999,9","10,1",,SYN060AAXX  18211 57328 41956 00404 10080 20051 40084 57018 71000;,
02-19T00:00:00,4,31.2,107.5,344.0,"DA XIAN, CH",FM-12,99999,V020,"040,1,N,9999,9","99999,9,9,N","009000,1,N,1","+0074,1","+0052,1","10092,1","06,0000,9,1",,,,,"06,99,1,00,1,00,1,99999,9,00,1,01,1",,,"99999,9,09683,1","2,1,004,1,+999,9","10,1",,SYN082AAXX  19001 57328 31959 60430 10074 20052 39683 40092 52004 71000 80001 333 05703;,Q01+003003WOSPD Q02  00002PRCP06
02-19T03:00:00,4,31.2,107.5,344.0,"DA XIAN, CH",FM-12,99999,V020,"999,9,C,0000,1","99999,9,9,N","012000,1,N,1","+0124,1","+0069,1","10108,1",,,,,,"08,99,1,08,1,00,1,99999,9,07,1,99,9",,,,"2,1,016,1,+999,9",,,SYN060AAXX  19031 57328 42962 80000 10124 20069 40108 52016 8807/;,
02-19T06:00:00,4,31.2,107.5,344.0,"DA XIAN, CH",FM-12,99999,V020,"999,9,C,0000,1","99999,9,9,N","006000,1,N,1","+0156,1","+0080,1","10082,1","06,0000,9,1",,,,,"08,99,1,08,1,00,1,99999,9,07,1,99,9",,"999,N,+0069,1","99999,9,09675,1","7,1,024,1,+999,9","10,1",,SYN082AAXX  19061 57328 31956 80000 10156 20080 39675 40082 57024 71000 8807/ 333 20069;,Q01  00002PRCP06
02-19T09:00:00,4,31.2,107.5,344.0,"DA XIAN, CH",FM-12,99999,V020,"360,1,N,0030,1","22000,1,9,N","008000,1,N,1","+0179,1","+0106,1","10054,1",,,,,,"03,99,1,03,1,00,1,99999,9,04,1,00,1",,,,"7,1,025,1,+999,9","10,1",,SYN066AAXX  19091 57328 41958 33603 10179 20106 40054 57025 71000 83040;,
02-19T12:00:00,4,31.2,107.5,344.0,"DA XIAN, CH",FM-12,99999,V020,"020,1,N,0040,1","22000,1,9,N","006000,1,N,1","+0153,1","+0109,1","10068,1","06,0000,9,1",,,,"00,1,+99999,9,99,9","00,99,1,00,1,00,1,99999,9,00,1,00,1",,,"99999,9,09661,1","2,1,011,1,+999,9","10,1",,SYN066AAXX  19121 57328 31956 00204 10153 20109 39661 40068 52011 71000;,Q01  00002PRCP06
02-19T15:00:00,4,31.2,107.5,344.0,"DA XIAN, CH",FM-12,99999,V020,"040,1,N,0020,1","99999,9,9,N","006000,1,N,1","+0170,1","+0098,1","10072,1",,,,,,"08,99,1,08,1,00,1,99999,9,07,1,99,9",,,,"2,1,009,1,+999,9","10,1",,SYN066AAXX  19151 57328 41956 80402 10170 20098 40072 52009 71000 8807/;,
02-19T18:00:00,4,31.2,107.5,344.0,"DA XIAN, CH",FM-12,99999,V020,"270,1,N,0020,1","99999,9,9,N","006000,1,N,1","+0182,1","+0104,1","10056,1","06,0000,9,1",,,,,"08,99,1,08,1,00,1,99999,9,07,1,99,9",,"999,M,+0198,1","99999,9,09657,1","7,1,013,1,+999,9","10,1",,SYN082AAXX  19181 57328 31956 82702 10182 20104 39657 40056 57013 71000 8807/ 333 10198;,Q01  00002PRCP06
02-19T21:00:00,4,31.2,107.5,344.0,"DA XIAN, CH",FM-12,99999,V020,"140,1,N,0010,1","99999,9,9,N","008000,1,N,1","+0157,1","+0105,1","10059,1",,,,,,"08,99,1,08,1,00,1,99999,9,07,1,99,9",,,,"2,1,003,1,+999,9","10,1",,SYN066AAXX  19211 57328 41958 81401 10157 20105 40059 52003 71000 8807/;,
02-20T00:00:00,4,31.2,107.5,344.0,"DA XIAN, CH",FM-12,99999,V020,"290,1,N,0020,1","99999,9,9,N","008000,1,N,1","+0149,1","+0110,1","10080,1","06,0000,9,1",,,,,"08,99,1,08,1,00,1,99999,9,07,1,99,9",,,"99999,9,09678,1","2,1,018,1,+001,1","10,1",,SYN082AAXX  20001 57328 31958 82902 10149 20110 39678 40080 52018 71000 8807/ 333 05108;,Q01  00002PRCP06
02-20T03:00:00,4,31.2,107.5,344.0,"DA XIAN, CH",FM-12,99999,V020,"999,9,C,0000,1","02100,1,9,N","002000,1,N,1","+0139,1","+0125,1","10099,1",,,"9,1,03,1","6,1,03,1",,"08,99,1,08,1,04,1,02250,1,99,9,99,9",,,,"2,1,019,1,+999,9","80,1",,SYN066AAXX  20031 57328 41820 80000 10139 20125 40099 52019 78096 884//;,
02-20T06:00:00,4,31.2,107.5,344.0,"DA XIAN, CH",FM-12,99999,V020,"040,1,N,0010,1","99999,9,9,N","004000,1,N,1","+0151,1","+0115,1","10092,1","06,0020,9,1",,"9,1,06,1","8,1,06,1",,"08,99,1,08,1,00,1,99999,9,07,1,99,9",,"999,N,+0137,1","99999,9,09692,1","7,1,005,1,+999,9","21,1",,SYN088AAXX  20061 57328 11940 80401 10151 20115 39692 40092 57005 60021 72198 8807/ 333 20137;,
02-20T09:00:00,4,31.2,107.5,344.0,"DA XIAN, CH",FM-12,99999,V020,"040,1,N,0030,1","99999,9,9,N","012000,1,N,1","+0163,1","+0108,1","10095,1",,,,,,"08,99,1,08,1,00,1,99999,9,07,1,99,9",,,,"2,1,002,1,+999,9",,,SYN060AAXX  20091 57328 42962 80403 10163 20108 40095 52002 8807/;,
02-20T12:00:00,4,31.2,107.5,344.0,"DA XIAN, CH",FM-12,99999,V020,"040,1,N,0020,1","99999,9,9,N","004000,1,N,1","+0154,1","+0118,1","10122,1","06,0000,2,1",,,,,"08,99,1,08,1,00,1,99999,9,07,1,99,9",,,"99999,9,09718,1","2,1,024,1,+999,9","10,1",,SYN072AAXX  20121 57328 31940 80402 10154 20118 39718 40122 52024 71000 8807/;,
02-20T15:00:00,4,31.2,107.5,344.0,"DA XIAN, CH",FM-12,99999,V020,"090,1,N,0010,1","99999,9,9,N","003000,1,N,1","+0127,1","+0096,1","10148,1",,,,,,"07,99,1,07,1,00,1,99999,9,04,1,99,9",,,,"2,1,023,1,+999,9","10,1",,SYN066AAXX  20151 57328 41930 70901 10127 20096 40148 52023 71000 8704/;,
02-20T18:00:00,4,31.2,107.5,344.0,"DA XIAN, CH",FM-12,99999,V020,"040,1,N,0020,1","99999,9,9,N","003000,1,N,1","+0111,1","+0083,1","10152,1","06,0000,9,1",,,,,"07,99,1,07,1,00,1,99999,9,04,1,99,9",,"999,M,+0182,1","99999,9,09744,1","2,1,003,1,+999,9","10,1",,SYN082AAXX  20181 57328 31930 70402 10111 20083 39744 40152 52003 71000 8704/ 333 10182;,Q01  00002PRCP06
02-20T21:00:00,4,31.2,107.5,344.0,"DA XIAN, CH",FM-12,99999,V020,"360,1,N,0020,1","99999,9,9,N","007000,1,N,1","+0104,1","+0064,1","10150,1","24,0018,9,1",,,,,"08,99,1,08,1,00,1,99999,9,07,1,99,9",,,,"7,1,001,1,+999,9","10,1",,SYN076AAXX  20211 57328 41957 83602 10104 20064 40150 57001 71000 8807/ 333 70017;,
02-21T00:00:00,4,31.2,107.5,344.0,"DA XIAN, CH",FM-12,99999,V020,"160,1,N,0010,1","99999,9,9,N","020000,1,N,1","+0107,1","+0070,1","10169,1","06,0000,9,1","24,0018,9,1",,,,"08,99,1,08,1,00,1,99999,9,07,1,99,9",,,"99999,9,09761,1","2,1,018,1,+080,1",,,SYN082AAXX  21001 57328 32970 81601 10107 20070 39761 40169 52018 8807/ 333 00854 70017;,Q01  00002PRCP06
02-21T03:00:00,4,31.2,107.5,344.0,"DA XIAN, CH",FM-12,99999,V020,"040,1,N,0040,1","02100,1,9,N","020000,1,N,1","+0101,1","+0058,1","10199,1",,,"6,1,03,1",,,"08,99,1,08,1,05,1,02250,1,99,9,99,9",,,,"2,1,026,1,+999,9","60,1",,SYN066AAXX  21031 57328 41870 80404 10101 20058 40199 52026 76060 885//;,
02-21T06:00:00,4,31.2,107.5,344.0,"DA XIAN, CH",FM-12,99999,V020,"020,1,N,0030,1","09000,1,9,N","030000,1,N,1","+0131,1","+0045,1","10195,1","06,0005,9,1",,"6,1,06,1",,,"07,99,1,01,1,01,1,01250,1,00,1,02,1",,"999,N,+0096,1","99999,9,09784,1","7,1,003,1,+999,9","00,1",,SYN088AAXX  21061 57328 11680 70203 10131 20045 39784 40195 57003 69941 70060 81102 333 20096;,
02-21T09:00:00,4,31.2,107.5,344.0,"DA XIAN, CH",FM-12,99999,V020,"070,1,N,0030,1","99999,9,9,N","030000,1,N,1","+0155,1","+0057,1","10185,1",,,,,,"07,99,1,00,1,00,1,99999,9,00,1,02,1",,,,"7,1,008,1,+999,9",,,SYN060AAXX  21091 57328 42980 70703 10155 20057 40185 57008 80002;,
02-21T12:00:00,4,31.2,107.5,344.0,"DA XIAN, CH",FM-12,99999,V020,"070,1,N,0020,1","22000,1,9,N","030000,1,N,1","+0120,1","+0057,1","10209,1","06,0000,9,1",,,,"00,1,+99999,9,99,9","00,99,1,00,1,00,1,99999,9,00,1,00,1",,,"99999,9,09797,1","2,1,021,1,+999,9",,,SYN060AAXX  21121 57328 32980 00702 10120 20057 39797 40209 52021;,Q01  00002PRCP06
02-21T15:00:00,4,31.2,107.5,344.0,"DA XIAN, CH",FM-12,99999,V020,"020,1,N,0010,1","22000,1,9,N","020000,1,N,1","+0085,1","+0059,1","10225,1",,,,,"00,1,+99999,9,99,9","00,99,1,00,1,00,1,99999,9,00,1,00,1",,,,"2,1,012,1,+999,9",,,SYN054AAXX  21151 57328 42970 00201 10085 20059 40225 52012;,
02-21T18:00:00,4,31.2,107.5,344.0,"DA XIAN, CH",FM-12,99999,V020,"040,1,N,0030,1","22000,1,9,N","012000,1,N,1","+0070,1","+0054,1","10237,1","06,0000,9,1",,,,"00,1,+99999,9,99,9","00,99,1,00,1,00,1,99999,9,00,1,00,1",,"999,M,+0155,1","99999,9,09822,1","2,1,013,1,+999,9",,,SYN070AAXX  21181 57328 32962 00403 10070 20054 39822 40237 52013 333 10155;,Q01  00002PRCP06
02-21T21:00:00,4,31.2,107.5,344.0,"DA XIAN, CH",FM-12,99999,V020,"040,1,N,0050,1","22000,1,9,N","008000,1,N,1","+0059,1","+0045,1","10224,1","24,0005,9,1",,,,"00,1,+99999,9,99,9","00,99,1,00,1,00,1,99999,9,00,1,00,1",,,,"7,1,012,1,+999,9","10,1",,SYN070AAXX  21211 57328 41958 00405 10059 20045 40224 57012 71000 333 70004;,
02-22T00:00:00,4,31.2,107.5,344.0,"DA XIAN, CH",FM-12,99999,V020,"040,1,N,0030,1","22000,1,9,N","015000,1,N,1","+0043,1","+0033,1","10227,1","06,0000,9,1","24,0005,9,1",,,"00,1,+99999,9,99,9","00,99,1,00,1,00,1,99999,9,00,1,00,1","999,+0026,9",,"99999,9,09809,1","7,1,001,1,+050,1",,,SYN082AAXX  22001 57328 32965 00403 10043 20033 39809 40227 57001 333 00556 30026 70004;,Q01  00002PRCP06
02-22T03:00:00,4,31.2,107.5,344.0,"DA XIAN, CH",FM-12,99999,V020,"020,1,N,0020,1","99999,9,9,N","015000,1,N,1","+0109,1","+0053,1","10243,1",,,,,,"06,99,1,00,1,00,1,99999,9,00,1,01,1",,,,"2,1,018,1,+999,9",,,SYN060AAXX  22031 57328 42965 60202 10109 20053 40243 52018 80001;,
02-22T06:00:00,4,31.2,107.5,344.0,"DA XIAN, CH",FM-12,99999,V020,"220,1,N,0020,1","99999,9,9,N","020000,1,N,1","+0153,1","+0026,1","10214,1","06,0000,9,1",,,,,"08,99,1,00,1,00,1,99999,9,00,1,07,1",,"999,N,+0041,1","99999,9,09801,1","7,1,026,1,+999,9",,,SYN076AAXX  22061 57328 32970 82202 10153 20026 39801 40214 57026 80007 333 20041;,Q01  00002PRCP06
02-22T09:00:00,4,31.2,107.5,344.0,"DA XIAN, CH",FM-12,99999,V020,"020,1,N,0020,1","99999,9,9,N","025000,1,N,1","+0158,1","+0058,1","10187,1",,,,,,"08,99,1,00,1,00,1,99999,9,00,1,07,1",,,,"7,1,026,1,+999,9",,,SYN060AAXX  22091 57328 42975 80202 10158 20058 40187 57026 80007;,
02-22T12:00:00,4,31.2,107.5,344.0,"DA XIAN, CH",FM-12,99999,V020,"040,1,N,0030,1","22000,1,9,N","020000,1,N,1","+0123,1","+0060,1","10188,1","06,0000,9,1",,,,"00,1,+99999,9,99,9","00,99,1,00,1,00,1,99999,9,00,1,00,1",,,"99999,9,09772,1","7,1,003,1,+999,9",,,SYN060AAXX  22121 57328 32970 00403 10123 20060 39772 40188 57003;,Q01  00002PRCP06
02-22T15:00:00,4,31.2,107.5,344.0,"DA XIAN, CH",FM-12,99999,V020,"040,1,N,0010,1","22000,1,9,N","015000,1,N,1","+0102,1","+0069,1","10202,1",,,,,"00,1,+99999,9,99,9","00,99,1,00,1,00,1,99999,9,00,1,00,1",,,,"2,1,017,1,+999,9",,,SYN054AAXX  22151 57328 42965 00401 10102 20069 40202 52017;,
02-22T18:00:00,4,31.2,107.5,344.0,"DA XIAN, CH",FM-12,99999,V020,"040,1,N,0010,1","22000,1,9,N","012000,1,N,1","+0095,1","+0061,1","10193,1","06,0000,9,1",,,,"00,1,+99999,9,99,9","00,99,1,00,1,00,1,99999,9,00,1,00,1",,"999,M,+0161,1","99999,9,09783,1","7,1,006,1,+999,9",,,SYN070AAXX  22181 57328 32962 00401 10095 20061 39783 40193 57006 333 10161;,Q01  00002PRCP06
02-22T21:00:00,4,31.2,107.5,344.0,"DA XIAN, CH",FM-12,99999,V020,"999,9,C,0000,1","99999,9,9,N","006000,1,N,1","+0084,1","+0063,1","10197,1",,,,,,"08,99,1,08,1,00,1,99999,9,07,1,99,9",,,,"2,1,003,1,+999,9","10,1",,SYN066AAXX  22211 57328 41956 80000 10084 20063 40197 52003 71000 8807/;,
02-23T00:00:00,4,31.2,107.5,344.0,"DA XIAN, CH",FM-12,99999,V020,"040,1,N,0030,1","02100,1,9,N","009000,1,N,1","+0079,1","+0057,1","10205,1","06,9999,9,9","24,0000,2,1",,,,"08,99,1,08,1,05,1,02250,1,99,9,99,9",,,"99999,9,09791,1","2,1,005,1,-020,1","60,1",,SYN094AAXX  23001 57328 11859 80403 10079 20057 39791 40205 52005 69901 76000 885// 333 05204 79999;,
02-23T03:00:00,4,31.2,107.5,344.0,"DA XIAN, CH",FM-12,99999,V020,"040,1,N,0010,1","02100,1,9,N","008000,1,N,1","+0101,1","+0063,1","10218,1",,,"6,1,03,1",,,"08,99,1,08,1,05,1,02250,1,99,9,99,9",,,,"2,1,012,1,+999,9","60,1",,SYN066AAXX  23031 57328 41858 80401 10101 20063 40218 52012 76060 885//;,
02-23T06:00:00,4,31.2,107.5,344.0,"DA XIAN, CH",FM-12,99999,V020,"999,9,C,0000,1","99999,9,9,N","006000,1,N,1","+0121,1","+0081,1","10193,1","06,9999,9,9",,"6,1,06,1",,,"08,99,1,08,1,00,1,99999,9,07,1,99,9",,"999,N,+0076,1","99999,9,09780,1","7,1,023,1,+999,9","60,1",,SYN088AAXX  23061 57328 11956 80000 10121 20081 39780 40193 57023 69901 76060 8807/ 333 20076;,
02-23T09:00:00,4,31.2,107.5,344.0,"DA XIAN, CH",FM-12,99999,V020,"040,1,N,0010,1","99999,9,9,N","008000,1,N,1","+0125,1","+0077,1","10180,1",,,"6,1,03,1",,,"08,99,1,08,1,00,1,99999,9,07,1,99,9",,,,"7,1,013,1,+999,9","10,1",,SYN066AAXX  23091 57328 41958 80401 10125 20077 40180 57013 71060 8807/;,
02-23T12:00:00,4,31.2,107.5,344.0,"DA XIAN, CH",FM-12,99999,V020,"999,9,C,0000,1","99999,9,9,N","008000,1,N,1","+0119,1","+0079,1","10201,1","06,9999,9,9",,"6,1,06,1",,,"08,99,1,08,1,00,1,99999,9,07,1,99,9",,,"99999,9,09787,1","2,1,020,1,+999,9","10,1",,SYN078AAXX  23121 57328 11958 80000 10119 20079 39787 40201 52020 69901 71060 8807/;,
02-23T15:00:00,4,31.2,107.5,344.0,"DA XIAN, CH",FM-12,99999,V020,"999,9,C,0000,1","99999,9,9,N","006000,1,N,1","+0105,1","+0081,1","10224,1",,,,,,"05,99,1,05,1,00,1,99999,9,04,1,00,1",,,,"2,1,022,1,+999,9","10,1",,SYN066AAXX  23151 57328 41956 50000 10105 20081 40224 52022 71000 85040;,
02-23T18:00:00,4,31.2,107.5,344.0,"DA XIAN, CH",FM-12,99999,V020,"999,9,C,0000,1","22000,1,9,N","005000,1,N,1","+0093,1","+0077,1","10214,1","06,0000,9,1",,,,"00,1,+99999,9,99,9","00,99,1,00,1,00,1,99999,9,00,1,00,1",,"999,M,+0127,1","99999,9,09800,1","7,1,009,1,+999,9","10,1",,SYN076AAXX  23181 57328 31950 00000 10093 20077 39800 40214 57009 71000 333 10127;,Q01  00002PRCP06
02-23T21:00:00,4,31.2,107.5,344.0,"DA XIAN, CH",FM-12,99999,V020,"999,9,C,0000,1","99999,9,9,N","004000,1,N,1","+0093,1","+0077,1","10215,1","24,0000,2,1",,,,,"08,99,1,08,1,00,1,99999,9,07,1,99,9",,,,"2,1,002,1,+999,9","10,1",,SYN076AAXX  23211 57328 41940 80000 10093 20077 40215 52002 71000 8807/ 333 79999;,
02-24T00:00:00,4,31.2,107.5,344.0,"DA XIAN, CH",FM-12,99999,V020,"040,1,N,0020,1","99999,9,9,N","003000,1,N,1","+0088,1","+0076,1","10222,1","06,0000,9,1","24,0000,2,1",,,,"08,99,1,08,1,00,1,99999,9,07,1,99,9",,,"99999,9,09808,1","2,1,006,1,+020,1","10,1",,SYN088AAXX  24001 57328 31930 80402 10088 20076 39808 40222 52006 71000 8807/ 333 00201 79999;,Q01  00002PRCP06
02-24T03:00:00,4,31.2,107.5,344.0,"DA XIAN, CH",FM-12,99999,V020,"360,1,N,0020,1","99999,9,9,N","004000,1,N,1","+0121,1","+0085,1","10223,1",,,,,,"07,99,1,07,1,00,1,99999,9,04,1,99,9",,,,"2,1,002,1,+999,9","10,1",,SYN066AAXX  24031 57328 41940 73602 10121 20085 40223 52002 71000 8704/;,
02-24T06:00:00,4,31.2,107.5,344.0,"DA XIAN, CH",FM-12,99999,V020,"999,9,C,0000,1","01200,1,9,N","008000,1,N,1","+0157,1","+0081,1","10192,1","06,0000,9,1",,,,,"06,99,1,06,1,01,1,01250,1,00,1,00,1",,"999,N,+0084,1","99999,9,09782,1","7,1,028,1,+999,9","10,1",,SYN082AAXX  24061 57328 31658 60000 10157 20081 39782 40192 57028 71000 86100 333 20084;,Q01  00002PRCP06
02-24T09:00:00,4,31.2,107.5,344.0,"DA XIAN, CH",FM-12,99999,V020,"999,9,C,0000,1","02100,1,9,N","011000,1,N,1","+0145,1","+0091,1","10186,1",,,,,,"08,99,1,08,1,05,1,02250,1,99,9,99,9",,,,"7,1,007,1,+999,9",,,SYN060AAXX  24091 57328 42861 80000 10145 20091 40186 57007 885//;,
02-24T12:00:00,4,31.2,107.5,344.0,"DA XIAN, CH",FM-12,99999,V020,"999,9,C,0000,1","22000,1,9,N","006000,1,N,1","+0127,1","+0088,1","10204,1","06,0000,9,1",,,,"00,1,+99999,9,99,9","00,99,1,00,1,00,1,99999,9,00,1,00,1",,,"99999,9,09791,1","2,1,016,1,+999,9","10,1",,SYN066AAXX  24121 57328 31956 00000 10127 20088 39791 40204 52016 71000;,Q01  00002PRCP06
02-24T15:00:00,4,31.2,107.5,344.0,"DA XIAN, CH",FM-12,99999,V020,"999,9,C,0000,1","22000,1,9,N","004000,1,N,1","+0106,1","+0086,1","10226,1",,,,,"00,1,+99999,9,99,9","00,99,1,00,1,00,1,99999,9,00,1,00,1",,,,"2,1,022,1,+999,9","10,1",,SYN060AAXX  24151 57328 41940 00000 10106 20086 40226 52022 71000;,
02-24T18:00:00,4,31.2,107.5,344.0,"DA XIAN, CH",FM-12,99999,V020,"040,1,N,0010,1","22000,1,9,N","003000,1,N,1","+0095,1","+0079,1","10220,1","06,0000,9,1",,,,"00,1,+99999,9,99,9","00,99,1,00,1,00,1,99999,9,00,1,00,1",,"999,M,+0159,1","99999,9,09809,1","7,1,004,1,+999,9","10,1",,SYN076AAXX  24181 57328 31930 00401 10095 20079 39809 40220 57004 71000 333 10159;,Q01  00002PRCP06
02-24T21:00:00,4,31.2,107.5,344.0,"DA XIAN, CH",FM-12,99999,V020,"040,1,N,0030,1","00030,1,9,N","000500,1,N,1","+0074,1","+0070,1","10210,1",,,,,"09,1,+99999,9,99,9","09,99,1,09,1,99,9,99999,9,99,9,99,9",,,,"7,1,012,1,+999,9","47,1",,SYN060AAXX  24211 57328 41/05 90403 10074 20070 40210 57012 74700;,
02-25T00:00:00,4,31.2,107.5,344.0,"DA XIAN, CH",FM-12,99999,V020,"040,1,N,0020,1","00015,1,9,N","000000,1,N,1","+0066,1","+0064,1","10220,1","06,0000,9,1",,"4,1,06,1",,"09,1,+99999,9,99,9","09,99,1,09,1,99,9,99999,9,99,9,99,9",,,"99999,9,09805,1","2,1,008,1,+000,1","45,1",,SYN076AAXX  25001 57328 31/00 90402 10066 20064 39805 40220 52008 74540 333 00052;,Q01  00002PRCP06
02-25T03:00:00,4,31.2,107.5,344.0,"DA XIAN, CH",FM-12,99999,V020,"020,1,N,0030,1","22000,1,9,N","005000,1,N,1","+0104,1","+0080,1","10222,1",,,"4,1,03,1","4,1,03,1","00,1,+99999,9,99,9","00,99,1,00,1,00,1,99999,9,00,1,00,1",,,,"2,1,003,1,+999,9","28,1",,SYN060AAXX  25031 57328 41950 00203 10104 20080 40222 52003 72844;,
02-25T06:00:00,4,31.2,107.5,344.0,"DA XIAN, CH",FM-12,99999,V020,"999,9,C,0000,1","99999,9,9,N","011000,1,N,1","+0169,1","+0078,1","10180,1","06,0000,9,1",,"4,1,06,1",,,"07,99,1,07,1,00,1,99999,9,04,1,99,9",,"999,N,+0064,1","99999,9,09771,1","7,1,037,1,+999,9","00,1",,SYN082AAXX  25061 57328 31961 70000 10169 20078 39771 40180 57037 70040 8704/ 333 20064;,Q01  00002PRCP06
02-25T09:00:00,4,31.2,107.5,344.0,"DA XIAN, CH",FM-12,99999,V020,"290,1,N,0020,1","99999,9,9,N","012000,1,N,1","+0171,1","+0080,1","10164,1",,,,,,"07,99,1,07,1,00,1,99999,9,04,1,99,9",,,,"7,1,016,1,+999,9",,,SYN060AAXX  25091 57328 42962 72902 10171 20080 40164 57016 8704/;,
02-25T12:00:00,4,31.2,107.5,344.0,"DA XIAN, CH",FM-12,99999,V020,"040,1,N,0020,1","22000,1,9,N","012000,1,N,1","+0141,1","+0087,1","10181,1","06,0000,9,1",,,,"00,1,+99999,9,99,9","00,99,1,00,1,00,1,99999,9,00,1,00,1",,,"99999,9,09768,1","2,1,013,1,+999,9",,,SYN060AAXX  25121 57328 32962 00402 10141 20087 39768 40181 52013;,Q01  00002PRCP06
02-25T15:00:00,4,31.2,107.5,344.0,"DA XIAN, CH",FM-12,99999,V020,"070,1,N,0030,1","99999,9,9,N","008000,1,N,1","+0110,1","+0084,1","10192,1",,,,,,"08,99,1,08,1,00,1,99999,9,07,1,99,9",,,,"2,1,011,1,+999,9","10,1",,SYN066AAXX  25151 57328 41958 80703 10110 20084 40192 52011 71000 8807/;,
02-25T18:00:00,4,31.2,107.5,344.0,"DA XIAN, CH",FM-12,99999,V020,"020,1,N,0020,1","99999,9,9,N","007000,1,N,1","+0100,1","+0082,1","10191,1","06,0000,9,1",,,,,"08,99,1,08,1,00,1,99999,9,07,1,99,9",,"999,M,+0180,1","99999,9,09782,1","2,1,003,1,+999,9","10,1",,SYN082AAXX  25181 57328 31957 80202 10100 20082 39782 40191 52003 71000 8807/ 333 10180;,Q01  00002PRCP06
02-25T21:00:00,4,31.2,107.5,344.0,"DA XIAN, CH",FM-12,99999,V020,"999,9,C,0000,1","99999,9,9,N","007000,1,N,1","+0095,1","+0079,1","10183,1",,,,,,"08,99,1,08,1,00,1,99999,9,07,1,99,9",,,,"7,1,008,1,+999,9","10,1",,SYN066AAXX  25211 57328 41957 80000 10095 20079 40183 57008 71000 8807/;,
02-26T00:00:00,4,31.2,107.5,344.0,"DA XIAN, CH",FM-12,99999,V020,"040,1,N,0020,1","99999,9,9,N","005000,1,N,1","+0095,1","+0076,1","10191,1","06,0000,9,1",,,,,"07,99,1,07,1,00,1,99999,9,04,1,99,9",,,"99999,9,09780,1","2,1,006,1,+003,1","10,1",,SYN082AAXX  26001 57328 31950 70402 10095 20076 39780 40191 52006 71000 8704/ 333 05303;,Q01  00002PRCP06
02-26T03:00:00,4,31.2,107.5,344.0,"DA XIAN, CH",FM-12,99999,V020,"040,1,N,0010,1","99999,9,9,N","007000,1,N,1","+0140,1","+0079,1","10198,1",,,,,,"07,99,1,07,1,00,1,99999,9,04,1,99,9",,,,"2,1,008,1,+999,9","10,1",,SYN066AAXX  26031 57328 41957 70401 10140 20079 40198 52008 71000 8704/;,
02-26T06:00:00,4,31.2,107.5,344.0,"DA XIAN, CH",FM-12,99999,V020,"999,9,C,0000,1","99999,9,9,N","011000,1,N,1","+0178,1","+0085,1","10167,1","06,0000,9,1",,,,,"07,99,1,07,1,00,1,99999,9,04,1,99,9",,"999,N,+0091,1","99999,9,09760,1","7,1,028,1,+999,9",,,SYN076AAXX  26061 57328 32961 70000 10178 20085 39760 40167 57028 8704/ 333 20091;,Q01  00002PRCP06
02-26T09:00:00,4,31.2,107.5,344.0,"DA XIAN, CH",FM-12,99999,V020,"160,1,N,0010,1","99999,9,9,N","015000,1,N,1","+0184,1","+0081,1","10156,1",,,,,,"07,99,1,07,1,00,1,99999,9,04,1,99,9",,,,"7,1,011,1,+999,9",,,SYN060AAXX  26091 57328 42965 71601 10184 20081 40156 57011 8704/;,
02-26T15:00:00,4,31.2,107.5,344.0,"DA XIAN, CH",FM-12,99999,V020,"999,9,C,0000,1","99999,9,9,N","007000,1,N,1","+0121,1","+0094,1","10188,1",,,,,,"06,99,1,06,1,00,1,99999,9,04,1,00,1",,,,"2,1,017,1,+999,9","10,1",,SYN066AAXX  26151 57328 41957 60000 10121 20094 40188 52017 71000 86040;,
02-26T18:00:00,4,31.2,107.5,344.0,"DA XIAN, CH",FM-12,99999,V020,"040,1,N,0010,1","99999,9,9,N","006000,1,N,1","+0099,1","+0085,1","10177,1","06,0000,9,1",,,,,"08,99,1,08,1,00,1,99999,9,07,1,99,9",,"999,M,+0198,1","99999,9,09769,1","7,1,010,1,+999,9","10,1",,SYN082AAXX  26181 57328 31956 80401 10099 20085 39769 40177 57010 71000 8807/ 333 10198;,Q01  00002PRCP06
02-26T21:00:00,4,31.2,107.5,344.0,"DA XIAN, CH",FM-12,99999,V020,"040,1,N,0010,1","99999,9,9,N","006000,1,N,1","+0099,1","+0083,1","10153,1",,,,,,"08,99,1,08,1,00,1,99999,9,07,1,99,9",,,,"7,1,022,1,+999,9","10,1",,SYN066AAXX  26211 57328 41956 80401 10099 20083 40153 57022 71000 8807/;,
02-27T00:00:00,4,31.2,107.5,344.0,"DA XIAN, CH",FM-12,99999,V020,"040,1,N,0020,1","99999,9,9,N","005000,1,N,1","+0104,1","+0086,1","10144,1","06,0000,9,1",,,,,"08,99,1,08,1,00,1,99999,9,07,1,99,9",,,"99999,9,09737,1","7,1,010,1,+004,1","10,1",,SYN082AAXX  27001 57328 31950 80402 10104 20086 39737 40144 57010 71000 8807/ 333 05401;,Q01  00002PRCP06
02-27T03:00:00,4,31.2,107.5,344.0,"DA XIAN, CH",FM-12,99999,V020,"020,1,N,0030,1","99999,9,9,N","007000,1,N,1","+0109,1","+0089,1","10149,1",,,"6,1,03,1",,,"08,99,1,08,1,00,1,99999,9,07,1,99,9",,,,"2,1,002,1,+999,9","60,1",,SYN066AAXX  27031 57328 41957 80203 10109 20089 40149 52002 76060 8807/;,
02-27T06:00:00,4,31.2,107.5,344.0,"DA XIAN, CH",FM-12,99999,V020,"040,1,N,0040,1","99999,9,9,N","012000,1,N,1","+0127,1","+0092,1","10111,1","06,9999,9,9",,"6,1,06,1",,,"08,99,1,08,1,00,1,99999,9,07,1,99,9",,"999,N,+0093,1","99999,9,09702,1","7,1,037,1,+999,9","21,1",,SYN088AAXX  27061 57328 11962 80404 10127 20092 39702 40111 57037 69901 72160 8807/ 333 20093;,
02-27T09:00:00,4,31.2,107.5,344.0,"DA XIAN, CH",FM-12,99999,V020,"040,1,N,0020,1","99999,9,9,N","020000,1,N,1","+0145,1","+0087,1","10085,1",,,,,,"08,99,1,08,1,00,1,99999,9,04,1,99,9",,,,"7,1,023,1,+999,9",,,SYN060AAXX  27091 57328 42970 80402 10145 20087 40085 57023 8804/;,
02-27T12:00:00,4,31.2,107.5,344.0,"DA XIAN, CH",FM-12,99999,V020,"040,1,N,0010,1","99999,9,9,N","006000,1,N,1","+0133,1","+0082,1","10096,1","06,0000,2,1",,,,,"08,99,1,08,1,00,1,99999,9,07,1,99,9",,,"99999,9,09689,1","2,1,010,1,+999,9","10,1",,SYN072AAXX  27121 57328 31956 80401 10133 20082 39689 40096 52010 71000 8807/;,
02-27T15:00:00,4,31.2,107.5,344.0,"DA XIAN, CH",FM-12,99999,V020,"040,1,N,0020,1","99999,9,9,N","005000,1,N,1","+0125,1","+0081,1","10102,1",,,,,,"08,99,1,08,1,00,1,99999,9,07,1,99,9",,,,"2,1,005,1,+999,9","10,1",,SYN066AAXX  27151 57328 41950 80402 10125 20081 40102 52005 71000 8807/;,
02-27T18:00:00,4,31.2,107.5,344.0,"DA XIAN, CH",FM-12,99999,V020,"040,1,N,0030,1","99999,9,9,N","004000,1,N,1","+0125,1","+0075,1","10093,1","06,0000,9,1",,,,,"08,99,1,08,1,00,1,99999,9,07,1,99,9",,"999,M,+0145,1","99999,9,09687,1","7,1,007,1,+999,9","10,1",,SYN082AAXX  27181 57328 31940 80403 10125 20075 39687 40093 57007 71000 8807/ 333 10145;,Q01  00002PRCP06
02-27T21:00:00,4,31.2,107.5,344.0,"DA XIAN, CH",FM-12,99999,V020,"040,1,N,0030,1","99999,9,9,N","008000,1,N,1","+0127,1","+0070,1","10086,1","24,0000,2,1",,,,,"08,99,1,08,1,00,1,99999,9,07,1,99,9",,,,"7,1,005,1,+999,9","10,1",,SYN076AAXX  27211 57328 41958 80403 10127 20070 40086 57005 71000 8807/ 333 79999;,
02-28T00:00:00,4,31.2,107.5,344.0,"DA XIAN, CH",FM-12,99999,V020,"999,9,C,0000,1","99999,9,9,N","012000,1,N,1","+0122,1","+0082,1","10104,1","06,0000,9,1","24,0000,2,1",,,,"08,99,1,08,1,00,1,99999,9,07,1,99,9",,,"99999,9,09698,1","2,1,016,1,-040,1",,,SYN082AAXX  28001 57328 32962 80000 10122 20082 39698 40104 52016 8807/ 333 05402 79999;,Q01  00002PRCP06
02-28T03:00:00,4,31.2,107.5,344.0,"DA XIAN, CH",FM-12,99999,V020,"220,1,N,0020,1","99999,9,9,N","008000,1,N,1","+0141,1","+0087,1","10118,1",,,,,,"08,99,1,08,1,00,1,99999,9,07,1,99,9",,,,"2,1,014,1,+999,9","10,1",,SYN066AAXX  28031 57328 41958 82202 10141 20087 40118 52014 71000 8807/;,
02-28T06:00:00,4,31.2,107.5,344.0,"DA XIAN, CH",FM-12,99999,V020,"160,1,N,0010,1","99999,9,9,N","008000,1,N,1","+0149,1","+0092,1","10108,1","06,0000,9,1",,,,,"08,99,1,08,1,00,1,99999,9,07,1,99,9",,"999,N,+0119,1","99999,9,09703,1","7,1,009,1,+999,9","10,1",,SYN082AAXX  28061 57328 31958 81601 10149 20092 39703 40108 57009 71000 8807/ 333 20119;,Q01  00002PRCP06
02-28T09:00:00,4,31.2,107.5,344.0,"DA XIAN, CH",FM-12,99999,V020,"200,1,N,0020,1","99999,9,9,N","008000,1,N,1","+0152,1","+0091,1","10106,1",,,,,,"08,99,1,08,1,00,1,99999,9,07,1,99,9",,,,"7,1,002,1,+999,9","10,1",,SYN066AAXX  28091 57328 41958 82002 10152 20091 40106 57002 71000 8807/;,
02-28T12:00:00,4,31.2,107.5,344.0,"DA XIAN, CH",FM-12,99999,V020,"070,1,N,0020,1","99999,9,9,N","008000,1,N,1","+0140,1","+0092,1","10121,1","06,0000,9,1",,,,,"08,99,1,08,1,00,1,99999,9,07,1,99,9",,,"99999,9,09715,1","2,1,014,1,+999,9","10,1",,SYN072AAXX  28121 57328 31958 80702 10140 20092 39715 40121 52014 71000 8807/;,Q01  00002PRCP06
02-28T15:00:00,4,31.2,107.5,344.0,"DA XIAN, CH",FM-12,99999,V020,"999,9,C,0000,1","99999,9,9,N","008000,1,N,1","+0136,1","+0098,1","10124,1",,,,,,"08,99,1,08,1,00,1,99999,9,07,1,99,9",,,,"2,1,003,1,+999,9","10,1",,SYN066AAXX  28151 57328 41958 80000 10136 20098 40124 52003 71000 8807/;,
02-28T18:00:00,4,31.2,107.5,344.0,"DA XIAN, CH",FM-12,99999,V020,"040,1,N,0020,1","99999,9,9,N","006000,1,N,1","+0125,1","+0098,1","10107,1","06,0000,9,1",,,,,"08,99,1,08,1,00,1,99999,9,07,1,99,9",,"999,M,+0155,1","99999,9,09702,1","7,1,016,1,+999,9","10,1",,SYN082AAXX  28181 57328 31956 80402 10125 20098 39702 40107 57016 71000 8807/ 333 10155;,Q01  00002PRCP06
02-28T21:00:00,4,31.2,107.5,344.0,"DA XIAN, CH",FM-12,99999,V020,"999,9,C,0000,1","02100,1,9,N","003000,1,N,1","+0117,1","+0106,1","10110,1","24,0043,9,1",,"6,1,03,1",,,"08,99,1,08,1,05,1,02250,1,99,9,99,9",,,,"2,1,002,1,+999,9","60,1",,SYN076AAXX  28211 57328 41830 80000 10117 20106 40110 52002 76060 885// 333 70044;,
02-29T00:00:00,4,31.2,107.5,344.0,"DA XIAN, CH",FM-12,99999,V020,"020,1,N,0010,1","02100,1,9,N","004000,1,N,1","+0112,1","+0106,1","10126,1","06,0099,9,2","24,0097,9,2","6,1,06,1",,,"08,99,1,08,1,05,1,02250,1,99,9,99,9",,,"99999,9,09719,1","2,1,015,1,+020,1","60,1",,SYN094AAXX  29001 57328 11840 80201 10112 20106 39719 40126 52015 60101 76060 885// 333 00251 70096;,
02-29T03:00:00,4,31.2,107.5,344.0,"DA XIAN, CH",FM-12,99999,V020,"020,1,N,0040,1","02100,1,9,N","012000,1,N,1","+0102,1","+0084,1","10152,1",,,"6,1,03,1","6,1,03,1",,"08,99,1,08,1,05,1,02250,1,99,9,99,9",,,,"2,1,024,1,+999,9","60,1",,SYN066AAXX  29031 57328 41862 80204 10102 20084 40152 52024 76066 885//;,
02-29T09:00:00,4,31.2,107.5,344.0,"DA XIAN, CH",FM-12,99999,V020,"040,1,N,0020,1","99999,9,9,N","020000,1,N,1","+0119,1","+0079,1","10121,1",,,,,,"08,99,1,08,1,00,1,99999,9,07,1,99,9",,,,"7,1,018,1,+999,9",,,SYN060AAXX  29091 57328 42970 80402 10119 20079 40121 57018 8807/;,
02-29T12:00:00,4,31.2,107.5,344.0,"DA XIAN, CH",FM-12,99999,V020,"040,1,N,0020,1","02100,1,9,N","015000,1,N,1","+0113,1","+0072,1","10135,1","06,0000,9,1",,,,,"08,99,1,08,1,05,1,02250,1,99,9,99,9",,,"99999,9,09725,1","2,1,012,1,+999,9",,,SYN066AAXX  29121 57328 32865 80402 10113 20072 39725 40135 52012 885//;,Q01  00002PRCP06
02-29T15:00:00,4,31.2,107.5,344.0,"DA XIAN, CH",FM-12,99999,V020,"040,1,N,0030,1","02100,1,9,N","012000,1,N,1","+0109,1","+0048,1","10163,1",,,,,,"08,99,1,08,1,05,1,02250,1,99,9,99,9",,,,"2,1,026,1,+999,9",,,SYN060AAXX  29151 57328 42862 80403 10109 20048 40163 52026 885//;,
02-29T18:00:00,4,31.2,107.5,344.0,"DA XIAN, CH",FM-12,99999,V020,"020,1,N,0040,1","02100,1,9,N","012000,1,N,1","+0104,1","+0029,1","10165,1","06,0000,9,1",,,,,"08,99,1,08,1,05,1,02250,1,99,9,99,9",,"999,M,+0124,1","99999,9,09753,1","2,1,002,1,+999,9",,,SYN076AAXX  29181 57328 32862 80204 10104 20029 39753 40165 52002 885// 333 10124;,Q01  00002PRCP06
02-29T21:00:00,4,31.2,107.5,344.0,"DA XIAN, CH",FM-12,99999,V020,"999,9,C,0000,1","02100,1,9,N","008000,1,N,1","+0094,1","+0048,1","10153,1","24,0076,9,1",,"6,1,03,1",,,"08,99,1,08,1,05,1,02250,1,99,9,99,9",,,,"7,1,011,1,+999,9","21,1",,SYN076AAXX  29211 57328 41858 80000 10094 20048 40153 57011 72160 885// 333 70076;,
03-01T00:00:00,4,31.2,107.5,344.0,"DA XIAN, CH",FM-12,99999,V020,"040,1,N,0020,1","99999,9,9,N","015000,1,N,1","+0082,1","+0051,1","10163,1","06,9999,9,9","24,0023,9,1","6,1,06,1",,,"07,99,1,07,1,00,1,99999,9,04,1,99,9",,,"99999,9,09750,1","2,1,008,1,+030,1","00,1",,SYN094AAXX  01001 57328 11965 70402 10082 20051 39750 40163 52008 69911 70060 8704/ 333 00353 70024;,
03-01T03:00:00,4,31.2,107.5,344.0,"DA XIAN, CH",FM-12,99999,V020,"040,1,N,0020,1","99999,9,9,N","015000,1,N,1","+0105,1","+0044,1","10176,1",,,,,,"08,99,1,08,1,00,1,99999,9,02,1,99,9",,,,"2,1,014,1,+999,9","60,1",,SYN066AAXX  01031 57328 41965 80402 10105 20044 40176 52014 76000 8802/;,
03-01T06:00:00,4,31.2,107.5,344.0,"DA XIAN, CH",FM-12,99999,V020,"020,1,N,0010,1","99999,9,9,N","008000,1,N,1","+0106,1","+0075,1","10156,1","06,0010,9,1",,"6,1,06,1",,,"08,99,1,08,1,00,1,99999,9,02,1,99,9",,"999,N,+0080,1","99999,9,09744,1","7,1,020,1,+999,9","60,1",,SYN088AAXX  01061 57328 11958 80201 10106 20075 39744 40156 57020 69991 76060 8802/ 333 20080;,
03-01T09:00:00,4,31.2,107.5,344.0,"DA XIAN, CH",FM-12,99999,V020,"040,1,N,0200,1","02100,1,9,N","008000,1,N,1","+0097,1","+0085,1","10157,1",,,"6,1,03,1","6,1,03,1",,"08,99,1,08,1,05,1,02250,1,99,9,99,9",,,,"4,1,000,1,+999,9","60,1",,SYN066AAXX  01091 57328 41858 80420 10097 20085 40157 54000 76066 885//;,
03-01T12:00:00,4,31.2,107.5,344.0,"DA XIAN, CH",FM-12,99999,V020,"040,1,N,0030,1","02100,1,9,N","008000,1,N,1","+0091,1","+0074,1","10176,1","06,0041,9,1",,"6,1,06,1","6,1,06,1",,"08,99,1,08,1,05,1,02250,1,99,9,99,9",,,"99999,9,09761,1","2,1,017,1,+999,9","60,1",,SYN078AAXX  01121 57328 11858 80403 10091 20074 39761 40176 52017 60041 76066 885//;,
03-01T15:00:00,4,31.2,107.5,344.0,"DA XIAN, CH",FM-12,99999,V020,"040,1,N,0020,1","02100,1,9,N","008000,1,N,1","+0089,1","+0072,1","10189,1",,,"6,1,03,1","6,1,03,1",,"08,99,1,08,1,05,1,02250,1,99,9,99,9",,,,"2,1,014,1,+999,9","21,1",,SYN066AAXX  01151 57328 41858 80402 10089 20072 40189 52014 72166 885//;,
03-01T18:00:00,4,31.2,107.5,344.0,"DA XIAN, CH",FM-12,99999,V020,"360,1,N,0010,1","02100,1,9,N","006000,1,N,1","+0087,1","+0075,1","10201,1","06,0005,9,1",,"6,1,06,1",,,"08,99,1,08,1,05,1,02250,1,99,9,99,9",,"999,M,+0109,1","99999,9,09786,1","2,1,011,1,+999,9","60,1",,SYN088AAXX  01181 57328 11856 83601 10087 20075 39786 40201 52011 69951 76060 885// 333 10109;,
03-01T21:00:00,4,31.2,107.5,344.0,"DA XIAN, CH",FM-12,99999,V020,"040,1,N,0020,1","02100,1,9,N","000400,1,N,1","+0081,1","+0077,1","10193,1","24,0066,9,1",,"6,1,03,1",,,"08,99,1,08,1,05,1,02250,1,99,9,99,9",,,,"7,1,008,1,+999,9","60,1",,SYN076AAXX  01211 57328 41804 80402 10081 20077 40193 57008 76060 885// 333 70065;,
03-02T00:00:00,4,31.2,107.5,344.0,"DA XIAN, CH",FM-12,99999,V020,"020,1,N,0020,1","02100,1,9,N","004000,1,N,1","+0082,1","+0076,1","10201,1","06,0020,9,1","24,0071,9,1","6,1,06,1","6,1,06,1",,"08,99,1,08,1,05,1,02250,1,99,9,99,9",,,"99999,9,09785,1","2,1,007,1,+040,1","21,1",,SYN094AAXX  02001 57328 11840 80202 10082 20076 39785 40201 52007 60021 72166 885// 333 00400 70071;,
03-02T03:00:00,4,31.2,107.5,344.0,"DA XIAN, CH",FM-12,99999,V020,"070,1,N,0010,1","02100,1,9,N","004000,1,N,1","+0090,1","+0080,1","10205,1",,,"6,1,03,1",,,"08,99,1,08,1,05,1,02250,1,99,9,99,9",,,,"2,1,004,1,+999,9","10,1",,SYN066AAXX  02031 57328 41840 80701 10090 20080 40205 52004 71060 885//;,
03-02T06:00:00,4,31.2,107.5,344.0,"DA XIAN, CH",FM-12,99999,V020,"040,1,N,0020,1","99999,9,9,N","012000,1,N,1","+0099,1","+0074,1","10179,1","06,9999,9,9",,"6,1,06,1",,,"08,99,1,08,1,00,1,99999,9,07,1,99,9",,"999,N,+0077,1","99999,9,09765,1","7,1,024,1,+999,9","60,1",,SYN088AAXX  02061 57328 11962 80402 10099 20074 39765 40179 57024 69901 76060 8807/ 333 20077;,
03-02T09:00:00,4,31.2,107.5,344.0,"DA XIAN, CH",FM-12,99999,V020,"020,1,N,0040,1","99999,9,9,N","020000,1,N,1","+0105,1","+0072,1","10176,1",,,"6,1,03,1",,,"08,99,1,08,1,00,1,99999,9,07,1,99,9",,,,"7,1,003,1,+999,9","21,1",,SYN066AAXX  02091 57328 41970 80204 10105 20072 40176 57003 72160 8807/;,
03-02T12:00:00,4,31.2,107.5,344.0,"DA XIAN, CH",FM-12,99999,V020,"999,9,C,0000,1","99999,9,9,N","012000,1,N,1","+0101,1","+0074,1","10213,1","06,9999,9,9",,"6,1,06,1",,,"08,99,1,08,1,00,1,99999,9,07,1,99,9",,,"99999,9,09797,1","2,1,035,1,+999,9","60,1",,SYN078AAXX  02121 57328 11962 80000 10101 20074 39797 40213 52035 69901 76060 8807/;,
03-02T15:00:00,4,31.2,107.5,344.0,"DA XIAN, CH",FM-12,99999,V020,"090,1,N,0020,1","99999,9,9,N","008000,1,N,1","+0090,1","+0071,1","10245,1",,,"6,1,03,1",,,"08,99,1,08,1,00,1,99999,9,07,1,99,9",,,,"2,1,031,1,+999,9","10,1",,SYN066AAXX  02151 57328 41958 80902 10090 20071 40245 52031 71060 8807/;,
03-02T18:00:00,4,31.2,107.5,344.0,"DA XIAN, CH",FM-12,99999,V020,"360,1,N,0020,1","99999,9,9,N","015000,1,N,1","+0102,1","+0005,1","10289,1","06,9999,9,9",,"6,1,06,1",,,"07,99,1,07,1,00,1,99999,9,04,1,99,9",,"999,M,+0105,1","99999,9,09871,1","2,1,043,1,+999,9","00,1",,SYN088AAXX  02181 57328 11965 73602 10102 20005 39871 40289 52043 69901 70060 8704/ 333 10105;,
03-02T21:00:00,4,31.2,107.5,344.0,"DA XIAN, CH",FM-12,99999,V020,"040,1,N,0010,1","99999,9,9,N","020000,1,N,1","+0077,1","-0004,1","10282,1","24,0005,9,1",,,,,"07,99,1,07,1,00,1,99999,9,04,1,99,9",,,,"7,1,008,1,+999,9",,,SYN070AAXX  02211 57328 42970 70401 10077 21004 40282 57008 8704/ 333 70006;,
03-03T00:00:00,4,31.2,107.5,344.0,"DA XIAN, CH",FM-12,99999,V020,"090,1,N,0020,1","99999,9,9,N","015000,1,N,1","+0067,1","-0025,1","10291,1","06,0000,9,1","24,0000,2,1",,,,"08,99,1,08,1,00,1,99999,9,07,1,99,9","999,+0046,9",,"99999,9,09871,1","2,1,008,1,+090,1",,,SYN088AAXX  03001 57328 32965 80902 10067 21025 39871 40291 52008 8807/ 333 00952 30046 79999;,Q01  00002PRCP06
03-03T03:00:00,4,31.2,107.5,344.0,"DA XIAN, CH",FM-12,99999,V020,"040,1,N,0040,1","99999,9,9,N","009000,1,N,1","+0095,1","-0088,1","10294,1",,,,,,"07,99,1,07,1,00,1,99999,9,04,1,99,9",,,,"2,1,004,1,+999,9","06,1",,SYN066AAXX  03031 57328 41959 70404 10095 21088 40294 52004 70600 8704/;,
03-03T06:00:00,4,31.2,107.5,344.0,"DA XIAN, CH",FM-12,99999,V020,"360,1,N,0020,1","99999,9,9,N","012000,1,N,1","+0127,1","-0068,1","10257,1","06,0000,9,1",,,,,"05,99,1,00,1,00,1,99999,9,00,1,01,1",,"999,N,+0064,1","99999,9,09843,1","7,1,032,1,+999,9",,,SYN076AAXX  03061 57328 32962 53602 10127 21068 39843 40257 57032 80001 333 20064;,Q01  00002PRCP06
03-03T09:00:00,4,31.2,107.5,344.0,"DA XIAN, CH",FM-12,99999,V020,"290,1,N,0020,1","99999,9,9,N","015000,1,N,1","+9999,9","+9999,9","99999,9",,,,,,"08,99,1,99,9,99,9,99999,9,99,9,99,9",,,,,,,SYN058AAXX  03091 57328 42965 82902 127 21058 40231 57027 8807/;,
03-03T12:00:00,4,31.2,107.5,344.0,"DA XIAN, CH",FM-12,99999,V020,"999,9,C,0000,1","22000,1,9,N","015000,1,N,1","+0095,1","-0015,1","10238,1","06,0000,9,1",,,,"00,1,+99999,9,99,9","00,99,1,00,1,00,1,99999,9,00,1,00,1",,,"99999,9,09820,1","2,1,004,1,+999,9",,,SYN060AAXX  03121 57328 32965 00000 10095 21015 39820 40238 52004;,Q01  00002PRCP06
03-03T15:00:00,4,31.2,107.5,344.0,"DA XIAN, CH",FM-12,99999,V020,"070,1,N,0030,1","22000,1,9,N","013000,1,N,1","+0064,1","+0000,1","10257,1",,,,,"00,1,+99999,9,99,9","00,99,1,00,1,00,1,99999,9,00,1,00,1",,,,"2,1,018,1,+999,9",,,SYN054AAXX  03151 57328 42963 00703 10064 20000 40257 52018;,
03-03T18:00:00,4,31.2,107.5,344.0,"DA XIAN, CH",FM-12,99999,V020,"040,1,N,0020,1","99999,9,9,N","008000,1,N,1","+0053,1","+0007,1","10251,1","06,0000,9,1",,,,,"07,99,1,00,1,00,1,99999,9,00,1,02,1",,"999,M,+0137,1","99999,9,09833,1","7,1,005,1,+999,9","10,1",,SYN082AAXX  03181 57328 31958 70402 10053 20007 39833 40251 57005 71000 80002 333 10137;,Q01  00002PRCP06
03-03T21:00:00,4,31.2,107.5,344.0,"DA XIAN, CH",FM-12,99999,V020,"040,1,N,0020,1","99999,9,9,N","008000,1,N,1","+0038,1","+0018,1","10233,1",,,,,,"07,99,1,00,1,00,1,99999,9,00,1,01,1",,,,"7,1,018,1,+999,9","10,1",,SYN066AAXX  03211 57328 41958 70402 10038 20018 40233 57018 71000 80001;,
03-04T00:00:00,4,31.2,107.5,344.0,"DA XIAN, CH",FM-12,99999,V020,"040,1,N,0020,1","99999,9,9,N","007000,1,N,1","+0032,1","+0014,1","10242,1","06,0000,9,1",,,,,"07,99,1,07,1,00,1,99999,9,04,1,99,9","999,+0020,9",,"99999,9,09821,1","2,1,006,1,-050,1","10,1",,SYN088AAXX  04001 57328 31957 70402 10032 20014 39821 40242 52006 71000 8704/ 333 05554 30023;,Q01  00002PRCP06
03-04T03:00:00,4,31.2,107.5,344.0,"DA XIAN, CH",FM-12,99999,V020,"020,1,N,0020,1","99999,9,9,N","008000,1,N,1","+0096,1","+0009,1","10232,1",,,,,,"07,99,1,07,1,00,1,99999,9,04,1,99,9",,,,"7,1,007,1,+999,9","06,1",,SYN066AAXX  04031 57328 41958 70202 10096 20009 40232 57007 70600 8704/;,
03-04T06:00:00,4,31.2,107.5,344.0,"DA XIAN, CH",FM-12,99999,V020,"220,1,N,0010,1","22000,1,9,N","015000,1,N,1","+0145,1","-0021,1","10188,1","06,0000,9,1",,,,"00,1,+99999,9,99,9","00,99,1,00,1,00,1,99999,9,00,1,00,1",,"999,N,+0028,1","99999,9,09774,1","7,1,040,1,+999,9",,,SYN070AAXX  04061 57328 32965 02201 10145 21021 39774 40188 57040 333 20028;,Q01  00002PRCP06
03-04T09:00:00,4,31.2,107.5,344.0,"DA XIAN, CH",FM-12,99999,V020,"140,1,N,0010,1","22000,1,9,N","015000,1,N,1","+0158,1","+0006,1","10158,1",,,,,"00,1,+99999,9,99,9","00,99,1,00,1,00,1,99999,9,00,1,00,1",,,,"7,1,029,1,+999,9",,,SYN054AAXX  04091 57328 42965 01401 10158 20006 40158 57029;,
03-04T12:00:00,4,31.2,107.5,344.0,"DA XIAN, CH",FM-12,99999,V020,"040,1,N,0010,1","22000,1,9,N","015000,1,N,1","+0113,1","+0027,1","10165,1","06,0000,9,1",,,,"00,1,+99999,9,99,9","00,99,1,00,1,00,1,99999,9,00,1,00,1",,,"99999,9,09748,1","2,1,003,1,+999,9",,,SYN060AAXX  04121 57328 32965 00401 10113 20027 39748 40165 52003;,Q01  00002PRCP06
03-04T15:00:00,4,31.2,107.5,344.0,"DA XIAN, CH",FM-12,99999,V020,"040,1,N,0040,1","99999,9,9,N","011000,1,N,1","+0089,1","+0042,1","10199,1",,,,,,"07,99,1,07,1,00,1,99999,9,04,1,99,9",,,,"2,1,036,1,+999,9",,,SYN060AAXX  04151 57328 42961 70404 10089 20042 40199 52036 8704/;,
03-04T18:00:00,4,31.2,107.5,344.0,"DA XIAN, CH",FM-12,99999,V020,"040,1,N,0010,1","22000,1,9,N","011000,1,N,1","+0080,1","+0039,1","10205,1","06,0000,9,1",,,,"00,1,+99999,9,99,9","00,99,1,00,1,00,1,99999,9,00,1,00,1",,"999,M,+0163,1","99999,9,09793,1","2,1,009,1,+999,9",,,SYN070AAXX  04181 57328 32961 00401 10080 20039 39793 40205 52009 333 10163;,Q01  00002PRCP06
03-04T21:00:00,4,31.2,107.5,344.0,"DA XIAN, CH",FM-12,99999,V020,"020,1,N,0010,1","22000,1,9,N","015000,1,N,1","+0073,1","+0036,1","10199,1",,,,,"00,1,+99999,9,99,9","00,99,1,00,1,00,1,99999,9,00,1,00,1",,,,"7,1,006,1,+999,9",,,SYN054AAXX  04211 57328 42965 00201 10073 20036 40199 57006;,
03-05T00:00:00,4,31.2,107.5,344.0,"DA XIAN, CH",FM-12,99999,V020,"160,1,N,0010,1","22000,1,9,N","008000,1,N,1","+0066,1","+0038,1","10226,1","06,0000,9,1",,,,"00,1,+99999,9,99,9","00,99,1,00,1,00,1,99999,9,00,1,00,1","999,+0040,9",,"99999,9,09809,1","2,1,022,1,-010,1","10,1",,SYN082AAXX  05001 57328 31958 01601 10066 20038 39809 40226 52022 71000 333 05103 30040;,Q01  00002PRCP06
03-05T03:00:00,4,31.2,107.5,344.0,"DA XIAN, CH",FM-12,99999,V020,"020,1,N,0010,1","22000,1,9,N","008000,1,N,1","+0125,1","+0045,1","10239,1",,,,,"00,1,+99999,9,99,9","00,99,1,00,1,00,1,99999,9,00,1,00,1",,,,"2,1,015,1,+999,9","10,1",,SYN060AAXX  05031 57328 41958 00201 10125 20045 40239 52015 71000;,
03-05T06:00:00,4,31.2,107.5,344.0,"DA XIAN, CH",FM-12,99999,V020,"160,1,N,0040,1","99999,9,9,N","020000,1,N,1","+0182,1","+0049,1","10214,1","06,0000,9,1",,,,,"07,99,1,07,1,00,1,99999,9,04,1,99,9",,"999,N,+0061,1","99999,9,09804,1","7,1,020,1,+999,9",,,SYN076AAXX  05061 57328 32970 71604 10182 20049 39804 40214 57020 8704/ 333 20061;,Q01  00002PRCP06
03-05T09:00:00,4,31.2,107.5,344.0,"DA XIAN, CH",FM-12,99999,V020,"180,1,N,0010,1","22000,1,9,N","030000,1,N,1","+0166,1","+0031,1","10204,1",,,,,,"01,99,1,01,1,00,1,99999,9,04,1,00,1",,,,"7,1,011,1,+999,9",,,SYN060AAXX  05091 57328 42980 11801 10166 20031 40204 57011 81040;,
03-05T12:00:00,4,31.2,107.5,344.0,"DA XIAN, CH",FM-12,99999,V020,"220,1,N,0010,1","22000,1,9,N","018000,1,N,1","+0137,1","+0056,1","10233,1","06,0000,9,1",,,,"00,1,+99999,9,99,9","00,99,1,00,1,00,1,99999,9,00,1,00,1",,,"99999,9,09818,1","2,1,025,1,+999,9",,,SYN060AAXX  05121 57328 32968 02201 10137 20056 39818 40233 52025;,Q01  00002PRCP06
03-05T15:00:00,4,31.2,107.5,344.0,"DA XIAN, CH",FM-12,99999,V020,"040,1,N,0010,1","99999,9,9,N","012000,1,N,1","+0113,1","+0058,1","10263,1",,,,,,"07,99,1,07,1,00,1,99999,9,04,1,99,9",,,,"2,1,031,1,+999,9",,,SYN060AAXX  05151 57328 42962 70401 10113 20058 40263 52031 8704/;,
03-05T18:00:00,4,31.2,107.5,344.0,"DA XIAN, CH",FM-12,99999,V020,"040,1,N,0040,1","99999,9,9,N","012000,1,N,1","+0089,1","+0059,1","10254,1","06,0000,9,1",,,,,"07,99,1,07,1,00,1,99999,9,04,1,99,9",,"999,M,+0183,1","99999,9,09843,1","7,1,006,1,+999,9",,,SYN076AAXX  05181 57328 32962 70404 10089 20059 39843 40254 57006 8704/ 333 10183;,Q01  00002PRCP06
03-05T21:00:00,4,31.2,107.5,344.0,"DA XIAN, CH",FM-12,99999,V020,"040,1,N,0010,1","22000,1,9,N","005000,1,N,1","+0077,1","+0062,1","10254,1",,,,,"00,1,+99999,9,99,9","00,99,1,00,1,00,1,99999,9,00,1,00,1",,,,"7,1,002,1,+999,9","10,1",,SYN060AAXX  05211 57328 41950 00401 10077 20062 40254 57002 71000;,
03-06T00:00:00,4,31.2,107.5,344.0,"DA XIAN, CH",FM-12,99999,V020,"040,1,N,0030,1","99999,9,9,N","005000,1,N,1","+0071,1","+0058,1","10277,1","06,0000,9,1",,,,,"07,99,1,07,1,00,1,99999,9,04,1,99,9",,,"99999,9,09860,1","2,1,019,1,+005,1","10,1",,SYN082AAXX  06001 57328 31950 70403 10071 20058 39860 40277 52019 71000 8704/ 333 00501;,Q01  00002PRCP06
03-06T03:00:00,4,31.2,107.5,344.0,"DA XIAN, CH",FM-12,99999,V020,"040,1,N,0010,1","99999,9,9,N","005000,1,N,1","+0111,1","+0067,1","10295,1",,,,,,"07,99,1,07,1,00,1,99999,9,01,1,99,9",,,,"2,1,019,1,+999,9","10,1",,SYN066AAXX  06031 57328 41950 70401 10111 20067 40295 52019 71000 8701/;,
03-06T06:00:00,4,31.2,107.5,344.0,"DA XIAN, CH",FM-12,99999,V020,"160,1,N,0010,1","99999,9,9,N","006000,1,N,1","+0133,1","+0068,1","10281,1","06,0000,9,1",,,,,"08,99,1,08,1,00,1,99999,9,02,1,99,9",,"999,N,+0069,1","99999,9,09865,1","7,1,014,1,+999,9","10,1",,SYN082AAXX  06061 57328 31956 81601 10133 20068 39865 40281 57014 71000 8802/ 333 20069;,Q01  00002PRCP06
03-06T09:00:00,4,31.2,107.5,344.0,"DA XIAN, CH",FM-12,99999,V020,"160,1,N,0010,1","99999,9,9,N","007000,1,N,1","+0132,1","+0073,1","10275,1",,,,,,"08,99,1,08,1,00,1,99999,9,02,1,99,9",,,,"7,1,006,1,+999,9","10,1",,SYN066AAXX  06091 57328 41957 81601 10132 20073 40275 57006 71000 8802/;,
03-06T12:00:00,4,31.2,107.5,344.0,"DA XIAN, CH",FM-12,99999,V020,"250,1,N,0010,1","99999,9,9,N","007000,1,N,1","+0122,1","+0075,1","10295,1","06,0000,9,1",,,,,"07,99,1,07,1,00,1,99999,9,01,1,99,9",,,"99999,9,09877,1","2,1,018,1,+999,9","10,1",,SYN072AAXX  06121 57328 31957 72501 10122 20075 39877 40295 52018 71000 8701/;,Q01  00002PRCP06
03-06T15:00:00,4,31.2,107.5,344.0,"DA XIAN, CH",FM-12,99999,V020,"160,1,N,0010,1","99999,9,9,N","006000,1,N,1","+0110,1","+0080,1","10319,1",,,,,,"08,99,1,08,1,00,1,99999,9,02,1,99,9",,,,"2,1,025,1,+999,9","10,1",,SYN066AAXX  06151 57328 41956 81601 10110 20080 40319 52025 71000 8802/;,
03-06T18:00:00,4,31.2,107.5,344.0,"DA XIAN, CH",FM-12,99999,V020,"999,9,C,0000,1","99999,9,9,N","004000,1,N,1","+0104,1","+0084,1","10322,1","06,9999,9,9",,"6,1,06,1",,,"08,99,1,08,1,00,1,99999,9,02,1,99,9",,"999,M,+0134,1","99999,9,09906,1","2,1,004,1,+999,9","60,1",,SYN088AAXX  06181 57328 11940 80000 10104 20084 39906 40322 52004 69901 76060 8802/ 333 10134;,
03-06T21:00:00,4,31.2,107.5,344.0,"DA XIAN, CH",FM-12,99999,V020,"999,9,C,0000,1","99999,9,9,N","003000,1,N,1","+0101,1","+0085,1","10316,1","24,0000,2,1",,"6,1,03,1",,,"08,99,1,08,1,00,1,99999,9,02,1,99,9",,,,"7,1,006,1,+999,9","60,1",,SYN076AAXX  06211 57328 41930 80000 10101 20085 40316 57006 76060 8802/ 333 79999;,
03-07T00:00:00,4,31.2,107.5,344.0,"DA XIAN, CH",FM-12,99999,V020,"200,1,N,0010,1","99999,9,9,N","003000,1,N,1","+0101,1","+0081,1","10329,1","06,9999,9,9","24,0000,2,1","6,1,06,1",,,"08,99,1,08,1,00,1,99999,9,07,1,99,9",,,"99999,9,09911,1","2,1,011,1,+050,1","10,1",,SYN094AAXX  07001 57328 11930 82001 10101 20081 39911 40329 52011 69901 71060 8807/ 333 00503 79999;,
03-07T03:00:00,4,31.2,107.5,344.0,"DA XIAN, CH",FM-12,99999,V020,"250,1,N,0010,1","99999,9,9,N","020000,1,N,1","+0107,1","+0065,1","10349,1",,,,,,"08,99,1,08,1,00,1,99999,9,07,1,99,9",,,,"2,1,019,1,+999,9",,,SYN060AAXX  07031 57328 42970 82501 10107 20065 40349 52019 8807/;,
03-07T06:00:00,4,31.2,107.5,344.0,"DA XIAN, CH",FM-12,99999,V020,"270,1,N,0010,1","02100,1,9,N","012000,1,N,1","+0111,1","+0067,1","10331,1","06,9999,9,9",,"6,1,06,1",,,"08,99,1,08,1,05,1,02250,1,99,9,99,9",,"999,N,+0094,1","99999,9,09913,1","7,1,017,1,+999,9","60,1",,SYN088AAXX  07061 57328 11862 82701 10111 20067 39913 40331 57017 69911 76060 885// 333 20094;,
03-07T09:00:00,4,31.2,107.5,344.0,"DA XIAN, CH",FM-12,99999,V020,"040,1,N,0020,1","02100,1,9,N","012000,1,N,1","+0107,1","+0083,1","10315,1",,,"6,1,03,1","6,1,03,1",,"08,99,1,08,1,05,1,02250,1,99,9,99,9",,,,"7,1,016,1,+999,9","60,1",,SYN066AAXX  07091 57328 41862 80402 10107 20083 40315 57016 76066 885//;,
03-07T12:00:00,4,31.2,107.5,344.0,"DA XIAN, CH",FM-12,99999,V020,"020,1,N,0010,1","02100,1,9,N","009000,1,N,1","+0101,1","+0081,1","10327,1","06,0003,9,1",,"6,1,06,1","6,1,06,1",,"08,99,1,08,1,05,1,02250,1,99,9,99,9",,,"99999,9,09908,1","2,1,011,1,+999,9","60,1",,SYN078AAXX  07121 57328 11859 80201 10101 20081 39908 40327 52011 69931 76066 885//;,
03-07T15:00:00,4,31.2,107.5,344.0,"DA XIAN, CH",FM-12,99999,V020,"040,1,N,0020,1","02100,1,9,N","012000,1,N,1","+0096,1","+0082,1","10347,1",,,"6,1,03,1",,,"08,99,1,08,1,05,1,02250,1,99,9,99,9",,,,"2,1,019,1,+999,9","00,1",,SYN066AAXX  07151 57328 41862 80402 10096 20082 40347 52019 70060 885//;,
03-07T18:00:00,4,31.2,107.5,344.0,"DA XIAN, CH",FM-12,99999,V020,"040,1,N,0010,1","99999,9,9,N","008000,1,N,1","+0090,1","+0080,1","10348,1","06,9999,9,9",,"6,1,06,1",,,"07,99,1,07,1,00,1,99999,9,04,1,99,9",,"999,M,+0117,1","99999,9,09928,1","2,1,001,1,+999,9","10,1",,SYN088AAXX  07181 57328 11958 70401 10090 20080 39928 40348 52001 69901 71060 8704/ 333 10117;,
03-07T21:00:00,4,31.2,107.5,344.0,"DA XIAN, CH",FM-12,99999,V020,"999,9,C,0000,1","99999,9,9,N","005000,1,N,1","+0089,1","+0079,1","10342,1","24,0005,9,1",,,,,"08,99,1,08,1,00,1,99999,9,07,1,99,9",,,,"7,1,006,1,+999,9","10,1",,SYN076AAXX  07211 57328 41950 80000 10089 20079 40342 57006 71000 8807/ 333 70004;,
03-08T00:00:00,4,31.2,107.5,344.0,"DA XIAN, CH",FM-12,99999,V020,"160,1,N,0010,1","99999,9,9,N","002000,1,N,1","+0088,1","+0073,1","10348,1","06,0000,9,1","24,0005,9,1",,,,"08,99,1,08,1,00,1,99999,9,02,1,99,9",,,"99999,9,09927,1","2,1,005,1,+020,1","10,1",,SYN088AAXX  08001 57328 31920 81601 10088 20073 39927 40348 52005 71000 8802/ 333 00251 70004;,Q01  00002PRCP06
03-08T03:00:00,4,31.2,107.5,344.0,"DA XIAN, CH",FM-12,99999,V020,"160,1,N,0010,1","22000,1,9,N","005000,1,N,1","+0125,1","+0074,1","10356,1",,,,,,"01,99,1,01,1,01,1,00800,1,00,1,00,1",,,,"2,1,010,1,+999,9","10,1",,SYN066AAXX  08031 57328 41550 11601 10125 20074 40356 52010 71000 81100;,
03-08T06:00:00,4,31.2,107.5,344.0,"DA XIAN, CH",FM-12,99999,V020,"360,1,N,0010,1","99999,9,9,N","015000,1,N,1","+0143,1","+0055,1","10325,1","06,0000,9,1",,,,,"07,99,1,07,1,00,1,99999,9,04,1,99,9",,"999,N,+0083,1","99999,9,09908,1","7,1,029,1,+999,9",,,SYN076AAXX  08061 57328 32965 73601 10143 20055 39908 40325 57029 8704/ 333 20083;,Q01  00002PRCP06
03-08T09:00:00,4,31.2,107.5,344.0,"DA XIAN, CH",FM-12,99999,V020,"140,1,N,0010,1","99999,9,9,N","020000,1,N,1","+0146,1","+0054,1","10293,1",,,,,,"07,99,1,07,1,00,1,99999,9,04,1,99,9",,,,"7,1,030,1,+999,9",,,SYN060AAXX  08091 57328 42970 71401 10146 20054 40293 57030 8704/;,
03-08T12:00:00,4,31.2,107.5,344.0,"DA XIAN, CH",FM-12,99999,V020,"020,1,N,0010,1","22000,1,9,N","020000,1,N,1","+0121,1","+0065,1","10284,1","06,0000,9,1",,,,"00,1,+99999,9,99,9","00,99,1,00,1,00,1,99999,9,00,1,00,1",,,"99999,9,09867,1","7,1,011,1,+999,9",,,SYN060AAXX  08121 57328 32970 00201 10121 20065 39867 40284 57011;,Q01  00002PRCP06
03-08T15:00:00,4,31.2,107.5,344.0,"DA XIAN, CH",FM-12,99999,V020,"040,1,N,0020,1","22000,1,9,N","015000,1,N,1","+0083,1","+0064,1","10277,1",,,,,"00,1,+99999,9,99,9","00,99,1,00,1,00,1,99999,9,00,1,00,1",,,,"7,1,007,1,+999,9",,,SYN054AAXX  08151 57328 42965 00402 10083 20064 40277 57007;,
03-08T18:00:00,4,31.2,107.5,344.0,"DA XIAN, CH",FM-12,99999,V020,"020,1,N,0030,1","99999,9,9,N","015000,1,N,1","+0071,1","+0060,1","10249,1","06,0000,9,1",,,,,"07,99,1,07,1,00,1,99999,9,04,1,99,9",,"999,M,+0146,1","99999,9,09834,1","7,1,026,1,+999,9",,,SYN076AAXX  08181 57328 32965 70203 10071 20060 39834 40249 57026 8704/ 333 10146;,Q01  00002PRCP06
03-08T21:00:00,4,31.2,107.5,344.0,"DA XIAN, CH",FM-12,99999,V020,"020,1,N,0010,1","22000,1,9,N","008000,1,N,1","+0059,1","+0050,1","10215,1",,,,,"00,1,+99999,9,99,9","00,99,1,00,1,00,1,99999,9,00,1,00,1",,,,"7,1,033,1,+999,9","10,1",,SYN060AAXX  08211 57328 41958 00201 10059 20050 40215 57033 71000;,
03-09T00:00:00,4,31.2,107.5,344.0,"DA XIAN, CH",FM-12,99999,V020,"040,1,N,0020,1","22000,1,9,N","004000,1,N,1","+0060,1","+0049,1","10207,1","06,0000,9,1",,,,,"04,99,1,04,1,00,1,99999,9,04,1,00,1","999,+0040,9",,"99999,9,09791,1","7,1,010,1,-140,1","10,1",,SYN088AAXX  09001 57328 31940 40402 10060 20049 39791 40207 57010 71000 84040 333 06453 30048;,Q01  00002PRCP06
03-09T03:00:00,4,31.2,107.5,344.0,"DA XIAN, CH",FM-12,99999,V020,"040,1,N,0010,1","22000,1,9,N","020000,1,N,1","+0128,1","+0052,1","10192,1",,,,,"00,1,+99999,9,99,9","00,99,1,00,1,00,1,99999,9,00,1,00,1",,,,"7,1,012,1,+999,9",,,SYN054AAXX  09031 57328 42970 00401 10128 20052 40192 57012;,
03-09T06:00:00,4,31.2,107.5,344.0,"DA XIAN, CH",FM-12,99999,V020,"220,1,N,0010,1","22000,1,9,N","030000,1,N,1","+0167,1","+0053,1","10146,1","06,0000,9,1",,,,"00,1,+99999,9,99,9","00,99,1,00,1,00,1,99999,9,00,1,00,1",,"999,N,+0051,1","99999,9,09737,1","7,1,042,1,+999,9",,,SYN070AAXX  09061 57328 32980 02201 10167 20053 39737 40146 57042 333 20051;,Q01  00002PRCP06
03-09T09:00:00,4,31.2,107.5,344.0,"DA XIAN, CH",FM-12,99999,V020,"250,1,N,0010,1","22000,1,9,N","030000,1,N,1","+0197,1","+0072,1","10106,1",,,,,"00,1,+99999,9,99,9","00,99,1,00,1,00,1,99999,9,00,1,00,1",,,,"7,1,037,1,+999,9",,,SYN054AAXX  09091 57328 42980 02501 10197 20072 40106 57037;,
03-09T12:00:00,4,31.2,107.5,344.0,"DA XIAN, CH",FM-12,99999,V020,"040,1,N,0010,1","22000,1,9,N","015000,1,N,1","+0149,1","+0083,1","10098,1","06,0000,9,1",,,,"00,1,+99999,9,99,9","00,99,1,00,1,00,1,99999,9,00,1,00,1",,,"99999,9,09689,1","7,1,011,1,+999,9",,,SYN060AAXX  09121 57328 32965 00401 10149 20083 39689 40098 57011;,Q01  00002PRCP06
03-09T15:00:00,4,31.2,107.5,344.0,"DA XIAN, CH",FM-12,99999,V020,"999,9,C,0000,1","22000,1,9,N","005000,1,N,1","+0107,1","+0083,1","10094,1",,,,,"00,1,+99999,9,99,9","00,99,1,00,1,00,1,99999,9,00,1,00,1",,,,"7,1,002,1,+999,9","10,1",,SYN060AAXX  09151 57328 41950 00000 10107 20083 40094 57002 71000;,
03-09T18:00:00,4,31.2,107.5,344.0,"DA XIAN, CH",FM-12,99999,V020,"040,1,N,0010,1","22000,1,9,N","007000,1,N,1","+0095,1","+0072,1","10082,1","06,0000,9,1",,,,"00,1,+99999,9,99,9","00,99,1,00,1,00,1,99999,9,00,1,00,1",,"999,M,+0198,1","99999,9,09677,1","7,1,010,1,+999,9","10,1",,SYN076AAXX  09181 57328 31957 00401 10095 20072 39677 40082 57010 71000 333 10198;,Q01  00002PRCP06
03-09T21:00:00,4,31.2,107.5,344.0,"DA XIAN, CH",FM-12,99999,V020,"020,1,N,0020,1","22000,1,9,N","007000,1,N,1","+0089,1","+0068,1","10062,1",,,,,"00,1,+99999,9,99,9","00,99,1,00,1,00,1,99999,9,00,1,00,1",,,,"7,1,017,1,+999,9","10,1",,SYN060AAXX  09211 57328 41957 00202 10089 20068 40062 57017 71000;,
03-10T00:00:00,4,31.2,107.5,344.0,"DA XIAN, CH",FM-12,99999,V020,"999,9,C,0000,1","22000,1,9,N","002000,1,N,1","+0085,1","+0068,1","10083,1","06,0000,9,1",,,,"00,1,+99999,9,99,9","00,99,1,00,1,00,1,99999,9,00,1,00,1",,,"99999,9,09676,1","2,1,016,1,+012,1","10,1",,SYN076AAXX  10001 57328 31920 00000 10085 20068 39676 40083 52016 71000 333 06203;,Q01  00002PRCP06
03-10T03:00:00,4,31.2,107.5,344.0,"DA XIAN, CH",FM-12,99999,V020,"999,9,C,0000,1","22000,1,9,N","002000,1,N,1","+0153,1","+0083,1","10099,1",,,,,"00,1,+99999,9,99,9","00,99,1,00,1,00,1,99999,9,00,1,00,1",,,,"2,1,017,1,+999,9","10,1",,SYN060AAXX  10031 57328 41920 00000 10153 20083 40099 52017 71000;,
03-10T06:00:00,4,31.2,107.5,344.0,"DA XIAN, CH",FM-12,99999,V020,"180,1,N,0020,1","22000,1,9,N","011000,1,N,1","+0211,1","+0089,1","10066,1","06,0000,9,1",,,,"00,1,+99999,9,99,9","00,99,1,00,1,00,1,99999,9,00,1,00,1",,"999,N,+0079,1","99999,9,09665,1","7,1,028,1,+999,9",,,SYN070AAXX  10061 57328 32961 01802 10211 20089 39665 40066 57028 333 20079;,Q01  00002PRCP06
03-10T09:00:00,4,31.2,107.5,344.0,"DA XIAN, CH",FM-12,99999,V020,"220,1,N,0020,1","99999,9,9,N","012000,1,N,1","+0216,1","+0089,1","10057,1",,,,,,"05,99,1,00,1,00,1,99999,9,00,1,01,1",,,,"7,1,009,1,+999,9",,,SYN060AAXX  10091 57328 42962 52202 10216 20089 40057 57009 80001;,
03-10T12:00:00,4,31.2,107.5,344.0,"DA XIAN, CH",FM-12,99999,V020,"999,9,C,0000,1","22000,1,9,N","008000,1,N,1","+0179,1","+0104,1","10071,1","06,0000,9,1",,,,"00,1,+99999,9,99,9","00,99,1,00,1,00,1,99999,9,00,1,00,1",,,"99999,9,09667,1","2,1,011,1,+999,9","10,1",,SYN066AAXX  10121 57328 31958 00000 10179 20104 39667 40071 52011 71000;,Q01  00002PRCP06
03-10T15:00:00,4,31.2,107.5,344.0,"DA XIAN, CH",FM-12,99999,V020,"160,1,N,0010,1","22000,1,9,N","007000,1,N,1","+0149,1","+0110,1","10099,1",,,,,"00,1,+99999,9,99,9","00,99,1,00,1,00,1,99999,9,00,1,00,1",,,,"2,1,029,1,+999,9","10,1",,SYN060AAXX  10151 57328 41957 01601 10149 20110 40099 52029 71000;,
03-10T18:00:00,4,31.2,107.5,344.0,"DA XIAN, CH",FM-12,99999,V020,"999,9,C,0000,1","99999,9,9,N","005000,1,N,1","+0139,1","+0113,1","10087,1","06,0000,9,1",,,,,"08,99,1,08,1,00,1,99999,9,07,1,99,9",,"999,M,+0224,1","99999,9,09688,1","7,1,008,1,+999,9","10,1",,SYN082AAXX  10181 57328 31950 80000 10139 20113 39688 40087 57008 71000 8807/ 333 10224;,Q01  00002PRCP06
03-10T21:00:00,4,31.2,107.5,344.0,"DA XIAN, CH",FM-12,99999,V020,"999,9,C,0000,1","99999,9,9,N","005000,1,N,1","+0140,1","+0116,1","10083,1",,,,,,"08,99,1,08,1,00,1,99999,9,07,1,99,9",,,,"7,1,004,1,+999,9","10,1",,SYN066AAXX  10211 57328 41950 80000 10140 20116 40083 57004 71000 8807/;,
03-11T00:00:00,4,31.2,107.5,344.0,"DA XIAN, CH",FM-12,99999,V020,"999,9,C,0000,1","99999,9,9,N","002000,1,N,1","+0140,1","+0118,1","10104,1","06,0000,9,1",,,,,"08,99,1,08,1,00,1,99999,9,07,1,99,9",,,"99999,9,09702,1","2,1,018,1,+003,1","10,1",,SYN082AAXX  11001 57328 31920 80000 10140 20118 39702 40104 52018 71000 8807/ 333 00306;,Q01  00002PRCP06
03-11T03:00:00,4,31.2,107.5,344.0,"DA XIAN, CH",FM-12,99999,V020,"999,9,C,0000,1","99999,9,9,N","002000,1,N,1","+0142,1","+0118,1","10117,1",,,,,,"08,99,1,08,1,00,1,99999,9,07,1,99,9",,,,"2,1,011,1,+999,9","10,1",,SYN066AAXX  11031 57328 41920 80000 10142 20118 40117 52011 71000 8807/;,
03-11T06:00:00,4,31.2,107.5,344.0,"DA XIAN, CH",FM-12,99999,V020,"070,1,N,0030,1","99999,9,9,N","007000,1,N,1","+0164,1","+0074,1","10107,1","06,0000,9,1",,,,,"08,99,1,08,1,00,1,99999,9,07,1,99,9",,"999,N,+0132,1","99999,9,09704,1","7,1,009,1,+999,9","10,1",,SYN082AAXX  11061 57328 31957 80703 10164 20074 39704 40107 57009 71000 8807/ 333 20132;,Q01  00002PRCP06
03-11T09:00:00,4,31.2,107.5,344.0,"DA XIAN, CH",FM-12,99999,V020,"020,1,N,0070,1","99999,9,9,N","008000,1,N,1","+0149,1","+0035,1","10139,1",,,,,,"08,99,1,08,1,00,1,99999,9,07,1,99,9",,,,"2,1,030,1,+999,9","06,1",,SYN066AAXX  11091 57328 41958 80207 10149 20035 40139 52030 70600 8807/;,
03-11T12:00:00,4,31.2,107.5,344.0,"DA XIAN, CH",FM-12,99999,V020,"040,1,N,0060,1","02100,1,9,N","007000,1,N,1","+0094,1","+0064,1","10190,1","06,0003,9,1",,"6,1,06,1",,,"08,99,1,08,1,05,1,02250,1,99,9,99,9",,,"99999,9,09779,1","2,1,045,1,+999,9","60,1",,SYN078AAXX  11121 57328 11857 80406 10094 20064 39779 40190 52045 69931 76060 885//;,
03-11T15:00:00,4,31.2,107.5,344.0,"DA XIAN, CH",FM-12,99999,V020,"040,1,N,0020,1","02100,1,9,N","008000,1,N,1","+0099,1","+0051,1","10209,1",,,"6,1,03,1",,,"08,99,1,08,1,05,1,02250,1,99,9,99,9",,,,"2,1,019,1,+999,9","10,1",,SYN066AAXX  11151 57328 41858 80402 10099 20051 40209 52019 71060 885//;,
03-11T18:00:00,4,31.2,107.5,344.0,"DA XIAN, CH",FM-12,99999,V020,"040,1,N,0020,1","02100,1,9,N","008000,1,N,1","+0101,1","+0044,1","10209,1","06,9999,9,9",,"6,1,06,1",,,"08,99,1,08,1,05,1,02250,1,99,9,99,9",,"999,M,+0168,1","99999,9,09799,1","2,1,001,1,+999,9","10,1",,SYN088AAXX  11181 57328 11858 80402 10101 20044 39799 40209 52001 69921 71060 885// 333 10168;,
03-11T21:00:00,4,31.2,107.5,344.0,"DA XIAN, CH",FM-12,99999,V020,"040,1,N,0020,1","02100,1,9,N","012000,1,N,1","+0099,1","+0046,1","10209,1","24,0005,9,1",,,,,"08,99,1,08,1,05,1,02250,1,99,9,99,9",,,,"7,1,001,1,+999,9",,,SYN070AAXX  11211 57328 42862 80402 10099 20046 40209 57001 885// 333 70005;,
03-12T00:00:00,4,31.2,107.5,344.0,"DA XIAN, CH",FM-12,99999,V020,"999,9,C,0000,1","99999,9,9,N","020000,1,N,1","+0100,1","+0055,1","10223,1","06,0000,9,1","24,0005,9,1",,,,"08,99,1,08,1,00,1,99999,9,07,1,99,9",,,"99999,9,09808,1","2,1,010,1,+110,1",,,SYN082AAXX  12001 57328 32970 80000 10100 20055 39808 40223 52010 8807/ 333 01154 70005;,Q01  00002PRCP06
03-12T03:00:00,4,31.2,107.5,344.0,"DA XIAN, CH",FM-12,99999,V020,"999,9,C,0000,1","99999,9,9,N","012000,1,N,1","+0111,1","+0063,1","10230,1",,,,,,"08,99,1,08,1,00,1,99999,9,07,1,99,9",,,,"2,1,007,1,+999,9",,,SYN060AAXX  12031 57328 42962 80000 10111 20063 40230 52007 8807/;,
03-12T06:00:00,4,31.2,107.5,344.0,"DA XIAN, CH",FM-12,99999,V020,"040,1,N,0010,1","99999,9,9,N","030000,1,N,1","+0115,1","+0051,1","10211,1","06,0000,9,1",,,,,"08,99,1,08,1,00,1,99999,9,07,1,99,9",,"999,N,+0089,1","99999,9,09798,1","7,1,017,1,+999,9",,,SYN076AAXX  12061 57328 32980 80401 10115 20051 39798 40211 57017 8807/ 333 20089;,Q01  00002PRCP06
03-12T09:00:00,4,31.2,107.5,344.0,"DA XIAN, CH",FM-12,99999,V020,"180,1,N,0020,1","99999,9,9,N","030000,1,N,1","+0125,1","+0065,1","10187,1",,,,,,"08,99,1,08,1,00,1,99999,9,07,1,99,9",,,,"7,1,023,1,+999,9",,,SYN060AAXX  12091 57328 42980 81802 10125 20065 40187 57023 8807/;,
03-12T12:00:00,4,31.2,107.5,344.0,"DA XIAN, CH",FM-12,99999,V020,"040,1,N,0010,1","99999,9,9,N","020000,1,N,1","+0119,1","+0077,1","10189,1","06,0000,9,1",,,,,"08,99,1,08,1,00,1,99999,9,07,1,99,9",,,"99999,9,09777,1","2,1,002,1,+999,9",,,SYN066AAXX  12121 57328 32970 80401 10119 20077 39777 40189 52002 8807/;,Q01  00002PRCP06
03-12T15:00:00,4,31.2,107.5,344.0,"DA XIAN, CH",FM-12,99999,V020,"040,1,N,0030,1","22000,1,9,N","012000,1,N,1","+0097,1","+0076,1","10210,1",,,,,,"04,99,1,04,1,00,1,99999,9,04,1,00,1",,,,"2,1,019,1,+999,9",,,SYN060AAXX  12151 57328 42962 40403 10097 20076 40210 52019 84040;,
03-12T18:00:00,4,31.2,107.5,344.0,"DA XIAN, CH",FM-12,99999,V020,"040,1,N,0030,1","99999,9,9,N","008000,1,N,1","+0094,1","+0073,1","10211,1","06,0000,9,1",,,,,"08,99,1,08,1,00,1,99999,9,07,1,99,9",,"999,M,+0125,1","99999,9,09797,1","2,1,001,1,+999,9","10,1",,SYN082AAXX  12181 57328 31958 80403 10094 20073 39797 40211 52001 71000 8807/ 333 10125;,Q01  00002PRCP06
03-12T21:00:00,4,31.2,107.5,344.0,"DA XIAN, CH",FM-12,99999,V020,"040,1,N,0020,1","99999,9,9,N","004000,1,N,1","+0085,1","+0072,1","10200,1",,,,,,"06,99,1,06,1,00,1,99999,9,04,1,00,1",,,,"7,1,010,1,+999,9","10,1",,SYN066AAXX  12211 57328 41940 60402 10085 20072 40200 57010 71000 86040;,
03-13T00:00:00,4,31.2,107.5,344.0,"DA XIAN, CH",FM-12,99999,V020,"040,1,N,0020,1","99999,9,9,N","007000,1,N,1","+0082,1","+0067,1","10215,1","06,0000,9,1",,,,,"07,99,1,00,1,00,1,99999,9,00,1,02,1",,,"99999,9,09800,1","2,1,013,1,+001,1","10,1",,SYN082AAXX  13001 57328 31957 70402 10082 20067 39800 40215 52013 71000 80002 333 05152;,Q01  00002PRCP06
03-13T03:00:00,4,31.2,107.5,344.0,"DA XIAN, CH",FM-12,99999,V020,"040,1,N,0030,1","99999,9,9,N","013000,1,N,1","+0150,1","+0082,1","10213,1",,,,,,"06,99,1,06,1,00,1,99999,9,04,1,00,1",,,,"2,1,002,1,+999,9",,,SYN060AAXX  13031 57328 42963 60403 10150 20082 40213 52002 86040;,
03-13T06:00:00,4,31.2,107.5,344.0,"DA XIAN, CH",FM-12,99999,V020,"270,1,N,0020,1","22000,1,9,N","015000,1,N,1","+0181,1","+0072,1","10184,1","06,0000,9,1",,,,,"02,99,1,02,1,01,1,01250,1,00,1,00,1",,"999,N,+0075,1","99999,9,09776,1","7,1,026,1,+999,9",,,SYN076AAXX  13061 57328 32665 22702 10181 20072 39776 40184 57026 82100 333 20075;,Q01  00002PRCP06
03-13T09:00:00,4,31.2,107.5,344.0,"DA XIAN, CH",FM-12,99999,V020,"220,1,N,0030,1","99999,9,9,N","020000,1,N,1","+0187,1","+0085,1","10171,1",,,,,,"07,99,1,07,1,00,1,99999,9,04,1,99,9",,,,"7,1,013,1,+999,9",,,SYN060AAXX  13091 57328 42970 72203 10187 20085 40171 57013 8704/;,
03-13T12:00:00,4,31.2,107.5,344.0,"DA XIAN, CH",FM-12,99999,V020,"180,1,N,0010,1","22000,1,9,N","015000,1,N,1","+0163,1","+0097,1","10201,1","06,0000,9,1",,,,"00,1,+99999,9,99,9","00,99,1,00,1,00,1,99999,9,00,1,00,1",,,"99999,9,09790,1","2,1,027,1,+999,9",,,SYN060AAXX  13121 57328 32965 01801 10163 20097 39790 40201 52027;,Q01  00002PRCP06
03-13T15:00:00,4,31.2,107.5,344.0,"DA XIAN, CH",FM-12,99999,V020,"140,1,N,0010,1","99999,9,9,N","008000,1,N,1","+0140,1","+0102,1","10226,1",,,,,,"08,99,1,08,1,00,1,99999,9,07,1,99,9",,,,"2,1,027,1,+999,9","10,1",,SYN066AAXX  13151 57328 41958 81401 10140 20102 40226 52027 71000 8807/;,
03-13T18:00:00,4,31.2,107.5,344.0,"DA XIAN, CH",FM-12,99999,V020,"999,9,C,0000,1","99999,9,9,N","005000,1,N,1","+0121,1","+0102,1","10236,1","06,0000,9,1",,,,,"08,99,1,08,1,00,1,99999,9,07,1,99,9",,"999,M,+0198,1","99999,9,09828,1","2,1,011,1,+999,9","10,1",,SYN082AAXX  13181 57328 31950 80000 10121 20102 39828 40236 52011 71000 8807/ 333 10198;,Q01  00002PRCP06
03-13T21:00:00,4,31.2,107.5,344.0,"DA XIAN, CH",FM-12,99999,V020,"040,1,N,0020,1","99999,9,9,N","003000,1,N,1","+0116,1","+0099,1","10228,1",,,,,,"08,99,1,08,1,00,1,99999,9,07,1,99,9",,,,"7,1,008,1,+999,9","10,1",,SYN066AAXX  13211 57328 41930 80402 10116 20099 40228 57008 71000 8807/;,
03-14T00:00:00,4,31.2,107.5,344.0,"DA XIAN, CH",FM-12,99999,V020,"040,1,N,0020,1","99999,9,9,N","003000,1,N,1","+0119,1","+0100,1","10236,1","06,0000,9,1",,,,,"08,99,1,08,1,00,1,99999,9,07,1,99,9",,,"99999,9,09826,1","2,1,006,1,+003,1","10,1",,SYN082AAXX  14001 57328 31930 80402 10119 20100 39826 40236 52006 71000 8807/ 333 00304;,Q01  00002PRCP06
03-14T03:00:00,4,31.2,107.5,344.0,"DA XIAN, CH",FM-12,99999,V020,"020,1,N,0020,1","99999,9,9,N","004000,1,N,1","+0155,1","+0113,1","10241,1",,,,,,"07,99,1,07,1,00,1,99999,9,04,1,99,9",,,,"2,1,006,1,+999,9","10,1",,SYN066AAXX  14031 57328 41940 70202 10155 20113 40241 52006 71000 8704/;,
03-14T06:00:00,4,31.2,107.5,344.0,"DA XIAN, CH",FM-12,99999,V020,"270,1,N,0010,1","22000,1,9,N","011000,1,N,1","+0201,1","+0107,1","10206,1","06,0000,9,1",,,,,"01,99,1,01,1,01,1,00800,1,00,1,00,1",,"999,N,+0113,1","99999,9,09800,1","7,1,032,1,+999,9",,,SYN076AAXX  14061 57328 32561 12701 10201 20107 39800 40206 57032 81100 333 20113;,Q01  00002PRCP06
03-14T09:00:00,4,31.2,107.5,344.0,"DA XIAN, CH",FM-12,99999,V020,"360,1,N,0010,1","22000,1,9,N","015000,1,N,1","+0221,1","+0107,1","10168,1",,,,,"00,1,+99999,9,99,9","00,99,1,00,1,00,1,99999,9,00,1,00,1",,,,"7,1,035,1,+999,9",,,SYN054AAXX  14091 57328 42965 03601 10221 20107 40168 57035;,
03-14T12:00:00,4,31.2,107.5,344.0,"DA XIAN, CH",FM-12,99999,V020,"040,1,N,0010,1","22000,1,9,N","012000,1,N,1","+0181,1","+0117,1","10166,1","06,0000,9,1",,,,"00,1,+99999,9,99,9","00,99,1,00,1,00,1,99999,9,00,1,00,1",,,"99999,9,09760,1","7,1,005,1,+999,9",,,SYN060AAXX  14121 57328 32962 00401 10181 20117 39760 40166 57005;,Q01  00002PRCP06
03-14T15:00:00,4,31.2,107.5,344.0,"DA XIAN, CH",FM-12,99999,V020,"040,1,N,0020,1","22000,1,9,N","007000,1,N,1","+0141,1","+0115,1","10177,1",,,,,"00,1,+99999,9,99,9","00,99,1,00,1,00,1,99999,9,00,1,00,1",,,,"2,1,011,1,+999,9","10,1",,SYN060AAXX  14151 57328 41957 00402 10141 20115 40177 52011 71000;,
03-14T18:00:00,4,31.2,107.5,344.0,"DA XIAN, CH",FM-12,99999,V020,"040,1,N,0030,1","22000,1,9,N","003000,1,N,1","+0124,1","+0109,1","10169,1","06,0000,9,1",,,,"00,1,+99999,9,99,9","00,99,1,00,1,00,1,99999,9,00,1,00,1",,"999,M,+0223,1","99999,9,09765,1","7,1,006,1,+999,9","10,1",,SYN076AAXX  14181 57328 31930 00403 10124 20109 39765 40169 57006 71000 333 10223;,Q01  00002PRCP06
03-14T21:00:00,4,31.2,107.5,344.0,"DA XIAN, CH",FM-12,99999,V020,"360,1,N,0010,1","22000,1,9,N","003000,1,N,1","+0115,1","+0102,1","10151,1",,,,,"00,1,+99999,9,99,9","00,99,1,00,1,00,1,99999,9,00,1,00,1",,,,"7,1,017,1,+999,9","10,1",,SYN060AAXX  14211 57328 41930 03601 10115 20102 40151 57017 71000;,
03-15T00:00:00,4,31.2,107.5,344.0,"DA XIAN, CH",FM-12,99999,V020,"040,1,N,0030,1","99999,9,9,N","003000,1,N,1","+0108,1","+0098,1","10150,1","06,0000,9,1",,,,,"07,99,1,07,1,00,1,99999,9,04,1,99,9",,,"99999,9,09744,1","7,1,004,1,+008,1","10,1",,SYN082AAXX  15001 57328 31930 70403 10108 20098 39744 40150 57004 71000 8704/ 333 05851;,Q01  00002PRCP06
03-15T03:00:00,4,31.2,107.5,344.0,"DA XIAN, CH",FM-12,99999,V020,"040,1,N,0020,1","99999,9,9,N","006000,1,N,1","+0160,1","+0115,1","10150,1",,,,,,"07,99,1,00,1,00,1,99999,9,00,1,08,1",,,,"2,1,001,1,+999,9","10,1",,SYN066AAXX  15031 57328 41956 70402 10160 20115 40150 52001 71000 80008;,
03-15T06:00:00,4,31.2,107.5,344.0,"DA XIAN, CH",FM-12,99999,V020,"160,1,N,0010,1","99999,9,9,N","018000,1,N,1","+0221,1","+0131,1","10108,1","06,0000,9,1",,,,,"07,99,1,00,1,00,1,99999,9,00,1,02,1",,"999,N,+0105,1","99999,9,09708,1","7,1,037,1,+999,9",,,SYN076AAXX  15061 57328 32968 71601 10221 20131 39708 40108 57037 80002 333 20105;,Q01  00002PRCP06
03-15T09:00:00,4,31.2,107.5,344.0,"DA XIAN, CH",FM-12,99999,V020,"999,9,C,0000,1","22000,1,9,N","020000,1,N,1","+0231,1","+0108,1","10075,1",,,,,,"02,99,1,02,1,00,1,99999,9,04,1,00,1",,,,"7,1,032,1,+999,9",,,SYN060AAXX  15091 57328 42970 20000 10231 20108 40075 57032 82040;,
03-15T12:00:00,4,31.2,107.5,344.0,"DA XIAN, CH",FM-12,99999,V020,"999,9,C,0000,1","99999,9,9,N","012000,1,N,1","+0191,1","+0127,1","10083,1","06,0000,9,1",,,,,"05,99,1,05,1,00,1,99999,9,04,1,00,1",,,"99999,9,09681,1","2,1,005,1,+999,9",,,SYN066AAXX  15121 57328 32962 50000 10191 20127 39681 40083 52005 85040;,Q01  00002PRCP06
03-15T15:00:00,4,31.2,107.5,344.0,"DA XIAN, CH",FM-12,99999,V020,"999,9,C,0000,1","99999,9,9,N","012000,1,N,1","+0160,1","+0126,1","10095,1",,,,,,"07,99,1,00,1,00,1,99999,9,00,1,02,1",,,,"2,1,013,1,+999,9",,,SYN060AAXX  15151 57328 42962 70000 10160 20126 40095 52013 80002;,
03-15T18:00:00,4,31.2,107.5,344.0,"DA XIAN, CH",FM-12,99999,V020,"020,1,N,0010,1","99999,9,9,N","008000,1,N,1","+0149,1","+0124,1","10095,1","06,0000,9,1",,,,,"07,99,1,07,1,00,1,99999,9,04,1,99,9",,"999,M,+0232,1","99999,9,09697,1","2,1,003,1,+999,9","10,1",,SYN082AAXX  15181 57328 31958 70201 10149 20124 39697 40095 52003 71000 8704/ 333 10232;,Q01  00002PRCP06
03-15T21:00:00,4,31.2,107.5,344.0,"DA XIAN, CH",FM-12,99999,V020,"040,1,N,0010,1","99999,9,9,N","006000,1,N,1","+0141,1","+0123,1","10079,1",,,,,,"08,99,1,08,1,00,1,99999,9,07,1,99,9",,,,"7,1,015,1,+999,9","10,1",,SYN066AAXX  15211 57328 41956 80401 10141 20123 40079 57015 71000 8807/;,
03-16T00:00:00,4,31.2,107.5,344.0,"DA XIAN, CH",FM-12,99999,V020,"999,9,C,0000,1","22000,1,9,N","003000,1,N,1","+0133,1","+0120,1","10082,1","06,0000,9,1",,,,"00,1,+99999,9,99,9","00,99,1,00,1,00,1,99999,9,00,1,00,1",,,"99999,9,09681,1","7,1,001,1,+006,1","10,1",,SYN076AAXX  16001 57328 31930 00000 10133 20120 39681 40082 57001 71000 333 05603;,Q01  00002PRCP06
03-16T03:00:00,4,31.2,107.5,344.0,"DA XIAN, CH",FM-12,99999,V020,"999,9,C,0000,1","99999,9,9,N","005000,1,N,1","+0197,1","+0124,1","10097,1",,,,,,"07,99,1,07,1,00,1,99999,9,04,1,99,9",,,,"2,1,017,1,+999,9","10,1",,SYN066AAXX  16031 57328 41950 70000 10197 20124 40097 52017 71000 8704/;,
03-16T06:00:00,4,31.2,107.5,344.0,"DA XIAN, CH",FM-12,99999,V020,"999,9,C,0000,1","22000,1,9,N","011000,1,N,1","+0249,1","+0136,1","10063,1","06,0000,9,1",,,,"00,1,+99999,9,99,9","00,99,1,00,1,00,1,99999,9,00,1,00,1",,"999,N,+0128,1","99999,9,09668,1","7,1,030,1,+999,9",,,SYN070AAXX  16061 57328 32961 00000 10249 20136 39668 40063 57030 333 20128;,Q01  00002PRCP06
03-16T09:00:00,4,31.2,107.5,344.0,"DA XIAN, CH",FM-12,99999,V020,"200,1,N,0010,1","22000,1,9,N","012000,1,N,1","+0263,1","+0133,1","10035,1",,,,,"00,1,+99999,9,99,9","00,99,1,00,1,00,1,99999,9,00,1,00,1",,,,"7,1,026,1,+999,9",,,SYN054AAXX  16091 57328 42962 02001 10263 20133 40035 57026;,
03-16T12:00:00,4,31.2,107.5,344.0,"DA XIAN, CH",FM-12,99999,V020,"180,1,N,0010,1","22000,1,9,N","012000,1,N,1","+0215,1","+0141,1","10053,1","06,0000,9,1",,,,"00,1,+99999,9,99,9","00,99,1,00,1,00,1,99999,9,00,1,00,1",,,"99999,9,09655,1","2,1,013,1,+999,9",,,SYN060AAXX  16121 57328 32962 01801 10215 20141 39655 40053 52013;,Q01  00002PRCP06
03-16T15:00:00,4,31.2,107.5,344.0,"DA XIAN, CH",FM-12,99999,V020,"999,9,C,0000,1","22000,1,9,N","005000,1,N,1","+0182,1","+0147,1","10084,1",,,,,"00,1,+99999,9,99,9","00,99,1,00,1,00,1,99999,9,00,1,00,1",,,,"2,1,032,1,+999,9","10,1",,SYN060AAXX  16151 57328 41950 00000 10182 20147 40084 52032 71000;,
03-16T18:00:00,4,31.2,107.5,344.0,"DA XIAN, CH",FM-12,99999,V020,"040,1,N,0020,1","22000,1,9,N","004000,1,N,1","+0156,1","+0139,1","10093,1","06,0000,9,1",,,,"00,1,+99999,9,99,9","00,99,1,00,1,00,1,99999,9,00,1,00,1",,"999,M,+0265,1","99999,9,09697,1","2,1,010,1,+999,9","10,1",,SYN076AAXX  16181 57328 31940 00402 10156 20139 39697 40093 52010 71000 333 10265;,Q01  00002PRCP06
03-16T21:00:00,4,31.2,107.5,344.0,"DA XIAN, CH",FM-12,99999,V020,"040,1,N,0030,1","99999,9,9,N","004000,1,N,1","+0155,1","+0134,1","10096,1",,,,,,"08,99,1,08,1,00,1,99999,9,07,1,99,9",,,,"2,1,004,1,+999,9","10,1",,SYN066AAXX  16211 57328 41940 80403 10155 20134 40096 52004 71000 8807/;,
03-17T00:00:00,4,31.2,107.5,344.0,"DA XIAN, CH",FM-12,99999,V020,"040,1,N,0020,1","02100,1,9,N","007000,1,N,1","+0163,1","+0135,1","10127,1","06,0000,9,1",,,,,"08,99,1,08,1,05,1,02250,1,99,9,99,9",,,"99999,9,09728,1","2,1,027,1,+005,1","10,1",,SYN082AAXX  17001 57328 31857 80402 10163 20135 39728 40127 52027 71000 885// 333 00503;,Q01  00002PRCP06
03-17T03:00:00,4,31.2,107.5,344.0,"DA XIAN, CH",FM-12,99999,V020,"040,1,N,0030,1","99999,9,9,N","008000,1,N,1","+0199,1","+0112,1","10138,1",,,,,,"07,99,1,07,1,00,1,99999,9,04,1,99,9",,,,"2,1,011,1,+999,9","10,1",,SYN066AAXX  17031 57328 41958 70403 10199 20112 40138 52011 71000 8704/;,
03-17T06:00:00,4,31.2,107.5,344.0,"DA XIAN, CH",FM-12,99999,V020,"290,1,N,0010,1","99999,9,9,N","015000,1,N,1","+0239,1","+0100,1","10128,1","06,0000,9,1",,,,,"07,99,1,07,1,00,1,99999,9,04,1,99,9",,"999,N,+0151,1","99999,9,09730,1","7,1,009,1,+999,9",,,SYN076AAXX  17061 57328 32965 72901 10239 20100 39730 40128 57009 8704/ 333 20151;,Q01  00002PRCP06
03-17T09:00:00,4,31.2,107.5,344.0,"DA XIAN, CH",FM-12,99999,V020,"020,1,N,0010,1","99999,9,9,N","012000,1,N,1","+0237,1","+0111,1","10115,1",,,,,,"08,99,1,08,1,00,1,99999,9,07,1,99,9",,,,"7,1,012,1,+999,9",,,SYN060AAXX  17091 57328 42962 80201 10237 20111 40115 57012 8807/;,
03-17T12:00:00,4,31.2,107.5,344.0,"DA XIAN, CH",FM-12,99999,V020,"320,1,N,0020,1","99999,9,9,N","012000,1,N,1","+0219,1","+0107,1","10128,1","06,0000,9,1",,,,,"08,99,1,08,1,00,1,99999,9,07,1,99,9",,,"99999,9,09729,1","2,1,011,1,+999,9",,,SYN066AAXX  17121 57328 32962 83202 10219 20107 39729 40128 52011 8807/;,Q01  00002PRCP06
03-17T15:00:00,4,31.2,107.5,344.0,"DA XIAN, CH",FM-12,99999,V020,"040,1,N,0020,1","99999,9,9,N","007000,1,N,1","+0195,1","+0117,1","10152,1",,,,,,"08,99,1,08,1,00,1,99999,9,07,1,99,9",,,,"2,1,024,1,+999,9","10,1",,SYN066AAXX  17151 57328 41957 80402 10195 20117 40152 52024 71000 8807/;,
03-17T18:00:00,4,31.2,107.5,344.0,"DA XIAN, CH",FM-12,99999,V020,"020,1,N,0020,1","99999,9,9,N","007000,1,N,1","+0173,1","+0111,1","10143,1","06,0000,9,1",,,,,"08,99,1,08,1,00,1,99999,9,07,1,99,9",,"999,M,+0247,1","99999,9,09746,1","7,1,007,1,+999,9","10,1",,SYN082AAXX  17181 57328 31957 80202 10173 20111 39746 40143 57007 71000 8807/ 333 10247;,Q01  00002PRCP06
03-17T21:00:00,4,31.2,107.5,344.0,"DA XIAN, CH",FM-12,99999,V020,"999,9,C,0000,1","99999,9,9,N","007000,1,N,1","+0170,1","+0099,1","10133,1",,,,,,"08,99,1,08,1,00,1,99999,9,07,1,99,9",,,,"7,1,010,1,+999,9","10,1",,SYN066AAXX  17211 57328 41957 80000 10170 20099 40133 57010 71000 8807/;,
03-18T00:00:00,4,31.2,107.5,344.0,"DA XIAN, CH",FM-12,99999,V020,"090,1,N,0030,1","02100,1,9,N","008000,1,N,1","+0174,1","+0089,1","10153,1","06,9999,9,9","24,0000,2,1",,,,"08,99,1,08,1,05,1,02250,1,99,9,99,9",,,"99999,9,09754,1","2,1,018,1,+030,1","60,1",,SYN094AAXX  18001 57328 11858 80903 10174 20089 39754 40153 52018 69901 76000 885// 333 00301 79999;,
03-18T03:00:00,4,31.2,107.5,344.0,"DA XIAN, CH",FM-12,99999,V020,"020,1,N,0030,1","99999,9,9,N","011000,1,N,1","+0186,1","+0090,1","10163,1",,,"6,1,03,1",,,"08,99,1,08,1,00,1,99999,9,07,1,99,9",,,,"2,1,009,1,+999,9","00,1",,SYN066AAXX  18031 57328 41961 80203 10186 20090 40163 52009 70060 8807/;,
03-18T06:00:00,4,31.2,107.5,344.0,"DA XIAN, CH",FM-12,99999,V020,"140,1,N,0010,1","99999,9,9,N","015000,1,N,1","+0215,1","+0072,1","10132,1","06,9999,9,9",,"6,1,06,1",,,"07,99,1,07,1,00,1,99999,9,03,1,99,9",,"999,N,+0163,1","99999,9,09734,1","7,1,029,1,+999,9","00,1",,SYN088AAXX  18061 57328 11965 71401 10215 20072 39734 40132 57029 69901 70060 8703/ 333 20163;,
03-18T09:00:00,4,31.2,107.5,344.0,"DA XIAN, CH",FM-12,99999,V020,"110,1,N,0030,1","02100,1,9,N","015000,1,N,1","+0221,1","+0081,1","10108,1",,,,,,"06,99,1,06,1,05,1,02250,1,00,1,00,1",,,,"7,1,023,1,+999,9",,,SYN060AAXX  18091 57328 42865 61103 10221 20081 40108 57023 86500;,
03-18T12:00:00,4,31.2,107.5,344.0,"DA XIAN, CH",FM-12,99999,V020,"040,1,N,0010,1","99999,9,9,N","012000,1,N,1","+0198,1","+0099,1","10108,1","06,0000,9,1",,,,,"06,99,1,06,1,00,1,99999,9,04,1,00,1",,,"99999,9,09710,1","7,1,001,1,+999,9",,,SYN066AAXX  18121 57328 32962 60401 10198 20099 39710 40108 57001 86040;,Q01  00002PRCP06
03-18T15:00:00,4,31.2,107.5,344.0,"DA XIAN, CH",FM-12,99999,V020,"040,1,N,0010,1","02100,1,9,N","012000,1,N,1","+0177,1","+0104,1","10137,1",,,,,,"08,99,1,08,1,05,1,02250,1,99,9,99,9",,,,"2,1,027,1,+999,9",,,SYN060AAXX  18151 57328 42862 80401 10177 20104 40137 52027 885//;,
03-18T18:00:00,4,31.2,107.5,344.0,"DA XIAN, CH",FM-12,99999,V020,"040,1,N,0010,1","02100,1,9,N","008000,1,N,1","+0165,1","+0096,1","10126,1","06,0000,9,1",,,,,"08,99,1,08,1,05,1,02250,1,99,9,99,9",,"999,M,+0227,1","99999,9,09727,1","7,1,010,1,+999,9","10,1",,SYN082AAXX  18181 57328 31858 80401 10165 20096 39727 40126 57010 71000 885// 333 10227;,Q01  00002PRCP06
03-18T21:00:00,4,31.2,107.5,344.0,"DA XIAN, CH",FM-12,99999,V020,"020,1,N,0020,1","99999,9,9,N","008000,1,N,1","+0153,1","+0074,1","10109,1","24,0000,2,1",,,,,"07,99,1,07,1,00,1,99999,9,04,1,99,9",,,,"7,1,016,1,+999,9","10,1",,SYN076AAXX  18211 57328 41958 70202 10153 20074 40109 57016 71000 8704/ 333 79999;,
03-19T00:00:00,4,31.2,107.5,344.0,"DA XIAN, CH",FM-12,99999,V020,"040,1,N,0020,1","99999,9,9,N","015000,1,N,1","+0151,1","+0054,1","10123,1","06,0000,9,1","24,0000,2,1",,,,"08,99,1,08,1,00,1,99999,9,02,1,99,9",,,"99999,9,09722,1","2,1,011,1,-030,1",,,SYN082AAXX  19001 57328 32965 80402 10151 20054 39722 40123 52011 8802/ 333 05352 79999;,Q01  00002PRCP06
03-19T03:00:00,4,31.2,107.5,344.0,"DA XIAN, CH",FM-12,99999,V020,"040,1,N,0020,1","99999,9,9,N","015000,1,N,1","+0149,1","+0059,1","10136,1",,,"6,1,03,1",,,"08,99,1,08,1,00,1,99999,9,02,1,99,9",,,,"2,1,011,1,+999,9","21,1",,SYN066AAXX  19031 57328 41965 80402 10149 20059 40136 52011 72160 8802/;,
03-19T06:00:00,4,31.2,107.5,344.0,"DA XIAN, CH",FM-12,99999,V020,"040,1,N,0070,1","99999,9,9,N","030000,1,N,1","+0147,1","+0051,1","10125,1","06,9999,9,9",,"6,1,06,1",,,"08,99,1,08,1,00,1,99999,9,02,1,99,9",,"999,N,+0144,1","99999,9,09722,1","7,1,011,1,+999,9","00,1",,SYN088AAXX  19061 57328 11980 80407 10147 20051 39722 40125 57011 69901 70060 8802/ 333 20144;,
03-19T09:00:00,4,31.2,107.5,344.0,"DA XIAN, CH",FM-12,99999,V020,"040,1,N,0040,1","99999,9,9,N","030000,1,N,1","+0137,1","+0051,1","10122,1",,,,,,"08,99,1,08,1,00,1,99999,9,07,1,99,9",,,,"7,1,005,1,+999,9",,,SYN060AAXX  19091 57328 42980 80404 10137 20051 40122 57005 8807/;,
03-19T12:00:00,4,31.2,107.5,344.0,"DA XIAN, CH",FM-12,99999,V020,"020,1,N,0060,1","99999,9,9,N","020000,1,N,1","+0134,1","+0028,1","10138,1","06,0000,9,1",,,,,"08,99,1,08,1,00,1,99999,9,07,1,99,9",,,"99999,9,09732,1","2,1,015,1,+999,9",,,SYN066AAXX  19121 57328 32970 80206 10134 20028 39732 40138 52015 8807/;,Q01  00002PRCP06
03-19T15:00:00,4,31.2,107.5,344.0,"DA XIAN, CH",FM-12,99999,V020,"070,1,N,0020,1","99999,9,9,N","020000,1,N,1","+0137,1","+0037,1","10161,1",,,,,,"08,99,1,08,1,00,1,99999,9,07,1,99,9",,,,"2,1,023,1,+999,9",,,SYN060AAXX  19151 57328 42970 80702 10137 20037 40161 52023 8807/;,
03-19T18:00:00,4,31.2,107.5,344.0,"DA XIAN, CH",FM-12,99999,V020,"040,1,N,0020,1","99999,9,9,N","015000,1,N,1","+0133,1","+0051,1","10148,1","06,0000,9,1",,,,,"08,99,1,08,1,00,1,99999,9,07,1,99,9",,"999,M,+0164,1","99999,9,09742,1","7,1,013,1,+999,9",,,SYN076AAXX  19181 57328 32965 80402 10133 20051 39742 40148 57013 8807/ 333 10164;,Q01  00002PRCP06
03-19T21:00:00,4,31.2,107.5,344.0,"DA XIAN, CH",FM-12,99999,V020,"999,9,C,0000,1","02100,1,9,N","005000,1,N,1","+0105,1","+0085,1","10147,1","24,0061,9,1",,"6,1,03,1",,,"08,99,1,08,1,05,1,02250,1,99,9,99,9",,,,"7,1,004,1,+999,9","60,1",,SYN076AAXX  19211 57328 41850 80000 10105 20085 40147 57004 76060 885// 333 70060;,
03-20T00:00:00,4,31.2,107.5,344.0,"DA XIAN, CH",FM-12,99999,V020,"040,1,N,0030,1","02100,1,9,N","005000,1,N,1","+0099,1","+0089,1","10157,1","06,0089,9,1","24,0091,9,1","6,1,06,1",,,"08,99,1,08,1,05,1,02250,1,99,9,99,9",,,"99999,9,09747,1","2,1,009,1,+030,1","60,1",,SYN094AAXX  20001 57328 11850 80403 10099 20089 39747 40157 52009 60091 76060 885// 333 00355 70091;,
03-20T03:00:00,4,31.2,107.5,344.0,"DA XIAN, CH",FM-12,99999,V020,"040,1,N,0020,1","02100,1,9,N","004000,1,N,1","+0104,1","+0094,1","10168,1",,,"6,1,03,1","6,1,03,1",,"08,99,1,08,1,05,1,02250,1,99,9,99,9",,,,"2,1,011,1,+999,9","60,1",,SYN066AAXX  20031 57328 41840 80402 10104 20094 40168 52011 76066 885//;,
03-20T06:00:00,4,31.2,107.5,344.0,"DA XIAN, CH",FM-12,99999,V020,"020,1,N,0040,1","00750,1,9,N","008000,1,N,1","+0099,1","+0091,1","10157,1","06,0041,9,1",,"6,1,06,1","6,1,06,1",,"08,99,1,08,1,05,1,00800,1,99,9,99,9",,"999,N,+0096,1","99999,9,09747,1","7,1,011,1,+999,9","60,1",,SYN088AAXX  20061 57328 11558 80204 10099 20091 39747 40157 57011 60041 76066 885// 333 20096;,
03-20T09:00:00,4,31.2,107.5,344.0,"DA XIAN, CH",FM-12,99999,V020,"020,1,N,0030,1","02100,1,9,N","012000,1,N,1","+0100,1","+0086,1","10153,1",,,"6,1,03,1","6,1,03,1",,"08,99,1,08,1,05,1,02250,1,99,9,99,9",,,,"7,1,006,1,+999,9","60,1",,SYN066AAXX  20091 57328 41862 80203 10100 20086 40153 57006 76066 885//;,
03-20T12:00:00,4,31.2,107.5,344.0,"DA XIAN, CH",FM-12,99999,V020,"020,1,N,0020,1","99999,9,9,N","015000,1,N,1","+0102,1","+0075,1","10184,1","06,0010,9,1",,"6,1,06,1",,,"08,99,1,08,1,00,1,99999,9,02,1,99,9",,,"99999,9,09771,1","2,1,030,1,+999,9","00,1",,SYN078AAXX  20121 57328 11965 80202 10102 20075 39771 40184 52030 60011 70060 8802/;,
03-20T15:00:00,4,31.2,107.5,344.0,"DA XIAN, CH",FM-12,99999,V020,"360,1,N,0020,1","99999,9,9,N","015000,1,N,1","+0105,1","+0041,1","10213,1",,,,,,"08,99,1,08,1,00,1,99999,9,07,1,99,9",,,,"2,1,028,1,+999,9",,,SYN060AAXX  20151 57328 42965 83602 10105 20041 40213 52028 8807/;,
03-20T18:00:00,4,31.2,107.5,344.0,"DA XIAN, CH",FM-12,99999,V020,"090,1,N,0020,1","99999,9,9,N","012000,1,N,1","+0097,1","+0039,1","10200,1","06,0000,9,1",,,,,"08,99,1,08,1,00,1,99999,9,07,1,99,9",,"999,M,+0133,1","99999,9,09786,1","7,1,013,1,+999,9",,,SYN076AAXX  20181 57328 32962 80902 10097 20039 39786 40200 57013 8807/ 333 10133;,Q01  00002PRCP06
03-20T21:00:00,4,31.2,107.5,344.0,"DA XIAN, CH",FM-12,99999,V020,"040,1,N,0010,1","99999,9,9,N","020000,1,N,1","+0091,1","+0047,1","10201,1","24,0079,9,1",,,,,"08,99,1,08,1,00,1,99999,9,07,1,99,9",,,,"4,1,000,1,+999,9",,,SYN070AAXX  20211 57328 42970 80401 10091 20047 40201 54000 8807/ 333 70080;,
03-21T00:00:00,4,31.2,107.5,344.0,"DA XIAN, CH",FM-12,99999,V020,"070,1,N,0010,1","99999,9,9,N","030000,1,N,1","+0093,1","+0047,1","10206,1","06,0000,9,1","24,0048,9,1",,,,"08,99,1,08,1,00,1,99999,9,07,1,99,9",,,"99999,9,09791,1","2,1,005,1,+040,1",,,SYN082AAXX  21001 57328 32980 80701 10093 20047 39791 40206 52005 8807/ 333 00451 70049;,Q01  00002PRCP06
03-21T03:00:00,4,31.2,107.5,344.0,"DA XIAN, CH",FM-12,99999,V020,"999,9,C,0000,1","99999,9,9,N","030000,1,N,1","+0122,1","+0052,1","10211,1",,,,,,"08,99,1,08,1,00,1,99999,9,07,1,99,9",,,,"2,1,007,1,+999,9",,,SYN060AAXX  21031 57328 42980 80000 10122 20052 40211 52007 8807/;,
03-21T09:00:00,4,31.2,107.5,344.0,"DA XIAN, CH",FM-12,99999,V020,"160,1,N,0030,1","99999,9,9,N","030000,1,N,1","+0153,1","+0069,1","10142,1",,,,,,"07,99,1,07,1,00,1,99999,9,04,1,99,9",,,,"7,1,034,1,+999,9",,,SYN060AAXX  21091 57328 42980 71603 10153 20069 40142 57034 8704/;,
03-21T12:00:00,4,31.2,107.5,344.0,"DA XIAN, CH",FM-12,99999,V020,"999,9,C,0000,1","22000,1,9,N","020000,1,N,1","+0139,1","+0089,1","10140,1","06,0000,9,1",,,,"00,1,+99999,9,99,9","00,99,1,00,1,00,1,99999,9,00,1,00,1",,,"99999,9,09731,1","7,1,002,1,+999,9",,,SYN060AAXX  21121 57328 32970 00000 10139 20089 39731 40140 57002;,Q01  00002PRCP06
03-21T15:00:00,4,31.2,107.5,344.0,"DA XIAN, CH",FM-12,99999,V020,"070,1,N,0010,1","22000,1,9,N","015000,1,N,1","+0120,1","+0091,1","10165,1",,,,,"00,1,+99999,9,99,9","00,99,1,00,1,00,1,99999,9,00,1,00,1",,,,"2,1,024,1,+999,9",,,SYN054AAXX  21151 57328 42965 00701 10120 20091 40165 52024;,
03-21T18:00:00,4,31.2,107.5,344.0,"DA XIAN, CH",FM-12,99999,V020,"160,1,N,0030,1","02100,1,9,N","004000,1,N,1","+0119,1","+0102,1","10179,1","06,0008,9,1",,"6,1,06,1",,,"08,99,1,08,1,05,1,02250,1,99,9,99,9",,"999,M,+0168,1","99999,9,09771,1","2,1,016,1,+999,9","60,1",,SYN088AAXX  21181 57328 11840 81603 10119 20102 39771 40179 52016 69981 76060 885// 333 10168;,
03-21T21:00:00,4,31.2,107.5,344.0,"DA XIAN, CH",FM-12,99999,V020,"290,1,N,0010,1","02100,1,9,N","018000,1,N,1","+0119,1","+0098,1","10156,1","24,0076,9,1",,"6,1,03,1","6,1,03,1",,"08,99,1,08,1,05,1,02250,1,99,9,99,9",,,,"7,1,022,1,+999,9","60,1",,SYN076AAXX  21211 57328 41868 82901 10119 20098 40156 57022 76066 885// 333 70076;,
03-22T00:00:00,4,31.2,107.5,344.0,"DA XIAN, CH",FM-12,99999,V020,"040,1,N,0010,1","02100,1,9,N","003000,1,N,1","+0113,1","+0103,1","10173,1","06,0071,9,1","24,0076,9,1","6,1,06,1",,,"08,99,1,08,1,05,1,02250,1,99,9,99,9",,,"99999,9,09764,1","2,1,015,1,-030,1","10,1",,SYN094AAXX  22001 57328 11830 80401 10113 20103 39764 40173 52015 60071 71060 885// 333 05302 70076;,
03-22T03:00:00,4,31.2,107.5,344.0,"DA XIAN, CH",FM-12,99999,V020,"020,1,N,0010,1","02100,1,9,N","008000,1,N,1","+0132,1","+0110,1","10186,1",,,,,,"08,99,1,08,1,05,1,02250,1,99,9,99,9",,,,"2,1,012,1,+999,9","10,1",,SYN066AAXX  22031 57328 41858 80201 10132 20110 40186 52012 71000 885//;,
03-22T06:00:00,4,31.2,107.5,344.0,"DA XIAN, CH",FM-12,99999,V020,"160,1,N,0010,1","02100,1,9,N","030000,1,N,1","+0149,1","+0087,1","10163,1","06,0000,9,1",,,,,"08,99,1,08,1,05,1,02250,1,99,9,99,9",,"999,N,+0107,1","99999,9,09755,1","7,1,021,1,+999,9",,,SYN076AAXX  22061 57328 32880 81601 10149 20087 39755 40163 57021 885// 333 20107;,Q01  00002PRCP06
03-22T09:00:00,4,31.2,107.5,344.0,"DA XIAN, CH",FM-12,99999,V020,"040,1,N,0010,1","99999,9,9,N","025000,1,N,1","+0153,1","+0101,1","10142,1",,,,,,"08,99,1,08,1,00,1,99999,9,07,1,99,9",,,,"7,1,020,1,+999,9",,,SYN060AAXX  22091 57328 42975 80401 10153 20101 40142 57020 8807/;,
03-22T12:00:00,4,31.2,107.5,344.0,"DA XIAN, CH",FM-12,99999,V020,"999,9,C,0000,1","02100,1,9,N","015000,1,N,1","+0143,1","+0104,1","10156,1","06,0000,9,1",,,,,"08,99,1,08,1,05,1,02250,1,99,9,99,9",,,"99999,9,09748,1","2,1,013,1,+999,9",,,SYN066AAXX  22121 57328 32865 80000 10143 20104 39748 40156 52013 885//;,Q01  00002PRCP06
03-22T15:00:00,4,31.2,107.5,344.0,"DA XIAN, CH",FM-12,99999,V020,"999,9,C,0000,1","02100,1,9,N","012000,1,N,1","+0131,1","+0105,1","10180,1",,,,,,"08,99,1,08,1,05,1,02250,1,99,9,99,9",,,,"2,1,023,1,+999,9",,,SYN060AAXX  22151 57328 42862 80000 10131 20105 40180 52023 885//;,
03-22T18:00:00,4,31.2,107.5,344.0,"DA XIAN, CH",FM-12,99999,V020,"180,1,N,0030,1","02100,1,9,N","012000,1,N,1","+0125,1","+0104,1","10180,1","06,0000,9,1",,,,,"08,99,1,08,1,05,1,02250,1,99,9,99,9",,"999,M,+0153,1","99999,9,09772,1","2,1,001,1,+999,9",,,SYN076AAXX  22181 57328 32862 81803 10125 20104 39772 40180 52001 885// 333 10153;,Q01  00002PRCP06
03-22T21:00:00,4,31.2,107.5,344.0,"DA XIAN, CH",FM-12,99999,V020,"999,9,C,0000,1","02100,1,9,N","012000,1,N,1","+0125,1","+0106,1","10165,1","24,0000,2,1",,,,,"08,99,1,08,1,05,1,02250,1,99,9,99,9",,,,"7,1,014,1,+999,9",,,SYN070AAXX  22211 57328 42862 80000 10125 20106 40165 57014 885// 333 79999;,
03-23T00:00:00,4,31.2,107.5,344.0,"DA XIAN, CH",FM-12,99999,V020,"999,9,C,0000,1","02100,1,9,N","005000,1,N,1","+0121,1","+0108,1","10163,1","06,0000,9,1",,,,,"08,99,1,08,1,05,1,02250,1,99,9,99,9",,,"99999,9,09755,1","7,1,003,1,+001,1","10,1",,SYN082AAXX  23001 57328 31850 80000 10121 20108 39755 40163 57003 71000 885// 333 05101;,Q01  00002PRCP06
03-23T03:00:00,4,31.2,107.5,344.0,"DA XIAN, CH",FM-12,99999,V020,"999,9,C,0000,1","99999,9,9,N","012000,1,N,1","+0137,1","+0109,1","10164,1",,,,,,"08,99,1,08,1,00,1,99999,9,07,1,99,9",,,,"2,1,001,1,+999,9",,,SYN060AAXX  23031 57328 42962 80000 10137 20109 40164 52001 8807/;,
03-23T06:00:00,4,31.2,107.5,344.0,"DA XIAN, CH",FM-12,99999,V020,"250,1,N,0010,1","02100,1,9,N","012000,1,N,1","+0161,1","+0106,1","10128,1","06,0000,9,1",,,,,"07,99,1,07,1,05,1,02250,1,00,1,00,1",,"999,N,+0114,1","99999,9,09723,1","7,1,033,1,+999,9",,,SYN076AAXX  23061 57328 32862 72501 10161 20106 39723 40128 57033 87500 333 20114;,Q01  00002PRCP06
03-23T09:00:00,4,31.2,107.5,344.0,"DA XIAN, CH",FM-12,99999,V020,"250,1,N,0010,1","99999,9,9,N","020000,1,N,1","+0187,1","+0105,1","10087,1",,,,,,"05,99,1,00,1,00,1,99999,9,00,1,02,1",,,,"7,1,038,1,+999,9",,,SYN060AAXX  23091 57328 42970 52501 10187 20105 40087 57038 80002;,
03-23T12:00:00,4,31.2,107.5,344.0,"DA XIAN, CH",FM-12,99999,V020,"999,9,C,0000,1","99999,9,9,N","012000,1,N,1","+0165,1","+0114,1","10118,1","06,0000,9,1",,,,,"08,99,1,08,1,00,1,99999,9,07,1,99,9",,,"99999,9,09713,1","2,1,028,1,+999,9",,,SYN066AAXX  23121 57328 32962 80000 10165 20114 39713 40118 52028 8807/;,Q01  00002PRCP06
03-23T15:00:00,4,31.2,107.5,344.0,"DA XIAN, CH",FM-12,99999,V020,"270,1,N,0020,1","99999,9,9,N","005000,1,N,1","+0151,1","+0113,1","10126,1",,,,,,"08,99,1,08,1,00,1,99999,9,07,1,99,9",,,,"2,1,008,1,+999,9","10,1",,SYN066AAXX  23151 57328 41950 82702 10151 20113 40126 52008 71000 8807/;,
03-23T18:00:00,4,31.2,107.5,344.0,"DA XIAN, CH",FM-12,99999,V020,"999,9,C,0000,1","99999,9,9,N","007000,1,N,1","+0147,1","+0114,1","10125,1","06,0000,9,1",,,,,"08,99,1,08,1,00,1,99999,9,07,1,99,9",,"999,M,+0187,1","99999,9,09722,1","2,1,001,1,+999,9","10,1",,SYN082AAXX  23181 57328 31957 80000 10147 20114 39722 40125 52001 71000 8807/ 333 10187;,Q01  00002PRCP06
03-23T21:00:00,4,31.2,107.5,344.0,"DA XIAN, CH",FM-12,99999,V020,"020,1,N,0020,1","99999,9,9,N","005000,1,N,1","+0137,1","+0119,1","10127,1","24,0000,2,1",,,,,"08,99,1,08,1,00,1,99999,9,07,1,99,9",,,,"2,1,003,1,+999,9","60,1",,SYN076AAXX  23211 57328 41950 80202 10137 20119 40127 52003 76000 8807/ 333 79999;,
03-24T00:00:00,4,31.2,107.5,344.0,"DA XIAN, CH",FM-12,99999,V020,"040,1,N,0020,1","99999,9,9,N","007000,1,N,1","+0133,1","+0120,1","10139,1","06,9999,9,9","24,0000,2,1","6,1,06,1",,,"08,99,1,08,1,00,1,99999,9,02,1,99,9",,,"99999,9,09734,1","2,1,009,1,-020,1","60,1",,SYN094AAXX  24001 57328 11957 80402 10133 20120 39734 40139 52009 69901 76060 8802/ 333 05201 79999;,
03-24T03:00:00,4,31.2,107.5,344.0,"DA XIAN, CH",FM-12,99999,V020,"040,1,N,0020,1","02100,1,9,N","008000,1,N,1","+0139,1","+0119,1","10142,1",,,"6,1,03,1",,,"08,99,1,08,1,05,1,02250,1,99,9,99,9",,,,"2,1,003,1,+999,9","10,1",,SYN066AAXX  24031 57328 41858 80402 10139 20119 40142 52003 71060 885//;,
03-24T06:00:00,4,31.2,107.5,344.0,"DA XIAN, CH",FM-12,99999,V020,"040,1,N,0020,1","99999,9,9,N","008000,1,N,1","+0142,1","+0120,1","10121,1","06,9999,9,9",,"6,1,06,1",,,"08,99,1,08,1,00,1,99999,9,02,1,99,9",,"999,N,+0129,1","99999,9,09716,1","7,1,021,1,+999,9","60,1",,SYN088AAXX  24061 57328 11958 80402 10142 20120 39716 40121 57021 69901 76060 8802/ 333 20129;,
03-24T09:00:00,4,31.2,107.5,344.0,"DA XIAN, CH",FM-12,99999,V020,"040,1,N,0020,1","02100,1,9,N","012000,1,N,1","+0139,1","+0097,1","10120,1",,,"6,1,03,1",,,"08,99,1,08,1,05,1,02250,1,99,9,99,9",,,,"7,1,001,1,+999,9","60,1",,SYN066AAXX  24091 57328 41862 80402 10139 20097 40120 57001 76060 885//;,
03-24T12:00:00,4,31.2,107.5,344.0,"DA XIAN, CH",FM-12,99999,V020,"070,1,N,0010,1","02100,1,9,N","016000,1,N,1","+0131,1","+0099,1","10140,1","06,9999,9,9",,"6,1,06,1",,,"08,99,1,08,1,05,1,02250,1,99,9,99,9",,,"99999,9,09733,1","2,1,018,1,+999,9","21,1",,SYN078AAXX  24121 57328 11866 80701 10131 20099 39733 40140 52018 69901 72160 885//;,
03-24T15:00:00,4,31.2,107.5,344.0,"DA XIAN, CH",FM-12,99999,V020,"999,9,C,0000,1","99999,9,9,N","012000,1,N,1","+0127,1","+0108,1","10160,1",,,,,,"08,99,1,08,1,00,1,99999,9,07,1,99,9",,,,"2,1,019,1,+999,9",,,SYN060AAXX  24151 57328 42962 80000 10127 20108 40160 52019 8807/;,
03-24T18:00:00,4,31.2,107.5,344.0,"DA XIAN, CH",FM-12,99999,V020,"040,1,N,0010,1","99999,9,9,N","014000,1,N,1","+0123,1","+0100,1","10161,1","06,0000,2,1",,,,,"08,99,1,08,1,00,1,99999,9,07,1,99,9",,"999,M,+0147,1","99999,9,09753,1","2,1,001,1,+999,9",,,SYN076AAXX  24181 57328 32964 80401 10123 20100 39753 40161 52001 8807/ 333 10147;,
03-24T21:00:00,4,31.2,107.5,344.0,"DA XIAN, CH",FM-12,99999,V020,"040,1,N,0030,1","02100,1,9,N","012000,1,N,1","+0118,1","+0097,1","10157,1","24,0000,2,1",,,,,"08,99,1,08,1,05,1,02250,1,99,9,99,9",,,,"7,1,004,1,+999,9",,,SYN070AAXX  24211 57328 42862 80403 10118 20097 40157 57004 885// 333 79999;,
03-25T00:00:00,4,31.2,107.5,344.0,"DA XIAN, CH",FM-12,99999,V020,"040,1,N,0010,1","99999,9,9,N","020000,1,N,1","+0112,1","+0086,1","10173,1","06,0000,9,1","24,0000,2,1",,,,"08,99,1,08,1,00,1,99999,9,07,1,99,9",,,"99999,9,09763,1","2,1,014,1,+030,1",,,SYN082AAXX  25001 57328 32970 80401 10112 20086 39763 40173 52014 8807/ 333 00352 79999;,Q01  00002PRCP06
03-25T03:00:00,4,31.2,107.5,344.0,"DA XIAN, CH",FM-12,99999,V020,"999,9,C,0000,1","02100,1,9,N","030000,1,N,1","+0143,1","+0080,1","10187,1",,,,,,"08,99,1,08,1,05,1,02250,1,99,9,99,9",,,,"2,1,015,1,+999,9",,,SYN060AAXX  25031 57328 42880 80000 10143 20080 40187 52015 885//;,
03-25T06:00:00,4,31.2,107.5,344.0,"DA XIAN, CH",FM-12,99999,V020,"999,9,C,0000,1","99999,9,9,N","020000,1,N,1","+0159,1","+0086,1","10165,1","06,0000,9,1",,,,,"08,99,1,08,1,00,1,99999,9,07,1,99,9",,"999,N,+0106,1","99999,9,09758,1","7,1,020,1,+999,9",,,SYN076AAXX  25061 57328 32970 80000 10159 20086 39758 40165 57020 8807/ 333 20106;,Q01  00002PRCP06
03-25T09:00:00,4,31.2,107.5,344.0,"DA XIAN, CH",FM-12,99999,V020,"290,1,N,0010,1","99999,9,9,N","025000,1,N,1","+0161,1","+0091,1","10145,1",,,,,,"08,99,1,08,1,00,1,99999,9,07,1,99,9",,,,"7,1,019,1,+999,9",,,SYN060AAXX  25091 57328 42975 82901 10161 20091 40145 57019 8807/;,
03-25T12:00:00,4,31.2,107.5,344.0,"DA XIAN, CH",FM-12,99999,V020,"160,1,N,0010,1","99999,9,9,N","015000,1,N,1","+0151,1","+0102,1","10174,1","06,0000,9,1",,,,,"08,99,1,08,1,00,1,99999,9,07,1,99,9",,,"99999,9,09765,1","2,1,026,1,+999,9",,,SYN066AAXX  25121 57328 32965 81601 10151 20102 39765 40174 52026 8807/;,Q01  00002PRCP06
03-25T15:00:00,4,31.2,107.5,344.0,"DA XIAN, CH",FM-12,99999,V020,"040,1,N,0020,1","99999,9,9,N","015000,1,N,1","+0136,1","+0108,1","10189,1",,,,,,"08,99,1,08,1,00,1,99999,9,07,1,99,9",,,,"2,1,016,1,+999,9",,,SYN060AAXX  25151 57328 42965 80402 10136 20108 40189 52016 8807/;,
03-25T18:00:00,4,31.2,107.5,344.0,"DA XIAN, CH",FM-12,99999,V020,"999,9,C,0000,1","99999,9,9,N","012000,1,N,1","+0133,1","+0111,1","10193,1","06,0000,9,1",,,,,"08,99,1,08,1,00,1,99999,9,07,1,99,9",,"999,M,+0162,1","99999,9,09786,1","2,1,005,1,+999,9",,,SYN076AAXX  25181 57328 32962 80000 10133 20111 39786 40193 52005 8807/ 333 10162;,Q01  00002PRCP06
03-25T21:00:00,4,31.2,107.5,344.0,"DA XIAN, CH",FM-12,99999,V020,"999,9,C,0000,1","99999,9,9,N","008000,1,N,1","+0130,1","+0102,1","10179,1",,,,,,"08,99,1,08,1,00,1,99999,9,07,1,99,9",,,,"7,1,014,1,+999,9","10,1",,SYN066AAXX  25211 57328 41958 80000 10130 20102 40179 57014 71000 8807/;,
03-26T00:00:00,4,31.2,107.5,344.0,"DA XIAN, CH",FM-12,99999,V020,"999,9,C,0000,1","02100,1,9,N","015000,1,N,1","+0118,1","+0091,1","10186,1","06,9999,9,9","24,0000,2,1",,,,"08,99,1,08,1,05,1,02250,1,99,9,99,9",,,"99999,9,09777,1","2,1,005,1,+010,1","21,1",,SYN094AAXX  26001 57328 11865 80000 10118 20091 39777 40186 52005 69901 72100 885// 333 00101 79999;,
03-26T06:00:00,4,31.2,107.5,344.0,"DA XIAN, CH",FM-12,99999,V020,"040,1,N,0010,1","99999,9,9,N","025000,1,N,1","+0153,1","+0094,1","10170,1","06,0000,2,1",,,,,"08,99,1,08,1,00,1,99999,9,02,1,99,9",,"999,N,+0116,1","99999,9,09763,1","7,1,021,1,+999,9",,,SYN076AAXX  26061 57328 32975 80401 10153 20094 39763 40170 57021 8802/ 333 20116;,
03-26T09:00:00,4,31.2,107.5,344.0,"DA XIAN, CH",FM-12,99999,V020,"360,1,N,0020,1","99999,9,9,N","030000,1,N,1","+0164,1","+0085,1","10146,1",,,,,,"08,99,1,08,1,00,1,99999,9,07,1,99,9",,,,"7,1,022,1,+999,9",,,SYN060AAXX  26091 57328 42980 83602 10164 20085 40146 57022 8807/;,
03-26T12:00:00,4,31.2,107.5,344.0,"DA XIAN, CH",FM-12,99999,V020,"040,1,N,0030,1","99999,9,9,N","015000,1,N,1","+0147,1","+0087,1","10170,1","06,0000,9,1",,,,,"08,99,1,08,1,00,1,99999,9,07,1,99,9",,,"99999,9,09762,1","2,1,021,1,+999,9",,,SYN066AAXX  26121 57328 32965 80403 10147 20087 39762 40170 52021 8807/;,Q01  00002PRCP06
03-26T15:00:00,4,31.2,107.5,344.0,"DA XIAN, CH",FM-12,99999,V020,"040,1,N,0010,1","99999,9,9,N","012000,1,N,1","+0134,1","+0096,1","10189,1",,,,,,"08,99,1,08,1,00,1,99999,9,07,1,99,9",,,,"2,1,018,1,+999,9",,,SYN060AAXX  26151 57328 42962 80401 10134 20096 40189 52018 8807/;,
03-26T18:00:00,4,31.2,107.5,344.0,"DA XIAN, CH",FM-12,99999,V020,"040,1,N,0020,1","99999,9,9,N","007000,1,N,1","+0129,1","+0096,1","10193,1","06,0000,9,1",,,,,"08,99,1,08,1,00,1,99999,9,07,1,99,9",,"999,M,+0171,1","99999,9,09785,1","2,1,005,1,+999,9","10,1",,SYN082AAXX  26181 57328 31957 80402 10129 20096 39785 40193 52005 71000 8807/ 333 10171;,Q01  00002PRCP06
03-26T21:00:00,4,31.2,107.5,344.0,"DA XIAN, CH",FM-12,99999,V020,"090,1,N,0010,1","99999,9,9,N","007000,1,N,1","+0128,1","+0099,1","10184,1","24,0000,2,1",,,,,"08,99,1,08,1,00,1,99999,9,07,1,99,9",,,,"7,1,008,1,+999,9","10,1",,SYN076AAXX  26211 57328 41957 80901 10128 20099 40184 57008 71000 8807/ 333 79999;,
03-27T00:00:00,4,31.2,107.5,344.0,"DA XIAN, CH",FM-12,99999,V020,"040,1,N,0010,1","99999,9,9,N","008000,1,N,1","+0125,1","+0100,1","10195,1","06,0000,9,1",,,,,"08,99,1,08,1,00,1,99999,9,07,1,99,9",,,"99999,9,09786,1","2,1,009,1,+001,1","10,1",,SYN082AAXX  27001 57328 31958 80401 10125 20100 39786 40195 52009 71000 8807/ 333 00101;,Q01  00002PRCP06
03-27T03:00:00,4,31.2,107.5,344.0,"DA XIAN, CH",FM-12,99999,V020,"270,1,N,0010,1","99999,9,9,N","012000,1,N,1","+0162,1","+0094,1","10199,1",,,,,,"07,99,1,07,1,00,1,99999,9,04,1,99,9",,,,"2,1,006,1,+999,9",,,SYN060AAXX  27031 57328 42962 72701 10162 20094 40199 52006 8704/;,
03-27T06:00:00,4,31.2,107.5,344.0,"DA XIAN, CH",FM-12,99999,V020,"160,1,N,0030,1","03600,1,9,N","014000,1,N,1","+0183,1","+0096,1","10174,1","06,0000,9,1",,,,,"07,99,1,01,1,01,1,01250,1,04,1,99,9",,"999,N,+0122,1","99999,9,09769,1","7,1,023,1,+999,9",,,SYN076AAXX  27061 57328 32664 71603 10183 20096 39769 40174 57023 8114/ 333 20122;,Q01  00002PRCP06
03-27T09:00:00,4,31.2,107.5,344.0,"DA XIAN, CH",FM-12,99999,V020,"220,1,N,0020,1","99999,9,9,N","020000,1,N,1","+0187,1","+0099,1","10156,1",,,,,,"07,99,1,07,1,00,1,99999,9,04,1,99,9",,,,"7,1,017,1,+999,9",,,SYN060AAXX  27091 57328 42970 72202 10187 20099 40156 57017 8704/;,
03-27T12:00:00,4,31.2,107.5,344.0,"DA XIAN, CH",FM-12,99999,V020,"999,9,C,0000,1","22000,1,9,N","012000,1,N,1","+0164,1","+0109,1","10167,1","06,0000,9,1",,,,"00,1,+99999,9,99,9","00,99,1,00,1,00,1,99999,9,00,1,00,1",,,"99999,9,09761,1","2,1,009,1,+999,9",,,SYN060AAXX  27121 57328 32962 00000 10164 20109 39761 40167 52009;,Q01  00002PRCP06
03-27T15:00:00,4,31.2,107.5,344.0,"DA XIAN, CH",FM-12,99999,V020,"040,1,N,0030,1","99999,9,9,N","007000,1,N,1","+0136,1","+0112,1","10175,1",,,,,,"08,99,1,08,1,00,1,99999,9,02,1,99,9",,,,"2,1,008,1,+999,9","10,1",,SYN066AAXX  27151 57328 41957 80403 10136 20112 40175 52008 71000 8802/;,
03-27T18:00:00,4,31.2,107.5,344.0,"DA XIAN, CH",FM-12,99999,V020,"040,1,N,0020,1","99999,9,9,N","005000,1,N,1","+0125,1","+0110,1","10171,1","06,0000,9,1",,,,,"08,99,1,08,1,00,1,99999,9,02,1,99,9",,"999,M,+0191,1","99999,9,09766,1","7,1,003,1,+999,9","10,1",,SYN082AAXX  27181 57328 31950 80402 10125 20110 39766 40171 57003 71000 8802/ 333 10191;,Q01  00002PRCP06
03-27T21:00:00,4,31.2,107.5,344.0,"DA XIAN, CH",FM-12,99999,V020,"999,9,C,0000,1","99999,9,9,N","005000,1,N,1","+0119,1","+0108,1","10163,1",,,,,,"07,99,1,07,1,00,1,99999,9,04,1,99,9",,,,"7,1,008,1,+999,9","10,1",,SYN066AAXX  27211 57328 41950 70000 10119 20108 40163 57008 71000 8704/;,
03-28T00:00:00,4,31.2,107.5,344.0,"DA XIAN, CH",FM-12,99999,V020,"070,1,N,0010,1","99999,9,9,N","008000,1,N,1","+0115,1","+0102,1","10165,1","06,0000,9,1",,,,,"06,99,1,06,1,00,1,99999,9,04,1,00,1",,,"99999,9,09758,1","4,1,000,1,+003,1","10,1",,SYN082AAXX  28001 57328 31958 60701 10115 20102 39758 40165 54000 71000 86040 333 05351;,Q01  00002PRCP06
03-28T03:00:00,4,31.2,107.5,344.0,"DA XIAN, CH",FM-12,99999,V020,"360,1,N,0010,1","99999,9,9,N","007000,1,N,1","+0141,1","+0107,1","10170,1",,,,,,"08,99,1,08,1,00,1,99999,9,07,1,99,9",,,,"2,1,005,1,+999,9","10,1",,SYN066AAXX  28031 57328 41957 83601 10141 20107 40170 52005 71000 8807/;,
03-28T06:00:00,4,31.2,107.5,344.0,"DA XIAN, CH",FM-12,99999,V020,"020,1,N,0020,1","99999,9,9,N","011000,1,N,1","+0186,1","+0112,1","10140,1","06,0000,9,1",,,,,"07,99,1,07,1,00,1,99999,9,04,1,00,1",,"999,N,+0106,1","99999,9,09736,1","7,1,027,1,+999,9",,,SYN076AAXX  28061 57328 32961 70202 10186 20112 39736 40140 57027 87040 333 20106;,Q01  00002PRCP06
03-28T09:00:00,4,31.2,107.5,344.0,"DA XIAN, CH",FM-12,99999,V020,"040,1,N,0010,1","99999,9,9,N","017000,1,N,1","+0210,1","+0104,1","10111,1",,,,,,"07,99,1,00,1,00,1,99999,9,00,1,02,1",,,,"7,1,026,1,+999,9",,,SYN060AAXX  28091 57328 42967 70401 10210 20104 40111 57026 80002;,
03-28T12:00:00,4,31.2,107.5,344.0,"DA XIAN, CH",FM-12,99999,V020,"999,9,C,0000,1","99999,9,9,N","008000,1,N,1","+0183,1","+0123,1","10132,1","06,0000,9,1",,,,,"07,99,1,07,1,00,1,99999,9,04,1,99,9",,,"99999,9,09728,1","2,1,018,1,+999,9","10,1",,SYN072AAXX  28121 57328 31958 70000 10183 20123 39728 40132 52018 71000 8704/;,Q01  00002PRCP06
03-28T15:00:00,4,31.2,107.5,344.0,"DA XIAN, CH",FM-12,99999,V020,"999,9,C,0000,1","99999,9,9,N","008000,1,N,1","+0155,1","+0125,1","10152,1",,,,,,"07,99,1,07,1,00,1,99999,9,04,1,99,9",,,,"2,1,019,1,+999,9","10,1",,SYN066AAXX  28151 57328 41958 70000 10155 20125 40152 52019 71000 8704/;,
03-28T18:00:00,4,31.2,107.5,344.0,"DA XIAN, CH",FM-12,99999,V020,"999,9,C,0000,1","02100,1,9,N","006000,1,N,1","+0149,1","+0126,1","10166,1","06,9999,9,9",,,,,"08,99,1,08,1,05,1,02250,1,99,9,99,9",,"999,M,+0214,1","99999,9,09763,1","2,1,016,1,+999,9","60,1",,SYN088AAXX  28181 57328 11856 80000 10149 20126 39763 40166 52016 69901 76000 885// 333 10214;,
03-28T21:00:00,4,31.2,107.5,344.0,"DA XIAN, CH",FM-12,99999,V020,"999,9,C,0000,1","02100,1,9,N","005000,1,N,1","+0139,1","+0130,1","10163,1","24,0041,9,1",,"6,1,03,1","6,1,03,1",,"08,99,1,08,1,05,1,02250,1,99,9,99,9",,,,"7,1,002,1,+999,9","60,1",,SYN076AAXX  28211 57328 41850 80000 10139 20130 40163 57002 76066 885// 333 70040;,
03-29T00:00:00,4,31.2,107.5,344.0,"DA XIAN, CH",FM-12,99999,V020,"070,1,N,0010,1","99999,9,9,N","000900,1,N,1","+0136,1","+0129,1","10182,1","06,0041,9,1","24,0041,9,1","6,1,06,1","4,1,06,1",,"08,99,1,08,1,00,1,99999,9,02,1,99,9",,,"99999,9,09777,1","2,1,016,1,+020,1","60,1",,SYN094AAXX  29001 57328 11909 80701 10136 20129 39777 40182 52016 60041 76064 8802/ 333 00202 70041;,
03-29T03:00:00,4,31.2,107.5,344.0,"DA XIAN, CH",FM-12,99999,V020,"999,9,C,0000,1","99999,9,9,N","003000,1,N,1","+0163,1","+0149,1","10192,1",,,"6,1,03,1","4,1,03,1",,"08,99,1,08,1,00,1,99999,9,07,1,99,9",,,,"2,1,010,1,+999,9","10,1",,SYN066AAXX  29031 57328 41930 80000 10163 20149 40192 52010 71064 8807/;,
03-29T06:00:00,4,31.2,107.5,344.0,"DA XIAN, CH",FM-12,99999,V020,"180,1,N,0010,1","99999,9,9,N","006000,1,N,1","+0196,1","+0149,1","10174,1","06,9999,9,9",,"6,1,06,1","4,1,06,1",,"07,99,1,07,1,00,1,99999,9,04,1,99,9",,"999,N,+0133,1","99999,9,09771,1","7,1,016,1,+999,9","10,1",,SYN088AAXX  29061 57328 11956 71801 10196 20149 39771 40174 57016 69901 71064 8704/ 333 20133;,
03-29T09:00:00,4,31.2,107.5,344.0,"DA XIAN, CH",FM-12,99999,V020,"999,9,C,0000,1","99999,9,9,N","008000,1,N,1","+0194,1","+0141,1","10159,1",,,,,,"07,99,1,07,1,00,1,99999,9,04,1,99,9",,,,"7,1,015,1,+999,9","10,1",,SYN066AAXX  29091 57328 41958 70000 10194 20141 40159 57015 71000 8704/;,
03-29T12:00:00,4,31.2,107.5,344.0,"DA XIAN, CH",FM-12,99999,V020,"999,9,C,0000,1","99999,9,9,N","012000,1,N,1","+0179,1","+0145,1","10181,1","06,0000,9,1",,,,,"08,99,1,08,1,00,1,99999,9,07,1,99,9",,,"99999,9,09776,1","2,1,020,1,+999,9",,,SYN066AAXX  29121 57328 32962 80000 10179 20145 39776 40181 52020 8807/;,Q01  00002PRCP06
03-29T15:00:00,4,31.2,107.5,344.0,"DA XIAN, CH",FM-12,99999,V020,"999,9,C,0000,1","99999,9,9,N","012000,1,N,1","+0167,1","+0147,1","10200,1",,,,,,"08,99,1,08,1,00,1,99999,9,07,1,99,9",,,,"2,1,019,1,+999,9",,,SYN060AAXX  29151 57328 42962 80000 10167 20147 40200 52019 8807/;,
03-29T18:00:00,4,31.2,107.5,344.0,"DA XIAN, CH",FM-12,99999,V020,"110,1,N,0010,1","99999,9,9,N","012000,1,N,1","+0161,1","+0138,1","10191,1","06,0000,9,1",,,,,"08,99,1,08,1,00,1,99999,9,07,1,99,9",,"999,M,+0196,1","99999,9,09788,1","7,1,007,1,+999,9",,,SYN076AAXX  29181 57328 32962 81101 10161 20138 39788 40191 57007 8807/ 333 10196;,Q01  00002PRCP06
03-29T21:00:00,4,31.2,107.5,344.0,"DA XIAN, CH",FM-12,99999,V020,"040,1,N,0010,1","02100,1,9,N","006000,1,N,1","+0142,1","+0131,1","10183,1","24,0064,9,1",,"6,1,03,1",,,"08,99,1,08,1,05,1,02250,1,99,9,99,9",,,,"7,1,009,1,+999,9","60,1",,SYN076AAXX  29211 57328 41856 80401 10142 20131 40183 57009 76060 885// 333 70063;,
03-30T00:00:00,4,31.2,107.5,344.0,"DA XIAN, CH",FM-12,99999,V020,"040,1,N,0030,1","02100,1,9,N","003000,1,N,1","+0137,1","+0132,1","10194,1","06,0079,9,2","24,0076,9,2","6,1,06,1",,,"08,99,1,08,1,05,1,02250,1,99,9,99,9",,,"99999,9,09788,1","2,1,009,1,+010,1","60,1",,SYN094AAXX  30001 57328 11830 80403 10137 20132 39788 40194 52009 60081 76060 885// 333 00100 70076;,
03-30T03:00:00,4,31.2,107.5,344.0,"DA XIAN, CH",FM-12,99999,V020,"040,1,N,0020,1","02100,1,9,N","007000,1,N,1","+0149,1","+0140,1","10197,1",,,"6,1,03,1","6,1,03,1",,"08,99,1,08,1,05,1,02250,1,99,9,99,9",,,,"2,1,003,1,+999,9","60,1",,SYN066AAXX  30031 57328 41857 80402 10149 20140 40197 52003 76066 885//;,
03-30T06:00:00,4,31.2,107.5,344.0,"DA XIAN, CH",FM-12,99999,V020,"999,9,C,0000,1","02100,1,9,N","005000,1,N,1","+0159,1","+0145,1","10176,1","06,0008,9,1",,"6,1,06,1","6,1,06,1",,"08,99,1,08,1,05,1,02250,1,99,9,99,9",,"999,N,+0134,1","99999,9,09771,1","7,1,020,1,+999,9","60,1",,SYN088AAXX  30061 57328 11850 80000 10159 20145 39771 40176 57020 69981 76066 885// 333 20134;,
03-30T09:00:00,4,31.2,107.5,344.0,"DA XIAN, CH",FM-12,99999,V020,"020,1,N,0020,1","02100,1,9,N","007000,1,N,1","+0153,1","+0137,1","10167,1",,,"6,1,03,1","6,1,03,1",,"08,99,1,08,1,05,1,02250,1,99,9,99,9",,,,"7,1,010,1,+999,9","60,1",,SYN066AAXX  30091 57328 41857 80202 10153 20137 40167 57010 76066 885//;,
03-30T12:00:00,4,31.2,107.5,344.0,"DA XIAN, CH",FM-12,99999,V020,"999,9,C,0000,1","02100,1,9,N","003000,1,N,1","+0140,1","+0131,1","10187,1","06,0020,9,1",,"6,1,06,1","6,1,06,1",,"08,99,1,08,1,05,1,02250,1,99,9,99,9",,,"99999,9,09779,1","2,1,018,1,+999,9","60,1",,SYN078AAXX  30121 57328 11830 80000 10140 20131 39779 40187 52018 60021 76066 885//;,
03-30T15:00:00,4,31.2,107.5,344.0,"DA XIAN, CH",FM-12,99999,V020,"999,9,C,0000,1","02100,1,9,N","003000,1,N,1","+0134,1","+0127,1","10184,1",,,"6,1,03,1",,,"08,99,1,08,1,05,1,02250,1,99,9,99,9",,,,"7,1,003,1,+999,9","10,1",,SYN066AAXX  30151 57328 41830 80000 10134 20127 40184 57003 71060 885//;,
03-30T18:00:00,4,31.2,107.5,344.0,"DA XIAN, CH",FM-12,99999,V020,"999,9,C,0000,1","02100,1,9,N","003000,1,N,1","+0131,1","+0124,1","10178,1","06,0005,9,1",,"6,1,06,1",,,"08,99,1,08,1,05,1,02250,1,99,9,99,9",,"999,M,+0160,1","99999,9,09771,1","7,1,005,1,+999,9","10,1",,SYN088AAXX  30181 57328 11830 80000 10131 20124 39771 40178 57005 69951 71060 885// 333 10160;,
03-30T21:00:00,4,31.2,107.5,344.0,"DA XIAN, CH",FM-12,99999,V020,"090,1,N,0020,1","02100,1,9,N","003000,1,N,1","+0131,1","+0124,1","10157,1","24,0046,9,1",,,,,"08,99,1,08,1,05,1,02250,1,99,9,99,9",,,,"7,1,020,1,+999,9","10,1",,SYN076AAXX  30211 57328 41830 80902 10131 20124 40157 57020 71000 885// 333 70046;,
03-31T00:00:00,4,31.2,107.5,344.0,"DA XIAN, CH",FM-12,99999,V020,"999,9,C,0000,1","99999,9,9,N","002000,1,N,1","+0132,1","+0123,1","10153,1","06,0000,9,1","24,0033,9,1",,,,"08,99,1,08,1,00,1,99999,9,02,1,99,9",,,"99999,9,09746,1","7,1,005,1,-040,1","10,1",,SYN088AAXX  31001 57328 31920 80000 10132 20123 39746 40153 57005 71000 8802/ 333 05451 70032;,Q01  00002PRCP06
03-31T03:00:00,4,31.2,107.5,344.0,"DA XIAN, CH",FM-12,99999,V020,"320,1,N,0020,1","22000,1,9,N","012000,1,N,1","+0171,1","+0121,1","10142,1",,,,,,"02,99,1,02,1,01,1,01250,1,00,1,00,1",,,,"7,1,008,1,+999,9",,,SYN060AAXX  31031 57328 42662 23202 10171 20121 40142 57008 82100;,
03-31T06:00:00,4,31.2,107.5,344.0,"DA XIAN, CH",FM-12,99999,V020,"110,1,N,0010,1","03600,1,9,N","011000,1,N,1","+0184,1","+0118,1","10115,1","06,0000,9,1",,,,,"08,99,1,01,1,01,1,00800,1,07,1,99,9",,"999,N,+0127,1","99999,9,09712,1","7,1,026,1,+999,9",,,SYN076AAXX  31061 57328 32561 81101 10184 20118 39712 40115 57026 8117/ 333 20127;,Q01  00002PRCP06
03-31T09:00:00,4,31.2,107.5,344.0,"DA XIAN, CH",FM-12,99999,V020,"360,1,N,0010,1","99999,9,9,N","015000,1,N,1","+0192,1","+0124,1","10098,1",,,,,,"08,99,1,08,1,00,1,99999,9,07,1,99,9",,,,"7,1,015,1,+999,9",,,SYN060AAXX  31091 57328 42965 83601 10192 20124 40098 57015 8807/;,
03-31T12:00:00,4,31.2,107.5,344.0,"DA XIAN, CH",FM-12,99999,V020,"090,1,N,0010,1","99999,9,9,N","008000,1,N,1","+0177,1","+0124,1","10137,1","06,0000,9,1",,,,,"08,99,1,08,1,00,1,99999,9,02,1,99,9",,,"99999,9,09733,1","2,1,036,1,+999,9","10,1",,SYN072AAXX  31121 57328 31958 80901 10177 20124 39733 40137 52036 71000 8802/;,Q01  00002PRCP06
03-31T15:00:00,4,31.2,107.5,344.0,"DA XIAN, CH",FM-12,99999,V020,"999,9,C,0000,1","22000,1,9,N","006000,1,N,1","+0159,1","+0125,1","10172,1",,,,,"00,1,+99999,9,99,9","00,99,1,00,1,00,1,99999,9,00,1,00,1",,,,"2,1,035,1,+999,9","10,1",,SYN060AAXX  31151 57328 41956 00000 10159 20125 40172 52035 71000;,
03-31T18:00:00,4,31.2,107.5,344.0,"DA XIAN, CH",FM-12,99999,V020,"160,1,N,0010,1","99999,9,9,N","005000,1,N,1","+0149,1","+0116,1","10199,1","06,0000,9,1",,,,,"08,99,1,08,1,00,1,99999,9,01,1,99,9",,"999,M,+0198,1","99999,9,09794,1","2,1,026,1,+999,9","10,1",,SYN082AAXX  31181 57328 31950 81601 10149 20116 39794 40199 52026 71000 8801/ 333 10198;,Q01  00002PRCP06
03-31T21:00:00,4,31.2,107.5,344.0,"DA XIAN, CH",FM-12,99999,V020,"160,1,N,0010,1","99999,9,9,N","005000,1,N,1","+0139,1","+0113,1","10210,1",,,,,,"07,99,1,07,1,00,1,99999,9,04,1,99,9",,,,"2,1,011,1,+999,9","10,1",,SYN066AAXX  31211 57328 41950 71601 10139 20113 40210 52011 71000 8704/;,
04-01T00:00:00,4,31.2,107.5,344.0,"DA XIAN, CH",FM-12,99999,V020,"040,1,N,0010,1","22000,1,9,N","008000,1,N,1","+0131,1","+0092,1","10237,1","06,0000,9,1",,,,"00,1,+99999,9,99,9","00,99,1,00,1,00,1,99999,9,00,1,00,1",,,"99999,9,09829,1","2,1,024,1,+008,1","10,1",,SYN076AAXX  01001 57328 31958 00401 10131 20092 39829 40237 52024 71000 333 00800;,Q01  00002PRCP06
04-01T03:00:00,4,31.2,107.5,344.0,"DA XIAN, CH",FM-12,99999,V020,"020,1,N,0030,1","22000,1,9,N","020000,1,N,1","+0201,1","+0002,1","10230,1",,,,,"00,1,+99999,9,99,9","00,99,1,00,1,00,1,99999,9,00,1,00,1",,,,"7,1,003,1,+999,9",,,SYN054AAXX  01031 57328 42970 00203 10201 20002 40230 57003;,
04-01T06:00:00,4,31.2,107.5,344.0,"DA XIAN, CH",FM-12,99999,V020,"220,1,N,0030,1","22000,1,9,N","025000,1,N,1","+0233,1","+0014,1","10197,1","06,0000,9,1",,,,"00,1,+99999,9,99,9","00,99,1,00,1,00,1,99999,9,00,1,00,1",,"999,N,+0126,1","99999,9,09796,1","7,1,030,1,+999,9",,,SYN070AAXX  01061 57328 32975 02203 10233 20014 39796 40197 57030 333 20126;,Q01  00002PRCP06
04-01T09:00:00,4,31.2,107.5,344.0,"DA XIAN, CH",FM-12,99999,V020,"290,1,N,0020,1","22000,1,9,N","025000,1,N,1","+0235,1","+0029,1","10181,1",,,,,"00,1,+99999,9,99,9","00,99,1,00,1,00,1,99999,9,00,1,00,1",,,,"7,1,016,1,+999,9",,,SYN054AAXX  01091 57328 42975 02902 10235 20029 40181 57016;,
04-01T12:00:00,4,31.2,107.5,344.0,"DA XIAN, CH",FM-12,99999,V020,"110,1,N,0010,1","22000,1,9,N","015000,1,N,1","+0185,1","+0082,1","10184,1","06,0000,9,1",,,,"00,1,+99999,9,99,9","00,99,1,00,1,00,1,99999,9,00,1,00,1",,,"99999,9,09779,1","7,1,001,1,+999,9",,,SYN060AAXX  01121 57328 32965 01101 10185 20082 39779 40184 57001;,Q01  00002PRCP06
04-01T15:00:00,4,31.2,107.5,344.0,"DA XIAN, CH",FM-12,99999,V020,"040,1,N,0200,1","22000,1,9,N","015000,1,N,1","+0145,1","+0087,1","10199,1",,,,,"00,1,+99999,9,99,9","00,99,1,00,1,00,1,99999,9,00,1,00,1",,,,"2,1,016,1,+999,9",,,SYN054AAXX  01151 57328 42965 00420 10145 20087 40199 52016;,
04-01T18:00:00,4,31.2,107.5,344.0,"DA XIAN, CH",FM-12,99999,V020,"040,1,N,0020,1","22000,1,9,N","012000,1,N,1","+0123,1","+0088,1","10180,1","06,0000,9,1",,,,"00,1,+99999,9,99,9","00,99,1,00,1,00,1,99999,9,00,1,00,1",,"999,M,+0237,1","99999,9,09778,1","7,1,017,1,+999,9",,,SYN070AAXX  01181 57328 32962 00402 10123 20088 39778 40180 57017 333 10237;,Q01  00002PRCP06
04-01T21:00:00,4,31.2,107.5,344.0,"DA XIAN, CH",FM-12,99999,V020,"020,1,N,0030,1","22000,1,9,N","015000,1,N,1","+0112,1","+0078,1","10165,1",,,,,"00,1,+99999,9,99,9","00,99,1,00,1,00,1,99999,9,00,1,00,1",,,,"7,1,015,1,+999,9",,,SYN054AAXX  01211 57328 42965 00203 10112 20078 40165 57015;,
04-02T00:00:00,4,31.2,107.5,344.0,"DA XIAN, CH",FM-12,99999,V020,"040,1,N,0030,1","22000,1,9,N","020000,1,N,1","+0121,1","+0068,1","10175,1","06,0000,9,1",,,,"00,1,+99999,9,99,9","00,99,1,00,1,00,1,99999,9,00,1,00,1",,,"99999,9,09769,1","2,1,006,1,+006,1",,,SYN070AAXX  02001 57328 32970 00403 10121 20068 39769 40175 52006 333 05651;,Q01  00002PRCP06
04-02T03:00:00,4,31.2,107.5,344.0,"DA XIAN, CH",FM-12,99999,V020,"020,1,N,0030,1","22000,1,9,N","020000,1,N,1","+0201,1","+0085,1","10174,1",,,,,"00,1,+99999,9,99,9","00,99,1,00,1,00,1,99999,9,00,1,00,1",,,,"2,1,002,1,+999,9",,,SYN054AAXX  02031 57328 42970 00203 10201 20085 40174 52002;,
04-02T06:00:00,4,31.2,107.5,344.0,"DA XIAN, CH",FM-12,99999,V020,"999,9,C,0000,1","22000,1,9,N","030000,1,N,1","+0252,1","+0104,1","10142,1","06,0000,9,1",,,,"00,1,+99999,9,99,9","00,99,1,00,1,00,1,99999,9,00,1,00,1",,"999,N,+0106,1","99999,9,09742,1","7,1,029,1,+999,9",,,SYN070AAXX  02061 57328 32980 00000 10252 20104 39742 40142 57029 333 20106;,Q01  00002PRCP06
04-02T09:00:00,4,31.2,107.5,344.0,"DA XIAN, CH",FM-12,99999,V020,"999,9,C,0000,1","22000,1,9,N","030000,1,N,1","+0265,1","+0099,1","10121,1",,,,,"00,1,+99999,9,99,9","00,99,1,00,1,00,1,99999,9,00,1,00,1",,,,"7,1,020,1,+999,9",,,SYN054AAXX  02091 57328 42980 00000 10265 20099 40121 57020;,
04-02T12:00:00,4,31.2,107.5,344.0,"DA XIAN, CH",FM-12,99999,V020,"999,9,C,0000,1","99999,9,9,N","030000,1,N,1","+0217,1","+0136,1","10139,1","06,0000,9,1",,,,,"07,99,1,07,1,00,1,99999,9,04,1,99,9",,,"99999,9,09737,1","2,1,015,1,+999,9",,,SYN066AAXX  02121 57328 32980 70000 10217 20136 39737 40139 52015 8704/;,Q01  00002PRCP06
04-02T15:00:00,4,31.2,107.5,344.0,"DA XIAN, CH",FM-12,99999,V020,"040,1,N,0020,1","99999,9,9,N","012000,1,N,1","+0175,1","+0133,1","10161,1",,,,,,"07,99,1,07,1,00,1,99999,9,04,1,99,9",,,,"2,1,024,1,+999,9",,,SYN060AAXX  02151 57328 42962 70402 10175 20133 40161 52024 8704/;,
04-02T18:00:00,4,31.2,107.5,344.0,"DA XIAN, CH",FM-12,99999,V020,"040,1,N,0040,1","99999,9,9,N","012000,1,N,1","+0159,1","+0127,1","10165,1","06,0000,9,1",,,,,"07,99,1,07,1,00,1,99999,9,04,1,99,9",,"999,M,+0266,1","99999,9,09767,1","2,1,006,1,+999,9",,,SYN076AAXX  02181 57328 32962 70404 10159 20127 39767 40165 52006 8704/ 333 10266;,Q01  00002PRCP06
04-02T21:00:00,4,31.2,107.5,344.0,"DA XIAN, CH",FM-12,99999,V020,"040,1,N,0010,1","99999,9,9,N","005000,1,N,1","+0157,1","+0131,1","10163,1",,,,,,"08,99,1,08,1,00,1,99999,9,07,1,99,9",,,,"7,1,001,1,+999,9","10,1",,SYN066AAXX  02211 57328 41950 80401 10157 20131 40163 57001 71000 8807/;,
04-03T00:00:00,4,31.2,107.5,344.0,"DA XIAN, CH",FM-12,99999,V020,"040,1,N,0010,1","22000,1,9,N","007000,1,N,1","+0155,1","+0132,1","10192,1","06,0000,9,1",,,,"00,1,+99999,9,99,9","00,99,1,00,1,00,1,99999,9,00,1,00,1",,,"99999,9,09790,1","2,1,024,1,+002,1","10,1",,SYN076AAXX  03001 57328 31957 00401 10155 20132 39790 40192 52024 71000 333 00203;,Q01  00002PRCP06
04-03T03:00:00,4,31.2,107.5,344.0,"DA XIAN, CH",FM-12,99999,V020,"020,1,N,0010,1","22000,1,9,N","011000,1,N,1","+0223,1","+0127,1","10203,1",,,,,"00,1,+99999,9,99,9","00,99,1,00,1,00,1,99999,9,00,1,00,1",,,,"2,1,013,1,+999,9",,,SYN054AAXX  03031 57328 42961 00201 10223 20127 40203 52013;,
04-03T06:00:00,4,31.2,107.5,344.0,"DA XIAN, CH",FM-12,99999,V020,"270,1,N,0030,1","99999,9,9,N","030000,1,N,1","+0267,1","+0127,1","10178,1","06,0000,9,1",,,,,"05,99,1,00,1,00,1,99999,9,00,1,01,1",,"999,N,+0146,1","99999,9,09780,1","7,1,023,1,+999,9",,,SYN076AAXX  03061 57328 32980 52703 10267 20127 39780 40178 57023 80001 333 20146;,Q01  00002PRCP06
04-03T09:00:00,4,31.2,107.5,344.0,"DA XIAN, CH",FM-12,99999,V020,"220,1,N,0030,1","22000,1,9,N","030000,1,N,1","+0272,1","+0130,1","10156,1",,,,,"00,1,+99999,9,99,9","00,99,1,00,1,00,1,99999,9,00,1,00,1",,,,"7,1,021,1,+999,9",,,SYN054AAXX  03091 57328 42980 02203 10272 20130 40156 57021;,
04-03T12:00:00,4,31.2,107.5,344.0,"DA XIAN, CH",FM-12,99999,V020,"180,1,N,0010,1","22000,1,9,N","015000,1,N,1","+0234,1","+0134,1","10173,1","06,0000,9,1",,,,"00,1,+99999,9,99,9","00,99,1,00,1,00,1,99999,9,00,1,00,1",,,"99999,9,09773,1","2,1,014,1,+999,9",,,SYN060AAXX  03121 57328 32965 01801 10234 20134 39773 40173 52014;,Q01  00002PRCP06
04-03T15:00:00,4,31.2,107.5,344.0,"DA XIAN, CH",FM-12,99999,V020,"040,1,N,0010,1","22000,1,9,N","009000,1,N,1","+0188,1","+0149,1","10189,1",,,,,"00,1,+99999,9,99,9","00,99,1,00,1,00,1,99999,9,00,1,00,1",,,,"2,1,017,1,+999,9","10,1",,SYN060AAXX  03151 57328 41959 00401 10188 20149 40189 52017 71000;,
04-03T18:00:00,4,31.2,107.5,344.0,"DA XIAN, CH",FM-12,99999,V020,"040,1,N,0020,1","22000,1,9,N","006000,1,N,1","+0161,1","+0147,1","10179,1","06,0000,9,1",,,,"00,1,+99999,9,99,9","00,99,1,00,1,00,1,99999,9,00,1,00,1",,"999,M,+0275,1","99999,9,09781,1","7,1,009,1,+999,9","10,1",,SYN076AAXX  03181 57328 31956 00402 10161 20147 39781 40179 57009 71000 333 10275;,Q01  00002PRCP06
04-03T21:00:00,4,31.2,107.5,344.0,"DA XIAN, CH",FM-12,99999,V020,"040,1,N,0010,1","22000,1,9,N","004000,1,N,1","+0153,1","+0143,1","10163,1",,,,,"00,1,+99999,9,99,9","00,99,1,00,1,00,1,99999,9,00,1,00,1",,,,"7,1,015,1,+999,9","10,1",,SYN060AAXX  03211 57328 41940 00401 10153 20143 40163 57015 71000;,
04-04T00:00:00,4,31.2,107.5,344.0,"DA XIAN, CH",FM-12,99999,V020,"040,1,N,0010,1","99999,9,9,N","006000,1,N,1","+0155,1","+0139,1","10193,1","06,0000,9,1",,,,,"07,99,1,07,1,00,1,99999,9,04,1,99,9",,,"99999,9,09792,1","2,1,026,1,+000,1","10,1",,SYN082AAXX  04001 57328 31956 70401 10155 20139 39792 40193 52026 71000 8704/ 333 00000;,Q01  00002PRCP06
04-04T03:00:00,4,31.2,107.5,344.0,"DA XIAN, CH",FM-12,99999,V020,"360,1,N,0010,1","22000,1,9,N","008000,1,N,1","+0221,1","+0154,1","10171,1",,,,,"00,1,+99999,9,99,9","00,99,1,00,1,00,1,99999,9,00,1,00,1",,,,"2,1,001,1,+999,9","10,1",,SYN060AAXX  04031 57328 41958 03601 10221 20154 40171 52001 71000;,
04-04T06:00:00,4,31.2,107.5,344.0,"DA XIAN, CH",FM-12,99999,V020,"140,1,N,0040,1","22000,1,9,N","012000,1,N,1","+0269,1","+0132,1","10132,1","06,0000,9,1",,,,,"02,99,1,02,1,01,1,01250,1,00,1,00,1",,"999,N,+0148,1","99999,9,09736,1","7,1,037,1,+999,9",,,SYN076AAXX  04061 57328 32662 21404 10269 20132 39736 40132 57037 82100 333 20148;,Q01  00002PRCP06
04-04T09:00:00,4,31.2,107.5,344.0,"DA XIAN, CH",FM-12,99999,V020,"140,1,N,0010,1","99999,9,9,N","015000,1,N,1","+0271,1","+0111,1","10103,1",,,,,,"07,99,1,07,1,00,1,99999,9,04,1,99,9",,,,"7,1,028,1,+999,9",,,SYN060AAXX  04091 57328 42965 71401 10271 20111 40103 57028 8704/;,
04-04T12:00:00,4,31.2,107.5,344.0,"DA XIAN, CH",FM-12,99999,V020,"040,1,N,0020,1","22000,1,9,N","015000,1,N,1","+0227,1","+0142,1","10102,1","06,0000,9,1",,,,"00,1,+99999,9,99,9","00,99,1,00,1,00,1,99999,9,00,1,00,1",,,"99999,9,09704,1","7,1,004,1,+999,9",,,SYN060AAXX  04121 57328 32965 00402 10227 20142 39704 40102 57004;,Q01  00002PRCP06
04-04T15:00:00,4,31.2,107.5,344.0,"DA XIAN, CH",FM-12,99999,V020,"040,1,N,0020,1","22000,1,9,N","008000,1,N,1","+0190,1","+0143,1","10115,1",,,,,,"02,99,1,02,1,00,1,99999,9,04,1,00,1",,,,"2,1,015,1,+999,9","10,1",,SYN066AAXX  04151 57328 41958 20402 10190 20143 40115 52015 71000 82040;,
04-04T18:00:00,4,31.2,107.5,344.0,"DA XIAN, CH",FM-12,99999,V020,"040,1,N,0010,1","99999,9,9,N","007000,1,N,1","+0171,1","+0144,1","10109,1","06,0000,9,1",,,,,"08,99,1,00,1,00,1,99999,9,00,1,07,1",,"999,M,+0275,1","99999,9,09715,1","7,1,004,1,+999,9","10,1",,SYN082AAXX  04181 57328 31957 80401 10171 20144 39715 40109 57004 71000 80007 333 10275;,Q01  00002PRCP06
04-04T21:00:00,4,31.2,107.5,344.0,"DA XIAN, CH",FM-12,99999,V020,"040,1,N,0020,1","22000,1,9,N","008000,1,N,1","+0153,1","+0136,1","10097,1",,,,,"00,1,+99999,9,99,9","00,99,1,00,1,00,1,99999,9,00,1,00,1",,,,"7,1,013,1,+999,9","10,1",,SYN060AAXX  04211 57328 41958 00402 10153 20136 40097 57013 71000;,
04-05T00:00:00,4,31.2,107.5,344.0,"DA XIAN, CH",FM-12,99999,V020,"020,1,N,0020,1","22000,1,9,N","009000,1,N,1","+0155,1","+0127,1","10107,1","06,0000,9,1",,,,,"01,99,1,01,1,00,1,99999,9,04,1,00,1",,,"99999,9,09709,1","2,1,007,1,+006,1","10,1",,SYN082AAXX  05001 57328 31959 10202 10155 20127 39709 40107 52007 71000 81040 333 05600;,Q01  00002PRCP06
04-05T03:00:00,4,31.2,107.5,344.0,"DA XIAN, CH",FM-12,99999,V020,"020,1,N,0010,1","22000,1,9,N","015000,1,N,1","+0237,1","+0113,1","10110,1",,,,,,"01,99,1,00,1,00,1,99999,9,00,1,02,1",,,,"2,1,006,1,+999,9",,,SYN060AAXX  05031 57328 42965 10201 10237 20113 40110 52006 80002;,
04-05T06:00:00,4,31.2,107.5,344.0,"DA XIAN, CH",FM-12,99999,V020,"160,1,N,0020,1","99999,9,9,N","020000,1,N,1","+0273,1","+0121,1","10076,1","06,0000,9,1",,,,,"06,99,1,00,1,00,1,99999,9,00,1,02,1",,"999,N,+0141,1","99999,9,09684,1","7,1,031,1,+999,9",,,SYN076AAXX  05061 57328 32970 61602 10273 20121 39684 40076 57031 80002 333 20141;,Q01  00002PRCP06
04-05T09:00:00,4,31.2,107.5,344.0,"DA XIAN, CH",FM-12,99999,V020,"250,1,N,0010,1","22000,1,9,N","030000,1,N,1","+0281,1","+0119,1","10057,1",,,,,,"01,99,1,00,1,00,1,99999,9,00,1,02,1",,,,"7,1,019,1,+999,9",,,SYN060AAXX  05091 57328 42980 12501 10281 20119 40057 57019 80002;,
04-05T12:00:00,4,31.2,107.5,344.0,"DA XIAN, CH",FM-12,99999,V020,"140,1,N,0010,1","22000,1,9,N","020000,1,N,1","+0239,1","+0143,1","10072,1","06,0000,9,1",,,,,"03,99,1,00,1,00,1,99999,9,00,1,02,1",,,"99999,9,09676,1","2,1,011,1,+999,9",,,SYN066AAXX  05121 57328 32970 31401 10239 20143 39676 40072 52011 80002;,Q01  00002PRCP06
04-05T15:00:00,4,31.2,107.5,344.0,"DA XIAN, CH",FM-12,99999,V020,"040,1,N,0020,1","22000,1,9,N","015000,1,N,1","+0196,1","+0147,1","10088,1",,,,,"00,1,+99999,9,99,9","00,99,1,00,1,00,1,99999,9,00,1,00,1",,,,"2,1,018,1,+999,9",,,SYN054AAXX  05151 57328 42965 00402 10196 20147 40088 52018;,
04-05T18:00:00,4,31.2,107.5,344.0,"DA XIAN, CH",FM-12,99999,V020,"040,1,N,0010,1","99999,9,9,N","012000,1,N,1","+0171,1","+0147,1","10090,1","06,0000,9,1",,,,,"07,99,1,00,1,00,1,99999,9,00,1,08,1",,"999,M,+0287,1","99999,9,09697,1","2,1,003,1,+999,9",,,SYN076AAXX  05181 57328 32962 70401 10171 20147 39697 40090 52003 80008 333 10287;,Q01  00002PRCP06
04-05T21:00:00,4,31.2,107.5,344.0,"DA XIAN, CH",FM-12,99999,V020,"040,1,N,0030,1","22000,1,9,N","007000,1,N,1","+0155,1","+0141,1","10085,1",,,,,"00,1,+99999,9,99,9","00,99,1,00,1,00,1,99999,9,00,1,00,1",,,,"7,1,005,1,+999,9","10,1",,SYN060AAXX  05211 57328 41957 00403 10155 20141 40085 57005 71000;,
04-06T00:00:00,4,31.2,107.5,344.0,"DA XIAN, CH",FM-12,99999,V020,"040,1,N,0030,1","22000,1,9,N","006000,1,N,1","+0159,1","+0138,1","10099,1","06,0000,9,1",,,,"00,1,+99999,9,99,9","00,99,1,00,1,00,1,99999,9,00,1,00,1",,,"99999,9,09703,1","2,1,011,1,+001,1","10,1",,SYN076AAXX  06001 57328 31956 00403 10159 20138 39703 40099 52011 71000 333 05100;,Q01  00002PRCP06
04-06T03:00:00,4,31.2,107.5,344.0,"DA XIAN, CH",FM-12,99999,V020,"040,1,N,0020,1","99999,9,9,N","008000,1,N,1","+0215,1","+0147,1","10100,1",,,,,,"08,99,1,08,1,00,1,99999,9,01,1,99,9",,,,"2,1,001,1,+999,9","10,1",,SYN066AAXX  06031 57328 41958 80402 10215 20147 40100 52001 71000 8801/;,
04-06T06:00:00,4,31.2,107.5,344.0,"DA XIAN, CH",FM-12,99999,V020,"020,1,N,0030,1","99999,9,9,N","012000,1,N,1","+0241,1","+0157,1","10079,1","06,0000,9,1",,,,,"08,99,1,08,1,00,1,99999,9,02,1,99,9",,"999,N,+0149,1","99999,9,09684,1","7,1,020,1,+999,9",,,SYN076AAXX  06061 57328 32962 80203 10241 20157 39684 40079 57020 8802/ 333 20149;,Q01  00002PRCP06
04-06T09:00:00,4,31.2,107.5,344.0,"DA XIAN, CH",FM-12,99999,V020,"360,1,N,0020,1","99999,9,9,N","015000,1,N,1","+0251,1","+0165,1","10071,1",,,,,,"07,99,1,07,1,00,1,99999,9,04,1,99,9",,,,"7,1,008,1,+999,9",,,SYN060AAXX  06091 57328 42965 73602 10251 20165 40071 57008 8704/;,
04-06T12:00:00,4,31.2,107.5,344.0,"DA XIAN, CH",FM-12,99999,V020,"040,1,N,0030,1","02100,1,9,N","030000,1,N,1","+0233,1","+0054,2","10101,1","06,9999,9,9",,,,,"08,99,1,08,1,05,1,02250,1,99,9,99,9",,,"99999,9,09704,1","2,1,028,1,+999,9","21,1",,SYN078AAXX  06121 57328 11880 80403 10233 20054 39704 40101 52028 69901 72100 885//;,
04-06T15:00:00,4,31.2,107.5,344.0,"DA XIAN, CH",FM-12,99999,V020,"040,1,N,0060,1","01500,1,9,N","015000,1,N,1","+0159,1","+0111,1","10154,1",,,"9,1,03,1","8,1,03,1",,"08,99,1,08,1,09,1,01750,1,99,9,99,9",,,,"2,1,050,1,+999,9","91,1",,SYN066AAXX  06151 57328 41765 80406 10159 20111 40154 52050 79198 889//;,
04-06T18:00:00,4,31.2,107.5,344.0,"DA XIAN, CH",FM-12,99999,V020,"020,1,N,0060,1","02100,1,9,N","025000,1,N,1","+0153,1","+0113,1","10179,1","06,0030,9,1",,"9,1,06,1","8,1,06,1",,"08,99,1,08,1,05,1,02250,1,99,9,99,9",,"999,M,+0255,1","99999,9,09779,1","2,1,025,1,+999,9","25,1",,SYN088AAXX  06181 57328 11875 80206 10153 20113 39779 40179 52025 60031 72598 885// 333 10255;,
04-06T21:00:00,4,31.2,107.5,344.0,"DA XIAN, CH",FM-12,99999,V020,"070,1,N,0020,1","02100,1,9,N","030000,1,N,1","+0153,1","+0100,1","10193,1","24,0028,9,1",,"6,1,03,1",,,"08,99,1,08,1,05,1,02250,1,99,9,99,9",,,,"2,1,014,1,+999,9","60,1",,SYN076AAXX  06211 57328 41880 80702 10153 20100 40193 52014 76060 885// 333 70029;,
04-07T03:00:00,4,31.2,107.5,344.0,"DA XIAN, CH",FM-12,99999,V020,"180,1,N,0010,1","02100,1,9,N","030000,1,N,1","+0194,1","+0107,1","10234,1",,,"6,1,03,1",,,"07,99,1,07,1,05,1,02250,1,99,9,99,9",,,,"2,1,010,1,+999,9","00,1",,SYN066AAXX  07031 57328 41880 71801 10194 20107 40234 52010 70060 875//;,
04-07T06:00:00,4,31.2,107.5,344.0,"DA XIAN, CH",FM-12,99999,V020,"160,1,N,0050,1","01200,1,9,N","030000,1,N,1","+0207,1","+0090,1","10230,1","06,9999,9,9",,"6,1,06,1",,,"07,99,1,07,1,08,1,00800,1,99,9,99,9",,"999,N,+0144,1","99999,9,09826,1","7,1,003,1,+999,9","00,1",,SYN088AAXX  07061 57328 11580 71605 10207 20090 39826 40230 57003 69901 70060 878// 333 20144;,
04-07T09:00:00,4,31.2,107.5,344.0,"DA XIAN, CH",FM-12,99999,V020,"140,1,N,0030,1","99999,9,9,N","030000,1,N,1","+0197,1","+0095,1","10221,1",,,,,,"07,99,1,07,1,00,1,99999,9,04,1,99,9",,,,"7,1,009,1,+999,9",,,SYN060AAXX  07091 57328 42980 71403 10197 20095 40221 57009 8704/;,
04-07T12:00:00,4,31.2,107.5,344.0,"DA XIAN, CH",FM-12,99999,V020,"140,1,N,0040,1","22000,1,9,N","030000,1,N,1","+0181,1","+0099,1","10240,1","06,0000,9,1",,,,"00,1,+99999,9,99,9","00,99,1,00,1,00,1,99999,9,00,1,00,1",,,"99999,9,09834,1","2,1,017,1,+999,9",,,SYN060AAXX  07121 57328 32980 01404 10181 20099 39834 40240 52017;,Q01  00002PRCP06
04-07T15:00:00,4,31.2,107.5,344.0,"DA XIAN, CH",FM-12,99999,V020,"040,1,N,0030,1","22000,1,9,N","015000,1,N,1","+0141,1","+0109,1","10259,1",,,,,"00,1,+99999,9,99,9","00,99,1,00,1,00,1,99999,9,00,1,00,1",,,,"2,1,018,1,+999,9",,,SYN054AAXX  07151 57328 42965 00403 10141 20109 40259 52018;,
04-07T18:00:00,4,31.2,107.5,344.0,"DA XIAN, CH",FM-12,99999,V020,"040,1,N,0030,1","22000,1,9,N","012000,1,N,1","+0119,1","+0106,1","10250,1","06,0000,9,1",,,,"00,1,+99999,9,99,9","00,99,1,00,1,00,1,99999,9,00,1,00,1",,"999,M,+0214,1","99999,9,09843,1","7,1,009,1,+999,9",,,SYN070AAXX  07181 57328 32962 00403 10119 20106 39843 40250 57009 333 10214;,Q01  00002PRCP06
04-07T21:00:00,4,31.2,107.5,344.0,"DA XIAN, CH",FM-12,99999,V020,"040,1,N,0030,1","22000,1,9,N","012000,1,N,1","+0112,1","+0098,1","10244,1","24,0000,2,1",,,,,"02,99,1,02,1,00,1,99999,9,04,1,00,1",,,,"7,1,007,1,+999,9",,,SYN070AAXX  07211 57328 42962 20403 10112 20098 40244 57007 82040 333 70001;,
04-08T00:00:00,4,31.2,107.5,344.0,"DA XIAN, CH",FM-12,99999,V020,"020,1,N,0020,1","99999,9,9,N","012000,1,N,1","+0119,1","+0100,1","10251,1","06,0000,9,1","24,0000,9,1",,,,"07,99,1,07,1,00,1,99999,9,04,1,99,9",,,"99999,9,09842,1","2,1,006,1,+020,1",,,SYN082AAXX  08001 57328 32962 70202 10119 20100 39842 40251 52006 8704/ 333 00253 79999;,Q01  00002PRCP06Q02  00002PRCP24
04-08T03:00:00,4,31.2,107.5,344.0,"DA XIAN, CH",FM-12,99999,V020,"270,1,N,0010,1","22000,1,9,N","020000,1,N,1","+0176,1","+0084,1","10251,1",,,,,,"02,99,1,02,1,00,1,99999,9,04,1,00,1",,,,"2,1,001,1,+999,9",,,SYN060AAXX  08031 57328 42970 22701 10176 20084 40251 52001 82040;,
04-08T06:00:00,4,31.2,107.5,344.0,"DA XIAN, CH",FM-12,99999,V020,"320,1,N,0020,1","03600,1,9,N","020000,1,N,1","+0212,1","+0106,1","10217,1","06,0000,9,1",,,,,"07,99,1,02,1,01,1,00800,1,04,1,00,1",,"999,N,+0106,1","99999,9,09811,1","7,1,032,1,+999,9",,,SYN076AAXX  08061 57328 32570 73202 10212 20106 39811 40217 57032 82140 333 20106;,Q01  00002PRCP06
04-08T09:00:00,4,31.2,107.5,344.0,"DA XIAN, CH",FM-12,99999,V020,"220,1,N,0030,1","03600,1,9,N","030000,1,N,1","+0205,1","+0083,1","10188,1",,,,,,"08,99,1,01,1,01,1,01250,1,07,1,99,9",,,,"7,1,028,1,+999,9",,,SYN060AAXX  08091 57328 42680 82203 10205 20083 40188 57028 8117/;,
04-08T12:00:00,4,31.2,107.5,344.0,"DA XIAN, CH",FM-12,99999,V020,"200,1,N,0020,1","99999,9,9,N","020000,1,N,1","+0183,1","+0069,1","10186,1","06,0000,9,1",,,,,"07,99,1,07,1,00,1,99999,9,04,1,99,9",,,"99999,9,09780,1","7,1,003,1,+999,9",,,SYN066AAXX  08121 57328 32970 72002 10183 20069 39780 40186 57003 8704/;,Q01  00002PRCP06
04-08T15:00:00,4,31.2,107.5,344.0,"DA XIAN, CH",FM-12,99999,V020,"090,1,N,0010,1","99999,9,9,N","015000,1,N,1","+0163,1","+0091,1","10190,1",,,,,,"08,99,1,08,1,00,1,99999,9,07,1,99,9",,,,"2,1,006,1,+999,9",,,SYN060AAXX  08151 57328 42965 80901 10163 20091 40190 52006 8807/;,
04-08T18:00:00,4,31.2,107.5,344.0,"DA XIAN, CH",FM-12,99999,V020,"040,1,N,0010,1","99999,9,9,N","008000,1,N,1","+0147,1","+0100,1","10173,1","06,0000,9,1",,,,,"08,99,1,08,1,00,1,99999,9,04,1,99,9",,"999,M,+0214,1","99999,9,09771,1","7,1,015,1,+999,9","10,1",,SYN082AAXX  08181 57328 31958 80401 10147 20100 39771 40173 57015 71000 8804/ 333 10214;,Q01  00002PRCP06
04-08T21:00:00,4,31.2,107.5,344.0,"DA XIAN, CH",FM-12,99999,V020,"040,1,N,0030,1","02100,1,9,N","008000,1,N,1","+0139,1","+0109,1","10153,1","24,0000,2,1",,"6,1,03,1",,,"08,99,1,08,1,05,1,02250,1,99,9,99,9",,,,"7,1,020,1,+999,9","60,1",,SYN076AAXX  08211 57328 41858 80403 10139 20109 40153 57020 76060 885// 333 79999;,
04-09T00:00:00,4,31.2,107.5,344.0,"DA XIAN, CH",FM-12,99999,V020,"020,1,N,0030,1","99999,9,9,N","008000,1,N,1","+0139,1","+0101,1","10157,1","06,9999,9,9","24,0000,2,1","6,1,06,1",,,"08,99,1,08,1,00,1,99999,9,07,1,99,9",,,"99999,9,09753,1","2,1,002,1,-090,1","10,1",,SYN094AAXX  09001 57328 11958 80203 10139 20101 39753 40157 52002 69901 71060 8807/ 333 05902 79999;,
04-09T03:00:00,4,31.2,107.5,344.0,"DA XIAN, CH",FM-12,99999,V020,"020,1,N,0020,1","99999,9,9,N","009000,1,N,1","+0159,1","+0111,1","10159,1",,,,,,"08,99,1,08,1,00,1,99999,9,07,1,99,9",,,,"2,1,002,1,+999,9","10,1",,SYN066AAXX  09031 57328 41959 80202 10159 20111 40159 52002 71000 8807/;,
04-09T06:00:00,4,31.2,107.5,344.0,"DA XIAN, CH",FM-12,99999,V020,"999,9,C,0000,1","99999,9,9,N","020000,1,N,1","+0184,1","+0099,1","10134,1","06,0000,9,1",,,,,"08,99,1,08,1,00,1,99999,9,07,1,99,9",,"999,N,+0134,1","99999,9,09732,1","7,1,023,1,+999,9",,,SYN076AAXX  09061 57328 32970 80000 10184 20099 39732 40134 57023 8807/ 333 20134;,Q01  00002PRCP06
04-09T09:00:00,4,31.2,107.5,344.0,"DA XIAN, CH",FM-12,99999,V020,"250,1,N,0010,1","22000,1,9,N","030000,1,N,1","+0201,1","+0092,1","10111,1",,,,,,"01,99,1,01,1,00,1,99999,9,04,1,00,1",,,,"7,1,022,1,+999,9",,,SYN060AAXX  09091 57328 42980 12501 10201 20092 40111 57022 81040;,
04-09T12:00:00,4,31.2,107.5,344.0,"DA XIAN, CH",FM-12,99999,V020,"999,9,C,0000,1","22000,1,9,N","020000,1,N,1","+0171,1","+0105,1","10118,1","06,0000,9,1",,,,"00,1,+99999,9,99,9","00,99,1,00,1,00,1,99999,9,00,1,00,1",,,"99999,9,09715,1","2,1,005,1,+999,9",,,SYN060AAXX  09121 57328 32970 00000 10171 20105 39715 40118 52005;,Q01  00002PRCP06
04-09T15:00:00,4,31.2,107.5,344.0,"DA XIAN, CH",FM-12,99999,V020,"040,1,N,0030,1","02100,1,9,N","008000,1,N,1","+0130,1","+0100,1","10142,1",,,,,,"08,99,1,08,1,05,1,02250,1,99,9,99,9",,,,"2,1,022,1,+999,9","10,1",,SYN066AAXX  09151 57328 41858 80403 10130 20100 40142 52022 71000 885//;,
04-09T18:00:00,4,31.2,107.5,344.0,"DA XIAN, CH",FM-12,99999,V020,"040,1,N,0030,1","22000,1,9,N","008000,1,N,1","+0115,1","+0094,1","10127,1","06,0000,9,1",,,,"00,1,+99999,9,99,9","00,99,1,00,1,00,1,99999,9,00,1,00,1",,"999,M,+0203,1","99999,9,09723,1","7,1,014,1,+999,9","10,1",,SYN076AAXX  09181 57328 31958 00403 10115 20094 39723 40127 57014 71000 333 10203;,Q01  00002PRCP06
04-09T21:00:00,4,31.2,107.5,344.0,"DA XIAN, CH",FM-12,99999,V020,"040,1,N,0030,1","22000,1,9,N","008000,1,N,1","+0100,1","+0080,1","10119,1","24,0000,2,1",,,,"00,1,+99999,9,99,9","00,99,1,00,1,00,1,99999,9,00,1,00,1",,,,"7,1,008,1,+999,9","10,1",,SYN070AAXX  09211 57328 41958 00403 10100 20080 40119 57008 71000 333 79999;,
04-10T00:00:00,4,31.2,107.5,344.0,"DA XIAN, CH",FM-12,99999,V020,"040,1,N,0020,1","22000,1,9,N","012000,1,N,1","+0109,1","+0077,1","10138,1","06,0000,9,1",,,,,"04,99,1,01,1,00,1,99999,9,04,1,02,1",,,"99999,9,09732,1","2,1,017,1,+002,1",,,SYN076AAXX  10001 57328 32962 40402 10109 20077 39732 40138 52017 81042 333 05253;,Q01  00002PRCP06
04-10T03:00:00,4,31.2,107.5,344.0,"DA XIAN, CH",FM-12,99999,V020,"020,1,N,0030,1","99999,9,9,N","020000,1,N,1","+0178,1","+0083,1","10132,1",,,,,,"07,99,1,00,1,00,1,99999,9,00,1,02,1",,,,"7,1,004,1,+999,9",,,SYN060AAXX  10031 57328 42970 70203 10178 20083 40132 57004 80002;,
04-10T06:00:00,4,31.2,107.5,344.0,"DA XIAN, CH",FM-12,99999,V020,"320,1,N,0020,1","22000,1,9,N","030000,1,N,1","+0238,1","+0081,1","10101,1","06,0000,9,1",,,,"00,1,+99999,9,99,9","00,99,1,00,1,00,1,99999,9,00,1,00,1",,"999,N,+0093,1","99999,9,09702,1","7,1,026,1,+999,9",,,SYN070AAXX  10061 57328 32980 03202 10238 20081 39702 40101 57026 333 20093;,Q01  00002PRCP06
04-10T09:00:00,4,31.2,107.5,344.0,"DA XIAN, CH",FM-12,99999,V020,"220,1,N,0040,1","22000,1,9,N","030000,1,N,1","+0243,1","+0101,1","10075,1",,,,,"00,1,+99999,9,99,9","00,99,1,00,1,00,1,99999,9,00,1,00,1",,,,"7,1,026,1,+999,9",,,SYN054AAXX  10091 57328 42980 02204 10243 20101 40075 57026;,
04-10T12:00:00,4,31.2,107.5,344.0,"DA XIAN, CH",FM-12,99999,V020,"999,9,C,0000,1","99999,9,9,N","020000,1,N,1","+0215,1","+0104,1","10086,1","06,0000,9,1",,,,,"07,99,1,07,1,00,1,99999,9,04,1,99,9",,,"99999,9,09685,1","2,1,009,1,+999,9",,,SYN066AAXX  10121 57328 32970 70000 10215 20104 39685 40086 52009 8704/;,Q01  00002PRCP06
04-10T15:00:00,4,31.2,107.5,344.0,"DA XIAN, CH",FM-12,99999,V020,"040,1,N,0020,1","99999,9,9,N","012000,1,N,1","+0183,1","+0131,1","10101,1",,,,,,"08,99,1,08,1,00,1,99999,9,07,1,99,9",,,,"2,1,017,1,+999,9",,,SYN060AAXX  10151 57328 42962 80402 10183 20131 40101 52017 8807/;,
04-10T18:00:00,4,31.2,107.5,344.0,"DA XIAN, CH",FM-12,99999,V020,"040,1,N,0030,1","99999,9,9,N","012000,1,N,1","+0169,1","+0123,1","10097,1","06,0000,9,1",,,,,"08,99,1,08,1,00,1,99999,9,07,1,99,9",,"999,M,+0247,1","99999,9,09701,1","7,1,001,1,+999,9",,,SYN076AAXX  10181 57328 32962 80403 10169 20123 39701 40097 57001 8807/ 333 10247;,Q01  00002PRCP06
04-10T21:00:00,4,31.2,107.5,344.0,"DA XIAN, CH",FM-12,99999,V020,"999,9,C,0000,1","99999,9,9,N","007000,1,N,1","+0165,1","+0130,1","10089,1",,,,,,"08,99,1,08,1,00,1,99999,9,07,1,99,9",,,,"7,1,007,1,+999,9","10,1",,SYN066AAXX  10211 57328 41957 80000 10165 20130 40089 57007 71000 8807/;,
04-11T00:00:00,4,31.2,107.5,344.0,"DA XIAN, CH",FM-12,99999,V020,"070,1,N,0030,1","99999,9,9,N","007000,1,N,1","+0159,1","+0129,1","10100,1","06,0000,9,1",,,,,"08,99,1,08,1,00,1,99999,9,07,1,99,9",,,"99999,9,09702,1","2,1,008,1,+003,1","10,1",,SYN082AAXX  11001 57328 31957 80703 10159 20129 39702 40100 52008 71000 8807/ 333 05305;,Q01  00002PRCP06
04-11T03:00:00,4,31.2,107.5,344.0,"DA XIAN, CH",FM-12,99999,V020,"160,1,N,0010,1","99999,9,9,N","007000,1,N,1","+0178,1","+0135,1","10113,1",,,,,,"08,99,1,08,1,00,1,99999,9,07,1,99,9",,,,"2,1,012,1,+999,9","10,1",,SYN066AAXX  11031 57328 41957 81601 10178 20135 40113 52012 71000 8807/;,
04-11T06:00:00,4,31.2,107.5,344.0,"DA XIAN, CH",FM-12,99999,V020,"160,1,N,0010,1","99999,9,9,N","002000,1,N,1","+0179,1","+0156,1","10112,1","06,0005,9,1",,"6,1,06,1",,,"08,99,1,08,1,00,1,99999,9,02,1,99,9",,"999,N,+0157,1","99999,9,09712,1","7,1,002,1,+999,9","60,1",,SYN088AAXX  11061 57328 11920 81601 10179 20156 39712 40112 57002 69961 76060 8802/ 333 20157;,
04-11T09:00:00,4,31.2,107.5,344.0,"DA XIAN, CH",FM-12,99999,V020,"220,1,N,0010,1","99999,9,9,N","002000,1,N,1","+0170,1","+0153,1","10106,1",,,"6,1,03,1","6,1,03,1",,"08,99,1,08,1,00,1,99999,9,02,1,99,9",,,,"7,1,007,1,+999,9","60,1",,SYN066AAXX  11091 57328 41920 82201 10170 20153 40106 57007 76066 8802/;,
04-11T12:00:00,4,31.2,107.5,344.0,"DA XIAN, CH",FM-12,99999,V020,"160,1,N,0010,1","99999,9,9,N","004000,1,N,1","+0168,1","+0155,1","10116,1","06,0010,9,1",,"6,1,06,1","6,1,06,1",,"08,99,1,08,1,00,1,99999,9,02,1,99,9",,,"99999,9,09714,1","2,1,009,1,+999,9","60,1",,SYN078AAXX  11121 57328 11940 81601 10168 20155 39714 40116 52009 60011 76066 8802/;,
04-11T15:00:00,4,31.2,107.5,344.0,"DA XIAN, CH",FM-12,99999,V020,"200,1,N,0010,1","99999,9,9,N","003000,1,N,1","+0166,1","+0147,1","10133,1",,,"6,1,03,1",,,"08,99,1,08,1,00,1,99999,9,02,1,99,9",,,,"2,1,018,1,+999,9","10,1",,SYN066AAXX  11151 57328 41930 82001 10166 20147 40133 52018 71060 8802/;,
04-11T18:00:00,4,31.2,107.5,344.0,"DA XIAN, CH",FM-12,99999,V020,"180,1,N,0020,1","99999,9,9,N","003000,1,N,1","+0161,1","+0149,1","10134,1","06,9999,9,9",,"6,1,06,1",,,"08,99,1,08,1,00,1,99999,9,02,1,99,9",,"999,M,+0186,1","99999,9,09732,1","4,1,000,1,+999,9","10,1",,SYN088AAXX  11181 57328 11930 81802 10161 20149 39732 40134 54000 69901 71060 8802/ 333 10186;,
04-11T21:00:00,4,31.2,107.5,344.0,"DA XIAN, CH",FM-12,99999,V020,"040,1,N,0030,1","99999,9,9,N","002000,1,N,1","+0158,1","+0150,1","10117,1","24,0018,9,1",,,,,"08,99,1,08,1,00,1,99999,9,02,1,99,9",,,,"7,1,017,1,+999,9","10,1",,SYN076AAXX  11211 57328 41920 80403 10158 20150 40117 57017 71000 8802/ 333 70017;,
04-12T00:00:00,4,31.2,107.5,344.0,"DA XIAN, CH",FM-12,99999,V020,"999,9,C,0000,1","02100,1,9,N","002000,1,N,1","+0163,1","+0148,1","10133,1","06,0000,9,1","24,0018,9,1",,,,"08,99,1,08,1,05,1,02250,1,99,9,99,9",,,"99999,9,09731,1","2,1,016,1,+030,1","10,1",,SYN088AAXX  12001 57328 31820 80000 10163 20148 39731 40133 52016 71000 885// 333 00300 70017;,Q01  00002PRCP06
04-12T03:00:00,4,31.2,107.5,344.0,"DA XIAN, CH",FM-12,99999,V020,"160,1,N,0020,1","99999,9,9,N","003000,1,N,1","+0174,1","+0152,1","10150,1",,,,,,"08,99,1,08,1,00,1,99999,9,07,1,99,9",,,,"2,1,017,1,+999,9","10,1",,SYN066AAXX  12031 57328 41930 81602 10174 20152 40150 52017 71000 8807/;,
04-12T06:00:00,4,31.2,107.5,344.0,"DA XIAN, CH",FM-12,99999,V020,"020,1,N,0020,1","99999,9,9,N","002000,1,N,1","+0187,1","+0154,1","10132,1","06,9999,9,9",,"6,1,06,1",,,"08,99,1,08,1,00,1,99999,9,07,1,99,9",,"999,N,+0154,1","99999,9,09731,1","7,1,017,1,+999,9","10,1",,SYN088AAXX  12061 57328 11920 80202 10187 20154 39731 40132 57017 69901 71060 8807/ 333 20154;,
04-12T09:00:00,4,31.2,107.5,344.0,"DA XIAN, CH",FM-12,99999,V020,"999,9,C,0000,1","99999,9,9,N","003000,1,N,1","+0196,1","+0149,1","10117,1",,,,,,"08,99,1,08,1,00,1,99999,9,07,1,99,9",,,,"7,1,014,1,+999,9","21,1",,SYN066AAXX  12091 57328 41930 80000 10196 20149 40117 57014 72100 8807/;,
04-12T12:00:00,4,31.2,107.5,344.0,"DA XIAN, CH",FM-12,99999,V020,"160,1,N,0010,1","99999,9,9,N","004000,1,N,1","+0186,1","+0154,1","10129,1","06,9999,9,9",,"6,1,06,1",,,"08,99,1,08,1,00,1,99999,9,07,1,99,9",,,"99999,9,09728,1","2,1,011,1,+999,9","10,1",,SYN078AAXX  12121 57328 11940 81601 10186 20154 39728 40129 52011 69901 71060 8807/;,
04-12T15:00:00,4,31.2,107.5,344.0,"DA XIAN, CH",FM-12,99999,V020,"999,9,C,0000,1","99999,9,9,N","003000,1,N,1","+0174,1","+0157,1","10156,1",,,,,,"08,99,1,08,1,00,1,99999,9,07,1,99,9",,,,"2,1,026,1,+999,9","10,1",,SYN066AAXX  12151 57328 41930 80000 10174 20157 40156 52026 71000 8807/;,
04-12T18:00:00,4,31.2,107.5,344.0,"DA XIAN, CH",FM-12,99999,V020,"070,1,N,0010,1","99999,9,9,N","002000,1,N,1","+0166,1","+0154,1","10149,1","06,0000,9,1",,,,,"08,99,1,08,1,00,1,99999,9,07,1,99,9",,"999,M,+0201,1","99999,9,09748,1","7,1,006,1,+999,9","10,1",,SYN082AAXX  12181 57328 31920 80701 10166 20154 39748 40149 57006 71000 8807/ 333 10201;,Q01  00002PRCP06
04-12T21:00:00,4,31.2,107.5,344.0,"DA XIAN, CH",FM-12,99999,V020,"999,9,C,0000,1","99999,9,9,N","003000,1,N,1","+0163,1","+0153,1","10140,1","24,0000,2,1",,,,,"08,99,1,08,1,00,1,99999,9,07,1,99,9",,,,"7,1,009,1,+999,9","10,1",,SYN076AAXX  12211 57328 41930 80000 10163 20153 40140 57009 71000 8807/ 333 79999;,
04-13T00:00:00,4,31.2,107.5,344.0,"DA XIAN, CH",FM-12,99999,V020,"020,1,N,0020,1","02100,1,9,N","001200,1,N,1","+0159,1","+0152,1","10156,1","06,0000,9,1","24,0000,2,1",,,,"08,99,1,08,1,05,1,02250,1,99,9,99,9",,,"99999,9,09754,1","2,1,015,1,+020,1","10,1",,SYN088AAXX  13001 57328 31812 80202 10159 20152 39754 40156 52015 71000 885// 333 00200 79999;,Q01  00002PRCP06
04-13T03:00:00,4,31.2,107.5,344.0,"DA XIAN, CH",FM-12,99999,V020,"040,1,N,0020,1","00030,1,9,N","000300,1,N,1","+0161,1","+0154,1","10174,1",,,"6,1,03,1","4,1,03,1","09,1,+99999,9,99,9","09,99,1,09,1,99,9,99999,9,99,9,99,9",,,,"2,1,016,1,+999,9","60,1",,SYN060AAXX  13031 57328 41/03 90402 10161 20154 40174 52016 76064;,
04-13T06:00:00,4,31.2,107.5,344.0,"DA XIAN, CH",FM-12,99999,V020,"040,1,N,0040,1","02100,1,9,N","008000,1,N,1","+0153,1","+0144,1","10164,1","06,0089,9,1",,"6,1,06,1","4,1,06,1",,"08,99,1,08,1,05,1,02250,1,99,9,99,9",,"999,N,+0151,1","99999,9,09760,1","7,1,010,1,+999,9","60,1",,SYN088AAXX  13061 57328 11858 80404 10153 20144 39760 40164 57010 60091 76064 885// 333 20151;,
04-13T09:00:00,4,31.2,107.5,344.0,"DA XIAN, CH",FM-12,99999,V020,"040,1,N,0020,1","99999,9,9,N","008000,1,N,1","+0161,1","+0151,1","10150,1",,,"6,1,03,1","6,1,03,1",,"08,99,1,08,1,00,1,99999,9,02,1,99,9",,,,"7,1,013,1,+999,9","60,1",,SYN066AAXX  13091 57328 41958 80402 10161 20151 40150 57013 76066 8802/;,
04-13T12:00:00,4,31.2,107.5,344.0,"DA XIAN, CH",FM-12,99999,V020,"040,1,N,0020,1","02100,1,9,N","012000,1,N,1","+0150,1","+0140,1","10167,1","06,0041,9,1",,"6,1,06,1","6,1,06,1",,"08,99,1,08,1,05,1,02250,1,99,9,99,9",,,"99999,9,09762,1","2,1,015,1,+999,9","60,1",,SYN078AAXX  13121 57328 11862 80402 10150 20140 39762 40167 52015 60041 76066 885//;,
04-13T15:00:00,4,31.2,107.5,344.0,"DA XIAN, CH",FM-12,99999,V020,"040,1,N,0040,1","02100,1,9,N","008000,1,N,1","+0145,1","+0131,1","10181,1",,,"6,1,03,1","6,1,03,1",,"08,99,1,08,1,05,1,02250,1,99,9,99,9",,,,"2,1,013,1,+999,9","60,1",,SYN066AAXX  13151 57328 41858 80404 10145 20131 40181 52013 76066 885//;,
04-13T18:00:00,4,31.2,107.5,344.0,"DA XIAN, CH",FM-12,99999,V020,"040,1,N,0020,1","02100,1,9,N","012000,1,N,1","+0141,1","+0128,1","10174,1","06,0020,9,1",,"6,1,06,1","6,1,06,1",,"08,99,1,08,1,05,1,02250,1,99,9,99,9",,"999,M,+0164,1","99999,9,09768,1","7,1,007,1,+999,9","60,1",,SYN088AAXX  13181 57328 11862 80402 10141 20128 39768 40174 57007 60021 76066 885// 333 10164;,
04-13T21:00:00,4,31.2,107.5,344.0,"DA XIAN, CH",FM-12,99999,V020,"040,1,N,0050,1","02100,1,9,N","014000,1,N,1","+0137,1","+0126,1","10158,1","24,0157,9,1",,"6,1,03,1","6,1,03,1",,"08,99,1,08,1,05,1,02250,1,99,9,99,9",,,,"7,1,015,1,+999,9","60,1",,SYN076AAXX  13211 57328 41864 80405 10137 20126 40158 57015 76066 885// 333 70157;,
04-14T00:00:00,4,31.2,107.5,344.0,"DA XIAN, CH",FM-12,99999,V020,"040,1,N,0030,1","02100,1,9,N","015000,1,N,1","+0135,1","+0124,1","10169,1","06,0030,9,1","24,0175,9,1","6,1,06,1","6,1,06,1",,"08,99,1,08,1,05,1,02250,1,99,9,99,9",,,"99999,9,09762,1","2,1,009,1,+010,1","60,1",,SYN094AAXX  14001 57328 11865 80403 10135 20124 39762 40169 52009 60031 76066 885// 333 00152 70174;,
04-14T03:00:00,4,31.2,107.5,344.0,"DA XIAN, CH",FM-12,99999,V020,"070,1,N,0010,1","02100,1,9,N","015000,1,N,1","+0144,1","+0122,1","10179,1",,,"6,1,03,1","6,1,03,1",,"08,99,1,08,1,05,1,02250,1,99,9,99,9",,,,"2,1,010,1,+999,9","60,1",,SYN066AAXX  14031 57328 41865 80701 10144 20122 40179 52010 76066 885//;,
04-14T06:00:00,4,31.2,107.5,344.0,"DA XIAN, CH",FM-12,99999,V020,"020,1,N,0040,1","02100,1,9,N","008000,1,N,1","+0138,1","+0133,1","10171,1","06,0030,9,1",,"6,1,06,1",,,"08,99,1,08,1,05,1,02250,1,99,9,99,9",,"999,N,+0132,1","99999,9,09764,1","7,1,008,1,+999,9","60,1",,SYN088AAXX  14061 57328 11858 80204 10138 20133 39764 40171 57008 60031 76060 885// 333 20132;,
04-14T09:00:00,4,31.2,107.5,344.0,"DA XIAN, CH",FM-12,99999,V020,"020,1,N,0040,1","02100,1,9,N","007000,1,N,1","+0136,1","+0127,1","10163,1",,,"6,1,03,1","6,1,03,1",,"08,99,1,08,1,05,1,02250,1,99,9,99,9",,,,"7,1,008,1,+999,9","60,1",,SYN066AAXX  14091 57328 41857 80204 10136 20127 40163 57008 76066 885//;,
04-14T12:00:00,4,31.2,107.5,344.0,"DA XIAN, CH",FM-12,99999,V020,"040,1,N,0040,1","02100,1,9,N","007000,1,N,1","+0129,1","+0120,1","10192,1","06,0099,9,1",,"6,1,06,1","6,1,06,1",,"08,99,1,08,1,05,1,02250,1,99,9,99,9",,,"99999,9,09783,1","2,1,027,1,+999,9","60,1",,SYN078AAXX  14121 57328 11857 80404 10129 20120 39783 40192 52027 60101 76066 885//;,
04-14T15:00:00,4,31.2,107.5,344.0,"DA XIAN, CH",FM-12,99999,V020,"040,1,N,0020,1","02100,1,9,N","007000,1,N,1","+0124,1","+0107,1","10211,1",,,"6,1,03,1","6,1,03,1",,"08,99,1,08,1,05,1,02250,1,99,9,99,9",,,,"2,1,018,1,+999,9","60,1",,SYN066AAXX  14151 57328 41857 80402 10124 20107 40211 52018 76066 885//;,
04-14T18:00:00,4,31.2,107.5,344.0,"DA XIAN, CH",FM-12,99999,V020,"070,1,N,0020,1","02100,1,9,N","007000,1,N,1","+0117,1","+0109,1","10201,1","06,0020,9,1",,"6,1,06,1","6,1,06,1",,"08,99,1,08,1,05,1,02250,1,99,9,99,9",,"999,M,+0144,1","99999,9,09791,1","7,1,010,1,+999,9","60,1",,SYN088AAXX  14181 57328 11857 80702 10117 20109 39791 40201 57010 60021 76066 885// 333 10144;,
04-14T21:00:00,4,31.2,107.5,344.0,"DA XIAN, CH",FM-12,99999,V020,"040,1,N,0010,1","02100,1,9,N","007000,1,N,1","+0116,1","+0103,1","10196,1","24,0173,9,1",,"6,1,03,1","6,1,03,1",,"08,99,1,08,1,05,1,02250,1,99,9,99,9",,,,"7,1,005,1,+999,9","60,1",,SYN076AAXX  14211 57328 41857 80401 10116 20103 40196 57005 76066 885// 333 70173;,
04-15T00:00:00,4,31.2,107.5,344.0,"DA XIAN, CH",FM-12,99999,V020,"160,1,N,0010,1","02100,1,9,N","008000,1,N,1","+0119,1","+0106,1","10209,1","06,0005,9,1","24,0157,9,1","6,1,06,1",,,"08,99,1,08,1,05,1,02250,1,99,9,99,9",,,"99999,9,09798,1","2,1,012,1,+040,1","10,1",,SYN094AAXX  15001 57328 11858 81601 10119 20106 39798 40209 52012 69941 71060 885// 333 00452 70158;,
04-15T03:00:00,4,31.2,107.5,344.0,"DA XIAN, CH",FM-12,99999,V020,"180,1,N,0010,1","99999,9,9,N","006000,1,N,1","+0155,1","+0115,1","10218,1",,,,,,"07,99,1,07,1,00,1,99999,9,04,1,99,9",,,,"2,1,011,1,+999,9","10,1",,SYN066AAXX  15031 57328 41956 71801 10155 20115 40218 52011 71000 8704/;,
04-15T06:00:00,4,31.2,107.5,344.0,"DA XIAN, CH",FM-12,99999,V020,"160,1,N,0030,1","03600,1,9,N","015000,1,N,1","+0191,1","+0120,1","10184,1","06,0000,9,1",,,,,"07,99,1,01,1,01,1,01250,1,04,1,00,1",,"999,N,+0114,1","99999,9,09778,1","7,1,031,1,+999,9",,,SYN076AAXX  15061 57328 32665 71603 10191 20120 39778 40184 57031 81140 333 20114;,Q01  00002PRCP06
04-15T09:00:00,4,31.2,107.5,344.0,"DA XIAN, CH",FM-12,99999,V020,"200,1,N,0020,1","03600,1,9,N","020000,1,N,1","+0187,1","+0116,1","10166,1",,,,,,"07,99,1,01,1,01,1,01250,1,04,1,99,9",,,,"7,1,017,1,+999,9",,,SYN060AAXX  15091 57328 42670 72002 10187 20116 40166 57017 8114/;,
04-15T12:00:00,4,31.2,107.5,344.0,"DA XIAN, CH",FM-12,99999,V020,"160,1,N,0020,1","99999,9,9,N","030000,1,N,1","+0162,1","+0121,1","10173,1","06,0000,9,1",,,,,"07,99,1,07,1,00,1,99999,9,04,1,99,9",,,"99999,9,09766,1","2,1,005,1,+999,9",,,SYN066AAXX  15121 57328 32980 71602 10162 20121 39766 40173 52005 8704/;,Q01  00002PRCP06
04-15T15:00:00,4,31.2,107.5,344.0,"DA XIAN, CH",FM-12,99999,V020,"999,9,C,0000,1","99999,9,9,N","025000,1,N,1","+0147,1","+0114,1","10186,1",,,,,,"08,99,1,08,1,00,1,99999,9,07,1,99,9",,,,"2,1,014,1,+999,9",,,SYN060AAXX  15151 57328 42975 80000 10147 20114 40186 52014 8807/;,
04-15T18:00:00,4,31.2,107.5,344.0,"DA XIAN, CH",FM-12,99999,V020,"999,9,C,0000,1","99999,9,9,N","015000,1,N,1","+0141,1","+0117,1","10176,1","06,0000,9,1",,,,,"08,99,1,08,1,00,1,99999,9,07,1,99,9",,"999,M,+0196,1","99999,9,09772,1","7,1,008,1,+999,9",,,SYN076AAXX  15181 57328 32965 80000 10141 20117 39772 40176 57008 8807/ 333 10196;,Q01  00002PRCP06
04-15T21:00:00,4,31.2,107.5,344.0,"DA XIAN, CH",FM-12,99999,V020,"999,9,C,0000,1","02100,1,9,N","012000,1,N,1","+0138,1","+0116,1","10162,1","24,0003,9,1",,,,,"08,99,1,08,1,05,1,02250,1,99,9,99,9",,,,"7,1,014,1,+999,9",,,SYN070AAXX  15211 57328 42862 80000 10138 20116 40162 57014 885// 333 70002;,
04-16T00:00:00,4,31.2,107.5,344.0,"DA XIAN, CH",FM-12,99999,V020,"220,1,N,0010,1","02100,1,9,N","004000,1,N,1","+0140,1","+0120,1","10175,1","06,0000,9,1",,,,,"08,99,1,08,1,05,1,02250,1,99,9,99,9",,,"99999,9,09769,1","2,1,011,1,+003,1","10,1",,SYN082AAXX  16001 57328 31840 82201 10140 20120 39769 40175 52011 71000 885// 333 05302;,Q01  00002PRCP06
04-16T03:00:00,4,31.2,107.5,344.0,"DA XIAN, CH",FM-12,99999,V020,"140,1,N,0010,1","99999,9,9,N","005000,1,N,1","+0155,1","+0127,1","10170,1",,,,,,"08,99,1,08,1,00,1,99999,9,07,1,99,9",,,,"7,1,005,1,+999,9","10,1",,SYN066AAXX  16031 57328 41950 81401 10155 20127 40170 57005 71000 8807/;,
04-16T06:00:00,4,31.2,107.5,344.0,"DA XIAN, CH",FM-12,99999,V020,"999,9,C,0000,1","99999,9,9,N","020000,1,N,1","+0177,1","+0124,1","10151,1","06,0000,9,1",,,,,"07,99,1,07,1,00,1,99999,9,04,1,99,9",,"999,N,+0134,1","99999,9,09747,1","7,1,017,1,+999,9",,,SYN076AAXX  16061 57328 32970 70000 10177 20124 39747 40151 57017 8704/ 333 20134;,Q01  00002PRCP06
04-16T09:00:00,4,31.2,107.5,344.0,"DA XIAN, CH",FM-12,99999,V020,"160,1,N,0010,1","99999,9,9,N","025000,1,N,1","+0193,1","+0127,1","10117,1",,,,,,"07,99,1,07,1,00,1,99999,9,04,1,99,9",,,,"7,1,032,1,+999,9",,,SYN060AAXX  16091 57328 42975 71601 10193 20127 40117 57032 8704/;,
04-16T12:00:00,4,31.2,107.5,344.0,"DA XIAN, CH",FM-12,99999,V020,"160,1,N,0010,1","99999,9,9,N","015000,1,N,1","+0175,1","+0131,1","10126,1","06,0000,9,1",,,,,"05,99,1,00,1,00,1,99999,9,00,1,01,1",,,"99999,9,09723,1","2,1,008,1,+999,9",,,SYN066AAXX  16121 57328 32965 51601 10175 20131 39723 40126 52008 80001;,Q01  00002PRCP06
04-16T15:00:00,4,31.2,107.5,344.0,"DA XIAN, CH",FM-12,99999,V020,"040,1,N,0030,1","22000,1,9,N","012000,1,N,1","+0147,1","+0133,1","10138,1",,,,,"00,1,+99999,9,99,9","00,99,1,00,1,00,1,99999,9,00,1,00,1",,,,"2,1,011,1,+999,9",,,SYN054AAXX  16151 57328 42962 00403 10147 20133 40138 52011;,
04-16T18:00:00,4,31.2,107.5,344.0,"DA XIAN, CH",FM-12,99999,V020,"999,9,C,0000,1","99999,9,9,N","006000,1,N,1","+0135,1","+0130,1","10128,1","06,0000,9,1",,,,,"07,99,1,07,1,00,1,99999,9,04,1,99,9",,"999,M,+0202,1","99999,9,09725,1","7,1,009,1,+999,9","10,1",,SYN082AAXX  16181 57328 31956 70000 10135 20130 39725 40128 57009 71000 8704/ 333 10202;,Q01  00002PRCP06
04-16T21:00:00,4,31.2,107.5,344.0,"DA XIAN, CH",FM-12,99999,V020,"040,1,N,0030,1","99999,9,9,N","004000,1,N,1","+0130,1","+0125,1","10113,1",,,,,,"08,99,1,08,1,00,1,99999,9,07,1,99,9",,,,"7,1,014,1,+999,9","10,1",,SYN066AAXX  16211 57328 41940 80403 10130 20125 40113 57014 71000 8807/;,
04-17T00:00:00,4,31.2,107.5,344.0,"DA XIAN, CH",FM-12,99999,V020,"070,1,N,0010,1","00030,1,9,N","000200,1,N,1","+0129,1","+0127,1","10122,1","06,0000,9,1",,,,"09,1,+99999,9,99,9","09,99,1,09,1,99,9,99999,9,99,9,99,9",,,"99999,9,09718,1","2,1,007,1,+005,1","47,1",,SYN076AAXX  17001 57328 31/02 90701 10129 20127 39718 40122 52007 74700 333 05551;,Q01  00002PRCP06
04-17T03:00:00,4,31.2,107.5,344.0,"DA XIAN, CH",FM-12,99999,V020,"250,1,N,0010,1","99999,9,9,N","004000,1,N,1","+0188,1","+0129,1","10116,1",,,"4,1,03,1",,,"07,99,1,07,1,00,1,99999,9,04,1,99,9",,,,"7,1,003,1,+999,9","10,1",,SYN066AAXX  17031 57328 41940 72501 10188 20129 40116 57003 71040 8704/;,
04-17T06:00:00,4,31.2,107.5,344.0,"DA XIAN, CH",FM-12,99999,V020,"160,1,N,0020,1","99999,9,9,N","015000,1,N,1","+0219,1","+0140,1","10086,1","06,0000,9,1",,"4,1,06,1",,,"07,99,1,07,1,00,1,99999,9,04,1,99,9",,"999,N,+0127,1","99999,9,09687,1","7,1,028,1,+999,9","00,1",,SYN082AAXX  17061 57328 31965 71602 10219 20140 39687 40086 57028 70040 8704/ 333 20127;,Q01  00002PRCP06
04-17T09:00:00,4,31.2,107.5,344.0,"DA XIAN, CH",FM-12,99999,V020,"200,1,N,0010,1","99999,9,9,N","020000,1,N,1","+0226,1","+0141,1","10061,1",,,,,,"07,99,1,00,1,00,1,99999,9,00,1,01,1",,,,"7,1,024,1,+999,9",,,SYN060AAXX  17091 57328 42970 72001 10226 20141 40061 57024 80001;,
04-17T12:00:00,4,31.2,107.5,344.0,"DA XIAN, CH",FM-12,99999,V020,"999,9,C,0000,1","99999,9,9,N","012000,1,N,1","+0212,1","+0149,1","10077,1","06,0000,9,1",,,,,"07,99,1,07,1,00,1,99999,9,04,1,99,9",,,"99999,9,09678,1","2,1,015,1,+999,9",,,SYN066AAXX  17121 57328 32962 70000 10212 20149 39678 40077 52015 8704/;,Q01  00002PRCP06
04-17T15:00:00,4,31.2,107.5,344.0,"DA XIAN, CH",FM-12,99999,V020,"999,9,C,0000,1","99999,9,9,N","008000,1,N,1","+0175,1","+0153,1","10097,1",,,,,,"06,99,1,06,1,00,1,99999,9,04,1,00,1",,,,"2,1,020,1,+999,9","10,1",,SYN066AAXX  17151 57328 41958 60000 10175 20153 40097 52020 71000 86040;,
04-17T18:00:00,4,31.2,107.5,344.0,"DA XIAN, CH",FM-12,99999,V020,"040,1,N,0040,1","99999,9,9,N","005000,1,N,1","+0153,1","+0143,1","10094,1","06,0000,9,1",,,,,"07,99,1,07,1,00,1,99999,9,04,1,00,1",,"999,M,+0230,1","99999,9,09696,1","7,1,002,1,+999,9","10,1",,SYN082AAXX  17181 57328 31950 70404 10153 20143 39696 40094 57002 71000 87040 333 10230;,Q01  00002PRCP06
04-17T21:00:00,4,31.2,107.5,344.0,"DA XIAN, CH",FM-12,99999,V020,"040,1,N,0040,1","00015,1,9,N","000000,1,N,1","+0140,1","+0138,1","10081,1",,,"4,1,03,1",,"09,1,+99999,9,99,9","09,99,1,09,1,99,9,99999,9,99,9,99,9",,,,"7,1,013,1,+999,9","45,1",,SYN060AAXX  17211 57328 41/00 90404 10140 20138 40081 57013 74540;,
04-18T00:00:00,4,31.2,107.5,344.0,"DA XIAN, CH",FM-12,99999,V020,"070,1,N,0030,1","00015,1,9,N","000000,1,N,1","+0137,1","+0133,1","10091,1","06,0000,9,1",,"4,1,06,1",,"09,1,+99999,9,99,9","09,99,1,09,1,99,9,99999,9,99,9,99,9",,,"99999,9,09692,1","2,1,009,1,+003,1","45,1",,SYN076AAXX  18001 57328 31/00 90703 10137 20133 39692 40091 52009 74540 333 05301;,Q01  00002PRCP06
04-18T03:00:00,4,31.2,107.5,344.0,"DA XIAN, CH",FM-12,99999,V020,"999,9,C,0000,1","22000,1,9,N","005000,1,N,1","+0210,1","+0149,1","10109,1",,,"4,1,03,1",,"00,1,+99999,9,99,9","00,99,1,00,1,00,1,99999,9,00,1,00,1",,,,"2,1,019,1,+999,9","10,1",,SYN060AAXX  18031 57328 41950 00000 10210 20149 40109 52019 71040;,
04-18T06:00:00,4,31.2,107.5,344.0,"DA XIAN, CH",FM-12,99999,V020,"999,9,C,0000,1","22000,1,9,N","010000,1,N,1","+0261,1","+0135,1","10079,1","06,0000,9,1",,"4,1,06,1",,"00,1,+99999,9,99,9","00,99,1,00,1,00,1,99999,9,00,1,00,1",,"999,N,+0132,1","99999,9,09684,1","7,1,027,1,+999,9","00,1",,SYN076AAXX  18061 57328 31960 00000 10261 20135 39684 40079 57027 70040 333 20132;,Q01  00002PRCP06
04-18T09:00:00,4,31.2,107.5,344.0,"DA XIAN, CH",FM-12,99999,V020,"160,1,N,0010,1","22000,1,9,N","015000,1,N,1","+0277,1","+0122,1","10063,1",,,,,"00,1,+99999,9,99,9","00,99,1,00,1,00,1,99999,9,00,1,00,1",,,,"7,1,015,1,+999,9",,,SYN054AAXX  18091 57328 42965 01601 10277 20122 40063 57015;,
04-18T12:00:00,4,31.2,107.5,344.0,"DA XIAN, CH",FM-12,99999,V020,"999,9,C,0000,1","22000,1,9,N","020000,1,N,1","+0243,1","+0154,1","10078,1","06,0000,9,1",,,,"00,1,+99999,9,99,9","00,99,1,00,1,00,1,99999,9,00,1,00,1",,,"99999,9,09681,1","2,1,012,1,+999,9",,,SYN060AAXX  18121 57328 32970 00000 10243 20154 39681 40078 52012;,Q01  00002PRCP06
04-18T15:00:00,4,31.2,107.5,344.0,"DA XIAN, CH",FM-12,99999,V020,"040,1,N,0030,1","22000,1,9,N","011000,1,N,1","+0182,1","+0152,1","10099,1",,,,,"00,1,+99999,9,99,9","00,99,1,00,1,00,1,99999,9,00,1,00,1",,,,"2,1,021,1,+999,9",,,SYN054AAXX  18151 57328 42961 00403 10182 20152 40099 52021;,
04-18T18:00:00,4,31.2,107.5,344.0,"DA XIAN, CH",FM-12,99999,V020,"040,1,N,0030,1","22000,1,9,N","008000,1,N,1","+0159,1","+0145,1","10097,1","06,0000,9,1",,,,"00,1,+99999,9,99,9","00,99,1,00,1,00,1,99999,9,00,1,00,1",,"999,M,+0281,1","99999,9,09702,1","4,1,000,1,+999,9","10,1",,SYN076AAXX  18181 57328 31958 00403 10159 20145 39702 40097 54000 71000 333 10281;,Q01  00002PRCP06
04-18T21:00:00,4,31.2,107.5,344.0,"DA XIAN, CH",FM-12,99999,V020,"040,1,N,0020,1","22000,1,9,N","008000,1,N,1","+0151,1","+0137,1","10100,1",,,,,"00,1,+99999,9,99,9","00,99,1,00,1,00,1,99999,9,00,1,00,1",,,,"2,1,004,1,+999,9","10,1",,SYN060AAXX  18211 57328 41958 00402 10151 20137 40100 52004 71000;,
04-19T00:00:00,4,31.2,107.5,344.0,"DA XIAN, CH",FM-12,99999,V020,"040,1,N,0030,1","22000,1,9,N","008000,1,N,1","+0161,1","+0129,1","10120,1","06,0000,9,1",,,,"00,1,+99999,9,99,9","00,99,1,00,1,00,1,99999,9,00,1,00,1",,,"99999,9,09723,1","2,1,017,1,+003,1","10,1",,SYN076AAXX  19001 57328 31958 00403 10161 20129 39723 40120 52017 71000 333 00302;,Q01  00002PRCP06
04-19T03:00:00,4,31.2,107.5,344.0,"DA XIAN, CH",FM-12,99999,V020,"040,1,N,0020,1","22000,1,9,N","020000,1,N,1","+0237,1","+0148,1","10124,1",,,,,"00,1,+99999,9,99,9","00,99,1,00,1,00,1,99999,9,00,1,00,1",,,,"2,1,005,1,+999,9",,,SYN054AAXX  19031 57328 42970 00402 10237 20148 40124 52005;,
04-19T06:00:00,4,31.2,107.5,344.0,"DA XIAN, CH",FM-12,99999,V020,"999,9,C,0000,1","22000,1,9,N","025000,1,N,1","+0291,1","+0141,1","10101,1","06,0000,9,1",,,,"00,1,+99999,9,99,9","00,99,1,00,1,00,1,99999,9,00,1,00,1",,"999,N,+0141,1","99999,9,09708,1","7,1,020,1,+999,9",,,SYN070AAXX  19061 57328 32975 00000 10291 20141 39708 40101 57020 333 20141;,Q01  00002PRCP06
04-19T09:00:00,4,31.2,107.5,344.0,"DA XIAN, CH",FM-12,99999,V020,"250,1,N,0020,1","22000,1,9,N","030000,1,N,1","+0319,1","+0100,1","10081,1",,,,,"00,1,+99999,9,99,9","00,99,1,00,1,00,1,99999,9,00,1,00,1",,,,"7,1,018,1,+999,9",,,SYN054AAXX  19091 57328 42980 02502 10319 20100 40081 57018;,
04-19T12:00:00,4,31.2,107.5,344.0,"DA XIAN, CH",FM-12,99999,V020,"999,9,C,0000,1","22000,1,9,N","027000,1,N,1","+0247,1","+0129,1","10089,1","06,0000,9,1",,,,"00,1,+99999,9,99,9","00,99,1,00,1,00,1,99999,9,00,1,00,1",,,"99999,9,09694,1","2,1,004,1,+999,9",,,SYN060AAXX  19121 57328 32977 00000 10247 20129 39694 40089 52004;,Q01  00002PRCP06
04-19T15:00:00,4,31.2,107.5,344.0,"DA XIAN, CH",FM-12,99999,V020,"040,1,N,0050,1","22000,1,9,N","015000,1,N,1","+0186,1","+0138,1","10102,1",,,,,"00,1,+99999,9,99,9","00,99,1,00,1,00,1,99999,9,00,1,00,1",,,,"2,1,013,1,+999,9",,,SYN054AAXX  19151 57328 42965 00405 10186 20138 40102 52013;,
04-19T18:00:00,4,31.2,107.5,344.0,"DA XIAN, CH",FM-12,99999,V020,"040,1,N,0030,1","22000,1,9,N","015000,1,N,1","+0165,1","+0134,1","10095,1","06,0000,9,1",,,,"00,1,+99999,9,99,9","00,99,1,00,1,00,1,99999,9,00,1,00,1",,"999,M,+0319,1","99999,9,09703,1","7,1,004,1,+999,9",,,SYN070AAXX  19181 57328 32965 00403 10165 20134 39703 40095 57004 333 10319;,Q01  00002PRCP06
04-19T21:00:00,4,31.2,107.5,344.0,"DA XIAN, CH",FM-12,99999,V020,"040,1,N,0050,1","22000,1,9,N","015000,1,N,1","+0153,1","+0123,1","10087,1",,,,,"00,1,+99999,9,99,9","00,99,1,00,1,00,1,99999,9,00,1,00,1",,,,"7,1,007,1,+999,9",,,SYN054AAXX  19211 57328 42965 00405 10153 20123 40087 57007;,
04-20T00:00:00,4,31.2,107.5,344.0,"DA XIAN, CH",FM-12,99999,V020,"040,1,N,0030,1","99999,9,9,N","020000,1,N,1","+0168,1","+0116,1","10099,1","06,0000,9,1",,,,,"06,99,1,00,1,00,1,99999,9,00,1,01,1",,,"99999,9,09704,1","2,1,008,1,+002,1",,,SYN076AAXX  20001 57328 32970 60403 10168 20116 39704 40099 52008 80001 333 05201;,Q01  00002PRCP06
04-20T03:00:00,4,31.2,107.5,344.0,"DA XIAN, CH",FM-12,99999,V020,"020,1,N,0010,1","22000,1,9,N","030000,1,N,1","+0253,1","+0137,1","10101,1",,,,,,"04,99,1,00,1,00,1,99999,9,00,1,01,1",,,,"2,1,003,1,+999,9",,,SYN060AAXX  20031 57328 42980 40201 10253 20137 40101 52003 80001;,
04-20T06:00:00,4,31.2,107.5,344.0,"DA XIAN, CH",FM-12,99999,V020,"140,1,N,0020,1","99999,9,9,N","030000,1,N,1","+0325,1","+0120,1","10065,1","06,0000,9,1",,,,,"07,99,1,00,1,00,1,99999,9,00,1,02,1",,"999,N,+0144,1","99999,9,09676,1","7,1,031,1,+999,9",,,SYN076AAXX  20061 57328 32980 71402 10325 20120 39676 40065 57031 80002 333 20144;,Q01  00002PRCP06
04-20T09:00:00,4,31.2,107.5,344.0,"DA XIAN, CH",FM-12,99999,V020,"140,1,N,0030,1","99999,9,9,N","030000,1,N,1","+0327,1","+0101,1","10037,1",,,,,,"07,99,1,00,1,00,1,99999,9,00,1,02,1",,,,"7,1,028,1,+999,9",,,SYN060AAXX  20091 57328 42980 71403 10327 20101 40037 57028 80002;,
04-20T12:00:00,4,31.2,107.5,344.0,"DA XIAN, CH",FM-12,99999,V020,"040,1,N,0020,1","99999,9,9,N","030000,1,N,1","+0267,1","+0155,1","10042,1","06,0000,9,1",,,,,"07,99,1,00,1,00,1,99999,9,00,1,02,1",,,"99999,9,09650,1","2,1,002,1,+999,9",,,SYN066AAXX  20121 57328 32980 70402 10267 20155 39650 40042 52002 80002;,Q01  00002PRCP06
04-20T15:00:00,4,31.2,107.5,344.0,"DA XIAN, CH",FM-12,99999,V020,"040,1,N,0040,1","22000,1,9,N","030000,1,N,1","+0213,1","+0141,1","10054,1",,,,,"00,1,+99999,9,99,9","00,99,1,00,1,00,1,99999,9,00,1,00,1",,,,"2,1,014,1,+999,9",,,SYN054AAXX  20151 57328 42980 00404 10213 20141 40054 52014;,
04-20T18:00:00,4,31.2,107.5,344.0,"DA XIAN, CH",FM-12,99999,V020,"020,1,N,0030,1","22000,1,9,N","015000,1,N,1","+0193,1","+0127,1","10046,1","06,0000,9,1",,,,"00,1,+99999,9,99,9","00,99,1,00,1,00,1,99999,9,00,1,00,1",,"999,M,+0334,1","99999,9,09659,1","7,1,005,1,+999,9",,,SYN070AAXX  20181 57328 32965 00203 10193 20127 39659 40046 57005 333 10334;,Q01  00002PRCP06
04-20T21:00:00,4,31.2,107.5,344.0,"DA XIAN, CH",FM-12,99999,V020,"040,1,N,0030,1","22000,1,9,N","015000,1,N,1","+0183,1","+0111,1","10041,1",,,,,"00,1,+99999,9,99,9","00,99,1,00,1,00,1,99999,9,00,1,00,1",,,,"7,1,005,1,+999,9",,,SYN054AAXX  20211 57328 42965 00403 10183 20111 40041 57005;,
04-21T00:00:00,4,31.2,107.5,344.0,"DA XIAN, CH",FM-12,99999,V020,"020,1,N,0030,1","22000,1,9,N","020000,1,N,1","+0189,1","+0116,1","10062,1","06,0000,9,1",,,,,"03,99,1,03,1,00,1,99999,9,04,1,00,1",,,"99999,9,09671,1","2,1,017,1,+003,1",,,SYN076AAXX  21001 57328 32970 30203 10189 20116 39671 40062 52017 83040 333 05302;,Q01  00002PRCP06
04-21T03:00:00,4,31.2,107.5,344.0,"DA XIAN, CH",FM-12,99999,V020,"040,1,N,0010,1","22000,1,9,N","030000,1,N,1","+0273,1","+0134,1","10063,1",,,,,,"02,99,1,00,1,00,1,99999,9,00,1,01,1",,,,"2,1,003,1,+999,9",,,SYN060AAXX  21031 57328 42980 20401 10273 20134 40063 52003 80001;,
04-21T06:00:00,4,31.2,107.5,344.0,"DA XIAN, CH",FM-12,99999,V020,"140,1,N,0010,1","22000,1,9,N","030000,1,N,1","+0319,1","+0173,1","10043,1","06,0000,9,1",,,,"00,1,+99999,9,99,9","00,99,1,00,1,00,1,99999,9,00,1,00,1",,"999,N,+0178,1","99999,9,09656,1","7,1,018,1,+999,9",,,SYN070AAXX  21061 57328 32980 01401 10319 20173 39656 40043 57018 333 20178;,Q01  00002PRCP06
04-21T09:00:00,4,31.2,107.5,344.0,"DA XIAN, CH",FM-12,99999,V020,"160,1,N,0010,1","22000,1,9,N","030000,1,N,1","+0325,1","+0178,1","10019,1",,,,,"00,1,+99999,9,99,9","00,99,1,00,1,00,1,99999,9,00,1,00,1",,,,"7,1,023,1,+999,9",,,SYN054AAXX  21091 57328 42980 01601 10325 20178 40019 57023;,
04-21T12:00:00,4,31.2,107.5,344.0,"DA XIAN, CH",FM-12,99999,V020,"999,9,C,0000,1","22000,1,9,N","012000,1,N,1","+0282,1","+0203,1","10025,1","06,0000,9,1",,,,"00,1,+99999,9,99,9","00,99,1,00,1,00,1,99999,9,00,1,00,1",,,"99999,9,09636,1","2,1,003,1,+999,9",,,SYN060AAXX  21121 57328 32962 00000 10282 20203 39636 40025 52003;,Q01  00002PRCP06
04-21T15:00:00,4,31.2,107.5,344.0,"DA XIAN, CH",FM-12,99999,V020,"040,1,N,0030,1","22000,1,9,N","012000,1,N,1","+0228,1","+0193,1","10038,1",,,,,"00,1,+99999,9,99,9","00,99,1,00,1,00,1,99999,9,00,1,00,1",,,,"2,1,015,1,+999,9",,,SYN054AAXX  21151 57328 42962 00403 10228 20193 40038 52015;,
04-21T18:00:00,4,31.2,107.5,344.0,"DA XIAN, CH",FM-12,99999,V020,"020,1,N,0020,1","22000,1,9,N","011000,1,N,1","+0209,1","+0186,1","10038,1","06,0000,9,1",,,,"00,1,+99999,9,99,9","00,99,1,00,1,00,1,99999,9,00,1,00,1",,"999,M,+0331,1","99999,9,09652,1","2,1,001,1,+999,9",,,SYN070AAXX  21181 57328 32961 00202 10209 20186 39652 40038 52001 333 10331;,Q01  00002PRCP06
04-21T21:00:00,4,31.2,107.5,344.0,"DA XIAN, CH",FM-12,99999,V020,"040,1,N,0040,1","22000,1,9,N","012000,1,N,1","+0197,1","+0180,1","10040,1",,,,,"00,1,+99999,9,99,9","00,99,1,00,1,00,1,99999,9,00,1,00,1",,,,"2,1,002,1,+999,9",,,SYN054AAXX  21211 57328 42962 00404 10197 20180 40040 52002;,
04-22T00:00:00,4,31.2,107.5,344.0,"DA XIAN, CH",FM-12,99999,V020,"040,1,N,0020,1","22000,1,9,N","008000,1,N,1","+0205,1","+0176,1","10054,1","06,0000,9,1",,,,"00,1,+99999,9,99,9","00,99,1,00,1,00,1,99999,9,00,1,00,1",,,"99999,9,09665,1","2,1,011,1,+001,1","10,1",,SYN076AAXX  22001 57328 31958 00402 10205 20176 39665 40054 52011 71000 333 05102;,Q01  00002PRCP06
04-22T03:00:00,4,31.2,107.5,344.0,"DA XIAN, CH",FM-12,99999,V020,"020,1,N,0020,1","22000,1,9,N","013000,1,N,1","+0285,1","+0191,1","10055,1",,,,,"00,1,+99999,9,99,9","00,99,1,00,1,00,1,99999,9,00,1,00,1",,,,"2,1,003,1,+999,9",,,SYN054AAXX  22031 57328 42963 00202 10285 20191 40055 52003;,
04-22T06:00:00,4,31.2,107.5,344.0,"DA XIAN, CH",FM-12,99999,V020,"320,1,N,0020,1","22000,1,9,N","015000,1,N,1","+0334,1","+0174,1","10025,1","06,0000,9,1",,,,"00,1,+99999,9,99,9","00,99,1,00,1,00,1,99999,9,00,1,00,1",,"999,N,+0191,1","99999,9,09641,1","7,1,027,1,+999,9",,,SYN070AAXX  22061 57328 32965 03202 10334 20174 39641 40025 57027 333 20191;,Q01  00002PRCP06
04-22T09:00:00,4,31.2,107.5,344.0,"DA XIAN, CH",FM-12,99999,V020,"270,1,N,0020,1","22000,1,9,N","025000,1,N,1","+0351,1","+0176,1","09998,1",,,,,"00,1,+99999,9,99,9","00,99,1,00,1,00,1,99999,9,00,1,00,1",,,,"7,1,026,1,+999,9",,,SYN054AAXX  22091 57328 42975 02702 10351 20176 49998 57026;,
04-22T12:00:00,4,31.2,107.5,344.0,"DA XIAN, CH",FM-12,99999,V020,"040,1,N,0030,1","22000,1,9,N","025000,1,N,1","+0287,1","+0180,1","10004,1","06,0000,9,1",,,,"00,1,+99999,9,99,9","00,99,1,00,1,00,1,99999,9,00,1,00,1",,,"99999,9,09617,1","2,1,002,1,+999,9",,,SYN060AAXX  22121 57328 32975 00403 10287 20180 39617 40004 52002;,Q01  00002PRCP06
04-22T15:00:00,4,31.2,107.5,344.0,"DA XIAN, CH",FM-12,99999,V020,"040,1,N,0030,1","22000,1,9,N","020000,1,N,1","+0240,1","+0186,1","10016,1",,,,,"00,1,+99999,9,99,9","00,99,1,00,1,00,1,99999,9,00,1,00,1",,,,"2,1,014,1,+999,9",,,SYN054AAXX  22151 57328 42970 00403 10240 20186 40016 52014;,
04-22T18:00:00,4,31.2,107.5,344.0,"DA XIAN, CH",FM-12,99999,V020,"040,1,N,0040,1","22000,1,9,N","020000,1,N,1","+0229,1","+0179,1","10015,1","06,0000,9,1",,,,"00,1,+99999,9,99,9","00,99,1,00,1,00,1,99999,9,00,1,00,1",,"999,M,+0353,1","99999,9,09632,1","2,1,001,1,+999,9",,,SYN070AAXX  22181 57328 32970 00404 10229 20179 39632 40015 52001 333 10353;,Q01  00002PRCP06
04-22T21:00:00,4,31.2,107.5,344.0,"DA XIAN, CH",FM-12,99999,V020,"020,1,N,0010,1","22000,1,9,N","012000,1,N,1","+0221,1","+0177,1","10016,1",,,,,,"01,99,1,01,1,05,1,02250,1,00,1,00,1",,,,"2,1,002,1,+999,9",,,SYN060AAXX  22211 57328 42862 10201 10221 20177 40016 52002 81500;,
04-23T00:00:00,4,31.2,107.5,344.0,"DA XIAN, CH",FM-12,99999,V020,"360,1,N,0020,1","02100,1,9,N","020000,1,N,1","+0241,1","+0166,1","10041,1","06,0000,9,1",,,,,"07,99,1,07,1,05,1,02250,1,99,9,99,9",,,"99999,9,09655,1","2,1,021,1,+001,1",,,SYN076AAXX  23001 57328 32870 73602 10241 20166 39655 40041 52021 875// 333 05104;,Q01  00002PRCP06
04-23T03:00:00,4,31.2,107.5,344.0,"DA XIAN, CH",FM-12,99999,V020,"040,1,N,0050,1","99999,9,9,N","030000,1,N,1","+0251,1","+0158,1","10072,1",,,,,,"08,99,1,08,1,00,1,99999,9,07,1,99,9",,,,"2,1,028,1,+999,9",,,SYN060AAXX  23031 57328 42980 80405 10251 20158 40072 52028 8807/;,
04-23T06:00:00,4,31.2,107.5,344.0,"DA XIAN, CH",FM-12,99999,V020,"040,1,N,0060,1","02100,1,9,N","015000,1,N,1","+0235,1","+0155,1","10066,1","06,9999,9,9",,,,,"08,99,1,08,1,05,1,02250,1,99,9,99,9",,"999,N,+0216,1","99999,9,09675,1","7,1,008,1,+999,9","60,1",,SYN088AAXX  23061 57328 11865 80406 10235 20155 39675 40066 57008 69901 76000 885// 333 20216;,
04-23T09:00:00,4,31.2,107.5,344.0,"DA XIAN, CH",FM-12,99999,V020,"040,1,N,0050,1","02100,1,9,N","020000,1,N,1","+0209,1","+0136,1","10062,1",,,"6,1,03,1","6,1,03,1",,"08,99,1,08,1,05,1,02250,1,99,9,99,9",,,,"7,1,006,1,+999,9","21,1",,SYN066AAXX  23091 57328 41870 80405 10209 20136 40062 57006 72166 885//;,
04-23T12:00:00,4,31.2,107.5,344.0,"DA XIAN, CH",FM-12,99999,V020,"040,1,N,0070,1","02100,1,9,N","030000,1,N,1","+0201,1","+0120,1","10079,1","06,0020,9,1",,"6,1,06,1",,,"08,99,1,08,1,05,1,02250,1,99,9,99,9",,,"99999,9,09686,1","2,1,017,1,+999,9","00,1",,SYN078AAXX  23121 57328 11880 80407 10201 20120 39686 40079 52017 60021 70060 885//;,
04-23T15:00:00,4,31.2,107.5,344.0,"DA XIAN, CH",FM-12,99999,V020,"040,1,N,0050,1","02100,1,9,N","030000,1,N,1","+0196,1","+0120,1","10093,1",,,,,,"08,99,1,08,1,05,1,02250,1,99,9,99,9",,,,"2,1,014,1,+999,9",,,SYN060AAXX  23151 57328 42880 80405 10196 20120 40093 52014 885//;,
04-23T18:00:00,4,31.2,107.5,344.0,"DA XIAN, CH",FM-12,99999,V020,"040,1,N,0050,1","02100,1,9,N","025000,1,N,1","+0191,1","+0125,1","10093,1","06,0000,9,1",,,,,"08,99,1,08,1,05,1,02250,1,99,9,99,9",,"999,M,+0264,1","99999,9,09699,1","7,1,001,1,+999,9",,,SYN076AAXX  23181 57328 32875 80405 10191 20125 39699 40093 57001 885// 333 10264;,Q01  00002PRCP06
04-23T21:00:00,4,31.2,107.5,344.0,"DA XIAN, CH",FM-12,99999,V020,"040,1,N,0030,1","02100,1,9,N","012000,1,N,1","+0189,1","+0126,1","10086,1","24,0015,9,1",,,,,"08,99,1,08,1,05,1,02250,1,99,9,99,9",,,,"7,1,009,1,+999,9",,,SYN070AAXX  23211 57328 42862 80403 10189 20126 40086 57009 885// 333 70016;,
04-24T00:00:00,4,31.2,107.5,344.0,"DA XIAN, CH",FM-12,99999,V020,"040,1,N,0030,1","99999,9,9,N","015000,1,N,1","+0189,1","+0128,1","10105,1","06,0000,9,1","24,0015,9,1",,,,"08,99,1,08,1,00,1,99999,9,07,1,99,9",,,"99999,9,09708,1","2,1,018,1,+050,1",,,SYN082AAXX  24001 57328 32965 80403 10189 20128 39708 40105 52018 8807/ 333 00555 70016;,Q01  00002PRCP06
04-24T03:00:00,4,31.2,107.5,344.0,"DA XIAN, CH",FM-12,99999,V020,"040,1,N,0030,1","99999,9,9,N","015000,1,N,1","+0199,1","+0136,1","10118,1",,,"6,1,03,1",,,"08,99,1,08,1,00,1,99999,9,02,1,99,9",,,,"2,1,013,1,+999,9","60,1",,SYN066AAXX  24031 57328 41965 80403 10199 20136 40118 52013 76060 8802/;,
04-24T06:00:00,4,31.2,107.5,344.0,"DA XIAN, CH",FM-12,99999,V020,"999,9,C,0000,1","02100,1,9,N","015000,1,N,1","+0211,1","+0159,1","10100,1","06,9999,9,9",,"6,1,06,1",,,"08,99,1,08,1,05,1,02250,1,99,9,99,9",,"999,N,+0184,1","99999,9,09704,1","7,1,017,1,+999,9","00,1",,SYN088AAXX  24061 57328 11865 80000 10211 20159 39704 40100 57017 69901 70060 885// 333 20184;,
04-24T09:00:00,4,31.2,107.5,344.0,"DA XIAN, CH",FM-12,99999,V020,"090,1,N,0020,1","99999,9,9,N","020000,1,N,1","+0215,1","+0158,1","10080,1",,,,,,"08,99,1,08,1,00,1,99999,9,07,1,99,9",,,,"7,1,019,1,+999,9",,,SYN060AAXX  24091 57328 42970 80902 10215 20158 40080 57019 8807/;,
04-24T12:00:00,4,31.2,107.5,344.0,"DA XIAN, CH",FM-12,99999,V020,"020,1,N,0010,1","22000,1,9,N","020000,1,N,1","+0199,1","+0165,1","10080,1","06,9999,9,9",,"6,1,06,1",,,"03,99,1,03,1,00,1,99999,9,04,1,00,1",,,"99999,9,09684,1","7,1,001,1,+999,9","00,1",,SYN078AAXX  24121 57328 11970 30201 10199 20165 39684 40080 57001 69901 70060 83040;,
04-24T15:00:00,4,31.2,107.5,344.0,"DA XIAN, CH",FM-12,99999,V020,"040,1,N,0010,1","99999,9,9,N","015000,1,N,1","+0191,1","+0165,1","10089,1",,,,,,"07,99,1,07,1,00,1,99999,9,04,1,99,9",,,,"2,1,008,1,+999,9",,,SYN060AAXX  24151 57328 42965 70401 10191 20165 40089 52008 8704/;,
04-24T18:00:00,4,31.2,107.5,344.0,"DA XIAN, CH",FM-12,99999,V020,"040,1,N,0010,1","99999,9,9,N","012000,1,N,1","+0185,1","+0162,1","10071,1","06,0000,9,1",,,,,"08,99,1,08,1,00,1,99999,9,07,1,99,9",,"999,M,+0220,1","99999,9,09676,1","7,1,016,1,+999,9",,,SYN076AAXX  24181 57328 32962 80401 10185 20162 39676 40071 57016 8807/ 333 10220;,Q01  00002PRCP06
04-24T21:00:00,4,31.2,107.5,344.0,"DA XIAN, CH",FM-12,99999,V020,"999,9,C,0000,1","01500,1,9,N","008000,1,N,1","+0184,1","+0168,1","10062,1","24,0038,9,1",,"9,1,03,1","8,1,03,1",,"08,99,1,08,1,09,1,01750,1,99,9,99,9",,,,"7,1,009,1,+999,9","91,1",,SYN076AAXX  24211 57328 41758 80000 10184 20168 40062 57009 79198 889// 333 70038;,
04-25T00:00:00,4,31.2,107.5,344.0,"DA XIAN, CH",FM-12,99999,V020,"040,1,N,0010,1","02100,1,9,N","003000,1,N,1","+0173,1","+0168,1","10068,1","06,0041,9,1","24,0043,9,1","9,1,06,1","8,1,06,1",,"08,99,1,08,1,05,1,02250,1,99,9,99,9",,,"99999,9,09671,1","2,1,004,1,-040,1","21,1",,SYN094AAXX  25001 57328 11830 80401 10173 20168 39671 40068 52004 60041 72198 885// 333 05452 70044;,
04-25T03:00:00,4,31.2,107.5,344.0,"DA XIAN, CH",FM-12,99999,V020,"040,1,N,0020,1","02100,1,9,N","003000,1,N,1","+0181,1","+0170,1","10072,1",,,"6,1,03,1",,,"08,99,1,08,1,05,1,02250,1,99,9,99,9",,,,"2,1,003,1,+999,9","21,1",,SYN066AAXX  25031 57328 41830 80402 10181 20170 40072 52003 72160 885//;,
04-25T06:00:00,4,31.2,107.5,344.0,"DA XIAN, CH",FM-12,99999,V020,"040,1,N,0020,1","02100,1,9,N","018000,1,N,1","+0196,1","+0167,1","10059,1","06,9999,9,9",,"6,1,06,1",,,"08,99,1,08,1,05,1,02250,1,99,9,99,9",,"999,N,+0172,1","99999,9,09663,1","7,1,011,1,+999,9","00,1",,SYN088AAXX  25061 57328 11868 80402 10196 20167 39663 40059 57011 69921 70060 885// 333 20172;,
04-25T09:00:00,4,31.2,107.5,344.0,"DA XIAN, CH",FM-12,99999,V020,"040,1,N,0020,1","99999,9,9,N","025000,1,N,1","+0196,1","+0163,1","10045,1",,,,,,"08,99,1,08,1,00,1,99999,9,07,1,99,9",,,,"7,1,013,1,+999,9",,,SYN060AAXX  25091 57328 42975 80402 10196 20163 40045 57013 8807/;,
04-25T12:00:00,4,31.2,107.5,344.0,"DA XIAN, CH",FM-12,99999,V020,"020,1,N,0040,1","02100,1,9,N","020000,1,N,1","+0181,1","+0153,1","10079,1","06,0000,9,1",,,,,"08,99,1,08,1,05,1,02250,1,99,9,99,9",,,"99999,9,09680,1","2,1,030,1,+999,9",,,SYN066AAXX  25121 57328 32870 80204 10181 20153 39680 40079 52030 885//;,Q01  00002PRCP06
04-25T15:00:00,4,31.2,107.5,344.0,"DA XIAN, CH",FM-12,99999,V020,"040,1,N,0010,1","02100,1,9,N","020000,1,N,1","+0177,1","+0150,1","10108,1",,,,,,"08,99,1,08,1,05,1,02250,1,99,9,99,9",,,,"2,1,029,1,+999,9",,,SYN060AAXX  25151 57328 42870 80401 10177 20150 40108 52029 885//;,
04-25T18:00:00,4,31.2,107.5,344.0,"DA XIAN, CH",FM-12,99999,V020,"020,1,N,0020,1","02100,1,9,N","015000,1,N,1","+0177,1","+0132,1","10104,1","06,0000,9,1",,,,,"08,99,1,08,1,05,1,02250,1,99,9,99,9",,"999,M,+0198,1","99999,9,09706,1","7,1,003,1,+999,9",,,SYN076AAXX  25181 57328 32865 80202 10177 20132 39706 40104 57003 885// 333 10198;,Q01  00002PRCP06
04-25T21:00:00,4,31.2,107.5,344.0,"DA XIAN, CH",FM-12,99999,V020,"110,1,N,0020,1","22000,1,9,N","012000,1,N,1","+0163,1","+0139,1","10117,1","24,0008,9,1",,,,"00,1,+99999,9,99,9","00,99,1,00,1,00,1,99999,9,00,1,00,1",,,,"2,1,011,1,+999,9",,,SYN064AAXX  25211 57328 42962 01102 10163 20139 40117 52011 333 70008;,
04-26T00:00:00,4,31.2,107.5,344.0,"DA XIAN, CH",FM-12,99999,V020,"110,1,N,0010,1","22000,1,9,N","010000,1,N,1","+0171,1","+0144,1","10143,1","06,0000,9,1","24,0003,9,1",,,,"03,99,1,00,1,00,1,99999,9,00,1,02,1",,,"99999,9,09742,1","2,1,025,1,+070,1",,,SYN082AAXX  26001 57328 32960 31101 10171 20144 39742 40143 52025 80002 333 00700 70002;,Q01  00002PRCP06
04-26T03:00:00,4,31.2,107.5,344.0,"DA XIAN, CH",FM-12,99999,V020,"220,1,N,0010,1","22000,1,9,N","012000,1,N,1","+0225,1","+0141,1","10147,1",,,,,,"01,99,1,00,1,00,1,99999,9,00,1,01,1",,,,"2,1,007,1,+999,9",,,SYN060AAXX  26031 57328 42962 12201 10225 20141 40147 52007 80001;,
04-26T06:00:00,4,31.2,107.5,344.0,"DA XIAN, CH",FM-12,99999,V020,"200,1,N,0030,1","22000,1,9,N","020000,1,N,1","+0265,1","+0140,1","10116,1","06,0000,9,1",,,,,"03,99,1,00,1,00,1,99999,9,00,1,02,1",,"999,N,+0151,1","99999,9,09722,1","7,1,027,1,+999,9",,,SYN076AAXX  26061 57328 32970 32003 10265 20140 39722 40116 57027 80002 333 20151;,Q01  00002PRCP06
04-26T09:00:00,4,31.2,107.5,344.0,"DA XIAN, CH",FM-12,99999,V020,"270,1,N,0030,1","22000,1,9,N","025000,1,N,1","+0279,1","+0152,1","10104,1",,,,,"00,1,+99999,9,99,9","00,99,1,00,1,00,1,99999,9,00,1,00,1",,,,"7,1,012,1,+999,9",,,SYN054AAXX  26091 57328 42975 02703 10279 20152 40104 57012;,
04-26T12:00:00,4,31.2,107.5,344.0,"DA XIAN, CH",FM-12,99999,V020,"250,1,N,0010,1","22000,1,9,N","020000,1,N,1","+0247,1","+0166,1","10120,1","06,0000,9,1",,,,,"01,99,1,00,1,00,1,99999,9,00,1,01,1",,,"99999,9,09724,1","2,1,014,1,+999,9",,,SYN066AAXX  26121 57328 32970 12501 10247 20166 39724 40120 52014 80001;,Q01  00002PRCP06
04-26T15:00:00,4,31.2,107.5,344.0,"DA XIAN, CH",FM-12,99999,V020,"040,1,N,0020,1","22000,1,9,N","015000,1,N,1","+0217,1","+0177,1","10137,1",,,,,"00,1,+99999,9,99,9","00,99,1,00,1,00,1,99999,9,00,1,00,1",,,,"2,1,018,1,+999,9",,,SYN054AAXX  26151 57328 42965 00402 10217 20177 40137 52018;,
04-26T18:00:00,4,31.2,107.5,344.0,"DA XIAN, CH",FM-12,99999,V020,"040,1,N,0040,1","22000,1,9,N","012000,1,N,1","+0185,1","+0172,1","10131,1","06,0000,9,1",,,,"00,1,+99999,9,99,9","00,99,1,00,1,00,1,99999,9,00,1,00,1",,"999,M,+0279,1","99999,9,09737,1","7,1,005,1,+999,9",,,SYN070AAXX  26181 57328 32962 00404 10185 20172 39737 40131 57005 333 10279;,Q01  00002PRCP06
04-26T21:00:00,4,31.2,107.5,344.0,"DA XIAN, CH",FM-12,99999,V020,"020,1,N,0020,1","22000,1,9,N","006000,1,N,1","+0173,1","+0166,1","10123,1",,,,,"00,1,+99999,9,99,9","00,99,1,00,1,00,1,99999,9,00,1,00,1",,,,"7,1,008,1,+999,9","10,1",,SYN060AAXX  26211 57328 41956 00202 10173 20166 40123 57008 71000;,
04-27T00:00:00,4,31.2,107.5,344.0,"DA XIAN, CH",FM-12,99999,V020,"020,1,N,0020,1","22000,1,9,N","006000,1,N,1","+0183,1","+0167,1","10140,1","06,0000,9,1",,,,,"02,99,1,00,1,00,1,99999,9,00,1,02,1",,,"99999,9,09744,1","2,1,015,1,+000,1","10,1",,SYN082AAXX  27001 57328 31956 20202 10183 20167 39744 40140 52015 71000 80002 333 00001;,Q01  00002PRCP06
04-27T03:00:00,4,31.2,107.5,344.0,"DA XIAN, CH",FM-12,99999,V020,"999,9,C,0000,1","99999,9,9,N","012000,1,N,1","+0249,1","+0173,1","10141,1",,,,,,"07,99,1,00,1,00,1,99999,9,00,1,02,1",,,,"2,1,003,1,+999,9",,,SYN060AAXX  27031 57328 42962 70000 10249 20173 40141 52003 80002;,
04-27T06:00:00,4,31.2,107.5,344.0,"DA XIAN, CH",FM-12,99999,V020,"999,9,C,0000,1","22000,1,9,N","020000,1,N,1","+0289,1","+0155,1","10112,1","06,0000,9,1",,,,,"02,99,1,02,1,01,1,01250,1,00,1,00,1",,"999,N,+0168,1","99999,9,09720,1","7,1,027,1,+999,9",,,SYN076AAXX  27061 57328 32670 20000 10289 20155 39720 40112 57027 82100 333 20168;,Q01  00002PRCP06
04-27T09:00:00,4,31.2,107.5,344.0,"DA XIAN, CH",FM-12,99999,V020,"160,1,N,0010,1","22000,1,9,N","030000,1,N,1","+0295,1","+0175,1","10080,1",,,,,,"01,99,1,01,1,01,1,01250,1,00,1,00,1",,,,"7,1,031,1,+999,9",,,SYN060AAXX  27091 57328 42680 11601 10295 20175 40080 57031 81100;,
04-27T12:00:00,4,31.2,107.5,344.0,"DA XIAN, CH",FM-12,99999,V020,"999,9,C,0000,1","22000,1,9,N","030000,1,N,1","+0258,1","+0177,1","10076,1","06,0000,9,1",,,,,"04,99,1,04,1,00,1,99999,9,04,1,00,1",,,"99999,9,09683,1","7,1,006,1,+999,9",,,SYN066AAXX  27121 57328 32980 40000 10258 20177 39683 40076 57006 84040;,Q01  00002PRCP06
04-27T15:00:00,4,31.2,107.5,344.0,"DA XIAN, CH",FM-12,99999,V020,"040,1,N,0030,1","22000,1,9,N","020000,1,N,1","+0211,1","+0176,1","10087,1",,,,,"00,1,+99999,9,99,9","00,99,1,00,1,00,1,99999,9,00,1,00,1",,,,"2,1,012,1,+999,9",,,SYN054AAXX  27151 57328 42970 00403 10211 20176 40087 52012;,
04-27T18:00:00,4,31.2,107.5,344.0,"DA XIAN, CH",FM-12,99999,V020,"020,1,N,0030,1","22000,1,9,N","015000,1,N,1","+0190,1","+0166,1","10078,1","06,0000,9,1",,,,"00,1,+99999,9,99,9","00,99,1,00,1,00,1,99999,9,00,1,00,1",,"999,M,+0299,1","99999,9,09688,1","7,1,007,1,+999,9",,,SYN070AAXX  27181 57328 32965 00203 10190 20166 39688 40078 57007 333 10299;,Q01  00002PRCP06
04-27T21:00:00,4,31.2,107.5,344.0,"DA XIAN, CH",FM-12,99999,V020,"040,1,N,0030,1","22000,1,9,N","006000,1,N,1","+0178,1","+0158,1","10057,1",,,,,,"01,99,1,01,1,00,1,99999,9,04,1,00,1",,,,"7,1,021,1,+999,9","10,1",,SYN066AAXX  27211 57328 41956 10403 10178 20158 40057 57021 71000 81040;,
04-28T00:00:00,4,31.2,107.5,344.0,"DA XIAN, CH",FM-12,99999,V020,"020,1,N,0020,1","99999,9,9,N","010000,1,N,1","+0189,1","+0156,1","10064,1","06,0000,9,1",,,,,"07,99,1,07,1,00,1,99999,9,04,1,99,9",,,"99999,9,09672,1","2,1,005,1,+007,1",,,SYN076AAXX  28001 57328 32960 70202 10189 20156 39672 40064 52005 8704/ 333 05701;,Q01  00002PRCP06
04-28T03:00:00,4,31.2,107.5,344.0,"DA XIAN, CH",FM-12,99999,V020,"340,1,N,0010,1","22000,1,9,N","020000,1,N,1","+0264,1","+0151,1","10057,1",,,,,,"02,99,1,02,1,00,1,99999,9,04,1,00,1",,,,"7,1,005,1,+999,9",,,SYN060AAXX  28031 57328 42970 23401 10264 20151 40057 57005 82040;,
04-28T06:00:00,4,31.2,107.5,344.0,"DA XIAN, CH",FM-12,99999,V020,"090,1,N,0040,1","22000,1,9,N","030000,1,N,1","+0301,1","+0147,1","10027,1","06,0000,9,1",,,,"00,1,+99999,9,99,9","00,99,1,00,1,00,1,99999,9,00,1,00,1",,"999,N,+0168,1","99999,9,09639,1","7,1,028,1,+999,9",,,SYN070AAXX  28061 57328 32980 00904 10301 20147 39639 40027 57028 333 20168;,Q01  00002PRCP06
04-28T09:00:00,4,31.2,107.5,344.0,"DA XIAN, CH",FM-12,99999,V020,"090,1,N,0020,1","22000,1,9,N","030000,1,N,1","+0306,1","+0156,1","10004,1",,,,,"00,1,+99999,9,99,9","00,99,1,00,1,00,1,99999,9,00,1,00,1",,,,"7,1,022,1,+999,9",,,SYN054AAXX  28091 57328 42980 00902 10306 20156 40004 57022;,
04-28T12:00:00,4,31.2,107.5,344.0,"DA XIAN, CH",FM-12,99999,V020,"999,9,C,0000,1","22000,1,9,N","030000,1,N,1","+0271,1","+0175,1","10012,1","06,0000,9,1",,,,,"01,99,1,01,1,00,1,99999,9,04,1,00,1",,,"99999,9,09623,1","2,1,006,1,+999,9",,,SYN066AAXX  28121 57328 32980 10000 10271 20175 39623 40012 52006 81040;,Q01  00002PRCP06
04-28T15:00:00,4,31.2,107.5,344.0,"DA XIAN, CH",FM-12,99999,V020,"020,1,N,0040,1","22000,1,9,N","020000,1,N,1","+0236,1","+0176,1","10029,1",,,,,"00,1,+99999,9,99,9","00,99,1,00,1,00,1,99999,9,00,1,00,1",,,,"2,1,019,1,+999,9",,,SYN054AAXX  28151 57328 42970 00204 10236 20176 40029 52019;,
04-28T18:00:00,4,31.2,107.5,344.0,"DA XIAN, CH",FM-12,99999,V020,"020,1,N,0010,1","99999,9,9,N","020000,1,N,1","+0237,1","+0171,1","10011,1","06,0000,9,1",,,,,"08,99,1,08,1,00,1,99999,9,07,1,99,9",,"999,M,+0313,1","99999,9,09627,1","7,1,015,1,+999,9",,,SYN076AAXX  28181 57328 32970 80201 10237 20171 39627 40011 57015 8807/ 333 10313;,Q01  00002PRCP06
04-28T21:00:00,4,31.2,107.5,344.0,"DA XIAN, CH",FM-12,99999,V020,"180,1,N,0010,1","01500,1,9,N","015000,1,N,1","+0229,1","+0179,1","10019,1",,,,,,"08,99,1,08,1,09,1,01750,1,99,9,99,9",,,,"2,1,008,1,+999,9","17,1",,SYN066AAXX  28211 57328 41765 81801 10229 20179 40019 52008 71700 889//;,
04-29T00:00:00,4,31.2,107.5,344.0,"DA XIAN, CH",FM-12,99999,V020,"200,1,N,0010,1","02100,1,9,N","008000,1,N,1","+0219,1","+0185,1","10040,1","06,0000,9,1",,"9,1,06,1",,,"08,99,1,08,1,05,1,02250,1,99,9,99,9",,,"99999,9,09652,1","2,1,017,1,+002,1","10,1",,SYN082AAXX  29001 57328 31858 82001 10219 20185 39652 40040 52017 71090 885// 333 05203;,Q01  00002PRCP06
04-29T03:00:00,4,31.2,107.5,344.0,"DA XIAN, CH",FM-12,99999,V020,"200,1,N,0020,1","09000,1,9,N","012000,1,N,1","+0257,1","+0186,1","10046,1",,,,,,"07,99,1,01,1,01,1,01250,1,00,1,02,1",,,,"2,1,006,1,+999,9",,,SYN060AAXX  29031 57328 42662 72002 10257 20186 40046 52006 81102;,
04-29T06:00:00,4,31.2,107.5,344.0,"DA XIAN, CH",FM-12,99999,V020,"110,1,N,0020,1","22000,1,9,N","015000,1,N,1","+0291,1","+0179,1","10018,1","06,0000,9,1",,,,,"07,99,1,01,1,01,1,01250,1,00,1,01,1",,"999,N,+0215,1","99999,9,09633,1","7,1,025,1,+999,9",,,SYN076AAXX  29061 57328 32665 71102 10291 20179 39633 40018 57025 81101 333 20215;,Q01  00002PRCP06
04-29T09:00:00,4,31.2,107.5,344.0,"DA XIAN, CH",FM-12,99999,V020,"250,1,N,0020,1","99999,9,9,N","020000,1,N,1","+0296,1","+0189,1","10003,1",,,,,,"07,99,1,00,1,00,1,99999,9,00,1,08,1",,,,"7,1,014,1,+999,9",,,SYN060AAXX  29091 57328 42970 72502 10296 20189 40003 57014 80008;,
04-29T12:00:00,4,31.2,107.5,344.0,"DA XIAN, CH",FM-12,99999,V020,"999,9,C,0000,1","22000,1,9,N","020000,1,N,1","+0271,1","+0192,1","10017,1","06,0000,9,1",,,,,"01,99,1,00,1,00,1,99999,9,00,1,02,1",,,"99999,9,09630,1","2,1,011,1,+999,9",,,SYN066AAXX  29121 57328 32970 10000 10271 20192 39630 40017 52011 80002;,Q01  00002PRCP06
04-29T15:00:00,4,31.2,107.5,344.0,"DA XIAN, CH",FM-12,99999,V020,"040,1,N,0020,1","22000,1,9,N","015000,1,N,1","+0229,1","+0195,1","10034,1",,,,,"00,1,+99999,9,99,9","00,99,1,00,1,00,1,99999,9,00,1,00,1",,,,"2,1,016,1,+999,9",,,SYN054AAXX  29151 57328 42965 00402 10229 20195 40034 52016;,
04-29T18:00:00,4,31.2,107.5,344.0,"DA XIAN, CH",FM-12,99999,V020,"040,1,N,0020,1","22000,1,9,N","012000,1,N,1","+0213,1","+0191,1","10033,1","06,0000,9,1",,,,"00,1,+99999,9,99,9","00,99,1,00,1,00,1,99999,9,00,1,00,1",,"999,M,+0304,1","99999,9,09646,1","4,1,000,1,+999,9",,,SYN070AAXX  29181 57328 32962 00402 10213 20191 39646 40033 54000 333 10304;,Q01  00002PRCP06
04-29T21:00:00,4,31.2,107.5,344.0,"DA XIAN, CH",FM-12,99999,V020,"040,1,N,0040,1","22000,1,9,N","008000,1,N,1","+0204,1","+0190,1","10033,1",,,,,,"02,99,1,02,1,05,1,02250,1,00,1,00,1",,,,"4,1,000,1,+999,9","10,1",,SYN066AAXX  29211 57328 41858 20404 10204 20190 40033 54000 71000 82500;,
04-30T00:00:00,4,31.2,107.5,344.0,"DA XIAN, CH",FM-12,99999,V020,"040,1,N,0040,1","22000,1,9,N","012000,1,N,1","+0216,1","+0191,1","10054,1","06,0000,9,1",,,,,"02,99,1,02,1,00,1,99999,9,04,1,00,1",,,"99999,9,09665,1","2,1,019,1,+001,1",,,SYN076AAXX  30001 57328 32962 20404 10216 20191 39665 40054 52019 82040 333 00100;,Q01  00002PRCP06
04-30T03:00:00,4,31.2,107.5,344.0,"DA XIAN, CH",FM-12,99999,V020,"290,1,N,0010,1","99999,9,9,N","030000,1,N,1","+0283,1","+0198,1","10056,1",,,,,,"07,99,1,07,1,00,1,99999,9,04,1,99,9",,,,"2,1,004,1,+999,9",,,SYN060AAXX  30031 57328 42980 72901 10283 20198 40056 52004 8704/;,
04-30T06:00:00,4,31.2,107.5,344.0,"DA XIAN, CH",FM-12,99999,V020,"090,1,N,0020,1","99999,9,9,N","030000,1,N,1","+0307,1","+0173,1","10033,1","06,9999,9,9",,"6,1,06,1",,,"07,99,1,07,1,00,1,99999,9,04,1,99,9",,"999,N,+0198,1","99999,9,09647,1","7,1,022,1,+999,9","00,1",,SYN088AAXX  30061 57328 11980 70902 10307 20173 39647 40033 57022 69901 70060 8704/ 333 20198;,
04-30T09:00:00,4,31.2,107.5,344.0,"DA XIAN, CH",FM-12,99999,V020,"140,1,N,0030,1","99999,9,9,N","030000,1,N,1","+0313,1","+0175,1","10009,1",,,,,,"07,99,1,07,1,00,1,99999,9,04,1,99,9",,,,"7,1,023,1,+999,9",,,SYN060AAXX  30091 57328 42980 71403 10313 20175 40009 57023 8704/;,
04-30T12:00:00,4,31.2,107.5,344.0,"DA XIAN, CH",FM-12,99999,V020,"999,9,C,0000,1","99999,9,9,N","025000,1,N,1","+0284,1","+0194,1","10020,1","06,0000,9,1",,,,,"08,99,1,08,1,00,1,99999,9,07,1,99,9",,,"99999,9,09633,1","2,1,009,1,+999,9",,,SYN066AAXX  30121 57328 32975 80000 10284 20194 39633 40020 52009 8807/;,Q01  00002PRCP06
04-30T15:00:00,4,31.2,107.5,344.0,"DA XIAN, CH",FM-12,99999,V020,"140,1,N,0005,1","99999,9,9,N","020000,1,N,1","+0275,1","+0165,1","10039,1",,,,,,"07,99,1,07,1,00,1,99999,9,04,1,99,9",,,,"2,1,022,1,+999,9",,,SYN060AAXX  30154 57328 42970 71401 10275 20165 40039 52022 8704/;,
04-30T18:00:00,4,31.2,107.5,344.0,"DA XIAN, CH",FM-12,99999,V020,"110,1,N,0010,1","99999,9,9,N","020000,1,N,1","+0264,1","+0153,1","10035,1","06,9999,9,9",,,,,"08,99,1,08,1,00,1,99999,9,07,1,99,9",,"999,M,+0311,1","99999,9,09652,1","7,1,003,1,+999,9","60,1",,SYN088AAXX  30181 57328 11970 81101 10264 20153 39652 40035 57003 69901 76000 8807/ 333 10311;,
04-30T21:00:00,4,31.2,107.5,344.0,"DA XIAN, CH",FM-12,99999,V020,"999,9,C,0000,1","01500,1,9,N","015000,1,N,1","+0237,1","+0179,1","10036,1","24,0000,2,1",,"6,1,03,1",,,"08,99,1,08,1,09,1,01750,1,99,9,99,9",,,,"4,1,000,1,+999,9","95,1",,SYN076AAXX  30211 57328 41765 80000 10237 20179 40036 54000 79560 889// 333 79999;,
05-01T00:00:00,4,31.2,107.5,344.0,"DA XIAN, CH",FM-12,99999,V020,"040,1,N,0010,1","01500,1,9,N","008000,1,N,1","+0202,1","+0188,1","10064,1","06,0051,9,1","24,0051,9,1","9,1,06,1","6,1,06,1",,"08,99,1,08,1,09,1,01750,1,99,9,99,9",,,"99999,9,09675,1","2,1,023,1,+010,1","91,1",,SYN094AAXX  01001 57328 11758 80401 10202 20188 39675 40064 52023 60051 79196 889// 333 00151 70050;,
05-01T03:00:00,4,31.2,107.5,344.0,"DA XIAN, CH",FM-12,99999,V020,"020,1,N,0030,1","99999,9,9,N","008000,1,N,1","+0220,1","+0187,1","10066,1",,,"8,1,03,1","6,1,03,1",,"08,99,1,08,1,00,1,99999,9,02,1,99,9",,,,"2,1,002,1,+999,9","60,1",,SYN066AAXX  01031 57328 41958 80203 10220 20187 40066 52002 76086 8802/;,
05-01T06:00:00,4,31.2,107.5,344.0,"DA XIAN, CH",FM-12,99999,V020,"020,1,N,0010,1","02100,1,9,N","007000,1,N,1","+0206,1","+0195,1","10054,1","06,0071,9,1",,"8,1,06,1","6,1,06,1",,"08,99,1,08,1,05,1,02250,1,99,9,99,9",,"999,N,+0200,1","99999,9,09664,1","7,1,013,1,+999,9","60,1",,SYN088AAXX  01061 57328 11857 80201 10206 20195 39664 40054 57013 60071 76086 885// 333 20200;,
05-01T09:00:00,4,31.2,107.5,344.0,"DA XIAN, CH",FM-12,99999,V020,"040,1,N,0040,1","99999,9,9,N","020000,1,N,1","+0213,1","+0187,1","10033,1",,,"6,1,03,1",,,"08,99,1,08,1,00,1,99999,9,07,1,99,9",,,,"7,1,021,1,+999,9","00,1",,SYN066AAXX  01091 57328 41970 80404 10213 20187 40033 57021 70060 8807/;,
05-01T12:00:00,4,31.2,107.5,344.0,"DA XIAN, CH",FM-12,99999,V020,"040,1,N,0020,1","02100,1,9,N","030000,1,N,1","+0221,1","+0174,1","10034,1","06,9999,9,9",,"6,1,06,1",,,"07,99,1,07,1,05,1,02250,1,99,9,99,9",,,"99999,9,09642,1","7,1,001,1,+999,9","00,1",,SYN078AAXX  01121 57328 11880 70402 10221 20174 39642 40034 57001 69911 70060 875//;,
05-01T15:00:00,4,31.2,107.5,344.0,"DA XIAN, CH",FM-12,99999,V020,"070,1,N,0010,1","99999,9,9,N","020000,1,N,1","+0211,1","+0176,1","10042,1",,,,,,"06,99,1,06,1,00,1,99999,9,04,1,00,1",,,,"2,1,008,1,+999,9",,,SYN060AAXX  01151 57328 42970 60701 10211 20176 40042 52008 86040;,
05-01T18:00:00,4,31.2,107.5,344.0,"DA XIAN, CH",FM-12,99999,V020,"040,1,N,0010,1","02100,1,9,N","012000,1,N,1","+0207,1","+0172,1","10027,1","06,0000,9,1",,,,,"07,99,1,07,1,05,1,02250,1,99,9,99,9",,"999,M,+0265,1","99999,9,09634,1","7,1,016,1,+999,9",,,SYN076AAXX  01181 57328 32862 70401 10207 20172 39634 40027 57016 875// 333 10265;,Q01  00002PRCP06
05-01T21:00:00,4,31.2,107.5,344.0,"DA XIAN, CH",FM-12,99999,V020,"070,1,N,0010,1","02100,1,9,N","012000,1,N,1","+0203,1","+0169,1","10016,1","24,0117,9,1",,,,,"08,99,1,08,1,05,1,02250,1,99,9,99,9",,,,"7,1,010,1,+999,9",,,SYN070AAXX  01211 57328 42862 80701 10203 20169 40016 57010 885// 333 70116;,
05-02T00:00:00,4,31.2,107.5,344.0,"DA XIAN, CH",FM-12,99999,V020,"090,1,N,0010,1","01500,1,9,N","020000,1,N,1","+0201,1","+0169,1","10033,1","06,9999,9,9","24,0066,9,1","6,1,06,1",,,"08,99,1,08,1,09,1,01750,1,99,9,99,9",,,"99999,9,09641,1","2,1,017,1,-030,1","95,1",,SYN094AAXX  02001 57328 11770 80901 10201 20169 39641 40033 52017 69901 79560 889// 333 05300 70066;,
05-02T03:00:00,4,31.2,107.5,344.0,"DA XIAN, CH",FM-12,99999,V020,"040,1,N,0040,1","00750,1,9,N","030000,1,N,1","+0200,1","+0173,1","10045,1",,,"8,1,03,1",,,"08,99,1,08,1,05,1,00800,1,99,9,99,9",,,,"2,1,011,1,+999,9","60,1",,SYN066AAXX  02031 57328 41580 80404 10200 20173 40045 52011 76080 885//;,
05-02T06:00:00,4,31.2,107.5,344.0,"DA XIAN, CH",FM-12,99999,V020,"040,1,N,0050,1","02100,1,9,N","012000,1,N,1","+0174,1","+0162,1","10042,1","06,0020,9,1",,"8,1,06,1","6,1,06,1",,"08,99,1,08,1,05,1,02250,1,99,9,99,9",,"999,N,+0171,1","99999,9,09647,1","7,1,005,1,+999,9","60,1",,SYN088AAXX  02061 57328 11862 80405 10174 20162 39647 40042 57005 60021 76086 885// 333 20171;,
05-02T09:00:00,4,31.2,107.5,344.0,"DA XIAN, CH",FM-12,99999,V020,"020,1,N,0020,1","02100,1,9,N","030000,1,N,1","+0171,1","+0151,1","10043,1",,,"6,1,03,1",,,"08,99,1,08,1,05,1,02250,1,99,9,99,9",,,,"4,1,000,1,+999,9","60,1",,SYN066AAXX  02091 57328 41880 80202 10171 20151 40043 54000 76060 885//;,
05-02T12:00:00,4,31.2,107.5,344.0,"DA XIAN, CH",FM-12,99999,V020,"020,1,N,0070,1","02100,1,9,N","030000,1,N,1","+0179,1","+0126,1","10067,1","06,0010,9,1",,"6,1,06,1",,,"08,99,1,08,1,05,1,02250,1,99,9,99,9",,,"99999,9,09671,1","2,1,024,1,+999,9","00,1",,SYN078AAXX  02121 57328 11880 80207 10179 20126 39671 40067 52024 60011 70060 885//;,
05-02T15:00:00,4,31.2,107.5,344.0,"DA XIAN, CH",FM-12,99999,V020,"020,1,N,0070,1","02100,1,9,N","020000,1,N,1","+0155,1","+0103,1","10104,1",,,,,,"08,99,1,08,1,05,1,02250,1,99,9,99,9",,,,"2,1,034,1,+999,9","60,1",,SYN066AAXX  02151 57328 41870 80207 10155 20103 40104 52034 76000 885//;,
05-02T18:00:00,4,31.2,107.5,344.0,"DA XIAN, CH",FM-12,99999,V020,"040,1,N,0030,1","02100,1,9,N","015000,1,N,1","+0121,1","+0104,1","10124,1","06,0020,9,1",,"6,1,06,1","6,1,06,1",,"08,99,1,08,1,05,1,02250,1,99,9,99,9",,"999,M,+0208,1","99999,9,09720,1","2,1,015,1,+999,9","60,1",,SYN088AAXX  02181 57328 11865 80403 10121 20104 39720 40124 52015 60021 76066 885// 333 10208;,
05-02T21:00:00,4,31.2,107.5,344.0,"DA XIAN, CH",FM-12,99999,V020,"040,1,N,0020,1","02100,1,9,N","015000,1,N,1","+0109,1","+0081,1","10169,1","24,0094,9,1",,"6,1,03,1","6,1,03,1",,"08,99,1,08,1,05,1,02250,1,99,9,99,9",,,,"2,1,042,1,+999,9","60,1",,SYN076AAXX  02211 57328 41865 80402 10109 20081 40169 52042 76066 885// 333 70094;,
05-03T00:00:00,4,31.2,107.5,344.0,"DA XIAN, CH",FM-12,99999,V020,"040,1,N,0030,1","99999,9,9,N","030000,1,N,1","+0112,1","+0084,1","10199,1","06,0051,9,1","24,0112,9,1","6,1,06,1","6,1,06,1",,"08,99,1,08,1,00,1,99999,9,07,1,99,9",,,"99999,9,09791,1","2,1,029,1,+150,1","21,1",,SYN094AAXX  03001 57328 11980 80403 10112 20084 39791 40199 52029 60051 72166 8807/ 333 01559 70113;,
05-03T03:00:00,4,31.2,107.5,344.0,"DA XIAN, CH",FM-12,99999,V020,"020,1,N,0030,1","99999,9,9,N","030000,1,N,1","+0130,1","+0078,1","10226,1",,,"6,1,03,1",,,"08,99,1,08,1,00,1,99999,9,07,1,99,9",,,,"2,1,026,1,+999,9","60,1",,SYN066AAXX  03031 57328 41980 80203 10130 20078 40226 52026 76060 8807/;,
05-03T06:00:00,4,31.2,107.5,344.0,"DA XIAN, CH",FM-12,99999,V020,"360,1,N,0020,1","99999,9,9,N","030000,1,N,1","+0154,1","+0058,1","10214,1","06,9999,9,9",,"6,1,06,1",,,"08,99,1,08,1,00,1,99999,9,07,1,99,9",,"999,N,+0104,1","99999,9,09805,1","7,1,012,1,+999,9","00,1",,SYN088AAXX  03061 57328 11980 83602 10154 20058 39805 40214 57012 69921 70060 8807/ 333 20104;,
05-03T09:00:00,4,31.2,107.5,344.0,"DA XIAN, CH",FM-12,99999,V020,"090,1,N,0010,1","99999,9,9,N","030000,1,N,1","+0165,1","+0049,1","10194,1",,,,,,"07,99,1,07,1,00,1,99999,9,04,1,99,9",,,,"7,1,020,1,+999,9",,,SYN060AAXX  03091 57328 42980 70901 10165 20049 40194 57020 8704/;,
05-03T12:00:00,4,31.2,107.5,344.0,"DA XIAN, CH",FM-12,99999,V020,"999,9,C,0000,1","02100,1,9,N","030000,1,N,1","+0154,1","+0068,1","10212,1","06,0000,9,1",,,,,"08,99,1,08,1,05,1,02250,1,99,9,99,9",,,"99999,9,09802,1","2,1,017,1,+999,9",,,SYN066AAXX  03121 57328 32880 80000 10154 20068 39802 40212 52017 885//;,Q01  00002PRCP06
05-03T15:00:00,4,31.2,107.5,344.0,"DA XIAN, CH",FM-12,99999,V020,"200,1,N,0030,1","02100,1,9,N","030000,1,N,1","+0145,1","+0078,1","10238,1",,,,,,"08,99,1,08,1,05,1,02250,1,99,9,99,9",,,,"2,1,026,1,+999,9",,,SYN060AAXX  03151 57328 42880 82003 10145 20078 40238 52026 885//;,
05-03T18:00:00,4,31.2,107.5,344.0,"DA XIAN, CH",FM-12,99999,V020,"180,1,N,0010,1","02100,1,9,N","030000,1,N,1","+0137,1","+0084,1","10244,1","06,0000,9,1",,,,,"08,99,1,08,1,05,1,02250,1,99,9,99,9",,"999,M,+0167,1","99999,9,09835,1","2,1,007,1,+999,9",,,SYN076AAXX  03181 57328 32880 81801 10137 20084 39835 40244 52007 885// 333 10167;,Q01  00002PRCP06
05-03T21:00:00,4,31.2,107.5,344.0,"DA XIAN, CH",FM-12,99999,V020,"270,1,N,0010,1","02100,1,9,N","020000,1,N,1","+0132,1","+0091,1","10231,1","24,0020,9,1",,,,,"08,99,1,08,1,05,1,02250,1,99,9,99,9",,,,"7,1,012,1,+999,9",,,SYN070AAXX  03211 57328 42870 82701 10132 20091 40231 57012 885// 333 70021;,
05-04T00:00:00,4,31.2,107.5,344.0,"DA XIAN, CH",FM-12,99999,V020,"040,1,N,0020,1","99999,9,9,N","017000,1,N,1","+0128,1","+0101,1","10239,1","06,0000,9,1","24,0003,9,1",,,,"07,99,1,07,1,00,1,99999,9,04,1,99,9",,,"99999,9,09829,1","2,1,006,1,+040,1",,,SYN082AAXX  04001 57328 32967 70402 10128 20101 39829 40239 52006 8704/ 333 00402 70002;,Q01  00002PRCP06
05-04T03:00:00,4,31.2,107.5,344.0,"DA XIAN, CH",FM-12,99999,V020,"180,1,N,0010,1","99999,9,9,N","020000,1,N,1","+0179,1","+0095,1","10236,1",,,,,,"06,99,1,00,1,00,1,99999,9,00,1,02,1",,,,"4,1,000,1,+999,9",,,SYN060AAXX  04031 57328 42970 61801 10179 20095 40236 54000 80002;,
05-04T06:00:00,4,31.2,107.5,344.0,"DA XIAN, CH",FM-12,99999,V020,"250,1,N,0020,1","99999,9,9,N","030000,1,N,1","+0212,1","+0078,1","10202,1","06,0000,9,1",,,,,"06,99,1,00,1,00,1,99999,9,00,1,02,1",,"999,N,+0118,1","99999,9,09798,1","7,1,031,1,+999,9",,,SYN076AAXX  04061 57328 32980 62502 10212 20078 39798 40202 57031 80002 333 20118;,Q01  00002PRCP06
05-04T09:00:00,4,31.2,107.5,344.0,"DA XIAN, CH",FM-12,99999,V020,"180,1,N,0020,1","99999,9,9,N","030000,1,N,1","+0215,1","+0041,1","10179,1",,,,,,"07,99,1,00,1,00,1,99999,9,00,1,02,1",,,,"7,1,022,1,+999,9",,,SYN060AAXX  04091 57328 42980 71802 10215 20041 40179 57022 80002;,
05-04T12:00:00,4,31.2,107.5,344.0,"DA XIAN, CH",FM-12,99999,V020,"200,1,N,0020,1","22000,1,9,N","030000,1,N,1","+0194,1","+0075,1","10180,1","06,0000,9,1",,,,,"02,99,1,02,1,00,1,99999,9,04,1,00,1",,,"99999,9,09775,1","7,1,001,1,+999,9",,,SYN066AAXX  04121 57328 32980 22002 10194 20075 39775 40180 57001 82040;,Q01  00002PRCP06
05-04T15:00:00,4,31.2,107.5,344.0,"DA XIAN, CH",FM-12,99999,V020,"040,1,N,0020,1","99999,9,9,N","015000,1,N,1","+0147,1","+0104,1","10201,1",,,,,,"08,99,1,00,1,00,1,99999,9,00,1,07,1",,,,"2,1,021,1,+999,9",,,SYN060AAXX  04151 57328 42965 80402 10147 20104 40201 52021 80007;,
05-04T21:00:00,4,31.2,107.5,344.0,"DA XIAN, CH",FM-12,99999,V020,"070,1,N,0010,1","22000,1,9,N","007000,1,N,1","+0115,1","+0104,1","10196,1",,,,,"00,1,+99999,9,99,9","00,99,1,00,1,00,1,99999,9,00,1,00,1",,,,"7,1,008,1,+999,9","10,1",,SYN060AAXX  04211 57328 41957 00701 10115 20104 40196 57008 71000;,
05-05T00:00:00,4,31.2,107.5,344.0,"DA XIAN, CH",FM-12,99999,V020,"020,1,N,0030,1","22000,1,9,N","007000,1,N,1","+0130,1","+0107,1","10205,1","06,0000,9,1",,,,"00,1,+99999,9,99,9","00,99,1,00,1,00,1,99999,9,00,1,00,1",,,"99999,9,09799,1","2,1,008,1,+003,1","10,1",,SYN076AAXX  05001 57328 31957 00203 10130 20107 39799 40205 52008 71000 333 05300;,Q01  00002PRCP06
05-05T03:00:00,4,31.2,107.5,344.0,"DA XIAN, CH",FM-12,99999,V020,"999,9,C,0000,1","22000,1,9,N","011000,1,N,1","+0203,1","+0105,1","10195,1",,,,,"00,1,+99999,9,99,9","00,99,1,00,1,00,1,99999,9,00,1,00,1",,,,"7,1,007,1,+999,9",,,SYN054AAXX  05031 57328 42961 00000 10203 20105 40195 57007;,
05-05T06:00:00,4,31.2,107.5,344.0,"DA XIAN, CH",FM-12,99999,V020,"220,1,N,0010,1","22000,1,9,N","020000,1,N,1","+0243,1","+0096,1","10164,1","06,0000,9,1",,,,"00,1,+99999,9,99,9","00,99,1,00,1,00,1,99999,9,00,1,00,1",,"999,N,+0108,1","99999,9,09763,1","7,1,029,1,+999,9",,,SYN070AAXX  05061 57328 32970 02201 10243 20096 39763 40164 57029 333 20108;,Q01  00002PRCP06
05-05T09:00:00,4,31.2,107.5,344.0,"DA XIAN, CH",FM-12,99999,V020,"270,1,N,0010,1","22000,1,9,N","020000,1,N,1","+0263,1","+0096,1","10132,1",,,,,"00,1,+99999,9,99,9","00,99,1,00,1,00,1,99999,9,00,1,00,1",,,,"7,1,030,1,+999,9",,,SYN054AAXX  05091 57328 42970 02701 10263 20096 40132 57030;,
05-05T12:00:00,4,31.2,107.5,344.0,"DA XIAN, CH",FM-12,99999,V020,"999,9,C,0000,1","22000,1,9,N","015000,1,N,1","+0229,1","+0111,1","10134,1","06,0000,9,1",,,,"00,1,+99999,9,99,9","00,99,1,00,1,00,1,99999,9,00,1,00,1",,,"99999,9,09734,1","2,1,001,1,+999,9",,,SYN060AAXX  05121 57328 32965 00000 10229 20111 39734 40134 52001;,Q01  00002PRCP06
05-05T15:00:00,4,31.2,107.5,344.0,"DA XIAN, CH",FM-12,99999,V020,"040,1,N,0030,1","22000,1,9,N","008000,1,N,1","+0171,1","+0123,1","10151,1",,,,,"00,1,+99999,9,99,9","00,99,1,00,1,00,1,99999,9,00,1,00,1",,,,"2,1,017,1,+999,9","10,1",,SYN060AAXX  05151 57328 41958 00403 10171 20123 40151 52017 71000;,
05-05T18:00:00,4,31.2,107.5,344.0,"DA XIAN, CH",FM-12,99999,V020,"040,1,N,0020,1","22000,1,9,N","008000,1,N,1","+0149,1","+0124,1","10145,1","06,0000,9,1",,,,"00,1,+99999,9,99,9","00,99,1,00,1,00,1,99999,9,00,1,00,1",,"999,M,+0263,1","99999,9,09746,1","7,1,005,1,+999,9","10,1",,SYN076AAXX  05181 57328 31958 00402 10149 20124 39746 40145 57005 71000 333 10263;,Q01  00002PRCP06
05-05T21:00:00,4,31.2,107.5,344.0,"DA XIAN, CH",FM-12,99999,V020,"020,1,N,0030,1","22000,1,9,N","015000,1,N,1","+0140,1","+0116,1","10141,1",,,,,"00,1,+99999,9,99,9","00,99,1,00,1,00,1,99999,9,00,1,00,1",,,,"7,1,003,1,+999,9",,,SYN054AAXX  05211 57328 42965 00203 10140 20116 40141 57003;,
05-06T00:00:00,4,31.2,107.5,344.0,"DA XIAN, CH",FM-12,99999,V020,"040,1,N,0020,1","99999,9,9,N","008000,1,N,1","+0161,1","+0127,1","10145,1","06,0000,9,1",,,,,"07,99,1,07,1,00,1,99999,9,04,1,00,1",,,"99999,9,09746,1","2,1,003,1,+005,1","10,1",,SYN082AAXX  06001 57328 31958 70402 10161 20127 39746 40145 52003 71000 87040 333 05503;,Q01  00002PRCP06
05-06T03:00:00,4,31.2,107.5,344.0,"DA XIAN, CH",FM-12,99999,V020,"040,1,N,0010,1","99999,9,9,N","012000,1,N,1","+0207,1","+0128,1","10147,1",,,,,,"08,99,1,08,1,00,1,99999,9,07,1,99,9",,,,"2,1,001,1,+999,9",,,SYN060AAXX  06031 57328 42962 80401 10207 20128 40147 52001 8807/;,
05-06T06:00:00,4,31.2,107.5,344.0,"DA XIAN, CH",FM-12,99999,V020,"200,1,N,0030,1","99999,9,9,N","011000,1,N,1","+0235,1","+0126,1","10128,1","06,0000,9,1",,,,,"08,99,1,08,1,00,1,99999,9,07,1,99,9",,"999,N,+0130,1","99999,9,09730,1","7,1,017,1,+999,9",,,SYN076AAXX  06061 57328 32961 82003 10235 20126 39730 40128 57017 8807/ 333 20130;,Q01  00002PRCP06
05-06T09:00:00,4,31.2,107.5,344.0,"DA XIAN, CH",FM-12,99999,V020,"020,1,N,0010,1","02100,1,9,N","007000,1,N,1","+0183,1","+0162,1","10123,1",,,"6,1,03,1",,,"08,99,1,08,1,05,1,02250,1,99,9,99,9",,,,"7,1,009,1,+999,9","60,1",,SYN066AAXX  06091 57328 41857 80201 10183 20162 40123 57009 76060 885//;,
05-06T12:00:00,4,31.2,107.5,344.0,"DA XIAN, CH",FM-12,99999,V020,"020,1,N,0020,1","02100,1,9,N","008000,1,N,1","+0180,1","+0148,1","10133,1","06,0005,9,1",,"6,1,06,1",,,"08,99,1,08,1,05,1,02250,1,99,9,99,9",,,"99999,9,09731,1","2,1,010,1,+999,9","10,1",,SYN078AAXX  06121 57328 11858 80202 10180 20148 39731 40133 52010 69961 71060 885//;,
05-06T15:00:00,4,31.2,107.5,344.0,"DA XIAN, CH",FM-12,99999,V020,"040,1,N,0030,1","99999,9,9,N","008000,1,N,1","+0173,1","+0135,1","10136,1",,,,,,"07,99,1,07,1,00,1,99999,9,04,1,99,9",,,,"2,1,006,1,+999,9","10,1",,SYN066AAXX  06151 57328 41958 70403 10173 20135 40136 52006 71000 8704/;,
05-06T18:00:00,4,31.2,107.5,344.0,"DA XIAN, CH",FM-12,99999,V020,"040,1,N,0030,1","99999,9,9,N","007000,1,N,1","+0151,1","+0132,1","10124,1","06,0000,9,1",,,,,"06,99,1,06,1,00,1,99999,9,04,1,00,1",,"999,M,+0239,1","99999,9,09726,1","7,1,011,1,+999,9","10,1",,SYN082AAXX  06181 57328 31957 60403 10151 20132 39726 40124 57011 71000 86040 333 10239;,Q01  00002PRCP06
05-06T21:00:00,4,31.2,107.5,344.0,"DA XIAN, CH",FM-12,99999,V020,"999,9,C,0000,1","99999,9,9,N","008000,1,N,1","+0141,1","+0123,1","10122,1","24,0005,9,1",,,,,"07,99,1,07,1,00,1,99999,9,04,1,99,9",,,,"7,1,006,1,+999,9","10,1",,SYN076AAXX  06211 57328 41958 70000 10141 20123 40122 57006 71000 8704/ 333 70006;,
05-07T00:00:00,4,31.2,107.5,344.0,"DA XIAN, CH",FM-12,99999,V020,"999,9,C,0000,1","99999,9,9,N","006000,1,N,1","+0155,1","+0130,1","10133,1","06,0000,9,1","24,0005,9,1",,,,"07,99,1,07,1,00,1,99999,9,04,1,99,9",,,"99999,9,09731,1","2,1,011,1,-020,1","10,1",,SYN088AAXX  07001 57328 31956 70000 10155 20130 39731 40133 52011 71000 8704/ 333 05251 70006;,Q01  00002PRCP06
05-07T03:00:00,4,31.2,107.5,344.0,"DA XIAN, CH",FM-12,99999,V020,"999,9,C,0000,1","99999,9,9,N","020000,1,N,1","+0205,1","+0125,1","10130,1",,,,,,"07,99,1,07,1,00,1,99999,9,04,1,99,9",,,,"4,1,000,1,+999,9",,,SYN060AAXX  07031 57328 42970 70000 10205 20125 40130 54000 8704/;,
05-07T06:00:00,4,31.2,107.5,344.0,"DA XIAN, CH",FM-12,99999,V020,"160,1,N,0020,1","99999,9,9,N","020000,1,N,1","+0231,1","+0135,1","10103,1","06,0000,9,1",,,,,"07,99,1,00,1,00,1,99999,9,00,1,02,1",,"999,N,+0139,1","99999,9,09705,1","7,1,026,1,+999,9",,,SYN076AAXX  07061 57328 32970 71602 10231 20135 39705 40103 57026 80002 333 20139;,Q01  00002PRCP06
05-07T09:00:00,4,31.2,107.5,344.0,"DA XIAN, CH",FM-12,99999,V020,"180,1,N,0020,1","99999,9,9,N","020000,1,N,1","+0246,1","+0130,1","10081,1",,,,,,"07,99,1,00,1,00,1,99999,9,00,1,02,1",,,,"7,1,020,1,+999,9",,,SYN060AAXX  07091 57328 42970 71802 10246 20130 40081 57020 80002;,
05-07T12:00:00,4,31.2,107.5,344.0,"DA XIAN, CH",FM-12,99999,V020,"999,9,C,0000,1","22000,1,9,N","020000,1,N,1","+0223,1","+0125,1","10084,1","06,0000,9,1",,,,"00,1,+99999,9,99,9","00,99,1,00,1,00,1,99999,9,00,1,00,1",,,"99999,9,09687,1","2,1,002,1,+999,9",,,SYN060AAXX  07121 57328 32970 00000 10223 20125 39687 40084 52002;,Q01  00002PRCP06
05-07T15:00:00,4,31.2,107.5,344.0,"DA XIAN, CH",FM-12,99999,V020,"999,9,C,0000,1","22000,1,9,N","005000,1,N,1","+0185,1","+0143,1","10094,1",,,,,"00,1,+99999,9,99,9","00,99,1,00,1,00,1,99999,9,00,1,00,1",,,,"2,1,010,1,+999,9","10,1",,SYN060AAXX  07151 57328 41950 00000 10185 20143 40094 52010 71000;,
05-07T18:00:00,4,31.2,107.5,344.0,"DA XIAN, CH",FM-12,99999,V020,"040,1,N,0020,1","22000,1,9,N","004000,1,N,1","+0164,1","+0147,1","10092,1","06,0000,9,1",,,,"00,1,+99999,9,99,9","00,99,1,00,1,00,1,99999,9,00,1,00,1",,"999,M,+0251,1","99999,9,09696,1","7,1,001,1,+999,9","10,1",,SYN076AAXX  07181 57328 31940 00402 10164 20147 39696 40092 57001 71000 333 10251;,Q01  00002PRCP06
05-07T21:00:00,4,31.2,107.5,344.0,"DA XIAN, CH",FM-12,99999,V020,"040,1,N,0030,1","22000,1,9,N","003000,1,N,1","+0152,1","+0143,1","10084,1",,,,,"00,1,+99999,9,99,9","00,99,1,00,1,00,1,99999,9,00,1,00,1",,,,"7,1,008,1,+999,9","10,1",,SYN060AAXX  07211 57328 41930 00403 10152 20143 40084 57008 71000;,
05-08T00:00:00,4,31.2,107.5,344.0,"DA XIAN, CH",FM-12,99999,V020,"040,1,N,0030,1","22000,1,9,N","003000,1,N,1","+0161,1","+0147,1","10091,1","06,0000,9,1",,,,"00,1,+99999,9,99,9","00,99,1,00,1,00,1,99999,9,00,1,00,1",,,"99999,9,09694,1","2,1,006,1,+004,1","10,1",,SYN076AAXX  08001 57328 31930 00403 10161 20147 39694 40091 52006 71000 333 05401;,Q01  00002PRCP06
05-08T03:00:00,4,31.2,107.5,344.0,"DA XIAN, CH",FM-12,99999,V020,"250,1,N,0020,1","22000,1,9,N","006000,1,N,1","+0231,1","+0151,1","10077,1",,,,,"00,1,+99999,9,99,9","00,99,1,00,1,00,1,99999,9,00,1,00,1",,,,"7,1,011,1,+999,9","10,1",,SYN060AAXX  08031 57328 41956 02502 10231 20151 40077 57011 71000;,
05-08T06:00:00,4,31.2,107.5,344.0,"DA XIAN, CH",FM-12,99999,V020,"270,1,N,0010,1","22000,1,9,N","010000,1,N,1","+0266,1","+0155,1","10051,1","06,0000,9,1",,,,"00,1,+99999,9,99,9","00,99,1,00,1,00,1,99999,9,00,1,00,1",,"999,N,+0147,1","99999,9,09659,1","7,1,024,1,+999,9",,,SYN070AAXX  08061 57328 32960 02701 10266 20155 39659 40051 57024 333 20147;,Q01  00002PRCP06
05-08T09:00:00,4,31.2,107.5,344.0,"DA XIAN, CH",FM-12,99999,V020,"999,9,C,0000,1","22000,1,9,N","010000,1,N,1","+0285,1","+0150,1","10021,1",,,,,"00,1,+99999,9,99,9","00,99,1,00,1,00,1,99999,9,00,1,00,1",,,,"7,1,029,1,+999,9",,,SYN054AAXX  08091 57328 42960 00000 10285 20150 40021 57029;,
05-08T12:00:00,4,31.2,107.5,344.0,"DA XIAN, CH",FM-12,99999,V020,"160,1,N,0010,1","22000,1,9,N","015000,1,N,1","+0253,1","+0164,1","10022,1","06,0000,9,1",,,,"00,1,+99999,9,99,9","00,99,1,00,1,00,1,99999,9,00,1,00,1",,,"99999,9,09630,1","4,1,000,1,+999,9",,,SYN060AAXX  08121 57328 32965 01601 10253 20164 39630 40022 54000;,Q01  00002PRCP06
05-08T15:00:00,4,31.2,107.5,344.0,"DA XIAN, CH",FM-12,99999,V020,"040,1,N,0020,1","22000,1,9,N","008000,1,N,1","+0195,1","+0166,1","10037,1",,,,,"00,1,+99999,9,99,9","00,99,1,00,1,00,1,99999,9,00,1,00,1",,,,"2,1,015,1,+999,9","10,1",,SYN060AAXX  08151 57328 41958 00402 10195 20166 40037 52015 71000;,
05-08T18:00:00,4,31.2,107.5,344.0,"DA XIAN, CH",FM-12,99999,V020,"040,1,N,0020,1","22000,1,9,N","005000,1,N,1","+0177,1","+0161,1","10033,1","06,0000,9,1",,,,"00,1,+99999,9,99,9","00,99,1,00,1,00,1,99999,9,00,1,00,1",,"999,M,+0288,1","99999,9,09642,1","7,1,003,1,+999,9","10,1",,SYN076AAXX  08181 57328 31950 00402 10177 20161 39642 40033 57003 71000 333 10288;,Q01  00002PRCP06
05-08T21:00:00,4,31.2,107.5,344.0,"DA XIAN, CH",FM-12,99999,V020,"040,1,N,0010,1","22000,1,9,N","004000,1,N,1","+0167,1","+0154,1","10031,1",,,,,"00,1,+99999,9,99,9","00,99,1,00,1,00,1,99999,9,00,1,00,1",,,,"7,1,001,1,+999,9","10,1",,SYN060AAXX  08211 57328 41940 00401 10167 20154 40031 57001 71000;,
05-09T00:00:00,4,31.2,107.5,344.0,"DA XIAN, CH",FM-12,99999,V020,"070,1,N,0010,1","22000,1,9,N","004000,1,N,1","+0191,1","+0158,1","10034,1","06,0000,9,1",,,,"00,1,+99999,9,99,9","00,99,1,00,1,00,1,99999,9,00,1,00,1",,,"99999,9,09643,1","2,1,002,1,+005,1","10,1",,SYN076AAXX  09001 57328 31940 00701 10191 20158 39643 40034 52002 71000 333 05503;,Q01  00002PRCP06
05-09T03:00:00,4,31.2,107.5,344.0,"DA XIAN, CH",FM-12,99999,V020,"020,1,N,0010,1","22000,1,9,N","020000,1,N,1","+0265,1","+0171,1","10031,1",,,,,,"02,99,1,00,1,00,1,99999,9,00,1,01,1",,,,"7,1,002,1,+999,9",,,SYN060AAXX  09031 57328 42970 20201 10265 20171 40031 57002 80001;,
05-09T06:00:00,4,31.2,107.5,344.0,"DA XIAN, CH",FM-12,99999,V020,"020,1,N,0020,1","99999,9,9,N","020000,1,N,1","+0301,1","+0160,1","10013,1","06,0000,9,1",,,,,"07,99,1,00,1,00,1,99999,9,00,1,02,1",,"999,N,+0163,1","99999,9,09625,1","7,1,016,1,+999,9",,,SYN076AAXX  09061 57328 32970 70202 10301 20160 39625 40013 57016 80002 333 20163;,Q01  00002PRCP06
05-09T09:00:00,4,31.2,107.5,344.0,"DA XIAN, CH",FM-12,99999,V020,"020,1,N,0020,1","99999,9,9,N","030000,1,N,1","+0319,1","+0137,1","09982,1",,,,,,"07,99,1,07,1,00,1,99999,9,04,1,99,9",,,,"7,1,029,1,+999,9",,,SYN060AAXX  09091 57328 42980 70202 10319 20137 49982 57029 8704/;,
05-09T12:00:00,4,31.2,107.5,344.0,"DA XIAN, CH",FM-12,99999,V020,"040,1,N,0010,1","99999,9,9,N","020000,1,N,1","+0277,1","+0171,1","09996,1","06,0000,9,1",,,,,"05,99,1,00,1,00,1,99999,9,00,1,02,1",,,"99999,9,09608,1","2,1,012,1,+999,9",,,SYN066AAXX  09121 57328 32970 50401 10277 20171 39608 49996 52012 80002;,Q01  00002PRCP06
05-09T15:00:00,4,31.2,107.5,344.0,"DA XIAN, CH",FM-12,99999,V020,"040,1,N,0010,1","99999,9,9,N","015000,1,N,1","+0231,1","+0169,1","10012,1",,,,,,"07,99,1,07,1,00,1,99999,9,04,1,99,9",,,,"2,1,017,1,+999,9","80,1",,SYN066AAXX  09151 57328 41965 70401 10231 20169 40012 52017 78000 8704/;,
05-09T18:00:00,4,31.2,107.5,344.0,"DA XIAN, CH",FM-12,99999,V020,"040,1,N,0010,1","99999,9,9,N","012000,1,N,1","+0219,1","+0168,1","10007,1","06,9999,9,9",,"8,1,06,1",,,"07,99,1,07,1,00,1,99999,9,04,1,99,9",,"999,M,+0321,1","99999,9,09622,1","7,1,003,1,+999,9","00,1",,SYN088AAXX  09181 57328 11962 70401 10219 20168 39622 40007 57003 69901 70080 8704/ 333 10321;,
05-09T21:00:00,4,31.2,107.5,344.0,"DA XIAN, CH",FM-12,99999,V020,"180,1,N,0020,1","01500,1,9,N","005000,1,N,1","+0209,1","+0187,1","10029,1","24,0013,9,1",,"9,1,03,1","8,1,03,1",,"08,99,1,08,1,09,1,01750,1,99,9,99,9",,,,"2,1,022,1,+999,9","95,1",,SYN076AAXX  09211 57328 41750 81802 10209 20187 40029 52022 79598 889// 333 70012;,
05-10T00:00:00,4,31.2,107.5,344.0,"DA XIAN, CH",FM-12,99999,V020,"040,1,N,0020,1","99999,9,9,N","001200,1,N,1","+0198,1","+0190,1","10043,1","06,0020,9,1","24,0023,9,1","9,1,06,1","8,1,06,1",,"08,99,1,08,1,00,1,99999,9,02,1,99,9",,,"99999,9,09654,1","2,1,010,1,+010,1","60,1",,SYN094AAXX  10001 57328 11912 80402 10198 20190 39654 40043 52010 60021 76098 8802/ 333 00101 70024;,
05-10T03:00:00,4,31.2,107.5,344.0,"DA XIAN, CH",FM-12,99999,V020,"140,1,N,0010,1","02100,1,9,N","002500,1,N,1","+0217,1","+0191,1","10053,1",,,"6,1,03,1",,,"08,99,1,08,1,05,1,02250,1,99,9,99,9",,,,"2,1,008,1,+999,9","21,1",,SYN066AAXX  10031 57328 41825 81401 10217 20191 40053 52008 72160 885//;,
05-10T06:00:00,4,31.2,107.5,344.0,"DA XIAN, CH",FM-12,99999,V020,"040,1,N,0030,1","02100,1,9,N","012000,1,N,1","+0204,1","+0193,1","10043,1","06,0010,9,1",,"6,1,06,1",,,"08,99,1,08,1,05,1,02250,1,99,9,99,9",,"999,N,+0196,1","99999,9,09650,1","7,1,012,1,+999,9","60,1",,SYN088AAXX  10061 57328 11862 80403 10204 20193 39650 40043 57012 69991 76060 885// 333 20196;,
05-10T09:00:00,4,31.2,107.5,344.0,"DA XIAN, CH",FM-12,99999,V020,"999,9,C,0000,1","99999,9,9,N","025000,1,N,1","+0213,1","+0191,1","10029,1",,,"6,1,03,1",,,"08,99,1,08,1,00,1,99999,9,07,1,99,9",,,,"7,1,013,1,+999,9","00,1",,SYN066AAXX  10091 57328 41975 80000 10213 20191 40029 57013 70060 8807/;,
05-10T12:00:00,4,31.2,107.5,344.0,"DA XIAN, CH",FM-12,99999,V020,"290,1,N,0010,1","99999,9,9,N","015000,1,N,1","+0217,1","+0196,1","10041,1","06,9999,9,9",,"6,1,06,1",,,"08,99,1,08,1,00,1,99999,9,07,1,99,9",,,"99999,9,09648,1","2,1,011,1,+999,9","00,1",,SYN078AAXX  10121 57328 11965 82901 10217 20196 39648 40041 52011 69901 70060 8807/;,
05-10T15:00:00,4,31.2,107.5,344.0,"DA XIAN, CH",FM-12,99999,V020,"110,1,N,0010,1","22000,1,9,N","003000,1,N,1","+0201,1","+0193,1","10054,1",,,,,"00,1,+99999,9,99,9","00,99,1,00,1,00,1,99999,9,00,1,00,1",,,,"2,1,013,1,+999,9","10,1",,SYN060AAXX  10151 57328 41930 01101 10201 20193 40054 52013 71000;,
05-10T18:00:00,4,31.2,107.5,344.0,"DA XIAN, CH",FM-12,99999,V020,"040,1,N,0050,1","00030,1,9,N","000200,1,N,1","+0187,1","+0184,1","10054,1","06,0000,9,1",,,,"09,1,+99999,9,99,9","09,99,1,09,1,99,9,99999,9,99,9,99,9",,"999,M,+0226,1","99999,9,09659,1","7,1,002,1,+999,9","47,1",,SYN076AAXX  10181 57328 31/02 90405 10187 20184 39659 40054 57002 74700 333 10226;,Q01  00002PRCP06
05-10T21:00:00,4,31.2,107.5,344.0,"DA XIAN, CH",FM-12,99999,V020,"999,9,C,0000,1","00030,1,9,N","000500,1,N,1","+0187,1","+0184,1","10050,1","24,0020,9,1",,"4,1,03,1","4,1,03,1","09,1,+99999,9,99,9","09,99,1,09,1,99,9,99999,9,99,9,99,9",,,,"7,1,003,1,+999,9","43,1",,SYN070AAXX  10211 57328 41/05 90000 10187 20184 40050 57003 74344 333 70021;,
05-11T00:00:00,4,31.2,107.5,344.0,"DA XIAN, CH",FM-12,99999,V020,"040,1,N,0020,1","99999,9,9,N","003000,1,N,1","+0191,1","+0178,1","10065,1","06,0000,9,1","24,0010,9,1","4,1,06,1",,,"08,99,1,08,1,00,1,99999,9,07,1,99,9",,,"99999,9,09671,1","2,1,015,1,+020,1","10,1",,SYN088AAXX  11001 57328 31930 80402 10191 20178 39671 40065 52015 71040 8807/ 333 00251 70009;,Q01  00002PRCP06
05-11T03:00:00,4,31.2,107.5,344.0,"DA XIAN, CH",FM-12,99999,V020,"999,9,C,0000,1","99999,9,9,N","007000,1,N,1","+0232,1","+0189,1","10066,1",,,,,,"07,99,1,07,1,00,1,99999,9,04,1,99,9",,,,"2,1,002,1,+999,9","10,1",,SYN066AAXX  11031 57328 41957 70000 10232 20189 40066 52002 71000 8704/;,
05-11T06:00:00,4,31.2,107.5,344.0,"DA XIAN, CH",FM-12,99999,V020,"180,1,N,0030,1","99999,9,9,N","008000,1,N,1","+0248,1","+0193,1","10042,1","06,0000,9,1",,,,,"08,99,1,08,1,00,1,99999,9,07,1,99,9",,"999,N,+0185,1","99999,9,09650,1","7,1,023,1,+999,9","10,1",,SYN082AAXX  11061 57328 31958 81803 10248 20193 39650 40042 57023 71000 8807/ 333 20185;,Q01  00002PRCP06
05-11T09:00:00,4,31.2,107.5,344.0,"DA XIAN, CH",FM-12,99999,V020,"160,1,N,0020,1","99999,9,9,N","007000,1,N,1","+0243,1","+0198,1","10032,1",,,,,,"08,99,1,08,1,00,1,99999,9,02,1,99,9",,,,"7,1,010,1,+999,9","60,1",,SYN066AAXX  11091 57328 41957 81602 10243 20198 40032 57010 76000 8802/;,
05-11T12:00:00,4,31.2,107.5,344.0,"DA XIAN, CH",FM-12,99999,V020,"160,1,N,0010,1","99999,9,9,N","007000,1,N,1","+0234,1","+0199,1","10044,1","06,9999,9,9",,"6,1,06,1",,,"08,99,1,08,1,00,1,99999,9,07,1,99,9",,,"99999,9,09652,1","2,1,012,1,+999,9","10,1",,SYN078AAXX  11121 57328 11957 81601 10234 20199 39652 40044 52012 69901 71060 8807/;,
05-11T15:00:00,4,31.2,107.5,344.0,"DA XIAN, CH",FM-12,99999,V020,"999,9,C,0000,1","99999,9,9,N","006000,1,N,1","+0224,1","+0201,1","10062,1",,,,,,"08,99,1,08,1,00,1,99999,9,07,1,99,9",,,,"2,1,019,1,+999,9","10,1",,SYN066AAXX  11151 57328 41956 80000 10224 20201 40062 52019 71000 8807/;,
05-11T18:00:00,4,31.2,107.5,344.0,"DA XIAN, CH",FM-12,99999,V020,"999,9,C,0000,1","99999,9,9,N","005000,1,N,1","+0215,1","+0198,1","10058,1","06,0000,9,1",,,,,"08,99,1,08,1,00,1,99999,9,07,1,99,9",,"999,M,+0251,1","99999,9,09667,1","7,1,004,1,+999,9","10,1",,SYN082AAXX  11181 57328 31950 80000 10215 20198 39667 40058 57004 71000 8807/ 333 10251;,Q01  00002PRCP06
05-11T21:00:00,4,31.2,107.5,344.0,"DA XIAN, CH",FM-12,99999,V020,"070,1,N,0020,1","22000,1,9,N","003000,1,N,1","+0205,1","+0197,1","10062,1","24,0000,2,1",,,,"00,1,+99999,9,99,9","00,99,1,00,1,00,1,99999,9,00,1,00,1",,,,"2,1,003,1,+999,9","10,1",,SYN070AAXX  11211 57328 41930 00702 10205 20197 40062 52003 71000 333 79999;,
05-12T00:00:00,4,31.2,107.5,344.0,"DA XIAN, CH",FM-12,99999,V020,"040,1,N,0030,1","00030,1,9,N","000400,1,N,1","+0201,1","+0195,1","10079,1","06,0000,9,1","24,0000,2,1","4,1,06,1",,"09,1,+99999,9,99,9","09,99,1,09,1,99,9,99999,9,99,9,99,9",,,"99999,9,09686,1","2,1,016,1,+020,1","47,1",,SYN082AAXX  12001 57328 31/04 90403 10201 20195 39686 40079 52016 74740 333 00201 79999;,Q01  00002PRCP06
05-12T03:00:00,4,31.2,107.5,344.0,"DA XIAN, CH",FM-12,99999,V020,"160,1,N,0020,1","22000,1,9,N","002000,1,N,1","+0258,1","+0196,1","10069,1",,,"4,1,03,1",,"00,1,+99999,9,99,9","00,99,1,00,1,00,1,99999,9,00,1,00,1",,,,"7,1,007,1,+999,9","10,1",,SYN060AAXX  12031 57328 41920 01602 10258 20196 40069 57007 71040;,
05-12T06:00:00,4,31.2,107.5,344.0,"DA XIAN, CH",FM-12,99999,V020,"180,1,N,0010,1","22000,1,9,N","012000,1,N,1","+0281,1","+0187,1","10044,1","06,0000,9,1",,"4,1,06,1",,"00,1,+99999,9,99,9","00,99,1,00,1,00,1,99999,9,00,1,00,1",,"999,N,+0197,1","99999,9,09656,1","7,1,023,1,+999,9","00,1",,SYN076AAXX  12061 57328 31962 01801 10281 20187 39656 40044 57023 70040 333 20197;,Q01  00002PRCP06
05-12T09:00:00,4,31.2,107.5,344.0,"DA XIAN, CH",FM-12,99999,V020,"160,1,N,0050,1","99999,9,9,N","004000,1,N,1","+0255,1","+0191,1","10041,1",,,,,,"08,99,1,08,1,00,1,99999,9,02,1,99,9",,,,"7,1,005,1,+999,9","05,1",,SYN066AAXX  12091 57328 41940 81605 10255 20191 40041 57005 70500 8802/;,
05-12T12:00:00,4,31.2,107.5,344.0,"DA XIAN, CH",FM-12,99999,V020,"160,1,N,0020,1","99999,9,9,N","008000,1,N,1","+0239,1","+0180,1","10066,1","06,0000,9,1",,,,,"08,99,1,08,1,00,1,99999,9,02,1,99,9",,,"99999,9,09674,1","2,1,023,1,+999,9","10,1",,SYN072AAXX  12121 57328 31958 81602 10239 20180 39674 40066 52023 71000 8802/;,Q01  00002PRCP06
05-12T15:00:00,4,31.2,107.5,344.0,"DA XIAN, CH",FM-12,99999,V020,"020,1,N,0060,1","99999,9,9,N","005000,1,N,1","+0213,1","+0195,1","10100,1",,,"6,1,03,1",,,"08,99,1,08,1,00,1,99999,9,02,1,99,9",,,,"2,1,034,1,+999,9","60,1",,SYN066AAXX  12151 57328 41950 80206 10213 20195 40100 52034 76060 8802/;,
05-12T18:00:00,4,31.2,107.5,344.0,"DA XIAN, CH",FM-12,99999,V020,"020,1,N,0020,1","99999,9,9,N","025000,1,N,1","+0175,1","+0168,1","10115,1","06,0109,9,1",,"6,1,06,1",,,"08,99,1,08,1,00,1,99999,9,02,1,99,9",,"999,M,+0289,1","99999,9,09722,1","2,1,014,1,+999,9","60,1",,SYN088AAXX  12181 57328 11975 80202 10175 20168 39722 40115 52014 60111 76060 8802/ 333 10289;,
05-12T21:00:00,4,31.2,107.5,344.0,"DA XIAN, CH",FM-12,99999,V020,"090,1,N,0020,1","99999,9,9,N","005000,1,N,1","+0173,1","+0166,1","10109,1","24,0137,9,1",,"6,1,03,1",,,"08,99,1,08,1,00,1,99999,9,02,1,99,9",,,,"7,1,008,1,+999,9","10,1",,SYN076AAXX  12211 57328 41950 80902 10173 20166 40109 57008 71060 8802/ 333 70138;,
05-13T00:00:00,4,31.2,107.5,344.0,"DA XIAN, CH",FM-12,99999,V020,"040,1,N,0030,1","02100,1,9,N","020000,1,N,1","+0173,1","+0166,1","10113,1","06,0030,9,1","24,0137,9,1","6,1,06,1",,,"08,99,1,08,1,05,1,02250,1,99,9,99,9",,,"99999,9,09717,1","2,1,003,1,+030,1","60,1",,SYN094AAXX  13001 57328 11870 80403 10173 20166 39717 40113 52003 60031 76060 885// 333 00353 70138;,
05-13T03:00:00,4,31.2,107.5,344.0,"DA XIAN, CH",FM-12,99999,V020,"999,9,C,0000,1","99999,9,9,N","025000,1,N,1","+0196,1","+0167,1","10128,1",,,"6,1,03,1",,,"07,99,1,07,1,00,1,99999,9,04,1,99,9",,,,"2,1,014,1,+999,9","00,1",,SYN066AAXX  13031 57328 41975 70000 10196 20167 40128 52014 70060 8704/;,
05-13T06:00:00,4,31.2,107.5,344.0,"DA XIAN, CH",FM-12,99999,V020,"320,1,N,0010,1","99999,9,9,N","030000,1,N,1","+0223,1","+0169,1","10112,1","06,9999,9,9",,"6,1,06,1",,,"08,99,1,08,1,00,1,99999,9,07,1,99,9",,"999,N,+0170,1","99999,9,09715,1","7,1,016,1,+999,9","00,1",,SYN088AAXX  13061 57328 11980 83201 10223 20169 39715 40112 57016 69901 70060 8807/ 333 20170;,
05-13T09:00:00,4,31.2,107.5,344.0,"DA XIAN, CH",FM-12,99999,V020,"180,1,N,0010,1","99999,9,9,N","020000,1,N,1","+0225,1","+0174,1","10100,1",,,,,,"08,99,1,08,1,00,1,99999,9,07,1,99,9",,,,"7,1,011,1,+999,9",,,SYN060AAXX  13091 57328 42970 81801 10225 20174 40100 57011 8807/;,
05-13T12:00:00,4,31.2,107.5,344.0,"DA XIAN, CH",FM-12,99999,V020,"040,1,N,0040,1","02100,1,9,N","007000,1,N,1","+0197,1","+0188,1","10104,1","06,0020,9,1",,"6,1,06,1",,,"08,99,1,08,1,05,1,02250,1,99,9,99,9",,,"99999,9,09706,1","2,1,002,1,+999,9","60,1",,SYN078AAXX  13121 57328 11857 80404 10197 20188 39706 40104 52002 60021 76060 885//;,
05-13T15:00:00,4,31.2,107.5,344.0,"DA XIAN, CH",FM-12,99999,V020,"040,1,N,0040,1","02100,1,9,N","005000,1,N,1","+0185,1","+0172,1","10111,1",,,"6,1,03,1","6,1,03,1",,"08,99,1,08,1,05,1,02250,1,99,9,99,9",,,,"2,1,007,1,+999,9","60,1",,SYN066AAXX  13151 57328 41850 80404 10185 20172 40111 52007 76066 885//;,
05-13T18:00:00,4,31.2,107.5,344.0,"DA XIAN, CH",FM-12,99999,V020,"040,1,N,0050,1","02100,1,9,N","012000,1,N,1","+0173,1","+0163,1","10093,1","06,0071,9,1",,"6,1,06,1","6,1,06,1",,"08,99,1,08,1,05,1,02250,1,99,9,99,9",,"999,M,+0231,1","99999,9,09697,1","7,1,016,1,+999,9","60,1",,SYN088AAXX  13181 57328 11862 80405 10173 20163 39697 40093 57016 60071 76066 885// 333 10231;,
05-13T21:00:00,4,31.2,107.5,344.0,"DA XIAN, CH",FM-12,99999,V020,"040,1,N,0020,1","02100,1,9,N","008000,1,N,1","+0174,1","+0164,1","10083,1","24,0122,9,1",,"6,1,03,1","6,1,03,1",,"08,99,1,08,1,05,1,02250,1,99,9,99,9",,,,"7,1,010,1,+999,9","60,1",,SYN076AAXX  13211 57328 41858 80402 10174 20164 40083 57010 76066 885// 333 70123;,
05-14T00:00:00,4,31.2,107.5,344.0,"DA XIAN, CH",FM-12,99999,V020,"040,1,N,0010,1","99999,9,9,N","008000,1,N,1","+0166,1","+0153,1","10096,1","06,0051,9,1","24,0132,9,1","6,1,06,1","6,1,06,1",,"08,99,1,08,1,00,1,99999,9,02,1,99,9",,,"99999,9,09697,1","2,1,010,1,-020,1","60,1",,SYN094AAXX  14001 57328 11958 80401 10166 20153 39697 40096 52010 60051 76066 8802/ 333 05251 70132;,
05-14T03:00:00,4,31.2,107.5,344.0,"DA XIAN, CH",FM-12,99999,V020,"040,1,N,0020,1","99999,9,9,N","008000,1,N,1","+0168,1","+0148,1","10103,1",,,"6,1,03,1","6,1,03,1",,"08,99,1,08,1,00,1,99999,9,02,1,99,9",,,,"2,1,006,1,+999,9","60,1",,SYN066AAXX  14031 57328 41958 80402 10168 20148 40103 52006 76066 8802/;,
05-14T06:00:00,4,31.2,107.5,344.0,"DA XIAN, CH",FM-12,99999,V020,"070,1,N,0010,1","99999,9,9,N","012000,1,N,1","+0178,1","+0149,1","10103,1","06,9999,9,9",,"6,1,06,1",,,"08,99,1,08,1,00,1,99999,9,02,1,99,9",,"999,N,+0162,1","99999,9,09703,1","4,1,000,1,+999,9","00,1",,SYN088AAXX  14061 57328 11962 80701 10178 20149 39703 40103 54000 69921 70060 8802/ 333 20162;,
05-14T09:00:00,4,31.2,107.5,344.0,"DA XIAN, CH",FM-12,99999,V020,"040,1,N,0030,1","99999,9,9,N","015000,1,N,1","+0183,1","+0146,1","10110,1",,,,,,"08,99,1,08,1,00,1,99999,9,02,1,99,9",,,,"2,1,007,1,+999,9",,,SYN060AAXX  14091 57328 42965 80403 10183 20146 40110 52007 8802/;,
05-14T12:00:00,4,31.2,107.5,344.0,"DA XIAN, CH",FM-12,99999,V020,"040,1,N,0010,1","99999,9,9,N","015000,1,N,1","+0181,1","+0158,1","10110,1","06,0000,9,1",,,,,"08,99,1,08,1,00,1,99999,9,02,1,99,9",,,"99999,9,09710,1","4,1,000,1,+999,9",,,SYN066AAXX  14121 57328 32965 80401 10181 20158 39710 40110 54000 8802/;,Q01  00002PRCP06
05-14T15:00:00,4,31.2,107.5,344.0,"DA XIAN, CH",FM-12,99999,V020,"040,1,N,0020,1","99999,9,9,N","008000,1,N,1","+0172,1","+0159,1","10127,1",,,,,,"08,99,1,08,1,00,1,99999,9,02,1,99,9",,,,"2,1,016,1,+999,9","10,1",,SYN066AAXX  14151 57328 41958 80402 10172 20159 40127 52016 71000 8802/;,
05-14T18:00:00,4,31.2,107.5,344.0,"DA XIAN, CH",FM-12,99999,V020,"160,1,N,0010,1","99999,9,9,N","006000,1,N,1","+0164,1","+0156,1","10121,1","06,0000,9,1",,,,,"08,99,1,08,1,00,1,99999,9,02,1,99,9",,"999,M,+0187,1","99999,9,09720,1","7,1,006,1,+999,9","10,1",,SYN082AAXX  14181 57328 31956 81601 10164 20156 39720 40121 57006 71000 8802/ 333 10187;,Q01  00002PRCP06
05-14T21:00:00,4,31.2,107.5,344.0,"DA XIAN, CH",FM-12,99999,V020,"090,1,N,0020,1","99999,9,9,N","005000,1,N,1","+0160,1","+0153,1","10120,1","24,0010,9,1",,,,,"08,99,1,08,1,00,1,99999,9,07,1,99,9",,,,"7,1,001,1,+999,9","10,1",,SYN076AAXX  14211 57328 41950 80902 10160 20153 40120 57001 71000 8807/ 333 70011;,
05-15T00:00:00,4,31.2,107.5,344.0,"DA XIAN, CH",FM-12,99999,V020,"070,1,N,0010,1","99999,9,9,N","005000,1,N,1","+0171,1","+0158,1","10132,1","06,0000,9,1","24,0003,9,1",,,,"07,99,1,07,1,00,1,99999,9,04,1,99,9",,,"99999,9,09731,1","2,1,012,1,+030,1","10,1",,SYN088AAXX  15001 57328 31950 70701 10171 20158 39731 40132 52012 71000 8704/ 333 00301 70002;,Q01  00002PRCP06
05-15T03:00:00,4,31.2,107.5,344.0,"DA XIAN, CH",FM-12,99999,V020,"999,9,C,0000,1","99999,9,9,N","008000,1,N,1","+0221,1","+0166,1","10133,1",,,,,,"05,99,1,00,1,00,1,99999,9,00,1,01,1",,,,"2,1,004,1,+999,9","10,1",,SYN066AAXX  15031 57328 41958 50000 10221 20166 40133 52004 71000 80001;,
05-15T06:00:00,4,31.2,107.5,344.0,"DA XIAN, CH",FM-12,99999,V020,"110,1,N,0010,1","99999,9,9,N","012000,1,N,1","+0244,1","+0159,1","10113,1","06,0000,9,1",,,,,"07,99,1,07,1,00,1,99999,9,01,1,99,9",,"999,N,+0155,1","99999,9,09717,1","7,1,018,1,+999,9",,,SYN076AAXX  15061 57328 32962 71101 10244 20159 39717 40113 57018 8701/ 333 20155;,Q01  00002PRCP06
05-15T09:00:00,4,31.2,107.5,344.0,"DA XIAN, CH",FM-12,99999,V020,"200,1,N,0020,1","99999,9,9,N","015000,1,N,1","+0233,1","+0162,1","10110,1",,,,,,"08,99,1,08,1,00,1,99999,9,02,1,99,9",,,,"7,1,004,1,+999,9",,,SYN060AAXX  15091 57328 42965 82002 10233 20162 40110 57004 8802/;,
05-15T12:00:00,4,31.2,107.5,344.0,"DA XIAN, CH",FM-12,99999,V020,"999,9,C,0000,1","99999,9,9,N","012000,1,N,1","+0219,1","+0171,1","10128,1","06,0000,9,1",,,,,"08,99,1,08,1,00,1,99999,9,02,1,99,9",,,"99999,9,09730,1","2,1,017,1,+999,9",,,SYN066AAXX  15121 57328 32962 80000 10219 20171 39730 40128 52017 8802/;,Q01  00002PRCP06
05-15T15:00:00,4,31.2,107.5,344.0,"DA XIAN, CH",FM-12,99999,V020,"040,1,N,0010,1","99999,9,9,N","006000,1,N,1","+0197,1","+0176,1","10157,1",,,,,,"08,99,1,08,1,00,1,99999,9,02,1,99,9",,,,"2,1,030,1,+999,9","10,1",,SYN066AAXX  15151 57328 41956 80401 10197 20176 40157 52030 71000 8802/;,
05-15T18:00:00,4,31.2,107.5,344.0,"DA XIAN, CH",FM-12,99999,V020,"070,1,N,0010,1","99999,9,9,N","004000,1,N,1","+0185,1","+0175,1","10162,1","06,0000,9,1",,,,,"08,99,1,08,1,00,1,99999,9,02,1,99,9",,"999,M,+0247,1","99999,9,09765,1","2,1,005,1,+999,9","10,1",,SYN082AAXX  15181 57328 31940 80701 10185 20175 39765 40162 52005 71000 8802/ 333 10247;,Q01  00002PRCP06
05-15T21:00:00,4,31.2,107.5,344.0,"DA XIAN, CH",FM-12,99999,V020,"360,1,N,0010,1","99999,9,9,N","015000,1,N,1","+0189,1","+0168,1","10166,1",,,,,,"08,99,1,08,1,00,1,99999,9,02,1,99,9",,,,"2,1,004,1,+999,9",,,SYN060AAXX  15211 57328 42965 83601 10189 20168 40166 52004 8802/;,
05-16T00:00:00,4,31.2,107.5,344.0,"DA XIAN, CH",FM-12,99999,V020,"040,1,N,0030,1","02100,1,9,N","030000,1,N,1","+0195,1","+0137,1","10191,1","06,9999,9,9","24,0000,2,1","6,1,06,1",,,"08,99,1,08,1,05,1,02250,1,99,9,99,9",,,"99999,9,09792,1","2,1,023,1,+060,1","21,1",,SYN094AAXX  16001 57328 11880 80403 10195 20137 39792 40191 52023 69901 72160 885// 333 00602 79999;,
05-16T03:00:00,4,31.2,107.5,344.0,"DA XIAN, CH",FM-12,99999,V020,"040,1,N,0010,1","22000,1,9,N","030000,1,N,1","+0246,1","+0085,1","10187,1",,,,,,"03,99,1,03,1,00,1,99999,9,04,1,00,1",,,,"7,1,002,1,+999,9",,,SYN060AAXX  16031 57328 42980 30401 10246 20085 40187 57002 83040;,
05-16T06:00:00,4,31.2,107.5,344.0,"DA XIAN, CH",FM-12,99999,V020,"290,1,N,0010,1","22000,1,9,N","030000,1,N,1","+0266,1","+0051,1","10157,1","06,0000,2,1",,,,,"01,99,1,00,1,00,1,99999,9,00,1,01,1",,"999,N,+0180,1","99999,9,09762,1","7,1,028,1,+999,9",,,SYN076AAXX  16061 57328 32980 12901 10266 20051 39762 40157 57028 80001 333 20180;,
05-16T09:00:00,4,31.2,107.5,344.0,"DA XIAN, CH",FM-12,99999,V020,"290,1,N,0030,1","99999,9,9,N","030000,1,N,1","+0261,1","+0049,1","10136,1",,,,,,"07,99,1,07,1,00,1,99999,9,04,1,99,9",,,,"7,1,020,1,+999,9",,,SYN060AAXX  16091 57328 42980 72903 10261 20049 40136 57020 8704/;,
05-16T12:00:00,4,31.2,107.5,344.0,"DA XIAN, CH",FM-12,99999,V020,"160,1,N,0010,1","99999,9,9,N","030000,1,N,1","+0234,1","+0088,1","10149,1","06,0000,9,1",,,,,"06,99,1,06,1,00,1,99999,9,04,1,00,1",,,"99999,9,09753,1","2,1,011,1,+999,9",,,SYN066AAXX  16121 57328 32980 61601 10234 20088 39753 40149 52011 86040;,Q01  00002PRCP06
05-16T15:00:00,4,31.2,107.5,344.0,"DA XIAN, CH",FM-12,99999,V020,"040,1,N,0010,1","22000,1,9,N","020000,1,N,1","+0185,1","+0113,1","10173,1",,,,,,"03,99,1,00,1,00,1,99999,9,00,1,01,1",,,,"2,1,023,1,+999,9",,,SYN060AAXX  16151 57328 42970 30401 10185 20113 40173 52023 80001;,
05-16T18:00:00,4,31.2,107.5,344.0,"DA XIAN, CH",FM-12,99999,V020,"070,1,N,0020,1","22000,1,9,N","012000,1,N,1","+0159,1","+0123,1","10170,1","06,0000,9,1",,,,"00,1,+99999,9,99,9","00,99,1,00,1,00,1,99999,9,00,1,00,1",,"999,M,+0275,1","99999,9,09773,1","7,1,003,1,+999,9",,,SYN070AAXX  16181 57328 32962 00702 10159 20123 39773 40170 57003 333 10275;,Q01  00002PRCP06
05-16T21:00:00,4,31.2,107.5,344.0,"DA XIAN, CH",FM-12,99999,V020,"090,1,N,0010,1","22000,1,9,N","012000,1,N,1","+0141,1","+0125,1","10157,1","24,0000,2,1",,,,"00,1,+99999,9,99,9","00,99,1,00,1,00,1,99999,9,00,1,00,1",,,,"7,1,014,1,+999,9",,,SYN064AAXX  16211 57328 42962 00901 10141 20125 40157 57014 333 79999;,
05-17T00:00:00,4,31.2,107.5,344.0,"DA XIAN, CH",FM-12,99999,V020,"040,1,N,0030,1","22000,1,9,N","012000,1,N,1","+0165,1","+0118,1","10167,1","06,0000,9,1",,,,,"01,99,1,00,1,00,1,99999,9,00,1,01,1",,,"99999,9,09768,1","2,1,009,1,+002,1",,,SYN076AAXX  17001 57328 32962 10403 10165 20118 39768 40167 52009 80001 333 05253;,Q01  00002PRCP06
05-17T03:00:00,4,31.2,107.5,344.0,"DA XIAN, CH",FM-12,99999,V020,"140,1,N,0020,1","99999,9,9,N","015000,1,N,1","+0227,1","+0126,1","10161,1",,,,,,"05,99,1,05,1,00,1,99999,9,04,1,00,1",,,,"7,1,005,1,+999,9",,,SYN060AAXX  17031 57328 42965 51402 10227 20126 40161 57005 85040;,
05-17T06:00:00,4,31.2,107.5,344.0,"DA XIAN, CH",FM-12,99999,V020,"999,9,C,0000,1","99999,9,9,N","025000,1,N,1","+0272,1","+0130,1","10130,1","06,0000,9,1",,,,,"06,99,1,06,1,00,1,99999,9,04,1,00,1",,"999,N,+0139,1","99999,9,09735,1","7,1,028,1,+999,9",,,SYN076AAXX  17061 57328 32975 60000 10272 20130 39735 40130 57028 86040 333 20139;,Q01  00002PRCP06
05-17T09:00:00,4,31.2,107.5,344.0,"DA XIAN, CH",FM-12,99999,V020,"250,1,N,0010,1","22000,1,9,N","025000,1,N,1","+0289,1","+0121,1","10099,1",,,,,,"02,99,1,02,1,00,1,99999,9,04,1,00,1",,,,"7,1,030,1,+999,9",,,SYN060AAXX  17091 57328 42975 22501 10289 20121 40099 57030 82040;,
05-17T12:00:00,4,31.2,107.5,344.0,"DA XIAN, CH",FM-12,99999,V020,"110,1,N,0010,1","99999,9,9,N","017000,1,N,1","+0246,1","+0152,1","10103,1","06,0000,9,1",,,,,"07,99,1,07,1,00,1,99999,9,04,1,99,9",,,"99999,9,09707,1","2,1,002,1,+999,9",,,SYN066AAXX  17121 57328 32967 71101 10246 20152 39707 40103 52002 8704/;,Q01  00002PRCP06
05-17T15:00:00,4,31.2,107.5,344.0,"DA XIAN, CH",FM-12,99999,V020,"040,1,N,0020,1","99999,9,9,N","015000,1,N,1","+0206,1","+0159,1","10122,1",,,,,,"07,99,1,07,1,00,1,99999,9,04,1,99,9",,,,"2,1,020,1,+999,9",,,SYN060AAXX  17151 57328 42965 70402 10206 20159 40122 52020 8704/;,
05-17T18:00:00,4,31.2,107.5,344.0,"DA XIAN, CH",FM-12,99999,V020,"040,1,N,0030,1","99999,9,9,N","008000,1,N,1","+0195,1","+0159,1","10113,1","06,0000,9,1",,,,,"08,99,1,08,1,00,1,99999,9,07,1,99,9",,"999,M,+0290,1","99999,9,09721,1","7,1,006,1,+999,9","10,1",,SYN082AAXX  17181 57328 31958 80403 10195 20159 39721 40113 57006 71000 8807/ 333 10290;,Q01  00002PRCP06
05-17T21:00:00,4,31.2,107.5,344.0,"DA XIAN, CH",FM-12,99999,V020,"040,1,N,0030,1","99999,9,9,N","008000,1,N,1","+0189,1","+0158,1","10100,1",,,,,,"08,99,1,08,1,00,1,99999,9,07,1,99,9",,,,"7,1,012,1,+999,9","10,1",,SYN066AAXX  17211 57328 41958 80403 10189 20158 40100 57012 71000 8807/;,
05-18T00:00:00,4,31.2,107.5,344.0,"DA XIAN, CH",FM-12,99999,V020,"020,1,N,0020,1","99999,9,9,N","009000,1,N,1","+0191,1","+0151,1","10125,1","06,0000,9,1",,,,,"08,99,1,08,1,00,1,99999,9,07,1,99,9",,,"99999,9,09730,1","2,1,021,1,+004,1","10,1",,SYN082AAXX  18001 57328 31959 80202 10191 20151 39730 40125 52021 71000 8807/ 333 05403;,Q01  00002PRCP06
05-18T03:00:00,4,31.2,107.5,344.0,"DA XIAN, CH",FM-12,99999,V020,"999,9,C,0000,1","99999,9,9,N","009000,1,N,1","+0216,1","+0168,1","10138,1",,,,,,"07,99,1,07,1,00,1,99999,9,02,1,99,9",,,,"2,1,012,1,+999,9","10,1",,SYN066AAXX  18031 57328 41959 70000 10216 20168 40138 52012 71000 8702/;,
05-18T06:00:00,4,31.2,107.5,344.0,"DA XIAN, CH",FM-12,99999,V020,"200,1,N,0020,1","99999,9,9,N","008000,1,N,1","+0257,1","+0176,1","10110,1","06,0000,9,1",,,,,"08,99,1,08,1,00,1,99999,9,02,1,99,9",,"999,N,+0186,1","99999,9,09717,1","7,1,025,1,+999,9","10,1",,SYN082AAXX  18061 57328 31958 82002 10257 20176 39717 40110 57025 71000 8802/ 333 20186;,Q01  00002PRCP06
05-18T09:00:00,4,31.2,107.5,344.0,"DA XIAN, CH",FM-12,99999,V020,"220,1,N,0020,1","99999,9,9,N","012000,1,N,1","+0271,1","+0175,1","10086,1",,,,,,"07,99,1,00,1,00,1,99999,9,00,1,02,1",,,,"7,1,023,1,+999,9",,,SYN060AAXX  18091 57328 42962 72202 10271 20175 40086 57023 80002;,
05-18T12:00:00,4,31.2,107.5,344.0,"DA XIAN, CH",FM-12,99999,V020,"220,1,N,0020,1","99999,9,9,N","006000,1,N,1","+0243,1","+0184,1","10094,1","06,0000,9,1",,,,,"07,99,1,00,1,00,1,99999,9,00,1,02,1",,,"99999,9,09700,1","2,1,006,1,+999,9","10,1",,SYN072AAXX  18121 57328 31956 72202 10243 20184 39700 40094 52006 71000 80002;,Q01  00002PRCP06
05-18T15:00:00,4,31.2,107.5,344.0,"DA XIAN, CH",FM-12,99999,V020,"999,9,C,0000,1","99999,9,9,N","004000,1,N,1","+0224,1","+0190,1","10113,1",,,,,,"08,99,1,08,1,00,1,99999,9,07,1,99,9",,,,"2,1,019,1,+999,9","10,1",,SYN066AAXX  18151 57328 41940 80000 10224 20190 40113 52019 71000 8807/;,
05-18T18:00:00,4,31.2,107.5,344.0,"DA XIAN, CH",FM-12,99999,V020,"040,1,N,0020,1","99999,9,9,N","004000,1,N,1","+0212,1","+0190,1","10099,1","06,0000,9,1",,,,,"08,99,1,08,1,00,1,99999,9,07,1,99,9",,"999,M,+0273,1","99999,9,09707,1","7,1,012,1,+999,9","10,1",,SYN082AAXX  18181 57328 31940 80402 10212 20190 39707 40099 57012 71000 8807/ 333 10273;,Q01  00002PRCP06
05-18T21:00:00,4,31.2,107.5,344.0,"DA XIAN, CH",FM-12,99999,V020,"999,9,C,0000,1","99999,9,9,N","006000,1,N,1","+0203,1","+0187,1","10091,1",,,,,,"08,99,1,08,1,00,1,99999,9,07,1,99,9",,,,"7,1,007,1,+999,9","10,1",,SYN066AAXX  18211 57328 41956 80000 10203 20187 40091 57007 71000 8807/;,
05-19T00:00:00,4,31.2,107.5,344.0,"DA XIAN, CH",FM-12,99999,V020,"180,1,N,0010,1","99999,9,9,N","004000,1,N,1","+0207,1","+0175,1","10095,1","06,0000,9,1",,,,,"08,99,1,08,1,00,1,99999,9,02,1,99,9",,,"99999,9,09702,1","2,1,002,1,+003,1","10,1",,SYN082AAXX  19001 57328 31940 81801 10207 20175 39702 40095 52002 71000 8802/ 333 05302;,Q01  00002PRCP06
05-19T03:00:00,4,31.2,107.5,344.0,"DA XIAN, CH",FM-12,99999,V020,"040,1,N,0010,1","99999,9,9,N","008000,1,N,1","+0251,1","+0186,1","10082,1",,,,,,"07,99,1,07,1,00,1,99999,9,01,1,00,1",,,,"7,1,011,1,+999,9","10,1",,SYN066AAXX  19031 57328 41958 70401 10251 20186 40082 57011 71000 87010;,
05-19T06:00:00,4,31.2,107.5,344.0,"DA XIAN, CH",FM-12,99999,V020,"220,1,N,0020,1","22000,1,9,N","015000,1,N,1","+0279,1","+0173,1","10049,1","06,0000,9,1",,,,,"01,99,1,01,1,00,1,99999,9,04,1,00,1",,"999,N,+0200,1","99999,9,09661,1","7,1,030,1,+999,9",,,SYN076AAXX  19061 57328 32965 12202 10279 20173 39661 40049 57030 81040 333 20200;,Q01  00002PRCP06
05-19T09:00:00,4,31.2,107.5,344.0,"DA XIAN, CH",FM-12,99999,V020,"180,1,N,0010,1","22000,1,9,N","015000,1,N,1","+0294,1","+0179,1","10023,1",,,,,,"01,99,1,00,1,00,1,99999,9,00,1,01,1",,,,"7,1,025,1,+999,9",,,SYN060AAXX  19091 57328 42965 11801 10294 20179 40023 57025 80001;,
05-19T12:00:00,4,31.2,107.5,344.0,"DA XIAN, CH",FM-12,99999,V020,"250,1,N,0010,1","99999,9,9,N","012000,1,N,1","+0265,1","+0187,1","10024,1","06,0000,9,1",,,,,"06,99,1,00,1,00,1,99999,9,00,1,02,1",,,"99999,9,09635,1","7,1,001,1,+999,9",,,SYN066AAXX  19121 57328 32962 62501 10265 20187 39635 40024 57001 80002;,Q01  00002PRCP06
05-19T15:00:00,4,31.2,107.5,344.0,"DA XIAN, CH",FM-12,99999,V020,"040,1,N,0010,1","22000,1,9,N","008000,1,N,1","+0223,1","+0182,1","10039,1",,,,,"00,1,+99999,9,99,9","00,99,1,00,1,00,1,99999,9,00,1,00,1",,,,"2,1,015,1,+999,9","10,1",,SYN060AAXX  19151 57328 41958 00401 10223 20182 40039 52015 71000;,
05-19T18:00:00,4,31.2,107.5,344.0,"DA XIAN, CH",FM-12,99999,V020,"040,1,N,0010,1","22000,1,9,N","008000,1,N,1","+0197,1","+0178,1","10034,1","06,0000,9,1",,,,"00,1,+99999,9,99,9","00,99,1,00,1,00,1,99999,9,00,1,00,1",,"999,M,+0296,1","99999,9,09645,1","7,1,005,1,+999,9","10,1",,SYN076AAXX  19181 57328 31958 00401 10197 20178 39645 40034 57005 71000 333 10296;,Q01  00002PRCP06
05-19T21:00:00,4,31.2,107.5,344.0,"DA XIAN, CH",FM-12,99999,V020,"040,1,N,0030,1","22000,1,9,N","006000,1,N,1","+0181,1","+0171,1","10027,1",,,,,"00,1,+99999,9,99,9","00,99,1,00,1,00,1,99999,9,00,1,00,1",,,,"7,1,007,1,+999,9","10,1",,SYN060AAXX  19211 57328 41956 00403 10181 20171 40027 57007 71000;,
05-20T00:00:00,4,31.2,107.5,344.0,"DA XIAN, CH",FM-12,99999,V020,"040,1,N,0020,1","22000,1,9,N","005000,1,N,1","+0201,1","+0174,1","10031,1","06,0000,9,1",,,,"00,1,+99999,9,99,9","00,99,1,00,1,00,1,99999,9,00,1,00,1",,,"99999,9,09642,1","2,1,004,1,+006,1","10,1",,SYN076AAXX  20001 57328 31950 00402 10201 20174 39642 40031 52004 71000 333 05651;,Q01  00002PRCP06
05-20T03:00:00,4,31.2,107.5,344.0,"DA XIAN, CH",FM-12,99999,V020,"220,1,N,0010,1","22000,1,9,N","008000,1,N,1","+0267,1","+0184,1","10032,1",,,,,"00,1,+99999,9,99,9","00,99,1,00,1,00,1,99999,9,00,1,00,1",,,,"2,1,002,1,+999,9","10,1",,SYN060AAXX  20031 57328 41958 02201 10267 20184 40032 52002 71000;,
05-20T06:00:00,4,31.2,107.5,344.0,"DA XIAN, CH",FM-12,99999,V020,"140,1,N,0010,1","22000,1,9,N","012000,1,N,1","+0301,1","+0152,1","10009,1","06,0000,9,1",,,,"00,1,+99999,9,99,9","00,99,1,00,1,00,1,99999,9,00,1,00,1",,"999,N,+0176,1","99999,9,09623,1","7,1,021,1,+999,9",,,SYN070AAXX  20061 57328 32962 01401 10301 20152 39623 40009 57021 333 20176;,Q01  00002PRCP06
05-20T09:00:00,4,31.2,107.5,344.0,"DA XIAN, CH",FM-12,99999,V020,"180,1,N,0010,1","22000,1,9,N","018000,1,N,1","+0313,1","+0130,1","09988,1",,,,,"00,1,+99999,9,99,9","00,99,1,00,1,00,1,99999,9,00,1,00,1",,,,"7,1,021,1,+999,9",,,SYN054AAXX  20091 57328 42968 01801 10313 20130 49988 57021;,
05-20T15:00:00,4,31.2,107.5,344.0,"DA XIAN, CH",FM-12,99999,V020,"070,1,N,0010,1","22000,1,9,N","008000,1,N,1","+0232,1","+0168,1","10017,1",,,,,"00,1,+99999,9,99,9","00,99,1,00,1,00,1,99999,9,00,1,00,1",,,,"2,1,011,1,+999,9","10,1",,SYN060AAXX  20151 57328 41958 00701 10232 20168 40017 52011 71000;,
05-20T18:00:00,4,31.2,107.5,344.0,"DA XIAN, CH",FM-12,99999,V020,"040,1,N,0010,1","22000,1,9,N","005000,1,N,1","+0201,1","+0171,1","10013,1","06,0000,9,1",,,,"00,1,+99999,9,99,9","00,99,1,00,1,00,1,99999,9,00,1,00,1",,"999,M,+0319,1","99999,9,09627,1","7,1,003,1,+999,9","10,1",,SYN076AAXX  20181 57328 31950 00401 10201 20171 39627 40013 57003 71000 333 10319;,Q01  00002PRCP06
05-20T21:00:00,4,31.2,107.5,344.0,"DA XIAN, CH",FM-12,99999,V020,"040,1,N,0010,1","22000,1,9,N","005000,1,N,1","+0187,1","+0168,1","10019,1",,,,,"00,1,+99999,9,99,9","00,99,1,00,1,00,1,99999,9,00,1,00,1",,,,"2,1,005,1,+999,9","10,1",,SYN060AAXX  20211 57328 41950 00401 10187 20168 40019 52005 71000;,
05-21T00:00:00,4,31.2,107.5,344.0,"DA XIAN, CH",FM-12,99999,V020,"020,1,N,0010,1","22000,1,9,N","007000,1,N,1","+0206,1","+0166,1","10030,1","06,0000,9,1",,,,"00,1,+99999,9,99,9","00,99,1,00,1,00,1,99999,9,00,1,00,1",,,"99999,9,09642,1","2,1,010,1,+000,1","10,1",,SYN076AAXX  21001 57328 31957 00201 10206 20166 39642 40030 52010 71000 333 00001;,Q01  00002PRCP06
05-21T03:00:00,4,31.2,107.5,344.0,"DA XIAN, CH",FM-12,99999,V020,"040,1,N,0010,1","22000,1,9,N","015000,1,N,1","+0278,1","+0165,1","10021,1",,,,,"00,1,+99999,9,99,9","00,99,1,00,1,00,1,99999,9,00,1,00,1",,,,"7,1,007,1,+999,9",,,SYN054AAXX  21031 57328 42965 00401 10278 20165 40021 57007;,
05-21T06:00:00,4,31.2,107.5,344.0,"DA XIAN, CH",FM-12,99999,V020,"290,1,N,0030,1","22000,1,9,N","020000,1,N,1","+0322,1","+0136,1","10004,1","06,0000,9,1",,,,"00,1,+99999,9,99,9","00,99,1,00,1,00,1,99999,9,00,1,00,1",,"999,N,+0180,1","99999,9,09619,1","7,1,016,1,+999,9",,,SYN070AAXX  21061 57328 32970 02903 10322 20136 39619 40004 57016 333 20180;,Q01  00002PRCP06
05-21T09:00:00,4,31.2,107.5,344.0,"DA XIAN, CH",FM-12,99999,V020,"180,1,N,0010,1","99999,9,9,N","030000,1,N,1","+0330,1","+0137,1","09987,1",,,,,,"07,99,1,00,1,00,1,99999,9,00,1,02,1",,,,"7,1,016,1,+999,9",,,SYN060AAXX  21091 57328 42980 71801 10330 20137 49987 57016 80002;,
05-21T12:00:00,4,31.2,107.5,344.0,"DA XIAN, CH",FM-12,99999,V020,"999,9,C,0000,1","99999,9,9,N","015000,1,N,1","+0289,1","+0186,1","09992,1","06,0000,9,1",,,,,"07,99,1,00,1,00,1,99999,9,00,1,02,1",,,"99999,9,09606,1","2,1,003,1,+999,9",,,SYN066AAXX  21121 57328 32965 70000 10289 20186 39606 49992 52003 80002;,Q01  00002PRCP06
05-21T15:00:00,4,31.2,107.5,344.0,"DA XIAN, CH",FM-12,99999,V020,"020,1,N,0020,1","99999,9,9,N","012000,1,N,1","+0239,1","+0180,1","10008,1",,,,,,"08,99,1,08,1,00,1,99999,9,07,1,99,9",,,,"2,1,017,1,+999,9",,,SYN060AAXX  21151 57328 42962 80202 10239 20180 40008 52017 8807/;,
05-21T18:00:00,4,31.2,107.5,344.0,"DA XIAN, CH",FM-12,99999,V020,"020,1,N,0030,1","99999,9,9,N","012000,1,N,1","+0224,1","+0177,1","10007,1","06,0000,9,1",,,,,"08,99,1,08,1,00,1,99999,9,07,1,99,9",,"999,M,+0336,1","99999,9,09624,1","2,1,001,1,+999,9",,,SYN076AAXX  21181 57328 32962 80203 10224 20177 39624 40007 52001 8807/ 333 10336;,Q01  00002PRCP06
05-21T21:00:00,4,31.2,107.5,344.0,"DA XIAN, CH",FM-12,99999,V020,"040,1,N,0030,1","99999,9,9,N","012000,1,N,1","+0217,1","+0179,1","10011,1",,,,,,"08,99,1,08,1,00,1,99999,9,07,1,99,9",,,,"2,1,004,1,+999,9",,,SYN060AAXX  21211 57328 42962 80403 10217 20179 40011 52004 8807/;,
05-22T00:00:00,4,31.2,107.5,344.0,"DA XIAN, CH",FM-12,99999,V020,"020,1,N,0030,1","99999,9,9,N","008000,1,N,1","+0221,1","+0173,1","10035,1","06,0000,9,1",,,,,"08,99,1,08,1,00,1,99999,9,07,1,99,9",,,"99999,9,09648,1","2,1,020,1,+001,1","10,1",,SYN082AAXX  22001 57328 31958 80203 10221 20173 39648 40035 52020 71000 8807/ 333 00102;,Q01  00002PRCP06
05-22T03:00:00,4,31.2,107.5,344.0,"DA XIAN, CH",FM-12,99999,V020,"070,1,N,0050,1","99999,9,9,N","015000,1,N,1","+0257,1","+0154,1","10046,1",,,,,,"08,99,1,08,1,00,1,99999,9,07,1,99,9",,,,"2,1,010,1,+999,9",,,SYN060AAXX  22031 57328 42965 80705 10257 20154 40046 52010 8807/;,
05-22T06:00:00,4,31.2,107.5,344.0,"DA XIAN, CH",FM-12,99999,V020,"020,1,N,0030,1","99999,9,9,N","020000,1,N,1","+0285,1","+0166,1","10036,1","06,0000,9,1",,,,,"08,99,1,08,1,00,1,99999,9,07,1,99,9",,"999,N,+0212,1","99999,9,09649,1","7,1,009,1,+999,9",,,SYN076AAXX  22061 57328 32970 80203 10285 20166 39649 40036 57009 8807/ 333 20212;,Q01  00002PRCP06
05-22T09:00:00,4,31.2,107.5,344.0,"DA XIAN, CH",FM-12,99999,V020,"040,1,N,0030,1","99999,9,9,N","018000,1,N,1","+0275,1","+0157,1","10029,1",,,,,,"08,99,1,08,1,00,1,99999,9,07,1,99,9",,,,"7,1,008,1,+999,9",,,SYN060AAXX  22091 57328 42968 80403 10275 20157 40029 57008 8807/;,
05-22T12:00:00,4,31.2,107.5,344.0,"DA XIAN, CH",FM-12,99999,V020,"020,1,N,0020,1","02100,1,9,N","020000,1,N,1","+0256,1","+0169,1","10038,1","06,0000,9,1",,,,,"08,99,1,08,1,05,1,02250,1,99,9,99,9",,,"99999,9,09649,1","2,1,008,1,+999,9",,,SYN066AAXX  22121 57328 32870 80202 10256 20169 39649 40038 52008 885//;,Q01  00002PRCP06
05-22T15:00:00,4,31.2,107.5,344.0,"DA XIAN, CH",FM-12,99999,V020,"040,1,N,0020,1","02100,1,9,N","015000,1,N,1","+0235,1","+0179,1","10055,1",,,,,,"08,99,1,08,1,05,1,02250,1,99,9,99,9",,,,"2,1,017,1,+999,9",,,SYN060AAXX  22151 57328 42865 80402 10235 20179 40055 52017 885//;,
05-22T18:00:00,4,31.2,107.5,344.0,"DA XIAN, CH",FM-12,99999,V020,"040,1,N,0020,1","99999,9,9,N","015000,1,N,1","+0226,1","+0176,1","10053,1","06,0000,9,1",,,,,"08,99,1,08,1,00,1,99999,9,07,1,99,9",,"999,M,+0291,1","99999,9,09666,1","4,1,000,1,+999,9",,,SYN076AAXX  22181 57328 32965 80402 10226 20176 39666 40053 54000 8807/ 333 10291;,Q01  00002PRCP06
05-22T21:00:00,4,31.2,107.5,344.0,"DA XIAN, CH",FM-12,99999,V020,"200,1,N,0020,1","02100,1,9,N","020000,1,N,1","+0225,1","+0178,1","10077,1","24,0000,2,1",,,,,"08,99,1,08,1,05,1,02250,1,99,9,99,9",,,,"2,1,022,1,+999,9","60,1",,SYN076AAXX  22211 57328 41870 82002 10225 20178 40077 52022 76000 885// 333 79999;,
05-23T00:00:00,4,31.2,107.5,344.0,"DA XIAN, CH",FM-12,99999,V020,"040,1,N,0010,1","99999,9,9,N","005000,1,N,1","+0209,1","+0187,1","10110,1","06,0005,9,1","24,0005,9,1","6,1,06,1",,,"08,99,1,08,1,00,1,99999,9,02,1,99,9",,,"99999,9,09718,1","2,1,030,1,+070,1","60,1",,SYN094AAXX  23001 57328 11950 80401 10209 20187 39718 40110 52030 69951 76060 8802/ 333 00751 70005;,
05-23T03:00:00,4,31.2,107.5,344.0,"DA XIAN, CH",FM-12,99999,V020,"999,9,C,0000,1","99999,9,9,N","007000,1,N,1","+0235,1","+0195,1","10125,1",,,"6,1,03,1",,,"08,99,1,08,1,00,1,99999,9,04,1,99,9",,,,"2,1,014,1,+999,9","10,1",,SYN066AAXX  23031 57328 41957 80000 10235 20195 40125 52014 71060 8804/;,
05-23T06:00:00,4,31.2,107.5,344.0,"DA XIAN, CH",FM-12,99999,V020,"020,1,N,0050,1","99999,9,9,N","020000,1,N,1","+0249,1","+0175,1","10108,1","06,9999,9,9",,"6,1,06,1",,,"08,99,1,08,1,00,1,99999,9,07,1,99,9",,"999,N,+0204,1","99999,9,09716,1","7,1,016,1,+999,9","21,1",,SYN088AAXX  23061 57328 11970 80205 10249 20175 39716 40108 57016 69921 72160 8807/ 333 20204;,
05-23T09:00:00,4,31.2,107.5,344.0,"DA XIAN, CH",FM-12,99999,V020,"340,1,N,0010,1","99999,9,9,N","020000,1,N,1","+0249,1","+0166,1","10095,1",,,,,,"08,99,1,08,1,00,1,99999,9,07,1,99,9",,,,"7,1,012,1,+999,9",,,SYN060AAXX  23091 57328 42970 83401 10249 20166 40095 57012 8807/;,
05-23T12:00:00,4,31.2,107.5,344.0,"DA XIAN, CH",FM-12,99999,V020,"999,9,C,0000,1","99999,9,9,N","015000,1,N,1","+0231,1","+0172,1","10100,1","06,9999,9,9",,"6,1,06,1",,,"08,99,1,08,1,00,1,99999,9,07,1,99,9",,,"99999,9,09706,1","2,1,002,1,+999,9","00,1",,SYN078AAXX  23121 57328 11965 80000 10231 20172 39706 40100 52002 69901 70060 8807/;,
05-23T15:00:00,4,31.2,107.5,344.0,"DA XIAN, CH",FM-12,99999,V020,"999,9,C,0000,1","99999,9,9,N","006000,1,N,1","+0220,1","+0181,1","10109,1",,,,,,"08,99,1,08,1,00,1,99999,9,07,1,99,9",,,,"2,1,010,1,+999,9","10,1",,SYN066AAXX  23151 57328 41956 80000 10220 20181 40109 52010 71000 8807/;,
05-23T18:00:00,4,31.2,107.5,344.0,"DA XIAN, CH",FM-12,99999,V020,"160,1,N,0020,1","99999,9,9,N","007000,1,N,1","+0213,1","+0188,1","10108,1","06,0000,9,1",,,,,"08,99,1,08,1,00,1,99999,9,07,1,99,9",,"999,M,+0255,1","99999,9,09715,1","7,1,001,1,+999,9","10,1",,SYN082AAXX  23181 57328 31957 81602 10213 20188 39715 40108 57001 71000 8807/ 333 10255;,Q01  00002PRCP06
05-23T21:00:00,4,31.2,107.5,344.0,"DA XIAN, CH",FM-12,99999,V020,"090,1,N,0010,1","99999,9,9,N","005000,1,N,1","+0204,1","+0190,1","10102,1","24,0008,9,1",,,,,"08,99,1,08,1,00,1,99999,9,07,1,99,9",,,,"7,1,006,1,+999,9","10,1",,SYN076AAXX  23211 57328 41950 80901 10204 20190 40102 57006 71000 8807/ 333 70007;,
05-24T00:00:00,4,31.2,107.5,344.0,"DA XIAN, CH",FM-12,99999,V020,"040,1,N,0020,1","99999,9,9,N","003000,1,N,1","+0202,1","+0188,1","10106,1","06,9999,9,9","24,0003,9,1","6,1,06,1",,,"08,99,1,08,1,00,1,99999,9,07,1,99,9",,,"99999,9,09712,1","2,1,003,1,-010,1","21,1",,SYN094AAXX  24001 57328 11930 80402 10202 20188 39712 40106 52003 69901 72160 8807/ 333 05151 70002;,
05-24T03:00:00,4,31.2,107.5,344.0,"DA XIAN, CH",FM-12,99999,V020,"040,1,N,0020,1","99999,9,9,N","002000,1,N,1","+0201,1","+0193,1","10113,1",,,"6,1,03,1",,,"08,99,1,08,1,00,1,99999,9,07,1,99,9",,,,"2,1,006,1,+999,9","60,1",,SYN066AAXX  24031 57328 41920 80402 10201 20193 40113 52006 76060 8807/;,
05-24T06:00:00,4,31.2,107.5,344.0,"DA XIAN, CH",FM-12,99999,V020,"360,1,N,0020,1","02100,1,9,N","006000,1,N,1","+0200,1","+0181,1","10098,1","06,0051,9,1",,"6,1,06,1",,,"08,99,1,08,1,05,1,02250,1,99,9,99,9",,"999,N,+0195,1","99999,9,09703,1","7,1,015,1,+999,9","60,1",,SYN088AAXX  24061 57328 11856 83602 10200 20181 39703 40098 57015 60051 76060 885// 333 20195;,
05-24T09:00:00,4,31.2,107.5,344.0,"DA XIAN, CH",FM-12,99999,V020,"020,1,N,0030,1","02100,1,9,N","015000,1,N,1","+0201,1","+0172,1","10075,1",,,"6,1,03,1","6,1,03,1",,"08,99,1,08,1,05,1,02250,1,99,9,99,9",,,,"7,1,023,1,+999,9","21,1",,SYN066AAXX  24091 57328 41865 80203 10201 20172 40075 57023 72166 885//;,
05-24T12:00:00,4,31.2,107.5,344.0,"DA XIAN, CH",FM-12,99999,V020,"040,1,N,0020,1","02100,1,9,N","015000,1,N,1","+0204,1","+0175,1","10081,1","06,9999,9,9",,"6,1,06,1",,,"08,99,1,08,1,05,1,02250,1,99,9,99,9",,,"99999,9,09686,1","2,1,006,1,+999,9","60,1",,SYN078AAXX  24121 57328 11865 80402 10204 20175 39686 40081 52006 69901 76060 885//;,
05-24T15:00:00,4,31.2,107.5,344.0,"DA XIAN, CH",FM-12,99999,V020,"999,9,C,0000,1","02100,1,9,N","012000,1,N,1","+0202,1","+0172,1","10096,1",,,"6,1,03,1",,,"08,99,1,08,1,05,1,02250,1,99,9,99,9",,,,"2,1,014,1,+999,9","60,1",,SYN066AAXX  24151 57328 41862 80000 10202 20172 40096 52014 76060 885//;,
05-24T18:00:00,4,31.2,107.5,344.0,"DA XIAN, CH",FM-12,99999,V020,"070,1,N,0020,1","02100,1,9,N","012000,1,N,1","+0183,1","+0175,1","10091,1","06,0051,9,1",,"6,1,06,1",,,"08,99,1,08,1,05,1,02250,1,99,9,99,9",,"999,M,+0214,1","99999,9,09694,1","7,1,006,1,+999,9","60,1",,SYN088AAXX  24181 57328 11862 80702 10183 20175 39694 40091 57006 60051 76060 885// 333 10214;,
05-24T21:00:00,4,31.2,107.5,344.0,"DA XIAN, CH",FM-12,99999,V020,"020,1,N,0010,1","02100,1,9,N","008000,1,N,1","+0181,1","+0176,1","10089,1","24,0163,9,1",,"6,1,03,1","6,1,03,1",,"08,99,1,08,1,05,1,02250,1,99,9,99,9",,,,"7,1,002,1,+999,9","60,1",,SYN076AAXX  24211 57328 41858 80201 10181 20176 40089 57002 76066 885// 333 70162;,
05-25T00:00:00,4,31.2,107.5,344.0,"DA XIAN, CH",FM-12,99999,V020,"999,9,C,0000,1","99999,9,9,N","002000,1,N,1","+0181,1","+0178,1","10097,1","06,0079,9,1","24,0201,9,1","6,1,06,1","6,1,06,1",,"08,99,1,08,1,00,1,99999,9,02,1,99,9",,,"99999,9,09700,1","2,1,008,1,-010,1","60,1",,SYN094AAXX  25001 57328 11920 80000 10181 20178 39700 40097 52008 60081 76066 8802/ 333 05152 70200;,
05-25T03:00:00,4,31.2,107.5,344.0,"DA XIAN, CH",FM-12,99999,V020,"200,1,N,0010,1","99999,9,9,N","003000,1,N,1","+0189,1","+0183,1","10100,1",,,"6,1,03,1","6,1,03,1",,"08,99,1,08,1,00,1,99999,9,02,1,99,9",,,,"2,1,003,1,+999,9","60,1",,SYN066AAXX  25031 57328 41930 82001 10189 20183 40100 52003 76066 8802/;,
05-25T06:00:00,4,31.2,107.5,344.0,"DA XIAN, CH",FM-12,99999,V020,"160,1,N,0010,1","99999,9,9,N","003000,1,N,1","+0190,1","+0185,1","10097,1","06,0089,9,1",,"6,1,06,1","6,1,06,1",,"08,99,1,08,1,00,1,99999,9,02,1,99,9",,"999,N,+0178,1","99999,9,09699,1","7,1,004,1,+999,9","60,1",,SYN088AAXX  25061 57328 11930 81601 10190 20185 39699 40097 57004 60091 76066 8802/ 333 20178;,
05-25T09:00:00,4,31.2,107.5,344.0,"DA XIAN, CH",FM-12,99999,V020,"020,1,N,0010,1","99999,9,9,N","003000,1,N,1","+0193,1","+0187,1","10090,1",,,"6,1,03,1","6,1,03,1",,"08,99,1,08,1,00,1,99999,9,02,1,99,9",,,,"7,1,007,1,+999,9","60,1",,SYN066AAXX  25091 57328 41930 80201 10193 20187 40090 57007 76066 8802/;,
05-25T12:00:00,4,31.2,107.5,344.0,"DA XIAN, CH",FM-12,99999,V020,"999,9,C,0000,1","02100,1,9,N","008000,1,N,1","+0195,1","+0189,1","10094,1","06,0005,9,1",,"6,1,06,1",,,"08,99,1,08,1,05,1,02250,1,99,9,99,9",,,"99999,9,09696,1","2,1,004,1,+999,9","10,1",,SYN078AAXX  25121 57328 11858 80000 10195 20189 39696 40094 52004 69961 71060 885//;,
05-25T15:00:00,4,31.2,107.5,344.0,"DA XIAN, CH",FM-12,99999,V020,"040,1,N,0020,1","02100,1,9,N","007000,1,N,1","+0191,1","+0188,1","10101,1",,,,,,"08,99,1,08,1,05,1,02250,1,99,9,99,9",,,,"2,1,007,1,+999,9","10,1",,SYN066AAXX  25151 57328 41857 80402 10191 20188 40101 52007 71000 885//;,
05-25T18:00:00,4,31.2,107.5,344.0,"DA XIAN, CH",FM-12,99999,V020,"020,1,N,0010,1","02100,1,9,N","007000,1,N,1","+0187,1","+0184,1","10090,1","06,0000,9,1",,,,,"08,99,1,08,1,05,1,02250,1,99,9,99,9",,"999,M,+0196,1","99999,9,09693,1","7,1,010,1,+999,9","10,1",,SYN082AAXX  25181 57328 31857 80201 10187 20184 39693 40090 57010 71000 885// 333 10196;,Q01  00002PRCP06
05-25T21:00:00,4,31.2,107.5,344.0,"DA XIAN, CH",FM-12,99999,V020,"020,1,N,0010,1","01500,1,9,N","003000,1,N,1","+0187,1","+0184,1","10082,1","24,0163,9,1",,"9,1,03,1","8,1,03,1",,"08,99,1,08,1,09,1,01750,1,99,9,99,9",,,,"7,1,008,1,+999,9","95,1",,SYN076AAXX  25211 57328 41730 80201 10187 20184 40082 57008 79598 889// 333 70163;,
05-26T00:00:00,4,31.2,107.5,344.0,"DA XIAN, CH",FM-12,99999,V020,"040,1,N,0020,1","01500,1,9,N","001200,1,N,1","+0187,1","+0185,1","10086,1","06,0170,9,1","24,0267,9,1","9,1,06,1","8,1,06,1",,"08,99,1,08,1,09,1,01750,1,99,9,99,9",,,"99999,9,09689,1","2,1,004,1,-010,1","80,1",,SYN094AAXX  26001 57328 11712 80402 10187 20185 39689 40086 52004 60171 78098 889// 333 05101 70266;,
05-26T03:00:00,4,31.2,107.5,344.0,"DA XIAN, CH",FM-12,99999,V020,"040,1,N,0020,1","00420,1,9,N","015000,1,N,1","+0192,1","+0189,1","10081,1",,,"8,1,03,1","8,1,03,1",,"08,99,1,08,1,05,1,00450,1,99,9,99,9",,,,"7,1,005,1,+999,9","60,1",,SYN066AAXX  26031 57328 41465 80402 10192 20189 40081 57005 76088 885//;,
05-26T06:00:00,4,31.2,107.5,344.0,"DA XIAN, CH",FM-12,99999,V020,"040,1,N,0010,1","02100,1,9,N","012000,1,N,1","+0201,1","+0192,1","10059,1","06,0089,9,1",,"8,1,06,1","6,1,06,1",,"08,99,1,08,1,05,1,02250,1,99,9,99,9",,"999,N,+0185,1","99999,9,09664,1","7,1,020,1,+999,9","00,1",,SYN088AAXX  26061 57328 11862 80401 10201 20192 39664 40059 57020 60091 70086 885// 333 20185;,
05-26T09:00:00,4,31.2,107.5,344.0,"DA XIAN, CH",FM-12,99999,V020,"999,9,C,0000,1","99999,9,9,N","020000,1,N,1","+0215,1","+0192,1","10043,1",,,,,,"08,99,1,08,1,00,1,99999,9,07,1,99,9",,,,"7,1,015,1,+999,9",,,SYN060AAXX  26091 57328 42970 80000 10215 20192 40043 57015 8807/;,
05-26T12:00:00,4,31.2,107.5,344.0,"DA XIAN, CH",FM-12,99999,V020,"999,9,C,0000,1","02100,1,9,N","020000,1,N,1","+0207,1","+0195,1","10045,1","06,9999,9,9",,,,,"08,99,1,08,1,05,1,02250,1,99,9,99,9",,,"99999,9,09650,1","2,1,001,1,+999,9","21,1",,SYN078AAXX  26121 57328 11870 80000 10207 20195 39650 40045 52001 69901 72100 885//;,
05-26T15:00:00,4,31.2,107.5,344.0,"DA XIAN, CH",FM-12,99999,V020,"040,1,N,0030,1","02100,1,9,N","015000,1,N,1","+0203,1","+0191,1","10053,1",,,"6,1,03,1",,,"08,99,1,08,1,05,1,02250,1,99,9,99,9",,,,"2,1,008,1,+999,9","60,1",,SYN066AAXX  26151 57328 41865 80403 10203 20191 40053 52008 76060 885//;,
05-26T18:00:00,4,31.2,107.5,344.0,"DA XIAN, CH",FM-12,99999,V020,"290,1,N,0010,1","00420,1,9,N","007000,1,N,1","+0197,1","+0192,1","10047,1","06,0041,9,1",,"9,1,06,1","6,1,06,1",,"08,99,1,08,1,09,1,00450,1,99,9,99,9",,"999,M,+0215,1","99999,9,09653,1","7,1,005,1,+999,9","95,1",,SYN088AAXX  26181 57328 11457 82901 10197 20192 39653 40047 57005 60041 79596 889// 333 10215;,
05-26T21:00:00,4,31.2,107.5,344.0,"DA XIAN, CH",FM-12,99999,V020,"160,1,N,0010,1","01500,1,9,N","006000,1,N,1","+0199,1","+0194,1","10051,1","24,0297,9,1",,"9,1,03,1","8,1,03,1",,"08,99,1,08,1,09,1,01750,1,99,9,99,9",,,,"2,1,005,1,+999,9","95,1",,SYN076AAXX  26211 57328 41756 81601 10199 20194 40051 52005 79598 889// 333 70296;,
05-27T00:00:00,4,31.2,107.5,344.0,"DA XIAN, CH",FM-12,99999,V020,"999,9,C,0000,1","01500,1,9,N","002000,1,N,1","+0202,1","+0197,1","10074,1","06,0119,9,1","24,0239,9,1","9,1,06,1","8,1,06,1",,"08,99,1,08,1,09,1,01750,1,99,9,99,9",,,"99999,9,09679,1","2,1,021,1,-010,1","80,1",,SYN094AAXX  27001 57328 11720 80000 10202 20197 39679 40074 52021 60121 78098 889// 333 05102 70240;,
05-27T03:00:00,4,31.2,107.5,344.0,"DA XIAN, CH",FM-12,99999,V020,"999,9,C,0000,1","02100,1,9,N","002000,1,N,1","+0207,1","+0202,1","10086,1",,,"8,1,03,1","6,1,03,1",,"08,99,1,08,1,05,1,02250,1,99,9,99,9",,,,"2,1,012,1,+999,9","60,1",,SYN066AAXX  27031 57328 41820 80000 10207 20202 40086 52012 76086 885//;,
05-27T06:00:00,4,31.2,107.5,344.0,"DA XIAN, CH",FM-12,99999,V020,"070,1,N,0020,1","02100,1,9,N","030000,1,N,1","+0198,1","+0193,1","10079,1","06,0061,9,1",,"8,1,06,1","6,1,06,1",,"08,99,1,08,1,05,1,02250,1,99,9,99,9",,"999,N,+0192,1","99999,9,09683,1","7,1,008,1,+999,9","60,1",,SYN088AAXX  27061 57328 11880 80702 10198 20193 39683 40079 57008 60061 76086 885// 333 20192;,
05-27T09:00:00,4,31.2,107.5,344.0,"DA XIAN, CH",FM-12,99999,V020,"040,1,N,0010,1","99999,9,9,N","030000,1,N,1","+0212,1","+0189,1","10076,1",,,"6,1,03,1",,,"07,99,1,07,1,00,1,99999,9,07,1,00,1",,,,"7,1,002,1,+999,9","00,1",,SYN066AAXX  27091 57328 41980 70401 10212 20189 40076 57002 70060 87070;,
05-27T12:00:00,4,31.2,107.5,344.0,"DA XIAN, CH",FM-12,99999,V020,"040,1,N,0020,1","02100,1,9,N","030000,1,N,1","+0212,1","+0184,1","10082,1","06,9999,9,9",,"6,1,06,1",,,"07,99,1,07,1,05,1,02250,1,00,1,00,1",,,"99999,9,09687,1","2,1,006,1,+999,9","00,1",,SYN078AAXX  27121 57328 11880 70402 10212 20184 39687 40082 52006 69901 70060 87500;,
05-27T15:00:00,4,31.2,107.5,344.0,"DA XIAN, CH",FM-12,99999,V020,"040,1,N,0020,1","02100,1,9,N","030000,1,N,1","+0205,1","+0189,1","10107,1",,,,,,"07,99,1,07,1,05,1,02250,1,99,9,99,9",,,,"2,1,024,1,+999,9",,,SYN060AAXX  27151 57328 42880 70402 10205 20189 40107 52024 875//;,
05-27T18:00:00,4,31.2,107.5,344.0,"DA XIAN, CH",FM-12,99999,V020,"040,1,N,0010,1","22000,1,9,N","030000,1,N,1","+0191,1","+0178,1","10102,1","06,0000,9,1",,,,,"04,99,1,04,1,05,1,02250,1,00,1,00,1",,"999,M,+0218,1","99999,9,09705,1","7,1,006,1,+999,9",,,SYN076AAXX  27181 57328 32880 40401 10191 20178 39705 40102 57006 84500 333 10218;,Q01  00002PRCP06
05-27T21:00:00,4,31.2,107.5,344.0,"DA XIAN, CH",FM-12,99999,V020,"040,1,N,0030,1","22000,1,9,N","030000,1,N,1","+0177,1","+0174,1","10096,1","24,0145,9,1",,,,"00,1,+99999,9,99,9","00,99,1,00,1,00,1,99999,9,00,1,00,1",,,,"7,1,006,1,+999,9",,,SYN064AAXX  27211 57328 42980 00403 10177 20174 40096 57006 333 70145;,
05-28T00:00:00,4,31.2,107.5,344.0,"DA XIAN, CH",FM-12,99999,V020,"070,1,N,0020,1","22000,1,9,N","020000,1,N,1","+0203,1","+0181,1","10107,1","06,0000,9,1","24,0061,9,1",,,,"02,99,1,01,1,01,1,00800,1,04,1,00,1",,,"99999,9,09711,1","2,1,012,1,+030,1",,,SYN082AAXX  28001 57328 32570 20702 10203 20181 39711 40107 52012 81140 333 00300 70060;,Q01  00002PRCP06
05-28T03:00:00,4,31.2,107.5,344.0,"DA XIAN, CH",FM-12,99999,V020,"999,9,C,0000,1","22000,1,9,N","030000,1,N,1","+0247,1","+0184,1","10101,1",,,,,,"01,99,1,01,1,01,1,00800,1,00,1,00,1",,,,"7,1,003,1,+999,9",,,SYN060AAXX  28031 57328 42580 10000 10247 20184 40101 57003 81100;,
05-28T06:00:00,4,31.2,107.5,344.0,"DA XIAN, CH",FM-12,99999,V020,"140,1,N,0010,1","22000,1,9,N","030000,1,N,1","+0279,1","+0201,1","10075,1","06,0000,9,1",,,,,"02,99,1,02,1,01,1,01250,1,00,1,00,1",,"999,N,+0172,1","99999,9,09684,1","7,1,024,1,+999,9",,,SYN076AAXX  28061 57328 32680 21401 10279 20201 39684 40075 57024 82100 333 20172;,Q01  00002PRCP06
05-28T09:00:00,4,31.2,107.5,344.0,"DA XIAN, CH",FM-12,99999,V020,"220,1,N,0020,1","22000,1,9,N","030000,1,N,1","+0307,1","+0200,1","10047,1",,,,,"00,1,+99999,9,99,9","00,99,1,00,1,00,1,99999,9,00,1,00,1",,,,"7,1,026,1,+999,9",,,SYN054AAXX  28091 57328 42980 02202 10307 20200 40047 57026;,
05-28T12:00:00,4,31.2,107.5,344.0,"DA XIAN, CH",FM-12,99999,V020,"040,1,N,0010,1","22000,1,9,N","030000,1,N,1","+0272,1","+0205,1","10039,1","06,0000,9,1",,,,"00,1,+99999,9,99,9","00,99,1,00,1,00,1,99999,9,00,1,00,1",,,"99999,9,09650,1","7,1,008,1,+999,9",,,SYN060AAXX  28121 57328 32980 00401 10272 20205 39650 40039 57008;,Q01  00002PRCP06
05-28T15:00:00,4,31.2,107.5,344.0,"DA XIAN, CH",FM-12,99999,V020,"040,1,N,0020,1","22000,1,9,N","030000,1,N,1","+0226,1","+0208,1","10057,1",,,,,"00,1,+99999,9,99,9","00,99,1,00,1,00,1,99999,9,00,1,00,1",,,,"2,1,017,1,+999,9",,,SYN054AAXX  28151 57328 42980 00402 10226 20208 40057 52017;,
05-28T18:00:00,4,31.2,107.5,344.0,"DA XIAN, CH",FM-12,99999,V020,"040,1,N,0030,1","22000,1,9,N","020000,1,N,1","+0221,1","+0206,1","10054,1","06,0000,9,1",,,,"00,1,+99999,9,99,9","00,99,1,00,1,00,1,99999,9,00,1,00,1",,"999,M,+0307,1","99999,9,09666,1","7,1,001,1,+999,9",,,SYN070AAXX  28181 57328 32970 00403 10221 20206 39666 40054 57001 333 10307;,Q01  00002PRCP06
05-28T21:00:00,4,31.2,107.5,344.0,"DA XIAN, CH",FM-12,99999,V020,"999,9,C,0000,1","99999,9,9,N","020000,1,N,1","+0215,1","+0203,1","10046,1",,,,,,"07,99,1,07,1,00,1,99999,9,04,1,99,9",,,,"7,1,006,1,+999,9",,,SYN060AAXX  28211 57328 42970 70000 10215 20203 40046 57006 8704/;,
05-29T00:00:00,4,31.2,107.5,344.0,"DA XIAN, CH",FM-12,99999,V020,"020,1,N,0010,1","99999,9,9,N","008000,1,N,1","+0227,1","+0209,1","10056,1","06,0000,9,1",,,,,"07,99,1,07,1,00,1,99999,9,04,1,99,9",,,"99999,9,09668,1","2,1,008,1,+004,1","10,1",,SYN082AAXX  29001 57328 31958 70201 10227 20209 39668 40056 52008 71000 8704/ 333 05402;,Q01  00002PRCP06
05-29T03:00:00,4,31.2,107.5,344.0,"DA XIAN, CH",FM-12,99999,V020,"040,1,N,0010,1","99999,9,9,N","015000,1,N,1","+0267,1","+0217,1","10052,1",,,"6,1,03,1",,,"07,99,1,07,1,00,1,99999,9,04,1,99,9",,,,"7,1,004,1,+999,9","00,1",,SYN066AAXX  29031 57328 41965 70401 10267 20217 40052 57004 70060 8704/;,
05-29T06:00:00,4,31.2,107.5,344.0,"DA XIAN, CH",FM-12,99999,V020,"220,1,N,0010,1","01500,1,9,N","012000,1,N,1","+0257,1","+0231,1","10047,1","06,0020,9,1",,"6,1,06,1",,,"08,99,1,08,1,09,1,01750,1,99,9,99,9",,"999,N,+0211,1","99999,9,09658,1","7,1,006,1,+999,9","95,1",,SYN088AAXX  29061 57328 11762 82201 10257 20231 39658 40047 57006 60021 79560 889// 333 20211;,
05-29T09:00:00,4,31.2,107.5,344.0,"DA XIAN, CH",FM-12,99999,V020,"999,9,C,0000,1","03600,1,9,N","007000,1,N,1","+0244,1","+0230,1","10038,1",,,"9,1,03,1","8,1,03,1",,"07,99,1,02,1,09,1,00450,1,04,1,99,9",,,,"7,1,010,1,+999,9","29,1",,SYN066AAXX  29091 57328 41457 70000 10244 20230 40038 57010 72998 8294/;,
05-29T12:00:00,4,31.2,107.5,344.0,"DA XIAN, CH",FM-12,99999,V020,"999,9,C,0000,1","02100,1,9,N","006000,1,N,1","+0235,1","+0229,1","10052,1","06,0071,9,1",,"9,1,06,1","8,1,06,1",,"08,99,1,08,1,05,1,02250,1,99,9,99,9",,,"99999,9,09662,1","2,1,014,1,+999,9","80,1",,SYN078AAXX  29121 57328 11856 80000 10235 20229 39662 40052 52014 60071 78098 885//;,
05-29T15:00:00,4,31.2,107.5,344.0,"DA XIAN, CH",FM-12,99999,V020,"040,1,N,0010,1","02100,1,9,N","005000,1,N,1","+0231,1","+0228,1","10069,1",,,"8,1,03,1","6,1,03,1",,"08,99,1,08,1,05,1,02250,1,99,9,99,9",,,,"2,1,018,1,+999,9","60,1",,SYN066AAXX  29151 57328 41850 80401 10231 20228 40069 52018 76086 885//;,
05-29T18:00:00,4,31.2,107.5,344.0,"DA XIAN, CH",FM-12,99999,V020,"040,1,N,0010,1","02100,1,9,N","008000,1,N,1","+0225,1","+0199,1","10065,1","06,0099,9,1",,"8,1,06,1","6,1,06,1",,"08,99,1,08,1,05,1,02250,1,99,9,99,9",,"999,M,+0280,1","99999,9,09675,1","7,1,005,1,+999,9","21,1",,SYN088AAXX  29181 57328 11858 80401 10225 20199 39675 40065 57005 60101 72186 885// 333 10280;,
05-29T21:00:00,4,31.2,107.5,344.0,"DA XIAN, CH",FM-12,99999,V020,"040,1,N,0020,1","02100,1,9,N","012000,1,N,1","+0227,1","+0177,1","10071,1","24,0191,9,1",,,,,"08,99,1,08,1,05,1,02250,1,99,9,99,9",,,,"2,1,005,1,+999,9",,,SYN070AAXX  29211 57328 42862 80402 10227 20177 40071 52005 885// 333 70191;,
05-30T00:00:00,4,31.2,107.5,344.0,"DA XIAN, CH",FM-12,99999,V020,"040,1,N,0050,1","99999,9,9,N","030000,1,N,1","+0230,1","+0140,1","10103,1","06,0000,2,1","24,0191,9,1",,,,"08,99,1,08,1,00,1,99999,9,07,1,99,9",,,"99999,9,09711,1","2,1,031,1,+040,1",,,SYN082AAXX  30001 57328 32980 80405 10230 20140 39711 40103 52031 8807/ 333 00400 70191;,
05-30T03:00:00,4,31.2,107.5,344.0,"DA XIAN, CH",FM-12,99999,V020,"020,1,N,0050,1","02100,1,9,N","030000,1,N,1","+0224,1","+0116,1","10126,1",,,,,,"08,99,1,08,1,05,1,02250,1,99,9,99,9",,,,"2,1,021,1,+999,9",,,SYN060AAXX  30031 57328 42880 80205 10224 20116 40126 52021 885//;,
05-30T06:00:00,4,31.2,107.5,344.0,"DA XIAN, CH",FM-12,99999,V020,"020,1,N,0080,1","02100,1,9,N","030000,1,N,1","+0193,1","+0110,1","10152,1","06,9999,9,9",,"6,1,06,1",,,"08,99,1,08,1,05,1,02250,1,99,9,99,9",,"999,N,+0192,1","99999,9,09755,1","2,1,023,1,+999,9","60,1",,SYN088AAXX  30061 57328 11880 80208 10193 20110 39755 40152 52023 69911 76060 885// 333 20192;,
05-30T09:00:00,4,31.2,107.5,344.0,"DA XIAN, CH",FM-12,99999,V020,"040,1,N,0010,1","99999,9,9,N","030000,1,N,1","+0175,1","+0151,1","10165,1",,,"6,1,03,1","6,1,03,1",,"08,99,1,08,1,00,1,99999,9,02,1,99,9",,,,"2,1,011,1,+999,9","60,1",,SYN066AAXX  30091 57328 41980 80401 10175 20151 40165 52011 76066 8802/;,
05-30T12:00:00,4,31.2,107.5,344.0,"DA XIAN, CH",FM-12,99999,V020,"160,1,N,0010,1","02100,1,9,N","030000,1,N,1","+0181,1","+0153,1","10170,1","06,0020,9,1",,"6,1,06,1","6,1,06,1",,"08,99,1,08,1,05,1,02250,1,99,9,99,9",,,"99999,9,09772,1","2,1,006,1,+999,9","21,1",,SYN078AAXX  30121 57328 11880 81601 10181 20153 39772 40170 52006 60021 72166 885//;,
05-30T15:00:00,4,31.2,107.5,344.0,"DA XIAN, CH",FM-12,99999,V020,"999,9,C,0000,1","02100,1,9,N","020000,1,N,1","+0178,1","+0149,1","10191,1",,,,,,"08,99,1,08,1,05,1,02250,1,99,9,99,9",,,,"2,1,019,1,+999,9",,,SYN060AAXX  30151 57328 42870 80000 10178 20149 40191 52019 885//;,
05-30T18:00:00,4,31.2,107.5,344.0,"DA XIAN, CH",FM-12,99999,V020,"020,1,N,0030,1","02100,1,9,N","015000,1,N,1","+0169,1","+0156,1","10182,1","06,0000,2,1",,,,,"08,99,1,08,1,05,1,02250,1,99,9,99,9",,"999,M,+0232,1","99999,9,09780,1","7,1,011,1,+999,9",,,SYN076AAXX  30181 57328 32865 80203 10169 20156 39780 40182 57011 885// 333 10232;,
05-30T21:00:00,4,31.2,107.5,344.0,"DA XIAN, CH",FM-12,99999,V020,"999,9,C,0000,1","02100,1,9,N","015000,1,N,1","+0171,1","+0156,1","10192,1","24,0018,9,1",,,,,"08,99,1,08,1,05,1,02250,1,99,9,99,9",,,,"2,1,008,1,+999,9",,,SYN070AAXX  30211 57328 42865 80000 10171 20156 40192 52008 885// 333 70017;,
05-31T00:00:00,4,31.2,107.5,344.0,"DA XIAN, CH",FM-12,99999,V020,"999,9,C,0000,1","99999,9,9,N","011000,1,N,1","+0177,1","+0155,1","10199,1","06,0000,9,1","24,0018,9,1",,,,"08,99,1,08,1,00,1,99999,9,07,1,99,9",,,"99999,9,09796,1","2,1,008,1,+090,1",,,SYN082AAXX  31001 57328 32961 80000 10177 20155 39796 40199 52008 8807/ 333 00955 70017;,Q01  00002PRCP06
05-31T03:00:00,4,31.2,107.5,344.0,"DA XIAN, CH",FM-12,99999,V020,"360,1,N,0020,1","99999,9,9,N","020000,1,N,1","+0211,1","+0151,1","10195,1",,,,,,"08,99,1,08,1,00,1,99999,9,07,1,99,9",,,,"7,1,002,1,+999,9",,,SYN060AAXX  31031 57328 42970 83602 10211 20151 40195 57002 8807/;,
05-31T06:00:00,4,31.2,107.5,344.0,"DA XIAN, CH",FM-12,99999,V020,"999,9,C,0000,1","99999,9,9,N","020000,1,N,1","+0240,1","+0167,1","10176,1","06,0000,9,1",,,,,"07,99,1,07,1,00,1,99999,9,04,1,99,9",,"999,N,+0167,1","99999,9,09777,1","7,1,017,1,+999,9",,,SYN076AAXX  31061 57328 32970 70000 10240 20167 39777 40176 57017 8704/ 333 20167;,Q01  00002PRCP06
05-31T09:00:00,4,31.2,107.5,344.0,"DA XIAN, CH",FM-12,99999,V020,"020,1,N,0020,1","99999,9,9,N","030000,1,N,1","+0239,1","+0158,1","10149,1",,,,,,"08,99,1,08,1,00,1,99999,9,07,1,99,9",,,,"7,1,026,1,+999,9",,,SYN060AAXX  31091 57328 42980 80202 10239 20158 40149 57026 8807/;,
05-31T12:00:00,4,31.2,107.5,344.0,"DA XIAN, CH",FM-12,99999,V020,"999,9,C,0000,1","99999,9,9,N","020000,1,N,1","+0223,1","+0176,1","10148,1","06,0000,9,1",,,,,"08,99,1,08,1,00,1,99999,9,07,1,99,9",,,"99999,9,09750,1","7,1,001,1,+999,9",,,SYN066AAXX  31121 57328 32970 80000 10223 20176 39750 40148 57001 8807/;,Q01  00002PRCP06
05-31T15:00:00,4,31.2,107.5,344.0,"DA XIAN, CH",FM-12,99999,V020,"040,1,N,0020,1","02100,1,9,N","015000,1,N,1","+0205,1","+0180,1","10157,1",,,,,,"08,99,1,08,1,05,1,02250,1,99,9,99,9",,,,"2,1,010,1,+999,9",,,SYN060AAXX  31151 57328 42865 80402 10205 20180 40157 52010 885//;,
05-31T18:00:00,4,31.2,107.5,344.0,"DA XIAN, CH",FM-12,99999,V020,"999,9,C,0000,1","02100,1,9,N","015000,1,N,1","+0199,1","+0178,1","10155,1","06,0000,9,1",,,,,"08,99,1,08,1,05,1,02250,1,99,9,99,9",,"999,M,+0250,1","99999,9,09759,1","7,1,001,1,+999,9",,,SYN076AAXX  31181 57328 32865 80000 10199 20178 39759 40155 57001 885// 333 10250;,Q01  00002PRCP06
05-31T21:00:00,4,31.2,107.5,344.0,"DA XIAN, CH",FM-12,99999,V020,"040,1,N,0020,1","99999,9,9,N","011000,1,N,1","+0192,1","+0178,1","10150,1",,,,,,"08,99,1,08,1,00,1,99999,9,07,1,99,9",,,,"7,1,005,1,+999,9",,,SYN060AAXX  31211 57328 42961 80402 10192 20178 40150 57005 8807/;,
06-01T00:00:00,4,31.2,107.5,344.0,"DA XIAN, CH",FM-12,99999,V020,"040,1,N,0010,1","99999,9,9,N","008000,1,N,1","+0196,1","+0180,1","10164,1","06,0000,9,1",,,,,"08,99,1,08,1,00,1,99999,9,07,1,99,9",,,"99999,9,09766,1","2,1,012,1,+003,1","10,1",,SYN082AAXX  01001 57328 31958 80401 10196 20180 39766 40164 52012 71000 8807/ 333 05302;,Q01  00002PRCP06
06-01T03:00:00,4,31.2,107.5,344.0,"DA XIAN, CH",FM-12,99999,V020,"040,1,N,0040,1","99999,9,9,N","012000,1,N,1","+0201,1","+0182,1","10173,1",,,,,,"08,99,1,08,1,00,1,99999,9,07,1,99,9",,,,"2,1,008,1,+999,9",,,SYN060AAXX  01031 57328 42962 80404 10201 20182 40173 52008 8807/;,
06-01T06:00:00,4,31.2,107.5,344.0,"DA XIAN, CH",FM-12,99999,V020,"020,1,N,0030,1","99999,9,9,N","020000,1,N,1","+0231,1","+0184,1","10155,1","06,0000,9,1",,,,,"08,99,1,08,1,00,1,99999,9,07,1,99,9",,"999,N,+0190,1","99999,9,09759,1","7,1,015,1,+999,9",,,SYN076AAXX  01061 57328 32970 80203 10231 20184 39759 40155 57015 8807/ 333 20190;,Q01  00002PRCP06
06-01T09:00:00,4,31.2,107.5,344.0,"DA XIAN, CH",FM-12,99999,V020,"040,1,N,0030,1","99999,9,9,N","020000,1,N,1","+0223,1","+0182,1","10142,1",,,,,,"08,99,1,08,1,00,1,99999,9,07,1,99,9",,,,"7,1,014,1,+999,9",,,SYN060AAXX  01091 57328 42970 80403 10223 20182 40142 57014 8807/;,
06-01T12:00:00,4,31.2,107.5,344.0,"DA XIAN, CH",FM-12,99999,V020,"040,1,N,0010,1","22000,1,9,N","020000,1,N,1","+0219,1","+0176,1","10139,1","06,0000,9,1",,,,,"04,99,1,04,1,00,1,99999,9,04,1,00,1",,,"99999,9,09742,1","7,1,003,1,+999,9",,,SYN066AAXX  01121 57328 32970 40401 10219 20176 39742 40139 57003 84040;,Q01  00002PRCP06
06-01T15:00:00,4,31.2,107.5,344.0,"DA XIAN, CH",FM-12,99999,V020,"040,1,N,0020,1","99999,9,9,N","011000,1,N,1","+0199,1","+0178,1","10150,1",,,,,,"08,99,1,08,1,00,1,99999,9,07,1,99,9",,,,"2,1,010,1,+999,9",,,SYN060AAXX  01151 57328 42961 80402 10199 20178 40150 52010 8807/;,
06-01T18:00:00,4,31.2,107.5,344.0,"DA XIAN, CH",FM-12,99999,V020,"040,1,N,0030,1","99999,9,9,N","012000,1,N,1","+0197,1","+0178,1","10134,1","06,0000,9,1",,,,,"08,99,1,08,1,00,1,99999,9,07,1,99,9",,"999,M,+0238,1","99999,9,09738,1","7,1,014,1,+999,9",,,SYN076AAXX  01181 57328 32962 80403 10197 20178 39738 40134 57014 8807/ 333 10238;,Q01  00002PRCP06
06-01T21:00:00,4,31.2,107.5,344.0,"DA XIAN, CH",FM-12,99999,V020,"040,1,N,0010,1","99999,9,9,N","008000,1,N,1","+0193,1","+0174,1","10125,1",,,,,,"08,99,1,08,1,00,1,99999,9,07,1,99,9",,,,"7,1,009,1,+999,9","10,1",,SYN066AAXX  01211 57328 41958 80401 10193 20174 40125 57009 71000 8807/;,
06-02T00:00:00,4,31.2,107.5,344.0,"DA XIAN, CH",FM-12,99999,V020,"040,1,N,0020,1","99999,9,9,N","015000,1,N,1","+0197,1","+0170,1","10121,1","06,0000,9,1",,,,,"08,99,1,08,1,00,1,99999,9,07,1,99,9",,,"99999,9,09725,1","7,1,004,1,+004,1",,,SYN076AAXX  02001 57328 32965 80402 10197 20170 39725 40121 57004 8807/ 333 05400;,Q01  00002PRCP06
06-02T03:00:00,4,31.2,107.5,344.0,"DA XIAN, CH",FM-12,99999,V020,"999,9,C,0000,1","99999,9,9,N","020000,1,N,1","+0210,1","+0180,1","10122,1",,,,,,"08,99,1,08,1,00,1,99999,9,07,1,99,9",,,,"4,1,000,1,+999,9","21,1",,SYN066AAXX  02031 57328 41970 80000 10210 20180 40122 54000 72100 8807/;,
06-02T06:00:00,4,31.2,107.5,344.0,"DA XIAN, CH",FM-12,99999,V020,"999,9,C,0000,1","99999,9,9,N","012000,1,N,1","+0218,1","+0180,1","10107,1","06,9999,9,9",,"6,1,06,1",,,"08,99,1,08,1,00,1,99999,9,02,1,99,9",,"999,N,+0192,1","99999,9,09711,1","7,1,014,1,+999,9","00,1",,SYN088AAXX  02061 57328 11962 80000 10218 20180 39711 40107 57014 69901 70060 8802/ 333 20192;,
06-02T09:00:00,4,31.2,107.5,344.0,"DA XIAN, CH",FM-12,99999,V020,"070,1,N,0020,1","99999,9,9,N","012000,1,N,1","+0215,1","+0182,1","10081,1",,,,,,"08,99,1,08,1,00,1,99999,9,07,1,99,9",,,,"7,1,025,1,+999,9",,,SYN060AAXX  02091 57328 42962 80702 10215 20182 40081 57025 8807/;,
06-02T12:00:00,4,31.2,107.5,344.0,"DA XIAN, CH",FM-12,99999,V020,"040,1,N,0030,1","99999,9,9,N","020000,1,N,1","+0210,1","+0180,1","10077,1","06,0000,9,1",,,,,"08,99,1,08,1,00,1,99999,9,07,1,99,9",,,"99999,9,09682,1","7,1,004,1,+999,9",,,SYN066AAXX  02121 57328 32970 80403 10210 20180 39682 40077 57004 8807/;,Q01  00002PRCP06
06-02T15:00:00,4,31.2,107.5,344.0,"DA XIAN, CH",FM-12,99999,V020,"040,1,N,0010,1","99999,9,9,N","012000,1,N,1","+0209,1","+0177,1","10088,1",,,,,,"08,99,1,08,1,00,1,99999,9,07,1,99,9",,,,"2,1,011,1,+999,9",,,SYN060AAXX  02151 57328 42962 80401 10209 20177 40088 52011 8807/;,
06-02T18:00:00,4,31.2,107.5,344.0,"DA XIAN, CH",FM-12,99999,V020,"999,9,C,0000,1","99999,9,9,N","015000,1,N,1","+0209,1","+0174,1","10068,1","06,0000,9,1",,,,,"08,99,1,08,1,00,1,99999,9,07,1,99,9",,"999,M,+0219,1","99999,9,09675,1","7,1,018,1,+999,9",,,SYN076AAXX  02181 57328 32965 80000 10209 20174 39675 40068 57018 8807/ 333 10219;,Q01  00002PRCP06
06-02T21:00:00,4,31.2,107.5,344.0,"DA XIAN, CH",FM-12,99999,V020,"110,1,N,0020,1","02100,1,9,N","008000,1,N,1","+0187,1","+0181,1","10074,1","24,0076,9,1",,"9,1,03,1","8,1,03,1",,"08,99,1,08,1,05,1,02250,1,99,9,99,9",,,,"2,1,004,1,+999,9","60,1",,SYN076AAXX  02211 57328 41858 81102 10187 20181 40074 52004 76098 885// 333 70075;,
06-03T00:00:00,4,31.2,107.5,344.0,"DA XIAN, CH",FM-12,99999,V020,"040,1,N,0020,1","01500,1,9,N","003000,1,N,1","+0182,1","+0177,1","10081,1","06,0201,9,2","24,0198,9,2","9,1,06,1","6,1,06,1",,"08,99,1,08,1,09,1,01750,1,99,9,99,9",,,"99999,9,09685,1","2,1,006,1,-040,1","80,1",,SYN094AAXX  03001 57328 11730 80402 10182 20177 39685 40081 52006 60201 78096 889// 333 05452 70199;,
06-03T03:00:00,4,31.2,107.5,344.0,"DA XIAN, CH",FM-12,99999,V020,"040,1,N,0030,1","01500,1,9,N","001500,1,N,1","+0180,1","+0178,1","10086,1",,,"9,1,03,1","8,1,03,1",,"08,99,1,08,1,09,1,01750,1,99,9,99,9",,,,"2,1,005,1,+999,9","91,1",,SYN066AAXX  03031 57328 41715 80403 10180 20178 40086 52005 79198 889//;,
06-03T06:00:00,4,31.2,107.5,344.0,"DA XIAN, CH",FM-12,99999,V020,"040,1,N,0030,1","02100,1,9,N","003000,1,N,1","+0182,1","+0177,1","10086,1","06,0439,9,1",,"9,1,06,1","8,1,06,1",,"08,99,1,08,1,05,1,02250,1,99,9,99,9",,"999,N,+0176,1","99999,9,09690,1","4,1,000,1,+999,9","60,1",,SYN088AAXX  03061 57328 11830 80403 10182 20177 39690 40086 54000 60441 76098 885// 333 20176;,
06-03T09:00:00,4,31.2,107.5,344.0,"DA XIAN, CH",FM-12,99999,V020,"999,9,C,0000,1","02100,1,9,N","002000,1,N,1","+0187,1","+0182,1","10080,1",,,"6,1,03,1","6,1,03,1",,"08,99,1,08,1,05,1,02250,1,99,9,99,9",,,,"7,1,007,1,+999,9","60,1",,SYN066AAXX  03091 57328 41820 80000 10187 20182 40080 57007 76066 885//;,
06-03T12:00:00,4,31.2,107.5,344.0,"DA XIAN, CH",FM-12,99999,V020,"040,1,N,0010,1","02100,1,9,N","005000,1,N,1","+0188,1","+0183,1","10086,1","06,0071,9,1",,"6,1,06,1","6,1,06,1",,"08,99,1,08,1,05,1,02250,1,99,9,99,9",,,"99999,9,09688,1","2,1,005,1,+999,9","60,1",,SYN078AAXX  03121 57328 11850 80401 10188 20183 39688 40086 52005 60071 76066 885//;,
06-03T15:00:00,4,31.2,107.5,344.0,"DA XIAN, CH",FM-12,99999,V020,"040,1,N,0010,1","02100,1,9,N","006000,1,N,1","+0189,1","+0186,1","10105,1",,,"6,1,03,1","6,1,03,1",,"08,99,1,08,1,05,1,02250,1,99,9,99,9",,,,"2,1,018,1,+999,9","21,1",,SYN066AAXX  03151 57328 41856 80401 10189 20186 40105 52018 72166 885//;,
06-03T18:00:00,4,31.2,107.5,344.0,"DA XIAN, CH",FM-12,99999,V020,"090,1,N,0010,1","02100,1,9,N","030000,1,N,1","+0183,1","+0173,1","10098,1","06,9999,9,9",,"6,1,06,1",,,"08,99,1,08,1,05,1,02250,1,99,9,99,9",,"999,M,+0210,1","99999,9,09699,1","7,1,007,1,+999,9","60,1",,SYN088AAXX  03181 57328 11880 80901 10183 20173 39699 40098 57007 69921 76060 885// 333 10210;,
06-03T21:00:00,4,31.2,107.5,344.0,"DA XIAN, CH",FM-12,99999,V020,"040,1,N,0030,1","02100,1,9,N","003000,1,N,1","+0176,1","+0173,1","10090,1","24,0699,9,1",,"6,1,03,1","6,1,03,1",,"08,99,1,08,1,05,1,02250,1,99,9,99,9",,,,"7,1,007,1,+999,9","60,1",,SYN076AAXX  03211 57328 41830 80403 10176 20173 40090 57007 76066 885// 333 70698;,
06-04T00:00:00,4,31.2,107.5,344.0,"DA XIAN, CH",FM-12,99999,V020,"340,1,N,0010,1","02100,1,9,N","008000,1,N,1","+0175,1","+0172,1","10105,1","06,0130,9,1","24,0635,9,1","6,1,06,1","6,1,06,1",,"08,99,1,08,1,05,1,02250,1,99,9,99,9",,,"99999,9,09706,1","2,1,014,1,+020,1","60,1",,SYN094AAXX  04001 57328 11858 83401 10175 20172 39706 40105 52014 60131 76066 885// 333 00251 70636;,
06-04T03:00:00,4,31.2,107.5,344.0,"DA XIAN, CH",FM-12,99999,V020,"040,1,N,0040,1","00750,1,9,N","020000,1,N,1","+0184,1","+0173,1","10114,1",,,"6,1,03,1","6,1,03,1",,"08,99,1,08,1,05,1,00800,1,99,9,99,9",,,,"2,1,009,1,+999,9","60,1",,SYN066AAXX  04031 57328 41570 80404 10184 20173 40114 52009 76066 885//;,
06-04T06:00:00,4,31.2,107.5,344.0,"DA XIAN, CH",FM-12,99999,V020,"020,1,N,0040,1","02100,1,9,N","030000,1,N,1","+0195,1","+0166,1","10113,1","06,0030,9,1",,"6,1,06,1",,,"08,99,1,08,1,05,1,02250,1,99,9,99,9",,"999,N,+0172,1","99999,9,09715,1","4,1,000,1,+999,9","60,1",,SYN088AAXX  04061 57328 11880 80204 10195 20166 39715 40113 54000 60031 76060 885// 333 20172;,
06-04T09:00:00,4,31.2,107.5,344.0,"DA XIAN, CH",FM-12,99999,V020,"040,1,N,0020,1","02100,1,9,N","030000,1,N,1","+0204,1","+0167,1","10105,1",,,"6,1,03,1",,,"08,99,1,08,1,05,1,02250,1,99,9,99,9",,,,"7,1,008,1,+999,9","00,1",,SYN066AAXX  04091 57328 41880 80402 10204 20167 40105 57008 70060 885//;,
06-04T12:00:00,4,31.2,107.5,344.0,"DA XIAN, CH",FM-12,99999,V020,"999,9,C,0000,1","02100,1,9,N","030000,1,N,1","+0199,1","+0167,1","10116,1","06,9999,9,9",,"6,1,06,1",,,"07,99,1,07,1,05,1,02250,1,99,9,99,9",,,"99999,9,09717,1","2,1,010,1,+999,9","00,1",,SYN078AAXX  04121 57328 11880 70000 10199 20167 39717 40116 52010 69901 70060 875//;,
06-04T15:00:00,4,31.2,107.5,344.0,"DA XIAN, CH",FM-12,99999,V020,"999,9,C,0000,1","99999,9,9,N","030000,1,N,1","+0191,1","+0178,1","10133,1",,,,,,"08,99,1,08,1,00,1,99999,9,07,1,99,9",,,,"2,1,017,1,+999,9",,,SYN060AAXX  04151 57328 42980 80000 10191 20178 40133 52017 8807/;,
06-04T18:00:00,4,31.2,107.5,344.0,"DA XIAN, CH",FM-12,99999,V020,"999,9,C,0000,1","99999,9,9,N","020000,1,N,1","+0189,1","+0178,1","10132,1","06,0000,9,1",,,,,"08,99,1,08,1,00,1,99999,9,07,1,99,9",,"999,M,+0204,1","99999,9,09733,1","7,1,001,1,+999,9",,,SYN076AAXX  04181 57328 32970 80000 10189 20178 39733 40132 57001 8807/ 333 10204;,Q01  00002PRCP06
06-04T21:00:00,4,31.2,107.5,344.0,"DA XIAN, CH",FM-12,99999,V020,"999,9,C,0000,1","02100,1,9,N","020000,1,N,1","+0186,1","+0171,1","10131,1","24,0094,9,1",,,,,"08,99,1,08,1,05,1,02250,1,99,9,99,9",,,,"4,1,000,1,+999,9","60,1",,SYN076AAXX  04211 57328 41870 80000 10186 20171 40131 54000 76000 885// 333 70095;,
06-05T00:00:00,4,31.2,107.5,344.0,"DA XIAN, CH",FM-12,99999,V020,"160,1,N,0010,1","02100,1,9,N","005000,1,N,1","+0182,1","+0172,1","10142,1","06,0003,9,1","24,0036,9,1","6,1,06,1",,,"08,99,1,08,1,05,1,02250,1,99,9,99,9",,,"99999,9,09743,1","2,1,010,1,+040,1","60,1",,SYN094AAXX  05001 57328 11850 81601 10182 20172 39743 40142 52010 69931 76060 885// 333 00401 70035;,
06-05T03:00:00,4,31.2,107.5,344.0,"DA XIAN, CH",FM-12,99999,V020,"160,1,N,0010,1","99999,9,9,N","006000,1,N,1","+0201,1","+0167,1","10137,1",,,"6,1,03,1",,,"07,99,1,07,1,00,1,99999,9,04,1,99,9",,,,"7,1,004,1,+999,9","10,1",,SYN066AAXX  05031 57328 41956 71601 10201 20167 40137 57004 71060 8704/;,
06-05T06:00:00,4,31.2,107.5,344.0,"DA XIAN, CH",FM-12,99999,V020,"220,1,N,0010,1","99999,9,9,N","030000,1,N,1","+0231,1","+0163,1","10125,1","06,9999,9,9",,"6,1,06,1",,,"07,99,1,07,1,00,1,99999,9,04,1,99,9",,"999,N,+0176,1","99999,9,09729,1","7,1,010,1,+999,9","00,1",,SYN088AAXX  05061 57328 11980 72201 10231 20163 39729 40125 57010 69911 70060 8704/ 333 20176;,
06-05T09:00:00,4,31.2,107.5,344.0,"DA XIAN, CH",FM-12,99999,V020,"999,9,C,0000,1","22000,1,9,N","030000,1,N,1","+0246,1","+0168,1","10105,1",,,,,,"04,99,1,02,1,01,1,01250,1,04,1,00,1",,,,"7,1,018,1,+999,9",,,SYN060AAXX  05091 57328 42680 40000 10246 20168 40105 57018 82140;,
06-05T12:00:00,4,31.2,107.5,344.0,"DA XIAN, CH",FM-12,99999,V020,"160,1,N,0010,1","22000,1,9,N","030000,1,N,1","+0227,1","+0173,1","10112,1","06,0000,9,1",,,,,"02,99,1,02,1,00,1,99999,9,04,1,00,1",,,"99999,9,09716,1","2,1,005,1,+999,9",,,SYN066AAXX  05121 57328 32980 21601 10227 20173 39716 40112 52005 82040;,Q01  00002PRCP06
06-05T15:00:00,4,31.2,107.5,344.0,"DA XIAN, CH",FM-12,99999,V020,"999,9,C,0000,1","22000,1,9,N","015000,1,N,1","+0205,1","+0183,1","10133,1",,,,,"00,1,+99999,9,99,9","00,99,1,00,1,00,1,99999,9,00,1,00,1",,,,"2,1,020,1,+999,9",,,SYN054AAXX  05151 57328 42965 00000 10205 20183 40133 52020;,
06-05T18:00:00,4,31.2,107.5,344.0,"DA XIAN, CH",FM-12,99999,V020,"040,1,N,0010,1","99999,9,9,N","012000,1,N,1","+0185,1","+0175,1","10130,1","06,0000,9,1",,,,,"07,99,1,07,1,00,1,99999,9,04,1,99,9",,"999,M,+0257,1","99999,9,09734,1","7,1,002,1,+999,9",,,SYN076AAXX  05181 57328 32962 70401 10185 20175 39734 40130 57002 8704/ 333 10257;,Q01  00002PRCP06
06-05T21:00:00,4,31.2,107.5,344.0,"DA XIAN, CH",FM-12,99999,V020,"999,9,C,0000,1","99999,9,9,N","015000,1,N,1","+0182,1","+0174,1","10129,1","24,0003,9,1",,,,,"06,99,1,06,1,00,1,99999,9,04,1,00,1",,,,"7,1,001,1,+999,9",,,SYN070AAXX  05211 57328 42965 60000 10182 20174 40129 57001 86040 333 70003;,
06-06T00:00:00,4,31.2,107.5,344.0,"DA XIAN, CH",FM-12,99999,V020,"999,9,C,0000,1","99999,9,9,N","006000,1,N,1","+0189,1","+0178,1","10147,1","06,0000,9,1","24,0000,2,1",,,,"08,99,1,08,1,00,1,99999,9,07,1,99,9",,,"99999,9,09750,1","2,1,017,1,+010,1","10,1",,SYN088AAXX  06001 57328 31956 80000 10189 20178 39750 40147 52017 71000 8807/ 333 00101 70001;,Q01  00002PRCP06
06-06T03:00:00,4,31.2,107.5,344.0,"DA XIAN, CH",FM-12,99999,V020,"999,9,C,0000,1","99999,9,9,N","008000,1,N,1","+0223,1","+0186,1","10144,1",,,,,,"07,99,1,07,1,00,1,99999,9,04,1,99,9",,,,"7,1,002,1,+999,9","10,1",,SYN066AAXX  06031 57328 41958 70000 10223 20186 40144 57002 71000 8704/;,
06-06T06:00:00,4,31.2,107.5,344.0,"DA XIAN, CH",FM-12,99999,V020,"090,1,N,0020,1","22000,1,9,N","012000,1,N,1","+0263,1","+0177,1","10131,1","06,0000,9,1",,,,,"02,99,1,02,1,01,1,01250,1,00,1,00,1",,"999,N,+0178,1","99999,9,09737,1","7,1,011,1,+999,9",,,SYN076AAXX  06061 57328 32662 20902 10263 20177 39737 40131 57011 82100 333 20178;,Q01  00002PRCP06
06-06T09:00:00,4,31.2,107.5,344.0,"DA XIAN, CH",FM-12,99999,V020,"180,1,N,0020,1","99999,9,9,N","020000,1,N,1","+0274,1","+0180,1","10111,1",,,,,,"06,99,1,06,1,00,1,99999,9,04,1,00,1",,,,"7,1,019,1,+999,9",,,SYN060AAXX  06091 57328 42970 61802 10274 20180 40111 57019 86040;,
06-06T12:00:00,4,31.2,107.5,344.0,"DA XIAN, CH",FM-12,99999,V020,"999,9,C,0000,1","99999,9,9,N","030000,1,N,1","+0259,1","+0189,1","10120,1","06,0000,9,1",,,,,"07,99,1,07,1,00,1,99999,9,04,1,99,9",,,"99999,9,09726,1","2,1,008,1,+999,9",,,SYN066AAXX  06121 57328 32980 70000 10259 20189 39726 40120 52008 8704/;,Q01  00002PRCP06
06-06T15:00:00,4,31.2,107.5,344.0,"DA XIAN, CH",FM-12,99999,V020,"999,9,C,0000,1","99999,9,9,N","020000,1,N,1","+0223,1","+0199,1","10137,1",,,,,,"07,99,1,07,1,00,1,99999,9,04,1,99,9",,,,"2,1,016,1,+999,9",,,SYN060AAXX  06151 57328 42970 70000 10223 20199 40137 52016 8704/;,
06-06T18:00:00,4,31.2,107.5,344.0,"DA XIAN, CH",FM-12,99999,V020,"040,1,N,0020,1","99999,9,9,N","006000,1,N,1","+0207,1","+0195,1","10130,1","06,0000,9,1",,,,,"08,99,1,08,1,00,1,99999,9,07,1,99,9",,"999,M,+0278,1","99999,9,09737,1","7,1,005,1,+999,9","10,1",,SYN082AAXX  06181 57328 31956 80402 10207 20195 39737 40130 57005 71000 8807/ 333 10278;,Q01  00002PRCP06
06-06T21:00:00,4,31.2,107.5,344.0,"DA XIAN, CH",FM-12,99999,V020,"090,1,N,0010,1","99999,9,9,N","002000,1,N,1","+0194,1","+0189,1","10129,1",,,,,,"07,99,1,07,1,00,1,99999,9,04,1,00,1",,,,"7,1,001,1,+999,9","10,1",,SYN066AAXX  06211 57328 41920 70901 10194 20189 40129 57001 71000 87040;,
06-07T00:00:00,4,31.2,107.5,344.0,"DA XIAN, CH",FM-12,99999,V020,"040,1,N,0020,1","00030,1,9,N","000200,1,N,1","+0193,1","+0191,1","10136,1","06,0000,9,1",,"4,1,06,1",,"09,1,+99999,9,99,9","09,99,1,09,1,99,9,99999,9,99,9,99,9",,,"99999,9,09742,1","2,1,006,1,+001,1","43,1",,SYN076AAXX  07001 57328 31/02 90402 10193 20191 39742 40136 52006 74340 333 05100;,Q01  00002PRCP06
06-07T03:00:00,4,31.2,107.5,344.0,"DA XIAN, CH",FM-12,99999,V020,"220,1,N,0010,1","03600,1,9,N","012000,1,N,1","+0261,1","+0201,1","10129,1",,,"4,1,03,1",,,"05,99,1,02,1,01,1,01250,1,04,1,00,1",,,,"7,1,005,1,+999,9","00,1",,SYN066AAXX  07031 57328 41662 52201 10261 20201 40129 57005 70040 82140;,
06-07T06:00:00,4,31.2,107.5,344.0,"DA XIAN, CH",FM-12,99999,V020,"220,1,N,0030,1","22000,1,9,N","012000,1,N,1","+0291,1","+0193,1","10104,1","06,0000,9,1",,"4,1,06,1",,,"02,99,1,02,1,01,1,00800,1,00,1,00,1",,"999,N,+0184,1","99999,9,09714,1","7,1,023,1,+999,9","00,1",,SYN082AAXX  07061 57328 31562 22203 10291 20193 39714 40104 57023 70040 82100 333 20184;,Q01  00002PRCP06
06-07T09:00:00,4,31.2,107.5,344.0,"DA XIAN, CH",FM-12,99999,V020,"220,1,N,0020,1","22000,1,9,N","020000,1,N,1","+0299,1","+0187,1","10090,1",,,,,,"01,99,1,01,1,01,1,01250,1,00,1,00,1",,,,"7,1,014,1,+999,9",,,SYN060AAXX  07091 57328 42670 12202 10299 20187 40090 57014 81100;,
06-07T12:00:00,4,31.2,107.5,344.0,"DA XIAN, CH",FM-12,99999,V020,"999,9,C,0000,1","22000,1,9,N","012000,1,N,1","+0279,1","+0201,1","10102,1","06,0000,9,1",,,,,"02,99,1,02,1,02,1,01250,1,00,1,02,1",,,"99999,9,09710,1","2,1,010,1,+999,9",,,SYN066AAXX  07121 57328 32662 20000 10279 20201 39710 40102 52010 82202;,Q01  00002PRCP06
06-07T15:00:00,4,31.2,107.5,344.0,"DA XIAN, CH",FM-12,99999,V020,"040,1,N,0040,1","22000,1,9,N","012000,1,N,1","+0215,1","+0161,1","10117,1",,,,,,"02,99,1,02,1,00,1,99999,9,04,1,00,1",,,,"2,1,015,1,+999,9",,,SYN060AAXX  07151 57328 42962 20404 10215 20161 40117 52015 82040;,
06-07T18:00:00,4,31.2,107.5,344.0,"DA XIAN, CH",FM-12,99999,V020,"020,1,N,0040,1","99999,9,9,N","012000,1,N,1","+0203,1","+0157,1","10112,1","06,0000,9,1",,,,,"05,99,1,05,1,00,1,99999,9,04,1,00,1",,"999,M,+0306,1","99999,9,09721,1","7,1,004,1,+999,9",,,SYN076AAXX  07181 57328 32962 50204 10203 20157 39721 40112 57004 85040 333 10306;,Q01  00002PRCP06
06-07T21:00:00,4,31.2,107.5,344.0,"DA XIAN, CH",FM-12,99999,V020,"360,1,N,0030,1","99999,9,9,N","012000,1,N,1","+0198,1","+0164,1","10118,1",,,,,,"07,99,1,07,1,00,1,99999,9,04,1,99,9",,,,"2,1,006,1,+999,9",,,SYN060AAXX  07211 57328 42962 73603 10198 20164 40118 52006 8704/;,
06-08T00:00:00,4,31.2,107.5,344.0,"DA XIAN, CH",FM-12,99999,V020,"040,1,N,0040,1","99999,9,9,N","030000,1,N,1","+0211,1","+0166,1","10132,1","06,0000,9,1",,,,,"07,99,1,07,1,00,1,99999,9,04,1,99,9",,,"99999,9,09740,1","2,1,013,1,+000,1",,,SYN076AAXX  08001 57328 32980 70404 10211 20166 39740 40132 52013 8704/ 333 00002;,Q01  00002PRCP06
06-08T03:00:00,4,31.2,107.5,344.0,"DA XIAN, CH",FM-12,99999,V020,"040,1,N,0020,1","99999,9,9,N","030000,1,N,1","+0240,1","+0177,1","10138,1",,,,,,"07,99,1,07,1,00,1,99999,9,04,1,99,9",,,,"2,1,004,1,+999,9",,,SYN060AAXX  08031 57328 42980 70402 10240 20177 40138 52004 8704/;,
06-08T06:00:00,4,31.2,107.5,344.0,"DA XIAN, CH",FM-12,99999,V020,"250,1,N,0020,1","99999,9,9,N","030000,1,N,1","+0283,1","+0182,1","10124,1","06,0000,9,1",,,,,"07,99,1,07,1,00,1,99999,9,04,1,99,9",,"999,N,+0191,1","99999,9,09732,1","7,1,012,1,+999,9",,,SYN076AAXX  08061 57328 32980 72502 10283 20182 39732 40124 57012 8704/ 333 20191;,Q01  00002PRCP06
06-08T09:00:00,4,31.2,107.5,344.0,"DA XIAN, CH",FM-12,99999,V020,"999,9,C,0000,1","99999,9,9,N","030000,1,N,1","+0283,1","+0189,1","10105,1",,,,,,"07,99,1,07,1,00,1,99999,9,04,1,99,9",,,,"7,1,018,1,+999,9",,,SYN060AAXX  08091 57328 42980 70000 10283 20189 40105 57018 8704/;,
06-08T12:00:00,4,31.2,107.5,344.0,"DA XIAN, CH",FM-12,99999,V020,"999,9,C,0000,1","02100,1,9,N","030000,1,N,1","+0261,1","+0206,1","10102,1","06,0000,9,1",,,,,"08,99,1,08,1,05,1,02250,1,99,9,99,9",,,"99999,9,09710,1","7,1,004,1,+999,9",,,SYN066AAXX  08121 57328 32880 80000 10261 20206 39710 40102 57004 885//;,Q01  00002PRCP06
06-08T15:00:00,4,31.2,107.5,344.0,"DA XIAN, CH",FM-12,99999,V020,"040,1,N,0020,1","99999,9,9,N","025000,1,N,1","+0233,1","+0200,1","10115,1",,,,,,"07,99,1,07,1,00,1,99999,9,04,1,99,9",,,,"2,1,013,1,+999,9",,,SYN060AAXX  08151 57328 42975 70402 10233 20200 40115 52013 8704/;,
06-08T18:00:00,4,31.2,107.5,344.0,"DA XIAN, CH",FM-12,99999,V020,"070,1,N,0020,1","99999,9,9,N","015000,1,N,1","+0215,1","+0197,1","10109,1","06,0000,9,1",,,,,"08,99,1,08,1,00,1,99999,9,07,1,99,9",,"999,M,+0299,1","99999,9,09719,1","7,1,004,1,+999,9",,,SYN076AAXX  08181 57328 32965 80702 10215 20197 39719 40109 57004 8807/ 333 10299;,Q01  00002PRCP06
06-08T21:00:00,4,31.2,107.5,344.0,"DA XIAN, CH",FM-12,99999,V020,"070,1,N,0010,1","99999,9,9,N","012000,1,N,1","+0213,1","+0195,1","10107,1",,,,,,"07,99,1,07,1,00,1,99999,9,04,1,99,9",,,,"7,1,002,1,+999,9",,,SYN060AAXX  08211 57328 42962 70701 10213 20195 40107 57002 8704/;,
06-09T00:00:00,4,31.2,107.5,344.0,"DA XIAN, CH",FM-12,99999,V020,"090,1,N,0020,1","99999,9,9,N","020000,1,N,1","+0214,1","+0188,1","10117,1","06,0000,9,1",,,,,"08,99,1,08,1,00,1,99999,9,07,1,99,9",,,"99999,9,09725,1","2,1,008,1,+002,1",,,SYN076AAXX  09001 57328 32970 80902 10214 20188 39725 40117 52008 8807/ 333 05200;,Q01  00002PRCP06
06-09T03:00:00,4,31.2,107.5,344.0,"DA XIAN, CH",FM-12,99999,V020,"040,1,N,0020,1","99999,9,9,N","030000,1,N,1","+0241,1","+0184,1","10125,1",,,"6,1,03,1",,,"08,99,1,08,1,00,1,99999,9,04,1,99,9",,,,"2,1,008,1,+999,9","00,1",,SYN066AAXX  09031 57328 41980 80402 10241 20184 40125 52008 70060 8804/;,
06-09T06:00:00,4,31.2,107.5,344.0,"DA XIAN, CH",FM-12,99999,V020,"040,1,N,0020,1","99999,9,9,N","030000,1,N,1","+0266,1","+0197,1","10117,1","06,9999,9,9",,"6,1,06,1",,,"08,99,1,08,1,00,1,99999,9,07,1,99,9",,"999,N,+0208,1","99999,9,09725,1","7,1,008,1,+999,9","00,1",,SYN088AAXX  09061 57328 11980 80402 10266 20197 39725 40117 57008 69901 70060 8807/ 333 20208;,
06-09T09:00:00,4,31.2,107.5,344.0,"DA XIAN, CH",FM-12,99999,V020,"999,9,C,0000,1","99999,9,9,N","030000,1,N,1","+0271,1","+0206,1","10106,1",,,"6,1,03,1",,,"08,99,1,08,1,00,1,99999,9,02,1,99,9",,,,"7,1,010,1,+999,9","21,1",,SYN066AAXX  09091 57328 41980 80000 10271 20206 40106 57010 72160 8802/;,
06-09T12:00:00,4,31.2,107.5,344.0,"DA XIAN, CH",FM-12,99999,V020,"999,9,C,0000,1","99999,9,9,N","030000,1,N,1","+0241,1","+0168,1","10127,1","06,9999,9,9",,"6,1,06,1",,,"08,99,1,08,1,00,1,99999,9,07,1,99,9",,,"99999,9,09733,1","2,1,018,1,+999,9","21,1",,SYN078AAXX  09121 57328 11980 80000 10241 20168 39733 40127 52018 69901 72160 8807/;,
06-09T15:00:00,4,31.2,107.5,344.0,"DA XIAN, CH",FM-12,99999,V020,"040,1,N,0030,1","99999,9,9,N","015000,1,N,1","+0217,1","+0172,1","10138,1",,,,,,"08,99,1,08,1,00,1,99999,9,07,1,99,9",,,,"2,1,011,1,+999,9",,,SYN060AAXX  09151 57328 42965 80403 10217 20172 40138 52011 8807/;,
06-09T18:00:00,4,31.2,107.5,344.0,"DA XIAN, CH",FM-12,99999,V020,"999,9,C,0000,1","99999,9,9,N","015000,1,N,1","+0215,1","+0175,1","10135,1","06,0000,2,1",,,,,"08,99,1,08,1,00,1,99999,9,07,1,99,9",,"999,M,+0274,1","99999,9,09743,1","7,1,001,1,+999,9",,,SYN076AAXX  09181 57328 32965 80000 10215 20175 39743 40135 57001 8807/ 333 10274;,
06-09T21:00:00,4,31.2,107.5,344.0,"DA XIAN, CH",FM-12,99999,V020,"999,9,C,0000,1","99999,9,9,N","012000,1,N,1","+0207,1","+0168,1","10141,1","24,0000,2,1",,"6,1,03,1",,,"08,99,1,08,1,00,1,99999,9,02,1,99,9",,,,"2,1,005,1,+999,9","60,1",,SYN076AAXX  09211 57328 41962 80000 10207 20168 40141 52005 76060 8802/ 333 79999;,
06-10T00:00:00,4,31.2,107.5,344.0,"DA XIAN, CH",FM-12,99999,V020,"090,1,N,0010,1","03600,1,9,N","008000,1,N,1","+0201,1","+0175,1","10160,1","06,9999,9,9","24,0000,2,1","6,1,06,1",,,"08,99,1,01,1,07,1,00800,1,02,1,99,9",,,"99999,9,09764,1","2,1,016,1,+040,1","60,1",,SYN094AAXX  10001 57328 11558 80901 10201 20175 39764 40160 52016 69901 76060 8172/ 333 00451 79999;,
06-10T03:00:00,4,31.2,107.5,344.0,"DA XIAN, CH",FM-12,99999,V020,"180,1,N,0020,1","02100,1,9,N","008000,1,N,1","+0215,1","+0184,1","10172,1",,,"6,1,03,1","6,1,03,1",,"08,99,1,08,1,05,1,02250,1,99,9,99,9",,,,"2,1,011,1,+999,9","60,1",,SYN066AAXX  10031 57328 41858 81802 10215 20184 40172 52011 76066 885//;,
06-10T06:00:00,4,31.2,107.5,344.0,"DA XIAN, CH",FM-12,99999,V020,"180,1,N,0020,1","02100,1,9,N","008000,1,N,1","+0227,1","+0190,1","10171,1","06,9999,9,9",,"6,1,06,1","6,1,06,1",,"08,99,1,08,1,05,1,02250,1,99,9,99,9",,"999,N,+0199,1","99999,9,09775,1","4,1,000,1,+999,9","21,1",,SYN088AAXX  10061 57328 11858 81802 10227 20190 39775 40171 54000 69901 72166 885// 333 20199;,
06-10T09:00:00,4,31.2,107.5,344.0,"DA XIAN, CH",FM-12,99999,V020,"160,1,N,0020,1","99999,9,9,N","020000,1,N,1","+0230,1","+0191,1","10157,1",,,"6,1,03,1",,,"08,99,1,08,1,00,1,99999,9,07,1,99,9",,,,"7,1,014,1,+999,9","21,1",,SYN066AAXX  10091 57328 41970 81602 10230 20191 40157 57014 72160 8807/;,
06-10T12:00:00,4,31.2,107.5,344.0,"DA XIAN, CH",FM-12,99999,V020,"180,1,N,0010,1","02100,1,9,N","008000,1,N,1","+0221,1","+0190,1","10165,1","06,9999,9,9",,"6,1,06,1",,,"08,99,1,08,1,05,1,02250,1,99,9,99,9",,,"99999,9,09768,1","2,1,007,1,+999,9","21,1",,SYN078AAXX  10121 57328 11858 81801 10221 20190 39768 40165 52007 69901 72160 885//;,
06-10T15:00:00,4,31.2,107.5,344.0,"DA XIAN, CH",FM-12,99999,V020,"160,1,N,0020,1","02100,1,9,N","008000,1,N,1","+0211,1","+0186,1","10180,1",,,,,,"08,99,1,08,1,05,1,02250,1,99,9,99,9",,,,"2,1,014,1,+999,9","10,1",,SYN066AAXX  10151 57328 41858 81602 10211 20186 40180 52014 71000 885//;,
06-10T18:00:00,4,31.2,107.5,344.0,"DA XIAN, CH",FM-12,99999,V020,"999,9,C,0000,1","02100,1,9,N","008000,1,N,1","+0201,1","+0185,1","10166,1","06,0000,2,1",,,,,"08,99,1,08,1,05,1,02250,1,99,9,99,9",,"999,M,+0232,1","99999,9,09769,1","7,1,013,1,+999,9","10,1",,SYN082AAXX  10181 57328 31858 80000 10201 20185 39769 40166 57013 71000 885// 333 10232;,
06-10T21:00:00,4,31.2,107.5,344.0,"DA XIAN, CH",FM-12,99999,V020,"160,1,N,0010,1","02100,1,9,N","003000,1,N,1","+0199,1","+0183,1","10161,1","24,0000,2,1",,,,,"08,99,1,08,1,05,1,02250,1,99,9,99,9",,,,"7,1,005,1,+999,9","10,1",,SYN076AAXX  10211 57328 41830 81601 10199 20183 40161 57005 71000 885// 333 79999;,
06-11T00:00:00,4,31.2,107.5,344.0,"DA XIAN, CH",FM-12,99999,V020,"040,1,N,0020,1","99999,9,9,N","003000,1,N,1","+0198,1","+0187,1","10168,1","06,0000,9,1","24,0000,2,1",,,,"08,99,1,08,1,00,1,99999,9,07,1,99,9",,,"99999,9,09770,1","2,1,006,1,+010,1","10,1",,SYN088AAXX  11001 57328 31930 80402 10198 20187 39770 40168 52006 71000 8807/ 333 00100 79999;,Q01  00002PRCP06
06-11T03:00:00,4,31.2,107.5,344.0,"DA XIAN, CH",FM-12,99999,V020,"220,1,N,0020,1","99999,9,9,N","004000,1,N,1","+0214,1","+0187,1","10176,1",,,,,,"08,99,1,08,1,00,1,99999,9,07,1,99,9",,,,"2,1,008,1,+999,9","10,1",,SYN066AAXX  11031 57328 41940 82202 10214 20187 40176 52008 71000 8807/;,
06-11T06:00:00,4,31.2,107.5,344.0,"DA XIAN, CH",FM-12,99999,V020,"160,1,N,0020,1","99999,9,9,N","003000,1,N,1","+0201,1","+0192,1","10173,1","06,0030,9,1",,"6,1,06,1",,,"08,99,1,08,1,00,1,99999,9,02,1,99,9",,"999,N,+0195,1","99999,9,09774,1","7,1,004,1,+999,9","60,1",,SYN088AAXX  11061 57328 11930 81602 10201 20192 39774 40173 57004 60031 76060 8802/ 333 20195;,
06-11T09:00:00,4,31.2,107.5,344.0,"DA XIAN, CH",FM-12,99999,V020,"999,9,C,0000,1","99999,9,9,N","003000,1,N,1","+0205,1","+0189,1","10167,1",,,"6,1,03,1","6,1,03,1",,"08,99,1,08,1,00,1,99999,9,02,1,99,9",,,,"7,1,006,1,+999,9","60,1",,SYN066AAXX  11091 57328 41930 80000 10205 20189 40167 57006 76066 8802/;,
06-11T12:00:00,4,31.2,107.5,344.0,"DA XIAN, CH",FM-12,99999,V020,"999,9,C,0000,1","03600,1,9,N","005000,1,N,1","+0189,1","+0175,1","10181,1","06,0051,9,1",,"6,1,06,1","6,1,06,1",,"08,99,1,02,1,07,1,00800,1,02,1,99,9",,,"99999,9,09781,1","2,1,013,1,+999,9","60,1",,SYN078AAXX  11121 57328 11550 80000 10189 20175 39781 40181 52013 60051 76066 8272/;,
06-11T15:00:00,4,31.2,107.5,344.0,"DA XIAN, CH",FM-12,99999,V020,"140,1,N,0010,1","03600,1,9,N","005000,1,N,1","+0183,1","+0173,1","10190,1",,,"6,1,03,1","6,1,03,1",,"08,99,1,02,1,07,1,00800,1,02,1,99,9",,,,"2,1,009,1,+999,9","60,1",,SYN066AAXX  11151 57328 41550 81401 10183 20173 40190 52009 76066 8272/;,
06-11T18:00:00,4,31.2,107.5,344.0,"DA XIAN, CH",FM-12,99999,V020,"040,1,N,0020,1","03600,1,9,N","002000,1,N,1","+0181,1","+0176,1","10172,1","06,0030,9,1",,"6,1,06,1","6,1,06,1",,"08,99,1,02,1,07,1,00800,1,02,1,99,9",,"999,M,+0214,1","99999,9,09772,1","7,1,018,1,+999,9","60,1",,SYN088AAXX  11181 57328 11520 80402 10181 20176 39772 40172 57018 60031 76066 8272/ 333 10214;,
06-11T21:00:00,4,31.2,107.5,344.0,"DA XIAN, CH",FM-12,99999,V020,"999,9,C,0000,1","03600,1,9,N","003000,1,N,1","+0181,1","+0175,1","10169,1","24,0147,9,1",,"6,1,03,1","6,1,03,1",,"08,99,1,02,1,07,1,00450,1,02,1,99,9",,,,"7,1,003,1,+999,9","60,1",,SYN076AAXX  11211 57328 41430 80000 10181 20175 40169 57003 76066 8272/ 333 70148;,
06-12T00:00:00,4,31.2,107.5,344.0,"DA XIAN, CH",FM-12,99999,V020,"040,1,N,0010,1","99999,9,9,N","003000,1,N,1","+0184,1","+0181,1","10176,1","06,0051,9,1","24,0157,9,1","6,1,06,1","6,1,06,1",,"08,99,1,08,1,00,1,99999,9,02,1,99,9",,,"99999,9,09775,1","2,1,006,1,+010,1","60,1",,SYN094AAXX  12001 57328 11930 80401 10184 20181 39775 40176 52006 60051 76066 8802/ 333 00151 70157;,
06-12T03:00:00,4,31.2,107.5,344.0,"DA XIAN, CH",FM-12,99999,V020,"040,1,N,0010,1","99999,9,9,N","002000,1,N,1","+0185,1","+0182,1","10181,1",,,"6,1,03,1","6,1,03,1",,"08,99,1,08,1,00,1,99999,9,02,1,99,9",,,,"2,1,004,1,+999,9","60,1",,SYN066AAXX  12031 57328 41920 80401 10185 20182 40181 52004 76066 8802/;,
06-12T06:00:00,4,31.2,107.5,344.0,"DA XIAN, CH",FM-12,99999,V020,"020,1,N,0010,1","02100,1,9,N","005000,1,N,1","+0185,1","+0179,1","10167,1","06,0211,9,1",,"6,1,06,1","6,1,06,1",,"08,99,1,08,1,05,1,02250,1,99,9,99,9",,"999,N,+0176,1","99999,9,09766,1","7,1,013,1,+999,9","60,1",,SYN088AAXX  12061 57328 11850 80201 10185 20179 39766 40167 57013 60211 76066 885// 333 20176;,
06-12T09:00:00,4,31.2,107.5,344.0,"DA XIAN, CH",FM-12,99999,V020,"040,1,N,0030,1","00420,1,9,N","003000,1,N,1","+0175,1","+0172,1","10159,1",,,"6,1,03,1","6,1,03,1",,"08,99,1,08,1,05,1,00450,1,99,9,99,9",,,,"7,1,009,1,+999,9","60,1",,SYN066AAXX  12091 57328 41430 80403 10175 20172 40159 57009 76066 885//;,
06-12T12:00:00,4,31.2,107.5,344.0,"DA XIAN, CH",FM-12,99999,V020,"040,1,N,0020,1","02100,1,9,N","006000,1,N,1","+0173,1","+0166,1","10158,1","06,0061,9,1",,"6,1,06,1","6,1,06,1",,"08,99,1,08,1,05,1,02250,1,99,9,99,9",,,"99999,9,09757,1","4,1,000,1,+999,9","60,1",,SYN078AAXX  12121 57328 11856 80402 10173 20166 39757 40158 54000 60061 76066 885//;,
06-12T15:00:00,4,31.2,107.5,344.0,"DA XIAN, CH",FM-12,99999,V020,"020,1,N,0020,1","02100,1,9,N","003000,1,N,1","+0174,1","+0172,1","10165,1",,,"6,1,03,1","6,1,03,1",,"08,99,1,08,1,05,1,02250,1,99,9,99,9",,,,"2,1,006,1,+999,9","60,1",,SYN066AAXX  12151 57328 41830 80202 10174 20172 40165 52006 76066 885//;,
06-12T18:00:00,4,31.2,107.5,344.0,"DA XIAN, CH",FM-12,99999,V020,"040,1,N,0020,1","02100,1,9,N","003000,1,N,1","+0175,1","+0172,1","10146,1","06,0089,9,1",,"6,1,06,1","6,1,06,1",,"08,99,1,08,1,05,1,02250,1,99,9,99,9",,"999,M,+0186,1","99999,9,09745,1","7,1,018,1,+999,9","60,1",,SYN088AAXX  12181 57328 11830 80402 10175 20172 39745 40146 57018 60091 76066 885// 333 10186;,
06-12T21:00:00,4,31.2,107.5,344.0,"DA XIAN, CH",FM-12,99999,V020,"999,9,C,0000,1","02100,1,9,N","003000,1,N,1","+0176,1","+0173,1","10141,1","24,0450,9,1",,"6,1,03,1","6,1,03,1",,"08,99,1,08,1,05,1,02250,1,99,9,99,9",,,,"7,1,005,1,+999,9","60,1",,SYN076AAXX  12211 57328 41830 80000 10176 20173 40141 57005 76066 885// 333 70449;,
06-13T00:00:00,4,31.2,107.5,344.0,"DA XIAN, CH",FM-12,99999,V020,"999,9,C,0000,1","02100,1,9,N","002000,1,N,1","+0177,1","+0175,1","10148,1","06,0170,9,1","24,0531,9,1","6,1,06,1","6,1,06,1",,"08,99,1,08,1,05,1,02250,1,99,9,99,9",,,"99999,9,09746,1","2,1,006,1,-030,1","60,1",,SYN094AAXX  13001 57328 11820 80000 10177 20175 39746 40148 52006 60171 76066 885// 333 05351 70532;,
06-13T03:00:00,4,31.2,107.5,344.0,"DA XIAN, CH",FM-12,99999,V020,"250,1,N,0010,1","02100,1,9,N","003000,1,N,1","+0181,1","+0176,1","10148,1",,,"6,1,03,1","6,1,03,1",,"08,99,1,08,1,05,1,02250,1,99,9,99,9",,,,"2,1,001,1,+999,9","60,1",,SYN066AAXX  13031 57328 41830 82501 10181 20176 40148 52001 76066 885//;,
06-13T06:00:00,4,31.2,107.5,344.0,"DA XIAN, CH",FM-12,99999,V020,"999,9,C,0000,1","02100,1,9,N","003000,1,N,1","+0185,1","+0182,1","10137,1","06,0211,9,1",,"6,1,06,1","6,1,06,1",,"08,99,1,08,1,05,1,02250,1,99,9,99,9",,"999,N,+0171,1","99999,9,09737,1","7,1,010,1,+999,9","60,1",,SYN088AAXX  13061 57328 11830 80000 10185 20182 39737 40137 57010 60211 76066 885// 333 20171;,
06-13T09:00:00,4,31.2,107.5,344.0,"DA XIAN, CH",FM-12,99999,V020,"999,9,C,0000,1","00420,1,9,N","008000,1,N,1","+0187,1","+0184,1","10122,1",,,"6,1,03,1","6,1,03,1",,"08,99,1,08,1,05,1,00450,1,99,9,99,9",,,,"7,1,015,1,+999,9","60,1",,SYN066AAXX  13091 57328 41458 80000 10187 20184 40122 57015 76066 885//;,
06-13T12:00:00,4,31.2,107.5,344.0,"DA XIAN, CH",FM-12,99999,V020,"999,9,C,0000,1","02100,1,9,N","007000,1,N,1","+0190,1","+0182,1","10124,1","06,0041,9,1",,"6,1,06,1",,,"08,99,1,08,1,05,1,02250,1,99,9,99,9",,,"99999,9,09725,1","2,1,003,1,+999,9","10,1",,SYN078AAXX  13121 57328 11857 80000 10190 20182 39725 40124 52003 60041 71060 885//;,
06-13T15:00:00,4,31.2,107.5,344.0,"DA XIAN, CH",FM-12,99999,V020,"999,9,C,0000,1","02100,1,9,N","006000,1,N,1","+0186,1","+0183,1","10131,1",,,,,,"07,99,1,07,1,05,1,02250,1,99,9,99,9",,,,"2,1,006,1,+999,9","10,1",,SYN066AAXX  13151 57328 41856 70000 10186 20183 40131 52006 71000 875//;,
06-13T18:00:00,4,31.2,107.5,344.0,"DA XIAN, CH",FM-12,99999,V020,"999,9,C,0000,1","02100,1,9,N","005000,1,N,1","+0185,1","+0180,1","10116,1","06,0000,9,1",,,,,"08,99,1,08,1,05,1,02250,1,99,9,99,9",,"999,M,+0190,1","99999,9,09717,1","7,1,014,1,+999,9","10,1",,SYN082AAXX  13181 57328 31850 80000 10185 20180 39717 40116 57014 71000 885// 333 10190;,Q01  00002PRCP06
06-13T21:00:00,4,31.2,107.5,344.0,"DA XIAN, CH",FM-12,99999,V020,"999,9,C,0000,1","02100,1,9,N","003000,1,N,1","+0183,1","+0178,1","10107,1","24,0345,9,1",,,,,"08,99,1,08,1,05,1,02250,1,99,9,99,9",,,,"7,1,009,1,+999,9","10,1",,SYN076AAXX  13211 57328 41830 80000 10183 20178 40107 57009 71000 885// 333 70345;,
06-14T00:00:00,4,31.2,107.5,344.0,"DA XIAN, CH",FM-12,99999,V020,"999,9,C,0000,1","02100,1,9,N","003000,1,N,1","+0187,1","+0181,1","10110,1","06,9999,9,9","24,0254,9,1","6,1,06,1",,,"08,99,1,08,1,05,1,02250,1,99,9,99,9",,,"99999,9,09712,1","2,1,004,1,-030,1","60,1",,SYN094AAXX  14001 57328 11830 80000 10187 20181 39712 40110 52004 69911 76060 885// 333 05301 70254;,
06-14T03:00:00,4,31.2,107.5,344.0,"DA XIAN, CH",FM-12,99999,V020,"220,1,N,0010,1","02100,1,9,N","006000,1,N,1","+0205,1","+0183,1","10107,1",,,"6,1,03,1",,,"08,99,1,08,1,05,1,02250,1,99,9,99,9",,,,"7,1,002,1,+999,9","10,1",,SYN066AAXX  14031 57328 41856 82201 10205 20183 40107 57002 71060 885//;,
06-14T06:00:00,4,31.2,107.5,344.0,"DA XIAN, CH",FM-12,99999,V020,"160,1,N,0030,1","01200,1,9,N","012000,1,N,1","+0227,1","+0187,1","10090,1","06,9999,9,9",,"6,1,06,1",,,"08,99,1,08,1,08,1,00800,1,99,9,99,9",,"999,N,+0179,1","99999,9,09695,1","7,1,015,1,+999,9","00,1",,SYN088AAXX  14061 57328 11562 81603 10227 20187 39695 40090 57015 69901 70060 888// 333 20179;,
06-14T09:00:00,4,31.2,107.5,344.0,"DA XIAN, CH",FM-12,99999,V020,"999,9,C,0000,1","99999,9,9,N","025000,1,N,1","+0233,1","+0185,1","10073,1",,,,,,"08,99,1,08,1,00,1,99999,9,07,1,99,9",,,,"7,1,016,1,+999,9",,,SYN060AAXX  14091 57328 42975 80000 10233 20185 40073 57016 8807/;,
06-14T12:00:00,4,31.2,107.5,344.0,"DA XIAN, CH",FM-12,99999,V020,"200,1,N,0010,1","03600,1,9,N","012000,1,N,1","+0228,1","+0189,1","10083,1","06,0000,9,1",,,,,"05,99,1,02,1,01,1,01250,1,04,1,00,1",,,"99999,9,09688,1","2,1,009,1,+999,9",,,SYN066AAXX  14121 57328 32662 52001 10228 20189 39688 40083 52009 82140;,Q01  00002PRCP06
06-14T15:00:00,4,31.2,107.5,344.0,"DA XIAN, CH",FM-12,99999,V020,"999,9,C,0000,1","02100,1,9,N","008000,1,N,1","+0207,1","+0195,1","10098,1",,,,,,"08,99,1,08,1,05,1,02250,1,99,9,99,9",,,,"2,1,015,1,+999,9","10,1",,SYN066AAXX  14151 57328 41858 80000 10207 20195 40098 52015 71000 885//;,
06-14T18:00:00,4,31.2,107.5,344.0,"DA XIAN, CH",FM-12,99999,V020,"999,9,C,0000,1","99999,9,9,N","006000,1,N,1","+0200,1","+0192,1","10090,1","06,0000,9,1",,,,,"08,99,1,08,1,00,1,99999,9,07,1,99,9",,"999,M,+0244,1","99999,9,09696,1","7,1,007,1,+999,9","10,1",,SYN082AAXX  14181 57328 31956 80000 10200 20192 39696 40090 57007 71000 8807/ 333 10244;,Q01  00002PRCP06
06-14T21:00:00,4,31.2,107.5,344.0,"DA XIAN, CH",FM-12,99999,V020,"999,9,C,0000,1","99999,9,9,N","006000,1,N,1","+0200,1","+0191,1","10090,1","24,0000,2,1",,,,,"08,99,1,08,1,00,1,99999,9,07,1,99,9",,,,"4,1,000,1,+999,9","10,1",,SYN076AAXX  14211 57328 41956 80000 10200 20191 40090 54000 71000 8807/ 333 70001;,
06-15T00:00:00,4,31.2,107.5,344.0,"DA XIAN, CH",FM-12,99999,V020,"999,9,C,0000,1","99999,9,9,N","002000,1,N,1","+0201,1","+0190,1","10130,1","06,9999,9,9","24,0000,2,1","6,1,06,1",,,"08,99,1,08,1,00,1,99999,9,02,1,99,9",,,"99999,9,09734,1","2,1,038,1,+020,1","10,1",,SYN094AAXX  15001 57328 11920 80000 10201 20190 39734 40130 52038 69901 71060 8802/ 333 00201 79999;,
06-15T03:00:00,4,31.2,107.5,344.0,"DA XIAN, CH",FM-12,99999,V020,"999,9,C,0000,1","99999,9,9,N","003000,1,N,1","+0209,1","+0186,1","10102,1",,,,,,"08,99,1,08,1,00,1,99999,9,02,1,99,9",,,,"2,1,004,1,+999,9","10,1",,SYN066AAXX  15031 57328 41930 80000 10209 20186 40102 52004 71000 8802/;,
06-15T06:00:00,4,31.2,107.5,344.0,"DA XIAN, CH",FM-12,99999,V020,"160,1,N,0010,1","99999,9,9,N","005000,1,N,1","+0225,1","+0194,1","10089,1","06,9999,9,9",,"6,1,06,1",,,"08,99,1,08,1,00,1,99999,9,02,1,99,9",,"999,N,+0193,1","99999,9,09695,1","7,1,012,1,+999,9","10,1",,SYN088AAXX  15061 57328 11950 81601 10225 20194 39695 40089 57012 69901 71060 8802/ 333 20193;,
06-15T09:00:00,4,31.2,107.5,344.0,"DA XIAN, CH",FM-12,99999,V020,"140,1,N,0010,1","99999,9,9,N","008000,1,N,1","+0249,1","+0207,1","10070,1",,,,,,"08,99,1,08,1,00,1,99999,9,02,1,99,9",,,,"7,1,017,1,+999,9","10,1",,SYN066AAXX  15091 57328 41958 81401 10249 20207 40070 57017 71000 8802/;,
06-15T12:00:00,4,31.2,107.5,344.0,"DA XIAN, CH",FM-12,99999,V020,"999,9,C,0000,1","99999,9,9,N","005000,1,N,1","+0237,1","+0204,1","10072,1","06,0000,9,1",,,,,"08,99,1,08,1,00,1,99999,9,02,1,99,9",,,"99999,9,09679,1","2,1,001,1,+999,9","10,1",,SYN072AAXX  15121 57328 31950 80000 10237 20204 39679 40072 52001 71000 8802/;,Q01  00002PRCP06
06-15T15:00:00,4,31.2,107.5,344.0,"DA XIAN, CH",FM-12,99999,V020,"040,1,N,0020,1","99999,9,9,N","003000,1,N,1","+0217,1","+0208,1","10094,1",,,,,,"08,99,1,08,1,00,1,99999,9,07,1,99,9",,,,"2,1,021,1,+999,9","10,1",,SYN066AAXX  15151 57328 41930 80402 10217 20208 40094 52021 71000 8807/;,
06-15T18:00:00,4,31.2,107.5,344.0,"DA XIAN, CH",FM-12,99999,V020,"040,1,N,0010,1","99999,9,9,N","002000,1,N,1","+0209,1","+0203,1","10083,1","06,0000,9,1",,,,,"08,99,1,08,1,00,1,99999,9,07,1,99,9",,"999,M,+0251,1","99999,9,09690,1","7,1,010,1,+999,9","10,1",,SYN082AAXX  15181 57328 31920 80401 10209 20203 39690 40083 57010 71000 8807/ 333 10251;,Q01  00002PRCP06
06-15T21:00:00,4,31.2,107.5,344.0,"DA XIAN, CH",FM-12,99999,V020,"999,9,C,0000,1","99999,9,9,N","002000,1,N,1","+0203,1","+0200,1","10075,1","24,0000,9,1",,,,,"08,99,1,08,1,00,1,99999,9,07,1,99,9",,,,"7,1,007,1,+999,9","10,1",,SYN076AAXX  15211 57328 41920 80000 10203 20200 40075 57007 71000 8807/ 333 79999;,Q01  00002PRCP24
06-16T00:00:00,4,31.2,107.5,344.0,"DA XIAN, CH",FM-12,99999,V020,"999,9,C,0000,1","99999,9,9,N","000800,1,N,1","+0203,1","+0200,1","10078,1","06,0000,9,1","24,0000,9,1","4,1,06,1",,,"08,99,1,08,1,00,1,99999,9,07,1,99,9",,,"99999,9,09685,1","2,1,002,1,-020,1","42,1",,SYN088AAXX  16001 57328 31908 80000 10203 20200 39685 40078 52002 74240 8807/ 333 05200 79999;,Q01  00002PRCP06Q02  00002PRCP24
06-16T03:00:00,4,31.2,107.5,344.0,"DA XIAN, CH",FM-12,99999,V020,"270,1,N,0010,1","22000,1,9,N","007000,1,N,1","+0252,1","+0204,1","10075,1",,,"4,1,03,1",,"00,1,+99999,9,99,9","00,99,1,00,1,00,1,99999,9,00,1,00,1",,,,"7,1,001,1,+999,9","10,1",,SYN060AAXX  16031 57328 41957 02701 10252 20204 40075 57001 71040;,
06-16T06:00:00,4,31.2,107.5,344.0,"DA XIAN, CH",FM-12,99999,V020,"270,1,N,0020,1","22000,1,9,N","012000,1,N,1","+0291,1","+0210,1","10049,1","06,0000,9,1",,"4,1,06,1",,,"02,99,1,02,1,01,1,01250,1,00,1,00,1",,"999,N,+0198,1","99999,9,09661,1","7,1,023,1,+999,9","00,1",,SYN082AAXX  16061 57328 31662 22702 10291 20210 39661 40049 57023 70040 82100 333 20198;,Q01  00002PRCP06
06-16T09:00:00,4,31.2,107.5,344.0,"DA XIAN, CH",FM-12,99999,V020,"250,1,N,0010,1","22000,1,9,N","015000,1,N,1","+0298,1","+0205,1","10024,1",,,,,,"01,99,1,01,1,01,1,01250,1,00,1,00,1",,,,"7,1,024,1,+999,9",,,SYN060AAXX  16091 57328 42665 12501 10298 20205 40024 57024 81100;,
06-16T12:00:00,4,31.2,107.5,344.0,"DA XIAN, CH",FM-12,99999,V020,"999,9,C,0000,1","22000,1,9,N","012000,1,N,1","+0263,1","+0222,1","10031,1","06,0000,9,1",,,,,"01,99,1,01,1,00,1,99999,9,04,1,00,1",,,"99999,9,09642,1","2,1,005,1,+999,9",,,SYN066AAXX  16121 57328 32962 10000 10263 20222 39642 40031 52005 81040;,Q01  00002PRCP06
06-16T15:00:00,4,31.2,107.5,344.0,"DA XIAN, CH",FM-12,99999,V020,"999,9,C,0000,1","22000,1,9,N","011000,1,N,1","+9999,9","+9999,9","99999,9",,,,,"00,1,+99999,9,99,9","00,99,1,00,1,00,1,99999,9,00,1,00,1",,,,,,,SYN052AAXX  16151 57328 42961 000000233 20217 40052 52021;,
06-16T18:00:00,4,31.2,107.5,344.0,"DA XIAN, CH",FM-12,99999,V020,"040,1,N,0020,1","22000,1,9,N","003000,1,N,1","+0217,1","+0209,1","10040,1","06,0000,9,1",,,,"00,1,+99999,9,99,9","00,99,1,00,1,00,1,99999,9,00,1,00,1",,"999,M,+0306,1","99999,9,09653,1","7,1,010,1,+999,9","10,1",,SYN076AAXX  16181 57328 31930 00402 10217 20209 39653 40040 57010 71000 333 10306;,Q01  00002PRCP06
06-16T21:00:00,4,31.2,107.5,344.0,"DA XIAN, CH",FM-12,99999,V020,"070,1,N,0020,1","22000,1,9,N","003000,1,N,1","+0213,1","+0205,1","10035,1",,,,,"00,1,+99999,9,99,9","00,99,1,00,1,00,1,99999,9,00,1,00,1",,,,"7,1,005,1,+999,9","10,1",,SYN060AAXX  16211 57328 41930 00702 10213 20205 40035 57005 71000;,
06-17T00:00:00,4,31.2,107.5,344.0,"DA XIAN, CH",FM-12,99999,V020,"040,1,N,0030,1","99999,9,9,N","008000,1,N,1","+0218,1","+0206,1","10054,1","06,0000,9,1",,,,,"08,99,1,08,1,00,1,99999,9,07,1,99,9",,,"99999,9,09665,1","2,1,017,1,+002,1","10,1",,SYN082AAXX  17001 57328 31958 80403 10218 20206 39665 40054 52017 71000 8807/ 333 05202;,Q01  00002PRCP06
06-17T03:00:00,4,31.2,107.5,344.0,"DA XIAN, CH",FM-12,99999,V020,"020,1,N,0030,1","99999,9,9,N","011000,1,N,1","+0248,1","+0206,1","10057,1",,,,,,"08,99,1,08,1,00,1,99999,9,07,1,99,9",,,,"2,1,003,1,+999,9",,,SYN060AAXX  17031 57328 42961 80203 10248 20206 40057 52003 8807/;,
06-17T06:00:00,4,31.2,107.5,344.0,"DA XIAN, CH",FM-12,99999,V020,"020,1,N,0030,1","99999,9,9,N","012000,1,N,1","+0268,1","+0218,1","10041,1","06,0000,9,1",,,,,"08,99,1,08,1,00,1,99999,9,07,1,99,9",,"999,N,+0208,1","99999,9,09653,1","7,1,015,1,+999,9",,,SYN076AAXX  17061 57328 32962 80203 10268 20218 39653 40041 57015 8807/ 333 20208;,Q01  00002PRCP06
06-17T09:00:00,4,31.2,107.5,344.0,"DA XIAN, CH",FM-12,99999,V020,"999,9,C,0000,1","99999,9,9,N","015000,1,N,1","+0264,1","+0217,1","10033,1",,,,,,"08,99,1,08,1,00,1,99999,9,07,1,99,9",,,,"7,1,009,1,+999,9",,,SYN060AAXX  17091 57328 42965 80000 10264 20217 40033 57009 8807/;,
06-17T12:00:00,4,31.2,107.5,344.0,"DA XIAN, CH",FM-12,99999,V020,"040,1,N,0020,1","02100,1,9,N","020000,1,N,1","+0249,1","+0210,1","10035,1","06,9999,9,9",,"6,1,06,1",,,"08,99,1,08,1,05,1,02250,1,99,9,99,9",,,"99999,9,09646,1","2,1,002,1,+999,9","60,1",,SYN078AAXX  17121 57328 11870 80402 10249 20210 39646 40035 52002 69901 76060 885//;,
06-17T15:00:00,4,31.2,107.5,344.0,"DA XIAN, CH",FM-12,99999,V020,"040,1,N,0010,1","02100,1,9,N","008000,1,N,1","+0229,1","+0220,1","10050,1",,,"6,1,03,1","6,1,03,1",,"08,99,1,08,1,05,1,02250,1,99,9,99,9",,,,"2,1,015,1,+999,9","60,1",,SYN066AAXX  17151 57328 41858 80401 10229 20220 40050 52015 76066 885//;,
06-17T18:00:00,4,31.2,107.5,344.0,"DA XIAN, CH",FM-12,99999,V020,"040,1,N,0010,1","02100,1,9,N","007000,1,N,1","+0214,1","+0209,1","10041,1","06,0051,9,1",,"6,1,06,1","6,1,06,1",,"08,99,1,08,1,05,1,02250,1,99,9,99,9",,"999,M,+0269,1","99999,9,09652,1","7,1,009,1,+999,9","60,1",,SYN088AAXX  17181 57328 11857 80401 10214 20209 39652 40041 57009 60051 76066 885// 333 10269;,
06-17T21:00:00,4,31.2,107.5,344.0,"DA XIAN, CH",FM-12,99999,V020,"999,9,C,0000,1","02100,1,9,N","006000,1,N,1","+0203,1","+0194,1","10034,1","24,0053,9,1",,"6,1,03,1","6,1,03,1",,"08,99,1,08,1,05,1,02250,1,99,9,99,9",,,,"7,1,007,1,+999,9","60,1",,SYN076AAXX  17211 57328 41856 80000 10203 20194 40034 57007 76066 885// 333 70054;,
06-18T00:00:00,4,31.2,107.5,344.0,"DA XIAN, CH",FM-12,99999,V020,"180,1,N,0020,1","02100,1,9,N","007000,1,N,1","+0209,1","+0194,1","10051,1","06,0005,9,1","24,0056,9,1","6,1,06,1",,,"08,99,1,08,1,05,1,02250,1,99,9,99,9",,,"99999,9,09660,1","2,1,015,1,-010,1","10,1",,SYN094AAXX  18001 57328 11857 81802 10209 20194 39660 40051 52015 69951 71060 885// 333 05151 70055;,
06-18T03:00:00,4,31.2,107.5,344.0,"DA XIAN, CH",FM-12,99999,V020,"140,1,N,0030,1","03600,1,9,N","008000,1,N,1","+0235,1","+0205,1","10055,1",,,,,,"07,99,1,02,1,01,1,01250,1,04,1,99,9",,,,"2,1,005,1,+999,9","10,1",,SYN066AAXX  18031 57328 41658 71403 10235 20205 40055 52005 71000 8214/;,
06-18T06:00:00,4,31.2,107.5,344.0,"DA XIAN, CH",FM-12,99999,V020,"220,1,N,0020,1","22000,1,9,N","015000,1,N,1","+0278,1","+0199,1","10037,1","06,0000,9,1",,,,,"04,99,1,04,1,01,1,01250,1,00,1,00,1",,"999,N,+0199,1","99999,9,09649,1","7,1,016,1,+999,9",,,SYN076AAXX  18061 57328 32665 42202 10278 20199 39649 40037 57016 84100 333 20199;,Q01  00002PRCP06
06-18T09:00:00,4,31.2,107.5,344.0,"DA XIAN, CH",FM-12,99999,V020,"220,1,N,0020,1","99999,9,9,N","030000,1,N,1","+0270,1","+0196,1","10023,1",,,,,,"08,99,1,08,1,00,1,99999,9,07,1,99,9",,,,"7,1,015,1,+999,9",,,SYN060AAXX  18091 57328 42980 82202 10270 20196 40023 57015 8807/;,
06-18T12:00:00,4,31.2,107.5,344.0,"DA XIAN, CH",FM-12,99999,V020,"999,9,C,0000,1","99999,9,9,N","015000,1,N,1","+0253,1","+0210,1","10029,1","06,0000,9,1",,,,,"07,99,1,00,1,00,1,99999,9,00,1,02,1",,,"99999,9,09640,1","2,1,006,1,+999,9",,,SYN066AAXX  18121 57328 32965 70000 10253 20210 39640 40029 52006 80002;,Q01  00002PRCP06
06-18T15:00:00,4,31.2,107.5,344.0,"DA XIAN, CH",FM-12,99999,V020,"160,1,N,0020,1","99999,9,9,N","012000,1,N,1","+0235,1","+0205,1","10049,1",,,,,,"07,99,1,00,1,00,1,99999,9,00,1,02,1",,,,"2,1,019,1,+999,9",,,SYN060AAXX  18151 57328 42962 71602 10235 20205 40049 52019 80002;,
06-18T18:00:00,4,31.2,107.5,344.0,"DA XIAN, CH",FM-12,99999,V020,"999,9,C,0000,1","99999,9,9,N","015000,1,N,1","+0221,1","+0206,1","10040,1","06,0000,9,1",,,,,"08,99,1,08,1,00,1,99999,9,02,1,99,9",,"999,M,+0287,1","99999,9,09652,1","7,1,007,1,+999,9",,,SYN076AAXX  18181 57328 32965 80000 10221 20206 39652 40040 57007 8802/ 333 10287;,Q01  00002PRCP06
06-18T21:00:00,4,31.2,107.5,344.0,"DA XIAN, CH",FM-12,99999,V020,"200,1,N,0010,1","99999,9,9,N","008000,1,N,1","+0213,1","+0201,1","10039,1","24,0000,2,1",,,,,"08,99,1,08,1,00,1,99999,9,07,1,99,9",,,,"7,1,002,1,+999,9","10,1",,SYN076AAXX  18211 57328 41958 82001 10213 20201 40039 57002 71000 8807/ 333 70001;,
06-19T00:00:00,4,31.2,107.5,344.0,"DA XIAN, CH",FM-12,99999,V020,"160,1,N,0010,1","99999,9,9,N","003000,1,N,1","+0213,1","+0198,1","10047,1","06,0000,9,1",,,,,"08,99,1,08,1,00,1,99999,9,07,1,99,9",,,"99999,9,09657,1","2,1,007,1,+000,1","10,1",,SYN082AAXX  19001 57328 31930 81601 10213 20198 39657 40047 52007 71000 8807/ 333 00000;,Q01  00002PRCP06
06-19T03:00:00,4,31.2,107.5,344.0,"DA XIAN, CH",FM-12,99999,V020,"220,1,N,0010,1","99999,9,9,N","004000,1,N,1","+0243,1","+0209,1","10045,1",,,,,,"08,99,1,08,1,00,1,99999,9,02,1,99,9",,,,"7,1,001,1,+999,9","10,1",,SYN066AAXX  19031 57328 41940 82201 10243 20209 40045 57001 71000 8802/;,
06-19T06:00:00,4,31.2,107.5,344.0,"DA XIAN, CH",FM-12,99999,V020,"220,1,N,0020,1","99999,9,9,N","012000,1,N,1","+0261,1","+0211,1","10041,1","06,0000,9,1",,,,,"08,99,1,08,1,00,1,99999,9,01,1,99,9",,"999,N,+0209,1","99999,9,09652,1","7,1,004,1,+999,9",,,SYN076AAXX  19061 57328 32962 82202 10261 20211 39652 40041 57004 8801/ 333 20209;,Q01  00002PRCP06
06-19T09:00:00,4,31.2,107.5,344.0,"DA XIAN, CH",FM-12,99999,V020,"999,9,C,0000,1","99999,9,9,N","020000,1,N,1","+0265,1","+0221,1","10033,1",,,,,,"08,99,1,08,1,00,1,99999,9,04,1,99,9",,,,"7,1,008,1,+999,9",,,SYN060AAXX  19091 57328 42970 80000 10265 20221 40033 57008 8804/;,
06-19T12:00:00,4,31.2,107.5,344.0,"DA XIAN, CH",FM-12,99999,V020,"180,1,N,0010,1","99999,9,9,N","020000,1,N,1","+0251,1","+0200,1","10045,1","06,0000,9,1",,,,,"07,99,1,07,1,00,1,99999,9,04,1,99,9",,,"99999,9,09655,1","2,1,011,1,+999,9",,,SYN066AAXX  19121 57328 32970 71801 10251 20200 39655 40045 52011 8704/;,Q01  00002PRCP06
06-19T15:00:00,4,31.2,107.5,344.0,"DA XIAN, CH",FM-12,99999,V020,"999,9,C,0000,1","99999,9,9,N","012000,1,N,1","+0233,1","+0208,1","10063,1",,,,,,"08,99,1,08,1,00,1,99999,9,02,1,99,9",,,,"2,1,018,1,+999,9",,,SYN060AAXX  19151 57328 42962 80000 10233 20208 40063 52018 8802/;,
06-19T18:00:00,4,31.2,107.5,344.0,"DA XIAN, CH",FM-12,99999,V020,"999,9,C,0000,1","22000,1,9,N","006000,1,N,1","+0221,1","+0206,1","10066,1","06,0000,9,1",,,,"00,1,+99999,9,99,9","00,99,1,00,1,00,1,99999,9,00,1,00,1",,"999,M,+0267,1","99999,9,09676,1","2,1,003,1,+999,9","10,1",,SYN076AAXX  19181 57328 31956 00000 10221 20206 39676 40066 52003 71000 333 10267;,Q01  00002PRCP06
06-19T21:00:00,4,31.2,107.5,344.0,"DA XIAN, CH",FM-12,99999,V020,"999,9,C,0000,1","00030,1,9,N","000200,1,N,1","+0201,1","+0199,1","10067,1",,,,,"09,1,+99999,9,99,9","09,99,1,09,1,99,9,99999,9,99,9,99,9",,,,"4,1,000,1,+999,9","47,1",,SYN060AAXX  19211 57328 41/02 90000 10201 20199 40067 54000 74700;,
06-20T00:00:00,4,31.2,107.5,344.0,"DA XIAN, CH",FM-12,99999,V020,"040,1,N,0030,1","99999,9,9,N","000800,1,N,1","+0207,1","+0201,1","10077,1","06,0000,9,1",,"4,1,06,1",,,"07,99,1,07,1,00,1,99999,9,04,1,00,1",,,"99999,9,09685,1","2,1,009,1,+003,1","46,1",,SYN082AAXX  20001 57328 31908 70403 10207 20201 39685 40077 52009 74640 87040 333 00351;,Q01  00002PRCP06
06-20T03:00:00,4,31.2,107.5,344.0,"DA XIAN, CH",FM-12,99999,V020,"090,1,N,0020,1","03600,1,9,N","012000,1,N,1","+0273,1","+0203,1","10070,1",,,"4,1,03,1",,,"06,99,1,02,1,01,1,01250,1,04,1,00,1",,,,"7,1,003,1,+999,9","00,1",,SYN066AAXX  20031 57328 41662 60902 10273 20203 40070 57003 70040 82140;,
06-20T06:00:00,4,31.2,107.5,344.0,"DA XIAN, CH",FM-12,99999,V020,"220,1,N,0030,1","99999,9,9,N","020000,1,N,1","+0269,1","+0192,1","10061,1","06,0000,9,1",,"4,1,06,1",,,"07,99,1,00,1,00,1,99999,9,00,1,02,1",,"999,N,+0200,1","99999,9,09672,1","7,1,010,1,+999,9","00,1",,SYN082AAXX  20061 57328 31970 72203 10269 20192 39672 40061 57010 70040 80002 333 20200;,Q01  00002PRCP06
06-20T09:00:00,4,31.2,107.5,344.0,"DA XIAN, CH",FM-12,99999,V020,"250,1,N,0030,1","99999,9,9,N","020000,1,N,1","+0267,1","+0181,1","10050,1",,,,,,"08,99,1,08,1,00,1,99999,9,02,1,99,9",,,,"7,1,012,1,+999,9",,,SYN060AAXX  20091 57328 42970 82503 10267 20181 40050 57012 8802/;,
06-20T12:00:00,4,31.2,107.5,344.0,"DA XIAN, CH",FM-12,99999,V020,"200,1,N,0010,1","22000,1,9,N","012000,1,N,1","+0254,1","+0200,1","10051,1","06,0000,9,1",,,,,"03,99,1,03,1,00,1,99999,9,04,1,00,1",,,"99999,9,09661,1","2,1,001,1,+999,9",,,SYN066AAXX  20121 57328 32962 32001 10254 20200 39661 40051 52001 83040;,Q01  00002PRCP06
06-20T15:00:00,4,31.2,107.5,344.0,"DA XIAN, CH",FM-12,99999,V020,"090,1,N,0010,1","22000,1,9,N","007000,1,N,1","+0225,1","+0205,1","10062,1",,,,,"00,1,+99999,9,99,9","00,99,1,00,1,00,1,99999,9,00,1,00,1",,,,"2,1,013,1,+999,9","10,1",,SYN060AAXX  20151 57328 41957 00901 10225 20205 40062 52013 71000;,
06-20T18:00:00,4,31.2,107.5,344.0,"DA XIAN, CH",FM-12,99999,V020,"040,1,N,0030,1","22000,1,9,N","005000,1,N,1","+0203,1","+0197,1","10055,1","06,0000,9,1",,,,"00,1,+99999,9,99,9","00,99,1,00,1,00,1,99999,9,00,1,00,1",,"999,M,+0283,1","99999,9,09665,1","7,1,009,1,+999,9","10,1",,SYN076AAXX  20181 57328 31950 00403 10203 20197 39665 40055 57009 71000 333 10283;,Q01  00002PRCP06
06-20T21:00:00,4,31.2,107.5,344.0,"DA XIAN, CH",FM-12,99999,V020,"020,1,N,0020,1","99999,9,9,N","002000,1,N,1","+0194,1","+0191,1","10048,1",,,,,,"08,99,1,08,1,00,1,99999,9,07,1,99,9",,,,"7,1,007,1,+999,9","10,1",,SYN066AAXX  20211 57328 41920 80202 10194 20191 40048 57007 71000 8807/;,
06-21T00:00:00,4,31.2,107.5,344.0,"DA XIAN, CH",FM-12,99999,V020,"020,1,N,0020,1","22000,1,9,N","003000,1,N,1","+0205,1","+0191,1","10053,1","06,0000,9,1",,"4,1,06,1",,"00,1,+99999,9,99,9","00,99,1,00,1,00,1,99999,9,00,1,00,1",,,"99999,9,09662,1","2,1,004,1,+002,1","10,1",,SYN076AAXX  21001 57328 31930 00202 10205 20191 39662 40053 52004 71040 333 05200;,Q01  00002PRCP06
06-21T03:00:00,4,31.2,107.5,344.0,"DA XIAN, CH",FM-12,99999,V020,"020,1,N,0020,1","09000,1,9,N","015000,1,N,1","+0263,1","+0203,1","10046,1",,,,,,"07,99,1,01,1,01,1,01250,1,00,1,02,1",,,,"7,1,004,1,+999,9",,,SYN060AAXX  21031 57328 42665 70202 10263 20203 40046 57004 81102;,
06-21T06:00:00,4,31.2,107.5,344.0,"DA XIAN, CH",FM-12,99999,V020,"270,1,N,0020,1","22000,1,9,N","025000,1,N,1","+0295,1","+0182,1","10028,1","06,0000,9,1",,,,,"07,99,1,01,1,01,1,01250,1,00,1,01,1",,"999,N,+0188,1","99999,9,09641,1","7,1,017,1,+999,9",,,SYN076AAXX  21061 57328 32675 72702 10295 20182 39641 40028 57017 81101 333 20188;,Q01  00002PRCP06
06-21T09:00:00,4,31.2,107.5,344.0,"DA XIAN, CH",FM-12,99999,V020,"140,1,N,0010,1","99999,9,9,N","030000,1,N,1","+0297,1","+0192,1","10013,1",,,,,,"07,99,1,00,1,00,1,99999,9,00,1,02,1",,,,"7,1,015,1,+999,9",,,SYN060AAXX  21091 57328 42980 71401 10297 20192 40013 57015 80002;,
06-21T12:00:00,4,31.2,107.5,344.0,"DA XIAN, CH",FM-12,99999,V020,"160,1,N,0020,1","22000,1,9,N","030000,1,N,1","+0279,1","+0191,1","10020,1","06,0000,9,1",,,,,"02,99,1,00,1,00,1,99999,9,00,1,02,1",,,"99999,9,09632,1","2,1,006,1,+999,9",,,SYN066AAXX  21121 57328 32980 21602 10279 20191 39632 40020 52006 80002;,Q01  00002PRCP06
06-21T15:00:00,4,31.2,107.5,344.0,"DA XIAN, CH",FM-12,99999,V020,"999,9,C,0000,1","99999,9,9,N","025000,1,N,1","+0241,1","+0203,1","10033,1",,,,,,"07,99,1,07,1,00,1,99999,9,04,1,99,9",,,,"2,1,014,1,+999,9",,,SYN060AAXX  21151 57328 42975 70000 10241 20203 40033 52014 8704/;,
06-21T18:00:00,4,31.2,107.5,344.0,"DA XIAN, CH",FM-12,99999,V020,"040,1,N,0020,1","99999,9,9,N","015000,1,N,1","+0220,1","+0205,1","10022,1","06,0000,9,1",,,,,"07,99,1,00,1,00,1,99999,9,00,1,02,1",,"999,M,+0304,1","99999,9,09636,1","7,1,010,1,+999,9",,,SYN076AAXX  21181 57328 32965 70402 10220 20205 39636 40022 57010 80002 333 10304;,Q01  00002PRCP06
06-21T21:00:00,4,31.2,107.5,344.0,"DA XIAN, CH",FM-12,99999,V020,"040,1,N,0030,1","99999,9,9,N","012000,1,N,1","+0217,1","+0205,1","10019,1",,,,,,"07,99,1,07,1,00,1,99999,9,04,1,99,9",,,,"7,1,003,1,+999,9",,,SYN060AAXX  21211 57328 42962 70403 10217 20205 40019 57003 8704/;,
06-22T00:00:00,4,31.2,107.5,344.0,"DA XIAN, CH",FM-12,99999,V020,"040,1,N,0020,1","22000,1,9,N","012000,1,N,1","+0229,1","+0206,1","10019,1","06,0000,9,1",,,,"00,1,+99999,9,99,9","00,99,1,00,1,00,1,99999,9,00,1,00,1",,,"99999,9,09633,1","4,1,000,1,+003,1",,,SYN070AAXX  22001 57328 32962 00402 10229 20206 39633 40019 54000 333 05302;,Q01  00002PRCP06
06-22T03:00:00,4,31.2,107.5,344.0,"DA XIAN, CH",FM-12,99999,V020,"999,9,C,0000,1","22000,1,9,N","020000,1,N,1","+0282,1","+0218,1","10013,1",,,,,,"01,99,1,01,1,01,1,01250,1,00,1,00,1",,,,"7,1,005,1,+999,9",,,SYN060AAXX  22031 57328 42670 10000 10282 20218 40013 57005 81100;,
06-22T06:00:00,4,31.2,107.5,344.0,"DA XIAN, CH",FM-12,99999,V020,"999,9,C,0000,1","22000,1,9,N","020000,1,N,1","+0311,1","+0209,1","09987,1","06,0000,9,1",,,,,"01,99,1,01,1,01,1,01250,1,00,1,00,1",,"999,N,+0212,1","99999,9,09604,1","7,1,024,1,+999,9",,,SYN076AAXX  22061 57328 32670 10000 10311 20209 39604 49987 57024 81100 333 20212;,Q01  00002PRCP06
06-22T09:00:00,4,31.2,107.5,344.0,"DA XIAN, CH",FM-12,99999,V020,"999,9,C,0000,1","99999,9,9,N","020000,1,N,1","+0309,1","+0206,1","09968,1",,,,,,"08,99,1,08,1,00,1,99999,9,07,1,99,9",,,,"7,1,019,1,+999,9",,,SYN060AAXX  22091 57328 42970 80000 10309 20206 49968 57019 8807/;,
06-22T12:00:00,4,31.2,107.5,344.0,"DA XIAN, CH",FM-12,99999,V020,"999,9,C,0000,1","99999,9,9,N","015000,1,N,1","+0287,1","+0225,1","09971,1","06,0000,9,1",,,,,"08,99,1,08,1,00,1,99999,9,07,1,99,9",,,"99999,9,09587,1","2,1,002,1,+999,9",,,SYN066AAXX  22121 57328 32965 80000 10287 20225 39587 49971 52002 8807/;,Q01  00002PRCP06
06-22T15:00:00,4,31.2,107.5,344.0,"DA XIAN, CH",FM-12,99999,V020,"999,9,C,0000,1","99999,9,9,N","012000,1,N,1","+0261,1","+0226,1","09970,1",,,,,,"08,99,1,08,1,00,1,99999,9,07,1,99,9",,,,"2,1,001,1,+999,9",,,SYN060AAXX  22151 57328 42962 80000 10261 20226 49970 52001 8807/;,
06-22T18:00:00,4,31.2,107.5,344.0,"DA XIAN, CH",FM-12,99999,V020,"040,1,N,0030,1","99999,9,9,N","007000,1,N,1","+0245,1","+0226,1","09958,1","06,0000,9,1",,,,,"08,99,1,08,1,00,1,99999,9,07,1,99,9",,"999,M,+0323,1","99999,9,09577,1","7,1,011,1,+999,9","10,1",,SYN082AAXX  22181 57328 31957 80403 10245 20226 39577 49958 57011 71000 8807/ 333 10323;,Q01  00002PRCP06
06-22T21:00:00,4,31.2,107.5,344.0,"DA XIAN, CH",FM-12,99999,V020,"999,9,C,0000,1","99999,9,9,N","005000,1,N,1","+0243,1","+0226,1","09949,1","24,0000,2,1",,"6,1,03,1",,,"08,99,1,08,1,00,1,99999,9,02,1,99,9",,,,"7,1,009,1,+999,9","60,1",,SYN076AAXX  22211 57328 41950 80000 10243 20226 49949 57009 76060 8802/ 333 79999;,
06-23T00:00:00,4,31.2,107.5,344.0,"DA XIAN, CH",FM-12,99999,V020,"200,1,N,0010,1","02100,1,9,N","003000,1,N,1","+0239,1","+0224,1","09966,1","06,0008,9,1","24,0008,9,1","6,1,06,1",,,"08,99,1,08,1,05,1,02250,1,99,9,99,9",,,"99999,9,09583,1","2,1,015,1,-050,1","60,1",,SYN094AAXX  23001 57328 11830 82001 10239 20224 39583 49966 52015 69981 76060 885// 333 05501 70008;,
06-23T03:00:00,4,31.2,107.5,344.0,"DA XIAN, CH",FM-12,99999,V020,"999,9,C,0000,1","02100,1,9,N","005000,1,N,1","+0249,1","+0226,1","09972,1",,,"6,1,03,1","6,1,03,1",,"08,99,1,08,1,05,1,02250,1,99,9,99,9",,,,"2,1,005,1,+999,9","21,1",,SYN066AAXX  23031 57328 41850 80000 10249 20226 49972 52005 72166 885//;,
06-23T06:00:00,4,31.2,107.5,344.0,"DA XIAN, CH",FM-12,99999,V020,"999,9,C,0000,1","02100,1,9,N","004000,1,N,1","+0252,1","+0227,1","09976,1","06,0020,9,1",,"6,1,06,1",,,"08,99,1,08,1,05,1,02250,1,99,9,99,9",,"999,N,+0235,1","99999,9,09591,1","2,1,003,1,+999,9","60,1",,SYN088AAXX  23061 57328 11840 80000 10252 20227 39591 49976 52003 60021 76060 885// 333 20235;,
06-23T09:00:00,4,31.2,107.5,344.0,"DA XIAN, CH",FM-12,99999,V020,"999,9,C,0000,1","02100,1,9,N","007000,1,N,1","+0269,1","+0235,1","09961,1",,,"6,1,03,1",,,"07,99,1,07,1,05,1,02250,1,99,9,99,9",,,,"7,1,014,1,+999,9","21,1",,SYN066AAXX  23091 57328 41857 70000 10269 20235 49961 57014 72160 875//;,
06-23T12:00:00,4,31.2,107.5,344.0,"DA XIAN, CH",FM-12,99999,V020,"160,1,N,0020,1","99999,9,9,N","012000,1,N,1","+0255,1","+0234,1","09974,1","06,9999,9,9",,"6,1,06,1",,,"08,99,1,08,1,00,1,99999,9,07,1,99,9",,,"99999,9,09589,1","2,1,012,1,+999,9","00,1",,SYN078AAXX  23121 57328 11962 81602 10255 20234 39589 49974 52012 69921 70060 8807/;,
06-23T15:00:00,4,31.2,107.5,344.0,"DA XIAN, CH",FM-12,99999,V020,"180,1,N,0010,1","99999,9,9,N","007000,1,N,1","+0240,1","+0221,1","09999,1",,,,,,"08,99,1,08,1,00,1,99999,9,07,1,99,9",,,,"2,1,023,1,+999,9","10,1",,SYN066AAXX  23151 57328 41957 81801 10240 20221 49999 52023 71000 8807/;,
06-23T18:00:00,4,31.2,107.5,344.0,"DA XIAN, CH",FM-12,99999,V020,"999,9,C,0000,1","99999,9,9,N","006000,1,N,1","+0235,1","+0217,1","09997,1","06,0000,9,1",,,,,"08,99,1,08,1,00,1,99999,9,07,1,99,9",,"999,M,+0273,1","99999,9,09610,1","7,1,002,1,+999,9","10,1",,SYN082AAXX  23181 57328 31956 80000 10235 20217 39610 49997 57002 71000 8807/ 333 10273;,Q01  00002PRCP06
06-23T21:00:00,4,31.2,107.5,344.0,"DA XIAN, CH",FM-12,99999,V020,"250,1,N,0020,1","99999,9,9,N","007000,1,N,1","+0233,1","+0209,1","09990,1","24,0030,9,1",,,,,"08,99,1,08,1,00,1,99999,9,07,1,99,9",,,,"7,1,005,1,+999,9","10,1",,SYN076AAXX  23211 57328 41957 82502 10233 20209 49990 57005 71000 8807/ 333 70031;,
06-24T00:00:00,4,31.2,107.5,344.0,"DA XIAN, CH",FM-12,99999,V020,"220,1,N,0010,1","02100,1,9,N","005000,1,N,1","+0231,1","+0216,1","10012,1","06,9999,9,9","24,0025,9,1","6,1,06,1",,,"08,99,1,08,1,05,1,02250,1,99,9,99,9",,,"99999,9,09625,1","2,1,020,1,+040,1","10,1",,SYN094AAXX  24001 57328 11850 82201 10231 20216 39625 40012 52020 69921 71060 885// 333 00451 70025;,
06-24T03:00:00,4,31.2,107.5,344.0,"DA XIAN, CH",FM-12,99999,V020,"250,1,N,0010,1","99999,9,9,N","008000,1,N,1","+0254,1","+0211,1","10016,1",,,,,,"07,99,1,07,1,00,1,99999,9,04,1,00,1",,,,"2,1,004,1,+999,9","10,1",,SYN066AAXX  24031 57328 41958 72501 10254 20211 40016 52004 71000 87040;,
06-24T06:00:00,4,31.2,107.5,344.0,"DA XIAN, CH",FM-12,99999,V020,"200,1,N,0020,1","22000,1,9,N","012000,1,N,1","+0283,1","+0219,1","10006,1","06,0000,9,1",,,,,"03,99,1,03,1,01,1,01250,1,00,1,00,1",,"999,N,+0229,1","99999,9,09621,1","7,1,008,1,+999,9",,,SYN076AAXX  24061 57328 32662 32002 10283 20219 39621 40006 57008 83100 333 20229;,Q01  00002PRCP06
06-24T09:00:00,4,31.2,107.5,344.0,"DA XIAN, CH",FM-12,99999,V020,"220,1,N,0020,1","22000,1,9,N","020000,1,N,1","+0299,1","+0216,1","09990,1",,,,,"00,1,+99999,9,99,9","00,99,1,00,1,00,1,99999,9,00,1,00,1",,,,"7,1,015,1,+999,9",,,SYN054AAXX  24091 57328 42970 02202 10299 20216 49990 57015;,
06-24T12:00:00,4,31.2,107.5,344.0,"DA XIAN, CH",FM-12,99999,V020,"999,9,C,0000,1","22000,1,9,N","012000,1,N,1","+0279,1","+0218,1","10000,1","06,0000,9,1",,,,"00,1,+99999,9,99,9","00,99,1,00,1,00,1,99999,9,00,1,00,1",,,"99999,9,09615,1","2,1,009,1,+999,9",,,SYN060AAXX  24121 57328 32962 00000 10279 20218 39615 40000 52009;,Q01  00002PRCP06
06-24T15:00:00,4,31.2,107.5,344.0,"DA XIAN, CH",FM-12,99999,V020,"070,1,N,0010,1","22000,1,9,N","006000,1,N,1","+0247,1","+0221,1","10019,1",,,,,"00,1,+99999,9,99,9","00,99,1,00,1,00,1,99999,9,00,1,00,1",,,,"2,1,017,1,+999,9","10,1",,SYN060AAXX  24151 57328 41956 00701 10247 20221 40019 52017 71000;,
06-24T18:00:00,4,31.2,107.5,344.0,"DA XIAN, CH",FM-12,99999,V020,"040,1,N,0010,1","22000,1,9,N","004000,1,N,1","+0233,1","+0221,1","10019,1","06,0000,9,1",,,,"00,1,+99999,9,99,9","00,99,1,00,1,00,1,99999,9,00,1,00,1",,"999,M,+0306,1","99999,9,09633,1","2,1,001,1,+999,9","10,1",,SYN076AAXX  24181 57328 31940 00401 10233 20221 39633 40019 52001 71000 333 10306;,Q01  00002PRCP06
06-24T21:00:00,4,31.2,107.5,344.0,"DA XIAN, CH",FM-12,99999,V020,"040,1,N,0010,1","99999,9,9,N","002000,1,N,1","+0223,1","+0217,1","10017,1","24,0003,9,1",,,,,"08,99,1,08,1,00,1,99999,9,07,1,99,9",,,,"7,1,001,1,+999,9","10,1",,SYN076AAXX  24211 57328 41920 80401 10223 20217 40017 57001 71000 8807/ 333 70002;,
06-25T00:00:00,4,31.2,107.5,344.0,"DA XIAN, CH",FM-12,99999,V020,"020,1,N,0010,1","22000,1,9,N","000900,1,N,1","+0233,1","+0223,1","10023,1","06,0000,9,1",,,,"00,1,+99999,9,99,9","00,99,1,00,1,00,1,99999,9,00,1,00,1",,,"99999,9,09637,1","2,1,005,1,+001,1","46,1",,SYN076AAXX  25001 57328 31909 00201 10233 20223 39637 40023 52005 74600 333 00100;,Q01  00002PRCP06
06-25T03:00:00,4,31.2,107.5,344.0,"DA XIAN, CH",FM-12,99999,V020,"340,1,N,0010,1","22000,1,9,N","007000,1,N,1","+0297,1","+0233,1","10020,1",,,"4,1,03,1",,"00,1,+99999,9,99,9","00,99,1,00,1,00,1,99999,9,00,1,00,1",,,,"7,1,001,1,+999,9","10,1",,SYN060AAXX  25031 57328 41957 03401 10297 20233 40020 57001 71040;,
06-25T06:00:00,4,31.2,107.5,344.0,"DA XIAN, CH",FM-12,99999,V020,"180,1,N,0010,1","22000,1,9,N","015000,1,N,1","+0321,1","+0220,1","10003,1","06,0000,9,1",,"4,1,06,1",,,"04,99,1,04,1,01,1,01250,1,00,1,00,1",,"999,N,+0220,1","99999,9,09620,1","7,1,016,1,+999,9","00,1",,SYN082AAXX  25061 57328 31665 41801 10321 20220 39620 40003 57016 70040 84100 333 20220;,Q01  00002PRCP06
06-25T09:00:00,4,31.2,107.5,344.0,"DA XIAN, CH",FM-12,99999,V020,"220,1,N,0020,1","22000,1,9,N","025000,1,N,1","+0325,1","+0219,1","09998,1",,,,,"00,1,+99999,9,99,9","00,99,1,00,1,00,1,99999,9,00,1,00,1",,,,"7,1,005,1,+999,9",,,SYN054AAXX  25091 57328 42975 02202 10325 20219 49998 57005;,
06-25T12:00:00,4,31.2,107.5,344.0,"DA XIAN, CH",FM-12,99999,V020,"999,9,C,0000,1","22000,1,9,N","020000,1,N,1","+0309,1","+0236,1","09995,1","06,0000,9,1",,,,,"01,99,1,01,1,00,1,99999,9,04,1,00,1",,,"99999,9,09612,1","7,1,003,1,+999,9",,,SYN066AAXX  25121 57328 32970 10000 10309 20236 39612 49995 57003 81040;,Q01  00002PRCP06
06-25T15:00:00,4,31.2,107.5,344.0,"DA XIAN, CH",FM-12,99999,V020,"020,1,N,0010,1","22000,1,9,N","012000,1,N,1","+0267,1","+0239,1","10012,1",,,,,"00,1,+99999,9,99,9","00,99,1,00,1,00,1,99999,9,00,1,00,1",,,,"2,1,018,1,+999,9",,,SYN054AAXX  25151 57328 42962 00201 10267 20239 40012 52018;,
06-25T18:00:00,4,31.2,107.5,344.0,"DA XIAN, CH",FM-12,99999,V020,"040,1,N,0030,1","22000,1,9,N","012000,1,N,1","+0249,1","+0235,1","10010,1","06,0000,9,1",,,,"00,1,+99999,9,99,9","00,99,1,00,1,00,1,99999,9,00,1,00,1",,"999,M,+0329,1","99999,9,09628,1","7,1,002,1,+999,9",,,SYN070AAXX  25181 57328 32962 00403 10249 20235 39628 40010 57002 333 10329;,Q01  00002PRCP06
06-25T21:00:00,4,31.2,107.5,344.0,"DA XIAN, CH",FM-12,99999,V020,"040,1,N,0020,1","22000,1,9,N","005000,1,N,1","+0239,1","+0233,1","10006,1",,,,,"00,1,+99999,9,99,9","00,99,1,00,1,00,1,99999,9,00,1,00,1",,,,"7,1,004,1,+999,9","10,1",,SYN060AAXX  25211 57328 41950 00402 10239 20233 40006 57004 71000;,
06-26T00:00:00,4,31.2,107.5,344.0,"DA XIAN, CH",FM-12,99999,V020,"040,1,N,0020,1","22000,1,9,N","004000,1,N,1","+0260,1","+0239,1","10015,1","06,0000,9,1",,,,,"03,99,1,03,1,00,1,99999,9,04,1,00,1",,,"99999,9,09633,1","2,1,009,1,+000,1","10,1",,SYN082AAXX  26001 57328 31940 30402 10260 20239 39633 40015 52009 71000 83040 333 00003;,Q01  00002PRCP06
06-26T03:00:00,4,31.2,107.5,344.0,"DA XIAN, CH",FM-12,99999,V020,"360,1,N,0010,1","22000,1,9,N","008000,1,N,1","+0311,1","+0239,1","10014,1",,,,,"00,1,+99999,9,99,9","00,99,1,00,1,00,1,99999,9,00,1,00,1",,,,"7,1,001,1,+999,9","10,1",,SYN060AAXX  26031 57328 41958 03601 10311 20239 40014 57001 71000;,
06-26T06:00:00,4,31.2,107.5,344.0,"DA XIAN, CH",FM-12,99999,V020,"340,1,N,0010,1","22000,1,9,N","017000,1,N,1","+0340,1","+0235,1","09992,1","06,0000,9,1",,,,,"02,99,1,02,1,01,1,01250,1,00,1,00,1",,"999,N,+0237,1","99999,9,09612,1","7,1,020,1,+999,9",,,SYN076AAXX  26061 57328 32667 23401 10340 20235 39612 49992 57020 82100 333 20237;,Q01  00002PRCP06
06-26T09:00:00,4,31.2,107.5,344.0,"DA XIAN, CH",FM-12,99999,V020,"160,1,N,0020,1","22000,1,9,N","030000,1,N,1","+0352,1","+0209,1","09974,1",,,,,"00,1,+99999,9,99,9","00,99,1,00,1,00,1,99999,9,00,1,00,1",,,,"7,1,017,1,+999,9",,,SYN054AAXX  26091 57328 42980 01602 10352 20209 49974 57017;,
06-26T12:00:00,4,31.2,107.5,344.0,"DA XIAN, CH",FM-12,99999,V020,"999,9,C,0000,1","22000,1,9,N","015000,1,N,1","+0326,1","+0242,1","09980,1","06,0000,9,1",,,,"00,1,+99999,9,99,9","00,99,1,00,1,00,1,99999,9,00,1,00,1",,,"99999,9,09600,1","2,1,005,1,+999,9",,,SYN060AAXX  26121 57328 32965 00000 10326 20242 39600 49980 52005;,Q01  00002PRCP06
06-26T15:00:00,4,31.2,107.5,344.0,"DA XIAN, CH",FM-12,99999,V020,"040,1,N,0030,1","99999,9,9,N","008000,1,N,1","+0275,1","+0240,1","10004,1",,,,,,"06,99,1,06,1,00,1,99999,9,04,1,00,1",,,,"2,1,023,1,+999,9","10,1",,SYN066AAXX  26151 57328 41958 60403 10275 20240 40004 52023 71000 86040;,
06-26T18:00:00,4,31.2,107.5,344.0,"DA XIAN, CH",FM-12,99999,V020,"040,1,N,0020,1","22000,1,9,N","008000,1,N,1","+0261,1","+0240,1","10002,1","06,0000,9,1",,,,"00,1,+99999,9,99,9","00,99,1,00,1,00,1,99999,9,00,1,00,1",,"999,M,+0357,1","99999,9,09622,1","7,1,001,1,+999,9","10,1",,SYN076AAXX  26181 57328 31958 00402 10261 20240 39622 40002 57001 71000 333 10357;,Q01  00002PRCP06
06-26T21:00:00,4,31.2,107.5,344.0,"DA XIAN, CH",FM-12,99999,V020,"020,1,N,0030,1","99999,9,9,N","008000,1,N,1","+0252,1","+0233,1","10004,1",,,,,,"07,99,1,07,1,00,1,99999,9,04,1,99,9",,,,"2,1,002,1,+999,9","10,1",,SYN066AAXX  26211 57328 41958 70203 10252 20233 40004 52002 71000 8704/;,
06-27T00:00:00,4,31.2,107.5,344.0,"DA XIAN, CH",FM-12,99999,V020,"999,9,C,0000,1","99999,9,9,N","012000,1,N,1","+0265,1","+0235,1","10027,1","06,0000,9,1",,,,,"07,99,1,07,1,00,1,99999,9,04,1,99,9",,,"99999,9,09646,1","2,1,022,1,+001,1",,,SYN076AAXX  27001 57328 32962 70000 10265 20235 39646 40027 52022 8704/ 333 00101;,Q01  00002PRCP06
06-27T03:00:00,4,31.2,107.5,344.0,"DA XIAN, CH",FM-12,99999,V020,"040,1,N,0030,1","99999,9,9,N","020000,1,N,1","+0311,1","+0228,1","10024,1",,,,,,"07,99,1,07,1,00,1,99999,9,04,1,99,9",,,,"7,1,003,1,+999,9",,,SYN060AAXX  27031 57328 42970 70403 10311 20228 40024 57003 8704/;,
06-27T06:00:00,4,31.2,107.5,344.0,"DA XIAN, CH",FM-12,99999,V020,"090,1,N,0020,1","22000,1,9,N","030000,1,N,1","+0343,1","+0227,1","10011,1","06,0000,9,1",,,,,"02,99,1,01,1,01,1,01250,1,04,1,00,1",,"999,N,+0249,1","99999,9,09631,1","7,1,012,1,+999,9",,,SYN076AAXX  27061 57328 32680 20902 10343 20227 39631 40011 57012 81140 333 20249;,Q01  00002PRCP06
06-27T09:00:00,4,31.2,107.5,344.0,"DA XIAN, CH",FM-12,99999,V020,"070,1,N,0020,1","22000,1,9,N","030000,1,N,1","+0347,1","+0225,1","09992,1",,,,,"00,1,+99999,9,99,9","00,99,1,00,1,00,1,99999,9,00,1,00,1",,,,"7,1,018,1,+999,9",,,SYN054AAXX  27091 57328 42980 00702 10347 20225 49992 57018;,
06-27T12:00:00,4,31.2,107.5,344.0,"DA XIAN, CH",FM-12,99999,V020,"040,1,N,0020,1","99999,9,9,N","030000,1,N,1","+0321,1","+0246,1","10003,1","06,0000,9,1",,,,,"07,99,1,07,1,00,1,99999,9,04,1,00,1",,,"99999,9,09622,1","2,1,009,1,+999,9",,,SYN066AAXX  27121 57328 32980 70402 10321 20246 39622 40003 52009 87040;,Q01  00002PRCP06
06-27T15:00:00,4,31.2,107.5,344.0,"DA XIAN, CH",FM-12,99999,V020,"040,1,N,0020,1","99999,9,9,N","025000,1,N,1","+0293,1","+0248,1","10021,1",,,,,,"08,99,1,08,1,00,1,99999,9,02,1,99,9",,,,"2,1,019,1,+999,9",,,SYN060AAXX  27151 57328 42975 80402 10293 20248 40021 52019 8802/;,
06-27T18:00:00,4,31.2,107.5,344.0,"DA XIAN, CH",FM-12,99999,V020,"020,1,N,0020,1","22000,1,9,N","020000,1,N,1","+0278,1","+0249,1","10018,1","06,9999,9,9",,"6,1,06,1",,,"03,99,1,03,1,00,1,99999,9,04,1,00,1",,"999,M,+0355,1","99999,9,09639,1","7,1,002,1,+999,9","00,1",,SYN088AAXX  27181 57328 11970 30202 10278 20249 39639 40018 57002 69901 70060 83040 333 10355;,
06-27T21:00:00,4,31.2,107.5,344.0,"DA XIAN, CH",FM-12,99999,V020,"020,1,N,0030,1","22000,1,9,N","015000,1,N,1","+0265,1","+0245,1","10022,1","24,0000,9,1",,,,,"02,99,1,02,1,00,1,99999,9,04,1,00,1",,,,"2,1,003,1,+999,9",,,SYN070AAXX  27211 57328 42965 20203 10265 20245 40022 52003 82040 333 79999;,Q01  00002PRCP24
06-28T00:00:00,4,31.2,107.5,344.0,"DA XIAN, CH",FM-12,99999,V020,"040,1,N,0030,1","22000,1,9,N","020000,1,N,1","+0280,1","+0243,1","10030,1","06,0000,9,1","24,0000,9,1",,,,"01,99,1,01,1,00,1,99999,9,04,1,00,1",,,"99999,9,09649,1","2,1,007,1,+000,1",,,SYN082AAXX  28001 57328 32970 10403 10280 20243 39649 40030 52007 81040 333 00002 79999;,Q01  00002PRCP06Q02  00002PRCP24
06-28T03:00:00,4,31.2,107.5,344.0,"DA XIAN, CH",FM-12,99999,V020,"140,1,N,0020,1","22000,1,9,N","030000,1,N,1","+0337,1","+0229,1","10028,1",,,,,,"04,99,1,01,1,01,1,01250,1,00,1,01,1",,,,"4,1,000,1,+999,9",,,SYN060AAXX  28031 57328 42680 41402 10337 20229 40028 54000 81101;,
06-28T06:00:00,4,31.2,107.5,344.0,"DA XIAN, CH",FM-12,99999,V020,"040,1,N,0010,1","03600,1,9,N","030000,1,N,1","+0345,1","+0236,1","10002,1","06,0000,9,1",,,,,"06,99,1,02,1,01,1,01250,1,04,1,00,1",,"999,N,+0261,1","99999,9,09624,1","7,1,025,1,+999,9",,,SYN076AAXX  28061 57328 32680 60401 10345 20236 39624 40002 57025 82140 333 20261;,Q01  00002PRCP06
06-28T09:00:00,4,31.2,107.5,344.0,"DA XIAN, CH",FM-12,99999,V020,"160,1,N,0010,1","03600,1,9,N","030000,1,N,1","+0364,1","+0232,1","09982,1",,,,,,"06,99,1,02,1,01,1,01250,1,04,1,00,1",,,,"7,1,019,1,+999,9",,,SYN060AAXX  28091 57328 42680 61601 10364 20232 49982 57019 82140;,
06-28T12:00:00,4,31.2,107.5,344.0,"DA XIAN, CH",FM-12,99999,V020,"999,9,C,0000,1","22000,1,9,N","030000,1,N,1","+0327,1","+0248,1","09992,1","06,0000,9,1",,,,,"03,99,1,00,1,00,1,99999,9,00,1,01,1",,,"99999,9,09613,1","2,1,008,1,+999,9",,,SYN066AAXX  28121 57328 32980 30000 10327 20248 39613 49992 52008 80001;,Q01  00002PRCP06
06-28T15:00:00,4,31.2,107.5,344.0,"DA XIAN, CH",FM-12,99999,V020,"040,1,N,0020,1","22000,1,9,N","020000,1,N,1","+0287,1","+0251,1","10001,1",,,,,"00,1,+99999,9,99,9","00,99,1,00,1,00,1,99999,9,00,1,00,1",,,,"2,1,010,1,+999,9",,,SYN054AAXX  28151 57328 42970 00402 10287 20251 40001 52010;,
06-28T18:00:00,4,31.2,107.5,344.0,"DA XIAN, CH",FM-12,99999,V020,"040,1,N,0020,1","22000,1,9,N","015000,1,N,1","+0273,1","+0248,1","99999,9","06,0000,9,1",,,,"00,1,+99999,9,99,9","00,99,1,00,1,00,1,99999,9,00,1,00,1",,,"99999,9,09615,1",,,,SYN068AAXX  28181 57328 32965 00402 10273 20248 39615 499 57008 333 10367;,Q01  00002PRCP06
06-28T21:00:00,4,31.2,107.5,344.0,"DA XIAN, CH",FM-12,99999,V020,"040,1,N,0020,1","22000,1,9,N","012000,1,N,1","+0264,1","+0243,1","09992,1",,,,,"00,1,+99999,9,99,9","00,99,1,00,1,00,1,99999,9,00,1,00,1",,,,"7,1,001,1,+999,9",,,SYN054AAXX  28211 57328 42962 00402 10264 20243 49992 57001;,
06-29T00:00:00,4,31.2,107.5,344.0,"DA XIAN, CH",FM-12,99999,V020,"020,1,N,0030,1","22000,1,9,N","017000,1,N,1","+0286,1","+0245,1","10002,1","06,0000,9,1",,,,,"01,99,1,01,1,00,1,99999,9,04,1,00,1",,,"99999,9,09623,1","2,1,009,1,+003,1",,,SYN076AAXX  29001 57328 32967 10203 10286 20245 39623 40002 52009 81040 333 05301;,Q01  00002PRCP06
06-29T03:00:00,4,31.2,107.5,344.0,"DA XIAN, CH",FM-12,99999,V020,"320,1,N,0010,1","22000,1,9,N","030000,1,N,1","+0337,1","+0244,1","09998,1",,,,,"00,1,+99999,9,99,9","00,99,1,00,1,00,1,99999,9,00,1,00,1",,,,"7,1,003,1,+999,9",,,SYN054AAXX  29031 57328 42980 03201 10337 20244 49998 57003;,
06-29T06:00:00,4,31.2,107.5,344.0,"DA XIAN, CH",FM-12,99999,V020,"160,1,N,0010,1","22000,1,9,N","030000,1,N,1","+0363,1","+0224,1","09976,1","06,0000,9,1",,,,,"02,99,1,02,1,01,1,01250,1,00,1,00,1",,"999,N,+0261,1","99999,9,09599,1","7,1,021,1,+999,9",,,SYN076AAXX  29061 57328 32680 21601 10363 20224 39599 49976 57021 82100 333 20261;,Q01  00002PRCP06
06-29T09:00:00,4,31.2,107.5,344.0,"DA XIAN, CH",FM-12,99999,V020,"290,1,N,0020,1","22000,1,9,N","030000,1,N,1","+0375,1","+0226,1","09948,1",,,,,,"02,99,1,01,1,01,1,01250,1,00,1,01,1",,,,"7,1,026,1,+999,9",,,SYN060AAXX  29091 57328 42680 22902 10375 20226 49948 57026 81101;,
06-29T12:00:00,4,31.2,107.5,344.0,"DA XIAN, CH",FM-12,99999,V020,"999,9,C,0000,1","99999,9,9,N","030000,1,N,1","+0341,1","+0236,1","09966,1","06,0000,9,1",,,,,"07,99,1,02,1,00,1,99999,9,04,1,02,1",,,"99999,9,09589,1","2,1,016,1,+999,9",,,SYN066AAXX  29121 57328 32980 70000 10341 20236 39589 49966 52016 82042;,Q01  00002PRCP06
06-29T15:00:00,4,31.2,107.5,344.0,"DA XIAN, CH",FM-12,99999,V020,"040,1,N,0020,1","22000,1,9,N","030000,1,N,1","+0295,1","+0239,1","09984,1",,,,,"00,1,+99999,9,99,9","00,99,1,00,1,00,1,99999,9,00,1,00,1",,,,"2,1,018,1,+999,9",,,SYN054AAXX  29151 57328 42980 00402 10295 20239 49984 52018;,
06-29T18:00:00,4,31.2,107.5,344.0,"DA XIAN, CH",FM-12,99999,V020,"090,1,N,0010,1","99999,9,9,N","012000,1,N,1","+0278,1","+0244,1","09975,1","06,0000,9,1",,,,,"07,99,1,00,1,00,1,99999,9,00,1,02,1",,"999,M,+0377,1","99999,9,09599,1","7,1,008,1,+999,9",,,SYN076AAXX  29181 57328 32962 70901 10278 20244 39599 49975 57008 80002 333 10377;,Q01  00002PRCP06
06-29T21:00:00,4,31.2,107.5,344.0,"DA XIAN, CH",FM-12,99999,V020,"040,1,N,0010,1","99999,9,9,N","008000,1,N,1","+0268,1","+0247,1","09972,1",,,,,,"07,99,1,07,1,00,1,99999,9,04,1,99,9",,,,"7,1,003,1,+999,9","10,1",,SYN066AAXX  29211 57328 41958 70401 10268 20247 49972 57003 71000 8704/;,
06-30T00:00:00,4,31.2,107.5,344.0,"DA XIAN, CH",FM-12,99999,V020,"040,1,N,0020,1","03600,1,9,N","015000,1,N,1","+0277,1","+0250,1","09983,1","06,0000,9,1",,,,,"07,99,1,01,1,01,1,01250,1,04,1,99,9",,,"99999,9,09605,1","2,1,009,1,+002,1",,,SYN076AAXX  30001 57328 32665 70402 10277 20250 39605 49983 52009 8114/ 333 05251;,Q01  00002PRCP06
06-30T03:00:00,4,31.2,107.5,344.0,"DA XIAN, CH",FM-12,99999,V020,"040,1,N,0020,1","03600,1,9,N","025000,1,N,1","+0309,1","+0251,1","09999,1",,,,,,"07,99,1,01,1,01,1,01250,1,04,1,99,9",,,,"2,1,015,1,+999,9",,,SYN060AAXX  30031 57328 42675 70402 10309 20251 49999 52015 8114/;,
06-30T06:00:00,4,31.2,107.5,344.0,"DA XIAN, CH",FM-12,99999,V020,"020,1,N,0020,1","03600,1,9,N","030000,1,N,1","+0319,1","+0242,1","09991,1","06,0000,9,1",,,,,"07,99,1,01,1,01,1,01250,1,04,1,99,9",,"999,N,+0263,1","99999,9,09611,1","7,1,009,1,+999,9",,,SYN076AAXX  30061 57328 32680 70202 10319 20242 39611 49991 57009 8114/ 333 20263;,Q01  00002PRCP06
06-30T09:00:00,4,31.2,107.5,344.0,"DA XIAN, CH",FM-12,99999,V020,"999,9,C,0000,1","99999,9,9,N","030000,1,N,1","+0313,1","+0242,1","09988,1",,,,,,"08,99,1,08,1,00,1,99999,9,07,1,99,9",,,,"7,1,003,1,+999,9",,,SYN060AAXX  30091 57328 42980 80000 10313 20242 49988 57003 8807/;,
06-30T12:00:00,4,31.2,107.5,344.0,"DA XIAN, CH",FM-12,99999,V020,"090,1,N,0010,1","99999,9,9,N","030000,1,N,1","+0301,1","+0242,1","10003,1","06,0000,9,1",,,,,"07,99,1,07,1,00,1,99999,9,04,1,99,9",,,"99999,9,09622,1","2,1,014,1,+999,9",,,SYN066AAXX  30121 57328 32980 70901 10301 20242 39622 40003 52014 8704/;,Q01  00002PRCP06
06-30T15:00:00,4,31.2,107.5,344.0,"DA XIAN, CH",FM-12,99999,V020,"090,1,N,0010,1","22000,1,9,N","030000,1,N,1","+0275,1","+0238,1","10027,1",,,,,"00,1,+99999,9,99,9","00,99,1,00,1,00,1,99999,9,00,1,00,1",,,,"2,1,023,1,+999,9",,,SYN054AAXX  30151 57328 42980 00901 10275 20238 40027 52023;,
06-30T18:00:00,4,31.2,107.5,344.0,"DA XIAN, CH",FM-12,99999,V020,"160,1,N,0020,1","03600,1,9,N","020000,1,N,1","+0259,1","+0221,1","10027,1","06,0000,9,1",,,,,"07,99,1,01,1,09,1,01750,1,04,1,99,9",,"999,M,+0335,1","99999,9,09645,1","4,1,000,1,+999,9","13,1",,SYN082AAXX  30181 57328 31770 71602 10259 20221 39645 40027 54000 71300 8194/ 333 10335;,Q01  00002PRCP06
06-30T21:00:00,4,31.2,107.5,344.0,"DA XIAN, CH",FM-12,99999,V020,"160,1,N,0030,1","99999,9,9,N","030000,1,N,1","+0249,1","+0202,1","10039,1",,,,,,"07,99,1,07,1,00,1,99999,9,04,1,99,9",,,,"2,1,010,1,+999,9",,,SYN060AAXX  30211 57328 42980 71603 10249 20202 40039 52010 8704/;,
07-01T00:00:00,4,31.2,107.5,344.0,"DA XIAN, CH",FM-12,99999,V020,"160,1,N,0020,1","02100,1,9,N","025000,1,N,1","+0241,1","+0195,1","10057,1","06,9999,9,9","24,0000,2,1","6,1,06,1",,,"08,99,1,08,1,05,1,02250,1,99,9,99,9",,,"99999,9,09672,1","2,1,017,1,+070,1","21,1",,SYN094AAXX  01001 57328 11875 81602 10241 20195 39672 40057 52017 69901 72160 885// 333 00754 79999;,
07-01T03:00:00,4,31.2,107.5,344.0,"DA XIAN, CH",FM-12,99999,V020,"270,1,N,0010,1","02100,1,9,N","030000,1,N,1","+0229,1","+0208,1","10069,1",,,"6,1,03,1",,,"08,99,1,08,1,05,1,02250,1,99,9,99,9",,,,"2,1,009,1,+999,9","21,1",,SYN066AAXX  01031 57328 41880 82701 10229 20208 40069 52009 72160 885//;,
07-01T06:00:00,4,31.2,107.5,344.0,"DA XIAN, CH",FM-12,99999,V020,"250,1,N,0020,1","99999,9,9,N","030000,1,N,1","+0259,1","+0207,1","10062,1","06,0020,9,1",,"6,1,06,1",,,"08,99,1,08,1,00,1,99999,9,04,1,99,9",,"999,N,+0222,1","99999,9,09675,1","7,1,006,1,+999,9","00,1",,SYN088AAXX  01061 57328 11980 82502 10259 20207 39675 40062 57006 60021 70060 8804/ 333 20222;,
07-01T09:00:00,4,31.2,107.5,344.0,"DA XIAN, CH",FM-12,99999,V020,"220,1,N,0020,1","99999,9,9,N","030000,1,N,1","+0279,1","+0205,1","10043,1",,,,,,"07,99,1,07,1,00,1,99999,9,04,1,99,9",,,,"7,1,018,1,+999,9",,,SYN060AAXX  01091 57328 42980 72202 10279 20205 40043 57018 8704/;,
07-01T12:00:00,4,31.2,107.5,344.0,"DA XIAN, CH",FM-12,99999,V020,"200,1,N,0020,1","02100,1,9,N","015000,1,N,1","+0262,1","+0210,1","10047,1","06,0000,9,1",,,,,"08,99,1,08,1,05,1,02250,1,99,9,99,9",,,"99999,9,09659,1","2,1,002,1,+999,9",,,SYN066AAXX  01121 57328 32865 82002 10262 20210 39659 40047 52002 885//;,Q01  00002PRCP06
07-01T15:00:00,4,31.2,107.5,344.0,"DA XIAN, CH",FM-12,99999,V020,"160,1,N,0010,1","99999,9,9,N","012000,1,N,1","+0255,1","+0211,1","10064,1",,,,,,"07,99,1,07,1,00,1,99999,9,04,1,99,9",,,,"2,1,016,1,+999,9",,,SYN060AAXX  01151 57328 42962 71601 10255 20211 40064 52016 8704/;,
07-01T18:00:00,4,31.2,107.5,344.0,"DA XIAN, CH",FM-12,99999,V020,"040,1,N,0020,1","99999,9,9,N","012000,1,N,1","+0241,1","+0219,1","10052,1","06,0000,9,1",,,,,"07,99,1,07,1,00,1,99999,9,04,1,99,9",,"999,M,+0283,1","99999,9,09664,1","7,1,011,1,+999,9",,,SYN076AAXX  01181 57328 32962 70402 10241 20219 39664 40052 57011 8704/ 333 10283;,Q01  00002PRCP06
07-01T21:00:00,4,31.2,107.5,344.0,"DA XIAN, CH",FM-12,99999,V020,"040,1,N,0020,1","99999,9,9,N","006000,1,N,1","+0237,1","+0219,1","10046,1","24,0023,9,1",,,,,"08,99,1,08,1,00,1,99999,9,07,1,99,9",,,,"7,1,005,1,+999,9","10,1",,SYN076AAXX  01211 57328 41956 80402 10237 20219 40046 57005 71000 8807/ 333 70022;,
07-02T00:00:00,4,31.2,107.5,344.0,"DA XIAN, CH",FM-12,99999,V020,"999,9,C,0000,1","99999,9,9,N","007000,1,N,1","+0243,1","+0223,1","10052,1","06,0000,9,1","24,0023,9,1",,,,"08,99,1,08,1,00,1,99999,9,02,1,99,9",,,"99999,9,09664,1","2,1,005,1,-010,1","10,1",,SYN088AAXX  02001 57328 31957 80000 10243 20223 39664 40052 52005 71000 8802/ 333 05100 70022;,Q01  00002PRCP06
07-02T03:00:00,4,31.2,107.5,344.0,"DA XIAN, CH",FM-12,99999,V020,"090,1,N,0010,1","99999,9,9,N","006000,1,N,1","+0249,1","+0224,1","10057,1",,,"6,1,03,1",,,"08,99,1,08,1,00,1,99999,9,02,1,99,9",,,,"2,1,005,1,+999,9","21,1",,SYN066AAXX  02031 57328 41956 80901 10249 20224 40057 52005 72160 8802/;,
07-02T18:00:00,4,31.2,107.5,344.0,"DA XIAN, CH",FM-12,99999,V020,"040,1,N,0020,1","22000,1,9,N","020000,1,N,1","+0219,1","+0207,1","10041,1","06,0000,9,1",,,,,"02,99,1,02,1,00,1,99999,9,04,1,00,1",,"999,M,+0269,1","99999,9,09653,1","7,1,012,1,+999,9",,,SYN076AAXX  02181 57328 32970 20402 10219 20207 39653 40041 57012 82040 333 10269;,Q01  00002PRCP06
07-02T21:00:00,4,31.2,107.5,344.0,"DA XIAN, CH",FM-12,99999,V020,"040,1,N,0020,1","22000,1,9,N","012000,1,N,1","+0207,1","+0201,1","10036,1","24,0000,2,1",,,,,"01,99,1,01,1,00,1,99999,9,04,1,00,1",,,,"7,1,007,1,+999,9",,,SYN070AAXX  02211 57328 42962 10402 10207 20201 40036 57007 81040 333 79999;,
07-03T00:00:00,4,31.2,107.5,344.0,"DA XIAN, CH",FM-12,99999,V020,"040,1,N,0030,1","01200,1,9,N","020000,1,N,1","+0226,1","+0203,1","10043,1","06,0000,9,1","24,0000,2,1",,,,"06,99,1,06,1,01,1,01250,1,00,1,00,1",,,"99999,9,09654,1","2,1,008,1,-010,1",,,SYN082AAXX  03001 57328 32670 60403 10226 20203 39654 40043 52008 86100 333 05152 79999;,Q01  00002PRCP06
07-03T03:00:00,4,31.2,107.5,344.0,"DA XIAN, CH",FM-12,99999,V020,"020,1,N,0030,1","22000,1,9,N","030000,1,N,1","+0279,1","+0210,1","10036,1",,,,,"00,1,+99999,9,99,9","00,99,1,00,1,00,1,99999,9,00,1,00,1",,,,"7,1,004,1,+999,9",,,SYN054AAXX  03031 57328 42980 00203 10279 20210 40036 57004;,
07-03T06:00:00,4,31.2,107.5,344.0,"DA XIAN, CH",FM-12,99999,V020,"290,1,N,0010,1","22000,1,9,N","030000,1,N,1","+0329,1","+0171,1","10014,1","06,0000,9,1",,,,,"02,99,1,01,1,01,1,01250,1,00,1,01,1",,"999,N,+0205,1","99999,9,09631,1","7,1,019,1,+999,9",,,SYN076AAXX  03061 57328 32680 22901 10329 20171 39631 40014 57019 81101 333 20205;,Q01  00002PRCP06
07-03T09:00:00,4,31.2,107.5,344.0,"DA XIAN, CH",FM-12,99999,V020,"140,1,N,0010,1","22000,1,9,N","030000,1,N,1","+0343,1","+0184,1","09995,1",,,,,,"01,99,1,00,1,00,1,99999,9,00,1,01,1",,,,"7,1,019,1,+999,9",,,SYN060AAXX  03091 57328 42980 11401 10343 20184 49995 57019 80001;,
07-03T12:00:00,4,31.2,107.5,344.0,"DA XIAN, CH",FM-12,99999,V020,"180,1,N,0010,1","22000,1,9,N","030000,1,N,1","+0315,1","+0200,1","09995,1","06,0000,9,1",,,,"00,1,+99999,9,99,9","00,99,1,00,1,00,1,99999,9,00,1,00,1",,,"99999,9,09612,1","4,1,000,1,+999,9",,,SYN060AAXX  03121 57328 32980 01801 10315 20200 39612 49995 54000;,Q01  00002PRCP06
07-03T15:00:00,4,31.2,107.5,344.0,"DA XIAN, CH",FM-12,99999,V020,"040,1,N,0030,1","99999,9,9,N","020000,1,N,1","+0258,1","+0209,1","10016,1",,,,,,"06,99,1,00,1,00,1,99999,9,00,1,02,1",,,,"2,1,020,1,+999,9",,,SYN060AAXX  03151 57328 42970 60403 10258 20209 40016 52020 80002;,
07-03T18:00:00,4,31.2,107.5,344.0,"DA XIAN, CH",FM-12,99999,V020,"040,1,N,0020,1","22000,1,9,N","015000,1,N,1","+0243,1","+0210,1","10018,1","06,0000,9,1",,,,,"01,99,1,01,1,00,1,99999,9,04,1,00,1",,"999,M,+0349,1","99999,9,09636,1","2,1,004,1,+999,9",,,SYN076AAXX  03181 57328 32965 10402 10243 20210 39636 40018 52004 81040 333 10349;,Q01  00002PRCP06
07-03T21:00:00,4,31.2,107.5,344.0,"DA XIAN, CH",FM-12,99999,V020,"040,1,N,0020,1","22000,1,9,N","015000,1,N,1","+0229,1","+0214,1","10015,1",,,,,,"04,99,1,04,1,00,1,99999,9,04,1,00,1",,,,"7,1,003,1,+999,9",,,SYN060AAXX  03211 57328 42965 40402 10229 20214 40015 57003 84040;,
07-04T00:00:00,4,31.2,107.5,344.0,"DA XIAN, CH",FM-12,99999,V020,"040,1,N,0040,1","99999,9,9,N","018000,1,N,1","+0242,1","+0205,1","10020,1","06,0000,9,1",,,,,"06,99,1,06,1,00,1,99999,9,04,1,00,1",,,"99999,9,09637,1","2,1,004,1,+002,1",,,SYN076AAXX  04001 57328 32968 60404 10242 20205 39637 40020 52004 86040 333 05202;,Q01  00002PRCP06
07-04T03:00:00,4,31.2,107.5,344.0,"DA XIAN, CH",FM-12,99999,V020,"090,1,N,0010,1","99999,9,9,N","030000,1,N,1","+0280,1","+0204,1","10023,1",,,,,,"08,99,1,08,1,00,1,99999,9,07,1,99,9",,,,"2,1,002,1,+999,9",,,SYN060AAXX  04031 57328 42980 80901 10280 20204 40023 52002 8807/;,
07-04T06:00:00,4,31.2,107.5,344.0,"DA XIAN, CH",FM-12,99999,V020,"999,9,C,0000,1","99999,9,9,N","030000,1,N,1","+0303,1","+0219,1","10019,1","06,0000,9,1",,,,,"07,99,1,07,1,00,1,99999,9,04,1,99,9",,"999,N,+0227,1","99999,9,09635,1","7,1,004,1,+999,9",,,SYN076AAXX  04061 57328 32980 70000 10303 20219 39635 40019 57004 8704/ 333 20227;,Q01  00002PRCP06
07-04T09:00:00,4,31.2,107.5,344.0,"DA XIAN, CH",FM-12,99999,V020,"160,1,N,0020,1","99999,9,9,N","030000,1,N,1","+0326,1","+0228,1","10003,1",,,,,,"07,99,1,07,1,00,1,99999,9,04,1,00,1",,,,"7,1,015,1,+999,9",,,SYN060AAXX  04091 57328 42980 71602 10326 20228 40003 57015 87040;,
07-04T12:00:00,4,31.2,107.5,344.0,"DA XIAN, CH",FM-12,99999,V020,"220,1,N,0020,1","99999,9,9,N","030000,1,N,1","+0294,1","+0227,1","10009,1","06,0000,9,1",,,,,"07,99,1,07,1,00,1,99999,9,04,1,99,9",,,"99999,9,09625,1","2,1,005,1,+999,9",,,SYN066AAXX  04121 57328 32980 72202 10294 20227 39625 40009 52005 8704/;,Q01  00002PRCP06
07-04T15:00:00,4,31.2,107.5,344.0,"DA XIAN, CH",FM-12,99999,V020,"220,1,N,0020,1","22000,1,9,N","015000,1,N,1","+0274,1","+0228,1","10034,1",,,,,"00,1,+99999,9,99,9","00,99,1,00,1,00,1,99999,9,00,1,00,1",,,,"2,1,025,1,+999,9",,,SYN054AAXX  04151 57328 42965 02202 10274 20228 40034 52025;,
07-04T18:00:00,4,31.2,107.5,344.0,"DA XIAN, CH",FM-12,99999,V020,"220,1,N,0010,1","99999,9,9,N","012000,1,N,1","+0267,1","+0228,1","10039,1","06,0000,9,1",,,,,"07,99,1,07,1,00,1,99999,9,04,1,99,9",,"999,M,+0331,1","99999,9,09656,1","2,1,006,1,+999,9",,,SYN076AAXX  04181 57328 32962 72201 10267 20228 39656 40039 52006 8704/ 333 10331;,Q01  00002PRCP06
07-04T21:00:00,4,31.2,107.5,344.0,"DA XIAN, CH",FM-12,99999,V020,"140,1,N,0020,1","02100,1,9,N","012000,1,N,1","+0253,1","+0225,1","10023,1",,,,,,"07,99,1,07,1,05,1,02250,1,99,9,99,9",,,,"7,1,015,1,+999,9",,,SYN060AAXX  04211 57328 42862 71402 10253 20225 40023 57015 875//;,
07-05T00:00:00,4,31.2,107.5,344.0,"DA XIAN, CH",FM-12,99999,V020,"020,1,N,0020,1","99999,9,9,N","008000,1,N,1","+0248,1","+0205,1","10041,1","06,0000,9,1",,,,,"07,99,1,07,1,00,1,99999,9,04,1,00,1",,,"99999,9,09656,1","2,1,015,1,+002,1","10,1",,SYN082AAXX  05001 57328 31958 70202 10248 20205 39656 40041 52015 71000 87040 333 00201;,Q01  00002PRCP06
07-05T03:00:00,4,31.2,107.5,344.0,"DA XIAN, CH",FM-12,99999,V020,"250,1,N,0010,1","03600,1,9,N","012000,1,N,1","+0284,1","+0223,1","10038,1",,,,,,"07,99,1,02,1,01,1,01250,1,04,1,99,9",,,,"7,1,002,1,+999,9",,,SYN060AAXX  05031 57328 42662 72501 10284 20223 40038 57002 8214/;,
07-05T06:00:00,4,31.2,107.5,344.0,"DA XIAN, CH",FM-12,99999,V020,"200,1,N,0010,1","22000,1,9,N","012000,1,N,1","+0311,1","+0222,1","10022,1","06,0000,9,1",,,,,"04,99,1,04,1,01,1,01250,1,00,1,00,1",,"999,N,+0244,1","99999,9,09640,1","7,1,014,1,+999,9",,,SYN076AAXX  05061 57328 32662 42001 10311 20222 39640 40022 57014 84100 333 20244;,Q01  00002PRCP06
07-05T09:00:00,4,31.2,107.5,344.0,"DA XIAN, CH",FM-12,99999,V020,"220,1,N,0040,1","22000,1,9,N","015000,1,N,1","+0325,1","+0215,1","09998,1",,,,,,"02,99,1,01,1,01,1,01250,1,00,1,02,1",,,,"7,1,023,1,+999,9",,,SYN060AAXX  05091 57328 42665 22204 10325 20215 49998 57023 81102;,
07-05T12:00:00,4,31.2,107.5,344.0,"DA XIAN, CH",FM-12,99999,V020,"220,1,N,0030,1","22000,1,9,N","020000,1,N,1","+0302,1","+0205,1","10003,1","06,0000,9,1",,,,"00,1,+99999,9,99,9","00,99,1,00,1,00,1,99999,9,00,1,00,1",,,"99999,9,09620,1","2,1,003,1,+999,9",,,SYN060AAXX  05121 57328 32970 02203 10302 20205 39620 40003 52003;,Q01  00002PRCP06
07-05T15:00:00,4,31.2,107.5,344.0,"DA XIAN, CH",FM-12,99999,V020,"070,1,N,0010,1","22000,1,9,N","012000,1,N,1","+0265,1","+0217,1","10023,1",,,,,"00,1,+99999,9,99,9","00,99,1,00,1,00,1,99999,9,00,1,00,1",,,,"2,1,019,1,+999,9",,,SYN054AAXX  05151 57328 42962 00701 10265 20217 40023 52019;,
07-05T18:00:00,4,31.2,107.5,344.0,"DA XIAN, CH",FM-12,99999,V020,"040,1,N,0030,1","22000,1,9,N","008000,1,N,1","+0241,1","+0220,1","10020,1","06,0000,9,1",,,,"00,1,+99999,9,99,9","00,99,1,00,1,00,1,99999,9,00,1,00,1",,"999,M,+0329,1","99999,9,09637,1","7,1,002,1,+999,9","10,1",,SYN076AAXX  05181 57328 31958 00403 10241 20220 39637 40020 57002 71000 333 10329;,Q01  00002PRCP06
07-05T21:00:00,4,31.2,107.5,344.0,"DA XIAN, CH",FM-12,99999,V020,"999,9,C,0000,1","22000,1,9,N","008000,1,N,1","+0234,1","+0221,1","10023,1",,,,,"00,1,+99999,9,99,9","00,99,1,00,1,00,1,99999,9,00,1,00,1",,,,"2,1,003,1,+999,9","10,1",,SYN060AAXX  05211 57328 41958 00000 10234 20221 40023 52003 71000;,
07-06T00:00:00,4,31.2,107.5,344.0,"DA XIAN, CH",FM-12,99999,V020,"999,9,C,0000,1","22000,1,9,N","006000,1,N,1","+0253,1","+0224,1","10028,1","06,0000,9,1",,,,"00,1,+99999,9,99,9","00,99,1,00,1,00,1,99999,9,00,1,00,1",,,"99999,9,09644,1","2,1,004,1,+001,1","10,1",,SYN076AAXX  06001 57328 31956 00000 10253 20224 39644 40028 52004 71000 333 05101;,Q01  00002PRCP06
07-06T03:00:00,4,31.2,107.5,344.0,"DA XIAN, CH",FM-12,99999,V020,"999,9,C,0000,1","22000,1,9,N","015000,1,N,1","+0299,1","+0231,1","10025,1",,,,,"00,1,+99999,9,99,9","00,99,1,00,1,00,1,99999,9,00,1,00,1",,,,"7,1,002,1,+999,9",,,SYN054AAXX  06031 57328 42965 00000 10299 20231 40025 57002;,
07-06T06:00:00,4,31.2,107.5,344.0,"DA XIAN, CH",FM-12,99999,V020,"200,1,N,0020,1","22000,1,9,N","015000,1,N,1","+0341,1","+0218,1","10006,1","06,0000,9,1",,,,,"01,99,1,01,1,01,1,01250,1,00,1,00,1",,"999,N,+0229,1","99999,9,09625,1","7,1,017,1,+999,9",,,SYN076AAXX  06061 57328 32665 12002 10341 20218 39625 40006 57017 81100 333 20229;,Q01  00002PRCP06
07-06T09:00:00,4,31.2,107.5,344.0,"DA XIAN, CH",FM-12,99999,V020,"250,1,N,0020,1","22000,1,9,N","030000,1,N,1","+0357,1","+0217,1","09989,1",,,,,,"01,99,1,01,1,01,1,01250,1,00,1,00,1",,,,"7,1,016,1,+999,9",,,SYN060AAXX  06091 57328 42680 12502 10357 20217 49989 57016 81100;,
07-06T12:00:00,4,31.2,107.5,344.0,"DA XIAN, CH",FM-12,99999,V020,"999,9,C,0000,1","22000,1,9,N","030000,1,N,1","+0328,1","+0220,1","10005,1","06,0000,9,1",,,,"00,1,+99999,9,99,9","00,99,1,00,1,00,1,99999,9,00,1,00,1",,,"99999,9,09624,1","2,1,015,1,+999,9",,,SYN060AAXX  06121 57328 32980 00000 10328 20220 39624 40005 52015;,Q01  00002PRCP06
07-06T15:00:00,4,31.2,107.5,344.0,"DA XIAN, CH",FM-12,99999,V020,"040,1,N,0020,1","22000,1,9,N","018000,1,N,1","+0279,1","+0236,1","10022,1",,,,,"00,1,+99999,9,99,9","00,99,1,00,1,00,1,99999,9,00,1,00,1",,,,"2,1,016,1,+999,9",,,SYN054AAXX  06151 57328 42968 00402 10279 20236 40022 52016;,
07-06T18:00:00,4,31.2,107.5,344.0,"DA XIAN, CH",FM-12,99999,V020,"020,1,N,0020,1","22000,1,9,N","015000,1,N,1","+0259,1","+0196,1","10027,1","06,0000,9,1",,,,"00,1,+99999,9,99,9","00,99,1,00,1,00,1,99999,9,00,1,00,1",,"999,M,+0360,1","99999,9,09646,1","2,1,006,1,+999,9",,,SYN070AAXX  06181 57328 32965 00202 10259 20196 39646 40027 52006 333 10360;,Q01  00002PRCP06
07-06T21:00:00,4,31.2,107.5,344.0,"DA XIAN, CH",FM-12,99999,V020,"040,1,N,0020,1","22000,1,9,N","024000,1,N,1","+0239,1","+0192,1","10031,1",,,,,"00,1,+99999,9,99,9","00,99,1,00,1,00,1,99999,9,00,1,00,1",,,,"2,1,004,1,+999,9",,,SYN054AAXX  06211 57328 42974 00402 10239 20192 40031 52004;,
07-07T00:00:00,4,31.2,107.5,344.0,"DA XIAN, CH",FM-12,99999,V020,"040,1,N,0040,1","22000,1,9,N","030000,1,N,1","+0254,1","+0201,1","10045,1","06,0000,9,1",,,,"00,1,+99999,9,99,9","00,99,1,00,1,00,1,99999,9,00,1,00,1",,,"99999,9,09662,1","2,1,012,1,+002,1",,,SYN070AAXX  07001 57328 32980 00404 10254 20201 39662 40045 52012 333 00200;,Q01  00002PRCP06
07-07T03:00:00,4,31.2,107.5,344.0,"DA XIAN, CH",FM-12,99999,V020,"020,1,N,0020,1","22000,1,9,N","030000,1,N,1","+0317,1","+0222,1","10045,1",,,,,"00,1,+99999,9,99,9","00,99,1,00,1,00,1,99999,9,00,1,00,1",,,,"2,1,001,1,+999,9",,,SYN054AAXX  07031 57328 42980 00202 10317 20222 40045 52001;,
07-07T06:00:00,4,31.2,107.5,344.0,"DA XIAN, CH",FM-12,99999,V020,"270,1,N,0020,1","22000,1,9,N","030000,1,N,1","+0355,1","+0218,1","10025,1","06,0000,9,1",,,,,"01,99,1,01,1,01,1,01250,1,00,1,01,1",,"999,N,+0231,1","99999,9,09645,1","7,1,018,1,+999,9",,,SYN076AAXX  07061 57328 32680 12702 10355 20218 39645 40025 57018 81101 333 20231;,Q01  00002PRCP06
07-07T09:00:00,4,31.2,107.5,344.0,"DA XIAN, CH",FM-12,99999,V020,"999,9,C,0000,1","22000,1,9,N","030000,1,N,1","+0365,1","+0220,1","10013,1",,,,,"00,1,+99999,9,99,9","00,99,1,00,1,00,1,99999,9,00,1,00,1",,,,"7,1,012,1,+999,9",,,SYN054AAXX  07091 57328 42980 00000 10365 20220 40013 57012;,
07-07T12:00:00,4,31.2,107.5,344.0,"DA XIAN, CH",FM-12,99999,V020,"220,1,N,0010,1","22000,1,9,N","030000,1,N,1","+0345,1","+0210,1","10022,1","06,0000,9,1",,,,,"02,99,1,00,1,00,1,99999,9,00,1,01,1",,,"99999,9,09641,1","2,1,008,1,+999,9",,,SYN066AAXX  07121 57328 32980 22201 10345 20210 39641 40022 52008 80001;,Q01  00002PRCP06
07-07T15:00:00,4,31.2,107.5,344.0,"DA XIAN, CH",FM-12,99999,V020,"040,1,N,0030,1","22000,1,9,N","015000,1,N,1","+0283,1","+0209,1","10041,1",,,,,"00,1,+99999,9,99,9","00,99,1,00,1,00,1,99999,9,00,1,00,1",,,,"2,1,019,1,+999,9",,,SYN054AAXX  07151 57328 42965 00403 10283 20209 40041 52019;,
07-07T18:00:00,4,31.2,107.5,344.0,"DA XIAN, CH",FM-12,99999,V020,"040,1,N,0030,1","22000,1,9,N","012000,1,N,1","+0259,1","+0223,1","10037,1","06,0000,9,1",,,,"00,1,+99999,9,99,9","00,99,1,00,1,00,1,99999,9,00,1,00,1",,"999,M,+0374,1","99999,9,09657,1","7,1,003,1,+999,9",,,SYN070AAXX  07181 57328 32962 00403 10259 20223 39657 40037 57003 333 10374;,Q01  00002PRCP06
07-07T21:00:00,4,31.2,107.5,344.0,"DA XIAN, CH",FM-12,99999,V020,"040,1,N,0040,1","22000,1,9,N","012000,1,N,1","+0250,1","+0224,1","10037,1",,,,,"00,1,+99999,9,99,9","00,99,1,00,1,00,1,99999,9,00,1,00,1",,,,"4,1,000,1,+999,9",,,SYN054AAXX  07211 57328 42962 00404 10250 20224 40037 54000;,
07-08T00:00:00,4,31.2,107.5,344.0,"DA XIAN, CH",FM-12,99999,V020,"040,1,N,0030,1","22000,1,9,N","012000,1,N,1","+0268,1","+0223,1","10048,1","06,0000,9,1",,,,"00,1,+99999,9,99,9","00,99,1,00,1,00,1,99999,9,00,1,00,1",,,"99999,9,09667,1","2,1,010,1,+001,1",,,SYN070AAXX  08001 57328 32962 00403 10268 20223 39667 40048 52010 333 00101;,Q01  00002PRCP06
07-08T03:00:00,4,31.2,107.5,344.0,"DA XIAN, CH",FM-12,99999,V020,"070,1,N,0020,1","99999,9,9,N","015000,1,N,1","+0322,1","+0230,1","10042,1",,,,,,"07,99,1,02,1,00,1,99999,9,04,1,02,1",,,,"7,1,006,1,+999,9",,,SYN060AAXX  08031 57328 42965 70702 10322 20230 40042 57006 82042;,
07-08T06:00:00,4,31.2,107.5,344.0,"DA XIAN, CH",FM-12,99999,V020,"250,1,N,0040,1","01200,1,9,N","017000,1,N,1","+0338,1","+0232,1","10026,1","06,0000,9,1",,,,,"08,99,1,05,1,09,1,01250,1,07,1,99,9",,"999,N,+0246,1","99999,9,09645,1","7,1,016,1,+999,9","17,1",,SYN082AAXX  08061 57328 31667 82504 10338 20232 39645 40026 57016 71700 8597/ 333 20246;,Q01  00002PRCP06
07-08T09:00:00,4,31.2,107.5,344.0,"DA XIAN, CH",FM-12,99999,V020,"020,1,N,0050,1","01500,1,9,N","020000,1,N,1","+0256,1","+0207,1","10050,1",,,"9,1,03,1","9,1,03,1",,"08,99,1,08,1,09,1,01750,1,99,9,99,9",,,,"2,1,018,1,+999,9","29,1",,SYN066AAXX  08091 57328 41770 80205 10256 20207 40050 52018 72999 889//;,
07-08T12:00:00,4,31.2,107.5,344.0,"DA XIAN, CH",FM-12,99999,V020,"040,1,N,0020,1","99999,9,9,N","018000,1,N,1","+0255,1","+0201,1","10048,1","06,0000,9,1",,"9,1,06,1",,,"07,99,1,05,1,00,1,99999,9,04,1,02,1",,,"99999,9,09662,1","7,1,001,1,+999,9","00,1",,SYN072AAXX  08121 57328 31968 70402 10255 20201 39662 40048 57001 70090 85042;,Q01  00002PRCP06
07-08T15:00:00,4,31.2,107.5,344.0,"DA XIAN, CH",FM-12,99999,V020,"040,1,N,0020,1","22000,1,9,N","015000,1,N,1","+0235,1","+0211,1","10055,1",,,,,"00,1,+99999,9,99,9","00,99,1,00,1,00,1,99999,9,00,1,00,1",,,,"2,1,009,1,+999,9",,,SYN054AAXX  08151 57328 42965 00402 10235 20211 40055 52009;,
07-08T21:00:00,4,31.2,107.5,344.0,"DA XIAN, CH",FM-12,99999,V020,"040,1,N,0050,1","99999,9,9,N","008000,1,N,1","+0215,1","+0204,1","10048,1",,,,,,"07,99,1,07,1,00,1,99999,9,04,1,99,9",,,,"7,1,008,1,+999,9","10,1",,SYN066AAXX  08211 57328 41958 70405 10215 20204 40048 57008 71000 8704/;,
07-09T00:00:00,4,31.2,107.5,344.0,"DA XIAN, CH",FM-12,99999,V020,"040,1,N,0050,1","99999,9,9,N","015000,1,N,1","+0237,1","+0204,1","10052,1","06,0000,9,1",,,,,"07,99,1,07,1,00,1,99999,9,04,1,99,9",,,"99999,9,09664,1","2,1,006,1,+000,1",,,SYN076AAXX  09001 57328 32965 70405 10237 20204 39664 40052 52006 8704/ 333 00053;,Q01  00002PRCP06
07-09T03:00:00,4,31.2,107.5,344.0,"DA XIAN, CH",FM-12,99999,V020,"040,1,N,0010,1","99999,9,9,N","025000,1,N,1","+0285,1","+0212,1","10042,1",,,,,,"07,99,1,07,1,00,1,99999,9,04,1,99,9",,,,"7,1,008,1,+999,9",,,SYN060AAXX  09031 57328 42975 70401 10285 20212 40042 57008 8704/;,
07-09T06:00:00,4,31.2,107.5,344.0,"DA XIAN, CH",FM-12,99999,V020,"999,9,C,0000,1","99999,9,9,N","030000,1,N,1","+0289,1","+0223,1","10030,1","06,0000,9,1",,,,,"08,99,1,08,1,00,1,99999,9,07,1,99,9",,"999,N,+0213,1","99999,9,09644,1","7,1,012,1,+999,9",,,SYN076AAXX  09061 57328 32980 80000 10289 20223 39644 40030 57012 8807/ 333 20213;,Q01  00002PRCP06
07-09T09:00:00,4,31.2,107.5,344.0,"DA XIAN, CH",FM-12,99999,V020,"999,9,C,0000,1","99999,9,9,N","020000,1,N,1","+0313,1","+0211,1","10010,1",,,,,,"08,99,1,08,1,00,1,99999,9,07,1,99,9",,,,"7,1,019,1,+999,9",,,SYN060AAXX  09091 57328 42970 80000 10313 20211 40010 57019 8807/;,
07-09T12:00:00,4,31.2,107.5,344.0,"DA XIAN, CH",FM-12,99999,V020,"999,9,C,0000,1","99999,9,9,N","030000,1,N,1","+0293,1","+0218,1","10009,1","06,0000,9,1",,,,,"07,99,1,07,1,00,1,99999,9,04,1,99,9",,,"99999,9,09625,1","4,1,000,1,+999,9",,,SYN066AAXX  09121 57328 32980 70000 10293 20218 39625 40009 54000 8704/;,Q01  00002PRCP06
07-09T15:00:00,4,31.2,107.5,344.0,"DA XIAN, CH",FM-12,99999,V020,"140,1,N,0030,1","02100,1,9,N","020000,1,N,1","+0243,1","+0204,1","10026,1",,,,,,"07,99,1,07,1,05,1,02250,1,99,9,99,9",,,,"2,1,016,1,+999,9",,,SYN060AAXX  09151 57328 42870 71403 10243 20204 40026 52016 875//;,
07-09T18:00:00,4,31.2,107.5,344.0,"DA XIAN, CH",FM-12,99999,V020,"020,1,N,0060,1","02100,1,9,N","020000,1,N,1","+0237,1","+0213,1","10020,1","06,0000,9,1",,,,,"07,99,1,07,1,05,1,02250,1,99,9,99,9",,"999,M,+0318,1","99999,9,09635,1","7,1,006,1,+999,9",,,SYN076AAXX  09181 57328 32870 70206 10237 20213 39635 40020 57006 875// 333 10318;,Q01  00002PRCP06
07-09T21:00:00,4,31.2,107.5,344.0,"DA XIAN, CH",FM-12,99999,V020,"070,1,N,0020,1","02100,1,9,N","015000,1,N,1","+0211,1","+0205,1","10017,1","24,0030,9,1",,"6,1,03,1",,,"08,99,1,08,1,05,1,02250,1,99,9,99,9",,,,"7,1,003,1,+999,9","60,1",,SYN076AAXX  09211 57328 41865 80702 10211 20205 40017 57003 76060 885// 333 70030;,
07-10T00:00:00,4,31.2,107.5,344.0,"DA XIAN, CH",FM-12,99999,V020,"999,9,C,0000,1","99999,9,9,N","025000,1,N,1","+0219,1","+0207,1","10021,1","06,0030,9,1","24,0030,9,1","6,1,06,1",,,"08,99,1,08,1,00,1,99999,9,07,1,99,9",,,"99999,9,09635,1","2,1,003,1,-030,1","60,1",,SYN094AAXX  10001 57328 11975 80000 10219 20207 39635 40021 52003 60031 76060 8807/ 333 05352 70030;,
07-10T03:00:00,4,31.2,107.5,344.0,"DA XIAN, CH",FM-12,99999,V020,"999,9,C,0000,1","99999,9,9,N","020000,1,N,1","+0257,1","+0222,1","10027,1",,,"6,1,03,1",,,"07,99,1,07,1,00,1,99999,9,04,1,99,9",,,,"2,1,005,1,+999,9","00,1",,SYN066AAXX  10031 57328 41970 70000 10257 20222 40027 52005 70060 8704/;,
07-10T06:00:00,4,31.2,107.5,344.0,"DA XIAN, CH",FM-12,99999,V020,"180,1,N,0020,1","03600,1,9,N","020000,1,N,1","+0291,1","+0209,1","10012,1","06,9999,9,9",,"6,1,06,1",,,"07,99,1,01,1,01,1,01250,1,04,1,99,9",,"999,N,+0209,1","99999,9,09627,1","7,1,013,1,+999,9","00,1",,SYN088AAXX  10061 57328 11670 71802 10291 20209 39627 40012 57013 69901 70060 8114/ 333 20209;,
07-10T09:00:00,4,31.2,107.5,344.0,"DA XIAN, CH",FM-12,99999,V020,"320,1,N,0010,1","03600,1,9,N","030000,1,N,1","+0299,1","+0215,1","09998,1",,,,,,"06,99,1,01,1,02,1,01250,1,04,1,00,1",,,,"7,1,014,1,+999,9",,,SYN060AAXX  10091 57328 42680 63201 10299 20215 49998 57014 81240;,
07-10T12:00:00,4,31.2,107.5,344.0,"DA XIAN, CH",FM-12,99999,V020,"999,9,C,0000,1","22000,1,9,N","030000,1,N,1","+0282,1","+0216,1","10008,1","06,0000,9,1",,,,,"01,99,1,01,1,00,1,99999,9,04,1,00,1",,,"99999,9,09622,1","2,1,009,1,+999,9",,,SYN066AAXX  10121 57328 32980 10000 10282 20216 39622 40008 52009 81040;,Q01  00002PRCP06
07-10T15:00:00,4,31.2,107.5,344.0,"DA XIAN, CH",FM-12,99999,V020,"999,9,C,0000,1","22000,1,9,N","020000,1,N,1","+0259,1","+0227,1","10022,1",,,,,"00,1,+99999,9,99,9","00,99,1,00,1,00,1,99999,9,00,1,00,1",,,,"2,1,014,1,+999,9",,,SYN054AAXX  10151 57328 42970 00000 10259 20227 40022 52014;,
07-10T18:00:00,4,31.2,107.5,344.0,"DA XIAN, CH",FM-12,99999,V020,"999,9,C,0000,1","99999,9,9,N","015000,1,N,1","+0239,1","+0226,1","10017,1","06,0000,9,1",,,,,"07,99,1,07,1,00,1,99999,9,04,1,99,9",,"999,M,+0309,1","99999,9,09632,1","7,1,004,1,+999,9",,,SYN076AAXX  10181 57328 32965 70000 10239 20226 39632 40017 57004 8704/ 333 10309;,Q01  00002PRCP06
07-10T21:00:00,4,31.2,107.5,344.0,"DA XIAN, CH",FM-12,99999,V020,"040,1,N,0030,1","22000,1,9,N","006000,1,N,1","+0225,1","+0218,1","10018,1","24,0000,2,1",,,,"00,1,+99999,9,99,9","00,99,1,00,1,00,1,99999,9,00,1,00,1",,,,"2,1,001,1,+999,9","10,1",,SYN070AAXX  10211 57328 41956 00403 10225 20218 40018 52001 71000 333 79999;,
07-11T00:00:00,4,31.2,107.5,344.0,"DA XIAN, CH",FM-12,99999,V020,"040,1,N,0030,1","22000,1,9,N","015000,1,N,1","+0244,1","+0208,1","10025,1","06,0000,9,1","24,0000,2,1",,,,"01,99,1,01,1,00,1,99999,9,04,1,00,1",,,"99999,9,09640,1","2,1,007,1,+010,1",,,SYN082AAXX  11001 57328 32965 10403 10244 20208 39640 40025 52007 81040 333 00103 79999;,Q01  00002PRCP06
07-11T03:00:00,4,31.2,107.5,344.0,"DA XIAN, CH",FM-12,99999,V020,"999,9,C,0000,1","22000,1,9,N","020000,1,N,1","+0296,1","+0211,1","10020,1",,,,,,"01,99,1,01,1,01,1,01250,1,00,1,00,1",,,,"7,1,003,1,+999,9",,,SYN060AAXX  11031 57328 42670 10000 10296 20211 40020 57003 81100;,
07-11T06:00:00,4,31.2,107.5,344.0,"DA XIAN, CH",FM-12,99999,V020,"250,1,N,0020,1","22000,1,9,N","020000,1,N,1","+0333,1","+0213,1","09994,1","06,0000,9,1",,,,,"02,99,1,02,1,01,1,01250,1,00,1,00,1",,"999,N,+0217,1","99999,9,09613,1","7,1,024,1,+999,9",,,SYN076AAXX  11061 57328 32670 22502 10333 20213 39613 49994 57024 82100 333 20217;,Q01  00002PRCP06
07-11T09:00:00,4,31.2,107.5,344.0,"DA XIAN, CH",FM-12,99999,V020,"200,1,N,0020,1","22000,1,9,N","030000,1,N,1","+0339,1","+0194,1","09983,1",,,,,,"01,99,1,01,1,01,1,01250,1,00,1,00,1",,,,"7,1,011,1,+999,9",,,SYN060AAXX  11091 57328 42680 12002 10339 20194 49983 57011 81100;,
07-11T12:00:00,4,31.2,107.5,344.0,"DA XIAN, CH",FM-12,99999,V020,"220,1,N,0010,1","22000,1,9,N","030000,1,N,1","+0315,1","+0202,1","09984,1","06,0000,9,1",,,,"00,1,+99999,9,99,9","00,99,1,00,1,00,1,99999,9,00,1,00,1",,,"99999,9,09602,1","4,1,000,1,+999,9",,,SYN060AAXX  11121 57328 32980 02201 10315 20202 39602 49984 54000;,Q01  00002PRCP06
07-11T15:00:00,4,31.2,107.5,344.0,"DA XIAN, CH",FM-12,99999,V020,"040,1,N,0020,1","99999,9,9,N","015000,1,N,1","+0267,1","+0219,1","10004,1",,,,,,"06,99,1,00,1,00,1,99999,9,00,1,02,1",,,,"2,1,020,1,+999,9",,,SYN060AAXX  11151 57328 42965 60402 10267 20219 40004 52020 80002;,
07-11T18:00:00,4,31.2,107.5,344.0,"DA XIAN, CH",FM-12,99999,V020,"070,1,N,0010,1","22000,1,9,N","008000,1,N,1","+0244,1","+0222,1","10006,1","06,0000,9,1",,,,"00,1,+99999,9,99,9","00,99,1,00,1,00,1,99999,9,00,1,00,1",,"999,M,+0341,1","99999,9,09625,1","2,1,003,1,+999,9","10,1",,SYN076AAXX  11181 57328 31958 00701 10244 20222 39625 40006 52003 71000 333 10341;,Q01  00002PRCP06
07-11T21:00:00,4,31.2,107.5,344.0,"DA XIAN, CH",FM-12,99999,V020,"040,1,N,0030,1","22000,1,9,N","008000,1,N,1","+0233,1","+0220,1","10010,1",,,,,"00,1,+99999,9,99,9","00,99,1,00,1,00,1,99999,9,00,1,00,1",,,,"2,1,003,1,+999,9","10,1",,SYN060AAXX  11211 57328 41958 00403 10233 20220 40010 52003 71000;,
07-12T00:00:00,4,31.2,107.5,344.0,"DA XIAN, CH",FM-12,99999,V020,"040,1,N,0020,1","22000,1,9,N","012000,1,N,1","+0251,1","+0219,1","10029,1","06,0000,9,1",,,,"00,1,+99999,9,99,9","00,99,1,00,1,00,1,99999,9,00,1,00,1",,,"99999,9,09646,1","2,1,018,1,+001,1",,,SYN070AAXX  12001 57328 32962 00402 10251 20219 39646 40029 52018 333 00101;,Q01  00002PRCP06
07-12T03:00:00,4,31.2,107.5,344.0,"DA XIAN, CH",FM-12,99999,V020,"140,1,N,0020,1","22000,1,9,N","020000,1,N,1","+0315,1","+0212,1","10022,1",,,,,"00,1,+99999,9,99,9","00,99,1,00,1,00,1,99999,9,00,1,00,1",,,,"7,1,006,1,+999,9",,,SYN054AAXX  12031 57328 42970 01402 10315 20212 40022 57006;,
07-12T06:00:00,4,31.2,107.5,344.0,"DA XIAN, CH",FM-12,99999,V020,"200,1,N,0040,1","22000,1,9,N","020000,1,N,1","+0341,1","+0218,1","10008,1","06,0000,9,1",,,,,"01,99,1,01,1,01,1,01250,1,00,1,00,1",,"999,N,+0229,1","99999,9,09627,1","7,1,013,1,+999,9",,,SYN076AAXX  12061 57328 32670 12004 10341 20218 39627 40008 57013 81100 333 20229;,Q01  00002PRCP06
07-12T09:00:00,4,31.2,107.5,344.0,"DA XIAN, CH",FM-12,99999,V020,"220,1,N,0030,1","22000,1,9,N","020000,1,N,1","+0353,1","+0201,1","09994,1",,,,,,"02,99,1,02,1,01,1,01250,1,00,1,00,1",,,,"7,1,013,1,+999,9",,,SYN060AAXX  12091 57328 42670 22203 10353 20201 49994 57013 82100;,
07-12T12:00:00,4,31.2,107.5,344.0,"DA XIAN, CH",FM-12,99999,V020,"040,1,N,0050,1","02100,1,9,N","015000,1,N,1","+0223,2","+0208,1","10037,1","06,0041,9,1",,"9,1,06,1","8,1,06,1",,"08,99,1,06,1,04,1,02250,1,07,1,99,9",,,"99999,9,09648,1","2,1,034,1,+999,9","29,1","3,06,0200,1",SYN094AAXX  12121 57328 11865 80405 10223 20208 39648 40037 52034 60041 72998 8647/ 333 91120 91536;,
07-12T15:00:00,4,31.2,107.5,344.0,"DA XIAN, CH",FM-12,99999,V020,"040,1,N,0020,1","99999,9,9,N","012000,1,N,1","+0227,1","+0209,1","10049,1",,,,,,"07,99,1,07,1,00,1,99999,9,04,1,99,9",,,,"2,1,016,1,+999,9",,,SYN060AAXX  12151 57328 42962 70402 10227 20209 40049 52016 8704/;,
07-12T18:00:00,4,31.2,107.5,344.0,"DA XIAN, CH",FM-12,99999,V020,"040,1,N,0020,1","99999,9,9,N","012000,1,N,1","+0225,1","+0210,1","10042,1","06,0000,9,1",,,,,"08,99,1,08,1,00,1,99999,9,07,1,99,9",,"999,M,+0357,1","99999,9,09659,1","7,1,005,1,+999,9",,,SYN076AAXX  12181 57328 32962 80402 10225 20210 39659 40042 57005 8807/ 333 10357;,Q01  00002PRCP06
07-12T21:00:00,4,31.2,107.5,344.0,"DA XIAN, CH",FM-12,99999,V020,"070,1,N,0020,1","99999,9,9,N","012000,1,N,1","+0221,1","+0209,1","10046,1","24,0036,9,1",,,,,"05,99,1,05,1,00,1,99999,9,04,1,00,1",,,,"2,1,004,1,+999,9",,,SYN070AAXX  12211 57328 42962 50702 10221 20209 40046 52004 85040 333 70035;,
07-13T00:00:00,4,31.2,107.5,344.0,"DA XIAN, CH",FM-12,99999,V020,"070,1,N,0010,1","99999,9,9,N","020000,1,N,1","+0225,1","+0207,1","10065,1","06,0000,9,1","24,0036,9,1",,,,"06,99,1,03,1,00,1,99999,9,04,1,01,1",,,"99999,9,09673,1","2,1,010,1,+030,1",,,SYN082AAXX  13001 57328 32970 60701 10225 20207 39673 40065 52010 83041 333 00353 70035;,Q01  00002PRCP06
07-13T03:00:00,4,31.2,107.5,344.0,"DA XIAN, CH",FM-12,99999,V020,"040,1,N,0020,1","22000,1,9,N","030000,1,N,1","+0286,1","+0214,1","10059,1",,,,,,"07,99,1,01,1,01,1,01250,1,00,1,01,1",,,,"7,1,001,1,+999,9",,,SYN060AAXX  13031 57328 42680 70402 10286 20214 40059 57001 81101;,
07-13T06:00:00,4,31.2,107.5,344.0,"DA XIAN, CH",FM-12,99999,V020,"180,1,N,0020,1","22000,1,9,N","030000,1,N,1","+0328,1","+0202,1","10040,1","06,0000,9,1",,,,,"01,99,1,01,1,00,1,99999,9,04,1,00,1",,"999,N,+0217,1","99999,9,09656,1","7,1,016,1,+999,9",,,SYN076AAXX  13061 57328 32980 11802 10328 20202 39656 40040 57016 81040 333 20217;,Q01  00002PRCP06
07-13T09:00:00,4,31.2,107.5,344.0,"DA XIAN, CH",FM-12,99999,V020,"270,1,N,0050,1","01200,1,9,N","030000,1,N,1","+0337,1","+0207,1","10018,1",,,,,,"06,99,1,06,1,01,1,01250,1,00,1,00,1",,,,"7,1,021,1,+999,9",,,SYN060AAXX  13091 57328 42680 62705 10337 20207 40018 57021 86100;,
07-13T12:00:00,4,31.2,107.5,344.0,"DA XIAN, CH",FM-12,99999,V020,"020,1,N,0060,1","22000,1,9,N","030000,1,N,1","+0262,1","+0194,1","10048,1","06,0000,9,1",,"9,1,06,1",,,"02,99,1,02,1,09,1,01750,1,04,1,00,1",,,"99999,9,09659,1","2,1,024,1,+999,9","29,1",,SYN072AAXX  13121 57328 31780 20206 10262 20194 39659 40048 52024 72990 82940;,Q01  00002PRCP06
07-13T15:00:00,4,31.2,107.5,344.0,"DA XIAN, CH",FM-12,99999,V020,"070,1,N,0020,1","22000,1,9,N","020000,1,N,1","+0243,1","+0196,1","10068,1",,,,,"00,1,+99999,9,99,9","00,99,1,00,1,00,1,99999,9,00,1,00,1",,,,"2,1,022,1,+999,9",,,SYN054AAXX  13151 57328 42970 00702 10243 20196 40068 52022;,
07-13T18:00:00,4,31.2,107.5,344.0,"DA XIAN, CH",FM-12,99999,V020,"070,1,N,0020,1","22000,1,9,N","015000,1,N,1","+0223,1","+0199,1","10058,1","06,0000,9,1",,,,"00,1,+99999,9,99,9","00,99,1,00,1,00,1,99999,9,00,1,00,1",,"999,M,+0339,1","99999,9,09673,1","7,1,008,1,+999,9",,,SYN070AAXX  13181 57328 32965 00702 10223 20199 39673 40058 57008 333 10339;,Q01  00002PRCP06
07-13T21:00:00,4,31.2,107.5,344.0,"DA XIAN, CH",FM-12,99999,V020,"040,1,N,0030,1","22000,1,9,N","011000,1,N,1","+0213,1","+0198,1","10053,1",,,,,"00,1,+99999,9,99,9","00,99,1,00,1,00,1,99999,9,00,1,00,1",,,,"7,1,005,1,+999,9",,,SYN054AAXX  13211 57328 42961 00403 10213 20198 40053 57005;,
07-14T00:00:00,4,31.2,107.5,344.0,"DA XIAN, CH",FM-12,99999,V020,"040,1,N,0020,1","99999,9,9,N","012000,1,N,1","+0230,1","+0200,1","10064,1","06,0000,9,1",,,,,"06,99,1,06,1,00,1,99999,9,04,1,00,1",,,"99999,9,09675,1","2,1,007,1,+000,1",,,SYN076AAXX  14001 57328 32962 60402 10230 20200 39675 40064 52007 86040 333 00001;,Q01  00002PRCP06
07-14T03:00:00,4,31.2,107.5,344.0,"DA XIAN, CH",FM-12,99999,V020,"360,1,N,0020,1","99999,9,9,N","025000,1,N,1","+0282,1","+0203,1","10059,1",,,,,,"06,99,1,03,1,00,1,99999,9,04,1,02,1",,,,"7,1,003,1,+999,9",,,SYN060AAXX  14031 57328 42975 63602 10282 20203 40059 57003 83042;,
07-14T06:00:00,4,31.2,107.5,344.0,"DA XIAN, CH",FM-12,99999,V020,"250,1,N,0010,1","22000,1,9,N","030000,1,N,1","+0323,1","+0204,1","10037,1","06,0000,9,1",,,,,"02,99,1,02,1,01,1,01250,1,00,1,00,1",,"999,N,+0209,1","99999,9,09653,1","7,1,019,1,+999,9",,,SYN076AAXX  14061 57328 32680 22501 10323 20204 39653 40037 57019 82100 333 20209;,Q01  00002PRCP06
07-14T09:00:00,4,31.2,107.5,344.0,"DA XIAN, CH",FM-12,99999,V020,"250,1,N,0020,1","03600,1,9,N","030000,1,N,1","+0320,1","+0211,1","10016,1",,,,,,"07,99,1,02,1,01,1,01250,1,04,1,99,9",,,,"7,1,021,1,+999,9",,,SYN060AAXX  14091 57328 42680 72502 10320 20211 40016 57021 8214/;,
07-14T12:00:00,4,31.2,107.5,344.0,"DA XIAN, CH",FM-12,99999,V020,"200,1,N,0010,1","01500,1,9,N","030000,1,N,1","+0298,1","+0207,1","10030,1","06,0000,9,1",,,,,"07,99,1,06,1,09,1,01750,1,00,1,02,1",,,"99999,9,09645,1","2,1,013,1,+999,9",,,SYN066AAXX  14121 57328 32780 72001 10298 20207 39645 40030 52013 86902;,Q01  00002PRCP06
07-14T15:00:00,4,31.2,107.5,344.0,"DA XIAN, CH",FM-12,99999,V020,"040,1,N,0040,1","99999,9,9,N","020000,1,N,1","+0252,1","+0202,1","10054,1",,,"9,1,03,1",,,"07,99,1,07,1,00,1,99999,9,04,1,99,9",,,,"2,1,023,1,+999,9","00,1",,SYN066AAXX  14151 57328 41970 70404 10252 20202 40054 52023 70090 8704/;,
07-14T18:00:00,4,31.2,107.5,344.0,"DA XIAN, CH",FM-12,99999,V020,"040,1,N,0050,1","99999,9,9,N","015000,1,N,1","+0235,1","+0199,1","10050,1","06,0000,9,1",,"9,1,06,1",,,"08,99,1,08,1,00,1,99999,9,07,1,99,9",,"999,M,+0336,1","99999,9,09666,1","7,1,002,1,+999,9","00,1",,SYN082AAXX  14181 57328 31965 80405 10235 20199 39666 40050 57002 70090 8807/ 333 10336;,Q01  00002PRCP06
07-14T21:00:00,4,31.2,107.5,344.0,"DA XIAN, CH",FM-12,99999,V020,"040,1,N,0030,1","99999,9,9,N","008000,1,N,1","+0228,1","+0201,1","10039,1",,,,,,"08,99,1,08,1,00,1,99999,9,07,1,99,9",,,,"7,1,011,1,+999,9","10,1",,SYN066AAXX  14211 57328 41958 80403 10228 20201 40039 57011 71000 8807/;,
07-15T00:00:00,4,31.2,107.5,344.0,"DA XIAN, CH",FM-12,99999,V020,"040,1,N,0020,1","02100,1,9,N","025000,1,N,1","+0231,1","+0201,1","10050,1","06,0000,9,1",,,,,"08,99,1,08,1,05,1,02250,1,99,9,99,9",,,"99999,9,09664,1","2,1,009,1,+001,1",,,SYN076AAXX  15001 57328 32875 80402 10231 20201 39664 40050 52009 885// 333 05100;,Q01  00002PRCP06
07-15T03:00:00,4,31.2,107.5,344.0,"DA XIAN, CH",FM-12,99999,V020,"090,1,N,0020,1","02100,1,9,N","020000,1,N,1","+0239,1","+0221,1","10062,1",,,,,,"08,99,1,08,1,05,1,02250,1,99,9,99,9",,,,"2,1,009,1,+999,9","60,1",,SYN066AAXX  15031 57328 41870 80902 10239 20221 40062 52009 76000 885//;,
07-15T06:00:00,4,31.2,107.5,344.0,"DA XIAN, CH",FM-12,99999,V020,"040,1,N,0010,1","02100,1,9,N","008000,1,N,1","+0231,1","+0216,1","10057,1","06,0130,9,1",,"6,1,06,1",,,"08,99,1,08,1,05,1,02250,1,99,9,99,9",,"999,N,+0225,1","99999,9,09667,1","7,1,006,1,+999,9","60,1",,SYN088AAXX  15061 57328 11858 80401 10231 20216 39667 40057 57006 60131 76060 885// 333 20225;,
07-15T09:00:00,4,31.2,107.5,344.0,"DA XIAN, CH",FM-12,99999,V020,"020,1,N,0020,1","02100,1,9,N","008000,1,N,1","+0240,1","+0225,1","10042,1",,,"6,1,03,1","6,1,03,1",,"08,99,1,08,1,05,1,02250,1,99,9,99,9",,,,"7,1,015,1,+999,9","21,1",,SYN066AAXX  15091 57328 41858 80202 10240 20225 40042 57015 72166 885//;,
07-15T12:00:00,4,31.2,107.5,344.0,"DA XIAN, CH",FM-12,99999,V020,"040,1,N,0020,1","02100,1,9,N","030000,1,N,1","+0233,1","+0218,1","10041,1","06,0051,9,1",,"6,1,06,1",,,"08,99,1,08,1,05,1,02250,1,99,9,99,9",,,"99999,9,09651,1","7,1,001,1,+999,9","60,1",,SYN078AAXX  15121 57328 11880 80402 10233 20218 39651 40041 57001 60051 76060 885//;,
07-15T15:00:00,4,31.2,107.5,344.0,"DA XIAN, CH",FM-12,99999,V020,"040,1,N,0010,1","02100,1,9,N","025000,1,N,1","+0229,1","+0220,1","10048,1",,,"6,1,03,1",,,"08,99,1,08,1,05,1,02250,1,99,9,99,9",,,,"2,1,007,1,+999,9","00,1",,SYN066AAXX  15151 57328 41875 80401 10229 20220 40048 52007 70060 885//;,
07-15T18:00:00,4,31.2,107.5,344.0,"DA XIAN, CH",FM-12,99999,V020,"040,1,N,0020,1","01500,1,9,N","015000,1,N,1","+0225,1","+0219,1","10032,1","06,0061,9,1",,"9,1,06,1","6,1,06,1",,"08,99,1,08,1,09,1,01750,1,99,9,99,9",,"999,M,+0242,1","99999,9,09642,1","7,1,016,1,+999,9","95,1",,SYN088AAXX  15181 57328 11765 80402 10225 20219 39642 40032 57016 60061 79596 889// 333 10242;,
07-15T21:00:00,4,31.2,107.5,344.0,"DA XIAN, CH",FM-12,99999,V020,"360,1,N,0010,1","01500,1,9,N","008000,1,N,1","+0223,1","+0220,1","10015,1","24,0577,9,1",,"9,1,03,1","8,1,03,1",,"08,99,1,08,1,09,1,01750,1,99,9,99,9",,,,"7,1,016,1,+999,9","91,1",,SYN076AAXX  15211 57328 41758 83601 10223 20220 40015 57016 79198 889// 333 70576;,
07-16T00:00:00,4,31.2,107.5,344.0,"DA XIAN, CH",FM-12,99999,V020,"040,1,N,0030,1","00210,1,9,N","030000,1,N,1","+0225,1","+0221,1","10010,1","06,0340,9,1","24,0587,9,1","9,1,06,1","8,1,06,1",,"08,99,1,08,1,09,1,00250,1,99,9,99,9",,,"99999,9,09621,1","7,1,005,1,-040,1","80,1",,SYN094AAXX  16001 57328 11380 80403 10225 20221 39621 40010 57005 60341 78098 889// 333 05451 70588;,
07-16T03:00:00,4,31.2,107.5,344.0,"DA XIAN, CH",FM-12,99999,V020,"999,9,C,0000,1","02100,1,9,N","005000,1,N,1","+0231,1","+0228,1","10009,1",,,"8,1,03,1","6,1,03,1",,"08,99,1,08,1,05,1,02250,1,99,9,99,9",,,,"7,1,001,1,+999,9","60,1",,SYN066AAXX  16031 57328 41850 80000 10231 20228 40009 57001 76086 885//;,
07-16T06:00:00,4,31.2,107.5,344.0,"DA XIAN, CH",FM-12,99999,V020,"140,1,N,0010,1","02100,1,9,N","003000,1,N,1","+0230,1","+0226,1","10001,1","06,0249,9,1",,"8,1,06,1","6,1,06,1",,"08,99,1,08,1,05,1,02250,1,99,9,99,9",,"999,N,+0220,1","99999,9,09612,1","7,1,008,1,+999,9","60,1",,SYN088AAXX  16061 57328 11830 81401 10230 20226 39612 40001 57008 60251 76086 885// 333 20220;,
07-16T09:00:00,4,31.2,107.5,344.0,"DA XIAN, CH",FM-12,99999,V020,"140,1,N,0010,1","02100,1,9,N","005000,1,N,1","+0229,1","+0223,1","09995,1",,,"6,1,03,1","6,1,03,1",,"08,99,1,08,1,05,1,02250,1,99,9,99,9",,,,"7,1,006,1,+999,9","60,1",,SYN066AAXX  16091 57328 41850 81401 10229 20223 49995 57006 76066 885//;,
07-16T12:00:00,4,31.2,107.5,344.0,"DA XIAN, CH",FM-12,99999,V020,"999,9,C,0000,1","02100,1,9,N","007000,1,N,1","+0233,1","+0226,1","10003,1","06,0041,9,1",,"6,1,06,1",,,"08,99,1,08,1,05,1,02250,1,99,9,99,9",,,"99999,9,09614,1","2,1,008,1,+999,9","10,1",,SYN078AAXX  16121 57328 11857 80000 10233 20226 39614 40003 52008 60041 71060 885//;,
07-16T15:00:00,4,31.2,107.5,344.0,"DA XIAN, CH",FM-12,99999,V020,"999,9,C,0000,1","02100,1,9,N","004000,1,N,1","+0231,1","+0225,1","10011,1",,,,,,"08,99,1,08,1,05,1,02250,1,99,9,99,9",,,,"2,1,008,1,+999,9","10,1",,SYN066AAXX  16151 57328 41840 80000 10231 20225 40011 52008 71000 885//;,
07-16T18:00:00,4,31.2,107.5,344.0,"DA XIAN, CH",FM-12,99999,V020,"999,9,C,0000,1","02100,1,9,N","005000,1,N,1","+0230,1","+0226,1","10005,1","06,0000,9,1",,,,,"08,99,1,08,1,05,1,02250,1,99,9,99,9",,"999,M,+0234,1","99999,9,09616,1","7,1,006,1,+999,9","10,1",,SYN082AAXX  16181 57328 31850 80000 10230 20226 39616 40005 57006 71000 885// 333 10234;,Q01  00002PRCP06
07-16T21:00:00,4,31.2,107.5,344.0,"DA XIAN, CH",FM-12,99999,V020,"040,1,N,0020,1","02100,1,9,N","005000,1,N,1","+0229,1","+0225,1","09999,1","24,0297,9,1",,,,,"08,99,1,08,1,05,1,02250,1,99,9,99,9",,,,"7,1,006,1,+999,9","60,1",,SYN076AAXX  16211 57328 41850 80402 10229 20225 49999 57006 76000 885// 333 70296;,
07-17T00:00:00,4,31.2,107.5,344.0,"DA XIAN, CH",FM-12,99999,V020,"999,9,C,0000,1","02100,1,9,N","005000,1,N,1","+0230,1","+0224,1","10002,1","06,0079,9,1","24,0358,9,1","6,1,06,1",,,"08,99,1,08,1,05,1,02250,1,99,9,99,9",,,"99999,9,09614,1","2,1,004,1,-010,1","21,1",,SYN094AAXX  17001 57328 11850 80000 10230 20224 39614 40002 52004 60081 72160 885// 333 05101 70359;,
07-17T03:00:00,4,31.2,107.5,344.0,"DA XIAN, CH",FM-12,99999,V020,"999,9,C,0000,1","03600,1,9,N","008000,1,N,1","+0249,1","+0227,1","10006,1",,,,,,"07,99,1,03,1,01,1,00800,1,04,1,99,9",,,,"2,1,005,1,+999,9","10,1",,SYN066AAXX  17031 57328 41558 70000 10249 20227 40006 52005 71000 8314/;,
07-17T06:00:00,4,31.2,107.5,344.0,"DA XIAN, CH",FM-12,99999,V020,"250,1,N,0020,1","03600,1,9,N","020000,1,N,1","+0291,1","+0231,1","09992,1","06,0000,2,1",,,,,"07,99,1,02,1,01,1,01250,1,04,1,99,9",,"999,N,+0225,1","99999,9,09608,1","7,1,011,1,+999,9",,,SYN076AAXX  17061 57328 32670 72502 10291 20231 39608 49992 57011 8214/ 333 20225;,
07-17T09:00:00,4,31.2,107.5,344.0,"DA XIAN, CH",FM-12,99999,V020,"220,1,N,0020,1","22000,1,9,N","020000,1,N,1","+0305,1","+0225,1","09972,1",,,,,,"02,99,1,02,1,01,1,01250,1,00,1,00,1",,,,"7,1,019,1,+999,9",,,SYN060AAXX  17091 57328 42670 22202 10305 20225 49972 57019 82100;,
07-17T12:00:00,4,31.2,107.5,344.0,"DA XIAN, CH",FM-12,99999,V020,"999,9,C,0000,1","22000,1,9,N","020000,1,N,1","+0284,1","+0236,1","09985,1","06,0000,9,1",,,,,"03,99,1,02,1,01,1,01250,1,04,1,00,1",,,"99999,9,09601,1","2,1,012,1,+999,9",,,SYN066AAXX  17121 57328 32670 30000 10284 20236 39601 49985 52012 82140;,Q01  00002PRCP06
07-17T15:00:00,4,31.2,107.5,344.0,"DA XIAN, CH",FM-12,99999,V020,"110,1,N,0010,1","99999,9,9,N","012000,1,N,1","+0259,1","+0238,1","10000,1",,,,,,"06,99,1,06,1,00,1,99999,9,04,1,00,1",,,,"2,1,014,1,+999,9",,,SYN060AAXX  17151 57328 42962 61101 10259 20238 40000 52014 86040;,
07-17T18:00:00,4,31.2,107.5,344.0,"DA XIAN, CH",FM-12,99999,V020,"360,1,N,0020,1","03600,1,9,N","015000,1,N,1","+0233,1","+0204,1","09998,1","06,0003,9,1",,,,,"07,99,1,02,1,09,1,01750,1,04,1,99,9",,"999,M,+0307,1","99999,9,09614,1","7,1,001,1,+999,9","25,1",,SYN088AAXX  17181 57328 11765 73602 10233 20204 39614 49998 57001 69931 72500 8294/ 333 10307;,
07-17T21:00:00,4,31.2,107.5,344.0,"DA XIAN, CH",FM-12,99999,V020,"040,1,N,0030,1","99999,9,9,N","012000,1,N,1","+0215,1","+0197,1","09987,1","24,0079,9,1",,,,,"08,99,1,08,1,00,1,99999,9,07,1,99,9",,,,"7,1,011,1,+999,9",,,SYN070AAXX  17211 57328 42962 80403 10215 20197 49987 57011 8807/ 333 70078;,
07-18T00:00:00,4,31.2,107.5,344.0,"DA XIAN, CH",FM-12,99999,V020,"040,1,N,0010,1","99999,9,9,N","012000,1,N,1","+0223,1","+0205,1","09998,1","06,9999,9,9","24,0003,9,1",,,,"08,99,1,08,1,00,1,99999,9,02,1,99,9",,,"99999,9,09613,1","2,1,010,1,+000,1","21,1",,SYN094AAXX  18001 57328 11962 80401 10223 20205 39613 49998 52010 69901 72100 8802/ 333 00051 70003;,
07-18T03:00:00,4,31.2,107.5,344.0,"DA XIAN, CH",FM-12,99999,V020,"360,1,N,0020,1","99999,9,9,N","015000,1,N,1","+0253,1","+0218,1","10005,1",,,"6,1,03,1",,,"07,99,1,07,1,00,1,99999,9,04,1,00,1",,,,"2,1,007,1,+999,9","00,1",,SYN066AAXX  18031 57328 41965 73602 10253 20218 40005 52007 70060 87040;,
07-18T06:00:00,4,31.2,107.5,344.0,"DA XIAN, CH",FM-12,99999,V020,"140,1,N,0010,1","22000,1,9,N","020000,1,N,1","+0301,1","+0220,1","09985,1","06,9999,9,9",,"6,1,06,1",,,"04,99,1,04,1,01,1,01250,1,00,1,00,1",,"999,N,+0213,1","99999,9,09602,1","7,1,018,1,+999,9","00,1",,SYN088AAXX  18061 57328 11670 41401 10301 20220 39602 49985 57018 69911 70060 84100 333 20213;,
07-18T09:00:00,4,31.2,107.5,344.0,"DA XIAN, CH",FM-12,99999,V020,"140,1,N,0010,1","22000,1,9,N","030000,1,N,1","+0311,1","+0225,1","09967,1",,,,,,"02,99,1,01,1,01,1,01250,1,00,1,02,1",,,,"7,1,018,1,+999,9",,,SYN060AAXX  18091 57328 42680 21401 10311 20225 49967 57018 81102;,
07-18T12:00:00,4,31.2,107.5,344.0,"DA XIAN, CH",FM-12,99999,V020,"999,9,C,0000,1","22000,1,9,N","020000,1,N,1","+0293,1","+0227,1","09975,1","06,0000,9,1",,,,"00,1,+99999,9,99,9","00,99,1,00,1,00,1,99999,9,00,1,00,1",,,"99999,9,09591,1","2,1,007,1,+999,9",,,SYN060AAXX  18121 57328 32970 00000 10293 20227 39591 49975 52007;,Q01  00002PRCP06
07-18T15:00:00,4,31.2,107.5,344.0,"DA XIAN, CH",FM-12,99999,V020,"040,1,N,0020,1","22000,1,9,N","012000,1,N,1","+0253,1","+0233,1","09993,1",,,,,"00,1,+99999,9,99,9","00,99,1,00,1,00,1,99999,9,00,1,00,1",,,,"2,1,017,1,+999,9",,,SYN054AAXX  18151 57328 42962 00402 10253 20233 49993 52017;,
07-18T18:00:00,4,31.2,107.5,344.0,"DA XIAN, CH",FM-12,99999,V020,"040,1,N,0010,1","22000,1,9,N","008000,1,N,1","+0241,1","+0232,1","09989,1","06,0000,9,1",,,,"00,1,+99999,9,99,9","00,99,1,00,1,00,1,99999,9,00,1,00,1",,"999,M,+0316,1","99999,9,09606,1","7,1,002,1,+999,9","10,1",,SYN076AAXX  18181 57328 31958 00401 10241 20232 39606 49989 57002 71000 333 10316;,Q01  00002PRCP06
07-18T21:00:00,4,31.2,107.5,344.0,"DA XIAN, CH",FM-12,99999,V020,"040,1,N,0030,1","22000,1,9,N","006000,1,N,1","+0233,1","+0224,1","09987,1","24,0000,2,1",,,,"00,1,+99999,9,99,9","00,99,1,00,1,00,1,99999,9,00,1,00,1",,,,"7,1,002,1,+999,9","10,1",,SYN070AAXX  18211 57328 41956 00403 10233 20224 49987 57002 71000 333 70001;,
07-19T00:00:00,4,31.2,107.5,344.0,"DA XIAN, CH",FM-12,99999,V020,"070,1,N,0020,1","99999,9,9,N","012000,1,N,1","+0245,1","+0223,1","09991,1","06,0000,9,1","24,0000,2,1",,,,"06,99,1,06,1,00,1,99999,9,04,1,00,1",,,"99999,9,09608,1","2,1,004,1,-010,1",,,SYN082AAXX  19001 57328 32962 60702 10245 20223 39608 49991 52004 86040 333 05102 70001;,Q01  00002PRCP06
07-19T03:00:00,4,31.2,107.5,344.0,"DA XIAN, CH",FM-12,99999,V020,"110,1,N,0010,1","99999,9,9,N","020000,1,N,1","+0289,1","+0232,1","09997,1",,,,,,"06,99,1,06,1,00,1,99999,9,04,1,00,1",,,,"2,1,006,1,+999,9",,,SYN060AAXX  19031 57328 42970 61101 10289 20232 49997 52006 86040;,
07-19T06:00:00,4,31.2,107.5,344.0,"DA XIAN, CH",FM-12,99999,V020,"999,9,C,0000,1","03600,1,9,N","030000,1,N,1","+0323,1","+0234,1","09977,1","06,0000,9,1",,,,,"07,99,1,03,1,01,1,01250,1,04,1,99,9",,"999,N,+0228,1","99999,9,09596,1","7,1,018,1,+999,9",,,SYN076AAXX  19061 57328 32680 70000 10323 20234 39596 49977 57018 8314/ 333 20228;,Q01  00002PRCP06
07-19T09:00:00,4,31.2,107.5,344.0,"DA XIAN, CH",FM-12,99999,V020,"270,1,N,0020,1","99999,9,9,N","030000,1,N,1","+0301,1","+0236,1","09971,1",,,,,,"08,99,1,08,1,00,1,99999,9,07,1,99,9",,,,"7,1,008,1,+999,9",,,SYN060AAXX  19091 57328 42980 82702 10301 20236 49971 57008 8807/;,
07-19T12:00:00,4,31.2,107.5,344.0,"DA XIAN, CH",FM-12,99999,V020,"040,1,N,0020,1","01500,1,9,N","030000,1,N,1","+0270,1","+0174,1","09993,1","06,9999,9,9",,,,,"07,99,1,07,1,09,1,01750,1,99,9,99,9",,,"99999,9,09608,1","2,1,020,1,+999,9","95,1",,SYN078AAXX  19121 57328 11780 70402 10270 20174 39608 49993 52020 69901 79500 879//;,
07-19T15:00:00,4,31.2,107.5,344.0,"DA XIAN, CH",FM-12,99999,V020,"040,1,N,0030,1","22000,1,9,N","030000,1,N,1","+0228,1","+0190,1","10007,1",,,"9,1,03,1","8,1,03,1","00,1,+99999,9,99,9","00,99,1,00,1,00,1,99999,9,00,1,00,1",,,,"2,1,014,1,+999,9","00,1",,SYN060AAXX  19151 57328 41980 00403 10228 20190 40007 52014 70098;,
07-19T18:00:00,4,31.2,107.5,344.0,"DA XIAN, CH",FM-12,99999,V020,"040,1,N,0030,1","22000,1,9,N","030000,1,N,1","+0215,1","+0187,1","10008,1","06,0010,9,1",,"9,1,06,1","8,1,06,1","00,1,+99999,9,99,9","00,99,1,00,1,00,1,99999,9,00,1,00,1",,"999,M,+0324,1","99999,9,09624,1","2,1,002,1,+999,9","00,1",,SYN082AAXX  19181 57328 11980 00403 10215 20187 39624 40008 52002 69991 70098 333 10324;,
07-19T21:00:00,4,31.2,107.5,344.0,"DA XIAN, CH",FM-12,99999,V020,"040,1,N,0010,1","22000,1,9,N","012000,1,N,1","+0207,1","+0188,1","10004,1","24,0010,9,1",,,,"00,1,+99999,9,99,9","00,99,1,00,1,00,1,99999,9,00,1,00,1",,,,"7,1,006,1,+999,9",,,SYN064AAXX  19211 57328 42962 00401 10207 20188 40004 57006 333 70009;,
07-20T00:00:00,4,31.2,107.5,344.0,"DA XIAN, CH",FM-12,99999,V020,"020,1,N,0020,1","99999,9,9,N","015000,1,N,1","+0231,1","+0198,1","10018,1","06,0000,9,1","24,0010,9,1",,,,"06,99,1,00,1,00,1,99999,9,00,1,02,1",,,"99999,9,09631,1","2,1,013,1,+020,1",,,SYN082AAXX  20001 57328 32965 60202 10231 20198 39631 40018 52013 80002 333 00251 70009;,Q01  00002PRCP06
07-20T03:00:00,4,31.2,107.5,344.0,"DA XIAN, CH",FM-12,99999,V020,"090,1,N,0010,1","99999,9,9,N","030000,1,N,1","+0286,1","+0205,1","10021,1",,,,,,"07,99,1,00,1,00,1,99999,9,00,1,02,1",,,,"2,1,004,1,+999,9",,,SYN060AAXX  20031 57328 42980 70901 10286 20205 40021 52004 80002;,
07-20T06:00:00,4,31.2,107.5,344.0,"DA XIAN, CH",FM-12,99999,V020,"290,1,N,0020,1","09000,1,9,N","030000,1,N,1","+0318,1","+0212,1","10007,1","06,0000,9,1",,,,,"05,99,1,01,1,01,1,01250,1,00,1,02,1",,"999,N,+0204,1","99999,9,09623,1","7,1,012,1,+999,9",,,SYN076AAXX  20061 57328 32680 52902 10318 20212 39623 40007 57012 81102 333 20204;,Q01  00002PRCP06
07-20T09:00:00,4,31.2,107.5,344.0,"DA XIAN, CH",FM-12,99999,V020,"320,1,N,0010,1","09000,1,9,N","030000,1,N,1","+0326,1","+0220,1","09995,1",,,,,,"06,99,1,01,1,01,1,01250,1,00,1,02,1",,,,"7,1,012,1,+999,9",,,SYN060AAXX  20091 57328 42680 63201 10326 20220 49995 57012 81102;,
07-20T12:00:00,4,31.2,107.5,344.0,"DA XIAN, CH",FM-12,99999,V020,"070,1,N,0010,1","22000,1,9,N","020000,1,N,1","+0291,1","+0228,1","10007,1","06,0000,9,1",,,,,"02,99,1,01,1,00,1,99999,9,04,1,02,1",,,"99999,9,09622,1","2,1,011,1,+999,9",,,SYN066AAXX  20121 57328 32970 20701 10291 20228 39622 40007 52011 81042;,Q01  00002PRCP06
07-20T15:00:00,4,31.2,107.5,344.0,"DA XIAN, CH",FM-12,99999,V020,"020,1,N,0030,1","22000,1,9,N","012000,1,N,1","+0261,1","+0232,1","10028,1",,,,,,"01,99,1,01,1,00,1,99999,9,04,1,00,1",,,,"2,1,022,1,+999,9",,,SYN060AAXX  20151 57328 42962 10203 10261 20232 40028 52022 81040;,
07-20T18:00:00,4,31.2,107.5,344.0,"DA XIAN, CH",FM-12,99999,V020,"040,1,N,0020,1","22000,1,9,N","012000,1,N,1","+0249,1","+0229,1","10033,1","06,0000,9,1",,,,"00,1,+99999,9,99,9","00,99,1,00,1,00,1,99999,9,00,1,00,1",,"999,M,+0326,1","99999,9,09650,1","2,1,006,1,+999,9",,,SYN070AAXX  20181 57328 32962 00402 10249 20229 39650 40033 52006 333 10326;,Q01  00002PRCP06
07-20T21:00:00,4,31.2,107.5,344.0,"DA XIAN, CH",FM-12,99999,V020,"040,1,N,0010,1","99999,9,9,N","011000,1,N,1","+0239,1","+0221,1","10037,1",,,,,,"07,99,1,07,1,00,1,99999,9,04,1,99,9",,,,"2,1,004,1,+999,9",,,SYN060AAXX  20211 57328 42961 70401 10239 20221 40037 52004 8704/;,
07-21T00:00:00,4,31.2,107.5,344.0,"DA XIAN, CH",FM-12,99999,V020,"020,1,N,0020,1","99999,9,9,N","030000,1,N,1","+0255,1","+0217,1","10055,1","06,0000,9,1",,,,,"07,99,1,00,1,00,1,99999,9,00,1,02,1",,,"99999,9,09670,1","2,1,016,1,+004,1",,,SYN076AAXX  21001 57328 32980 70202 10255 20217 39670 40055 52016 80002 333 00402;,Q01  00002PRCP06
07-21T03:00:00,4,31.2,107.5,344.0,"DA XIAN, CH",FM-12,99999,V020,"140,1,N,0020,1","03600,1,9,N","030000,1,N,1","+0305,1","+0208,1","10067,1",,,,,,"07,99,1,01,1,01,1,01250,1,04,1,99,9",,,,"2,1,013,1,+999,9",,,SYN060AAXX  21031 57328 42680 71402 10305 20208 40067 52013 8114/;,
07-21T06:00:00,4,31.2,107.5,344.0,"DA XIAN, CH",FM-12,99999,V020,"090,1,N,0010,1","02100,1,9,N","030000,1,N,1","+0303,1","+0219,1","10070,1","06,0000,9,1",,,,,"08,99,1,08,1,04,1,02250,1,99,9,99,9",,"999,N,+0234,1","99999,9,09685,1","2,1,002,1,+999,9",,,SYN076AAXX  21061 57328 32880 80901 10303 20219 39685 40070 52002 884// 333 20234;,Q01  00002PRCP06
07-21T09:00:00,4,31.2,107.5,344.0,"DA XIAN, CH",FM-12,99999,V020,"140,1,N,0050,1","01500,1,9,N","004000,1,N,1","+0279,1","+0215,1","10075,1",,,,,,"08,99,1,08,1,09,1,01750,1,99,9,99,9",,,,"2,1,002,1,+999,9","95,1",,SYN066AAXX  21091 57328 41740 81405 10279 20215 40075 52002 79500 889//;,
07-21T12:00:00,4,31.2,107.5,344.0,"DA XIAN, CH",FM-12,99999,V020,"040,1,N,0020,1","02100,1,9,N","030000,1,N,1","+0251,1","+0222,1","10084,1","06,9999,9,9",,"9,1,06,1","8,1,06,1",,"07,99,1,07,1,05,1,02250,1,99,9,99,9",,,"99999,9,09695,1","2,1,008,1,+999,9","00,1",,SYN078AAXX  21121 57328 11880 70402 10251 20222 39695 40084 52008 69901 70098 875//;,
07-21T15:00:00,4,31.2,107.5,344.0,"DA XIAN, CH",FM-12,99999,V020,"070,1,N,0020,1","99999,9,9,N","020000,1,N,1","+0245,1","+0217,1","10099,1",,,,,,"07,99,1,07,1,00,1,99999,9,04,1,99,9",,,,"2,1,017,1,+999,9",,,SYN060AAXX  21151 57328 42970 70702 10245 20217 40099 52017 8704/;,
07-21T18:00:00,4,31.2,107.5,344.0,"DA XIAN, CH",FM-12,99999,V020,"040,1,N,0010,1","99999,9,9,N","020000,1,N,1","+0239,1","+0218,1","10099,1","06,0000,9,1",,,,,"07,99,1,07,1,00,1,99999,9,04,1,99,9",,"999,M,+0313,1","99999,9,09712,1","4,1,000,1,+999,9",,,SYN076AAXX  21181 57328 32970 70401 10239 20218 39712 40099 54000 8704/ 333 10313;,Q01  00002PRCP06
07-21T21:00:00,4,31.2,107.5,344.0,"DA XIAN, CH",FM-12,99999,V020,"070,1,N,0010,1","99999,9,9,N","015000,1,N,1","+0233,1","+0215,1","10094,1","24,0000,2,1",,,,,"07,99,1,07,1,00,1,99999,9,04,1,99,9",,,,"7,1,007,1,+999,9",,,SYN070AAXX  21211 57328 42965 70701 10233 20215 40094 57007 8704/ 333 79999;,
07-22T00:00:00,4,31.2,107.5,344.0,"DA XIAN, CH",FM-12,99999,V020,"040,1,N,0020,1","22000,1,9,N","030000,1,N,1","+0260,1","+0216,1","10101,1","06,0000,9,1","24,0000,2,1",,,,"02,99,1,02,1,00,1,99999,9,04,1,00,1",,,"99999,9,09712,1","2,1,007,1,+040,1",,,SYN082AAXX  22001 57328 32980 20402 10260 20216 39712 40101 52007 82040 333 00401 79999;,Q01  00002PRCP06
07-22T03:00:00,4,31.2,107.5,344.0,"DA XIAN, CH",FM-12,99999,V020,"140,1,N,0020,1","22000,1,9,N","030000,1,N,1","+0311,1","+0207,1","10099,1",,,,,,"02,99,1,02,1,00,1,99999,9,04,1,00,1",,,,"2,1,001,1,+999,9",,,SYN060AAXX  22031 57328 42980 21402 10311 20207 40099 52001 82040;,
07-22T06:00:00,4,31.2,107.5,344.0,"DA XIAN, CH",FM-12,99999,V020,"160,1,N,0020,1","03600,1,9,N","030000,1,N,1","+0315,1","+0220,1","10089,1","06,0000,9,1",,,,,"07,99,1,02,1,01,1,01250,1,04,1,00,1",,"999,N,+0229,1","99999,9,09703,1","7,1,010,1,+999,9",,,SYN076AAXX  22061 57328 32680 71602 10315 20220 39703 40089 57010 82140 333 20229;,Q01  00002PRCP06
07-22T09:00:00,4,31.2,107.5,344.0,"DA XIAN, CH",FM-12,99999,V020,"160,1,N,0040,1","22000,1,9,N","030000,1,N,1","+0321,1","+0220,1","10074,1",,,,,,"04,99,1,02,1,01,1,01250,1,04,1,00,1",,,,"7,1,014,1,+999,9",,,SYN060AAXX  22091 57328 42680 41604 10321 20220 40074 57014 82140;,
07-22T12:00:00,4,31.2,107.5,344.0,"DA XIAN, CH",FM-12,99999,V020,"999,9,C,0000,1","22000,1,9,N","030000,1,N,1","+0299,1","+0214,1","10072,1","06,0000,9,1",,,,"00,1,+99999,9,99,9","00,99,1,00,1,00,1,99999,9,00,1,00,1",,,"99999,9,09687,1","7,1,002,1,+999,9",,,SYN060AAXX  22121 57328 32980 00000 10299 20214 39687 40072 57002;,Q01  00002PRCP06
07-22T15:00:00,4,31.2,107.5,344.0,"DA XIAN, CH",FM-12,99999,V020,"040,1,N,0020,1","22000,1,9,N","030000,1,N,1","+0260,1","+0222,1","10086,1",,,,,"00,1,+99999,9,99,9","00,99,1,00,1,00,1,99999,9,00,1,00,1",,,,"2,1,014,1,+999,9",,,SYN054AAXX  22151 57328 42980 00402 10260 20222 40086 52014;,
07-22T18:00:00,4,31.2,107.5,344.0,"DA XIAN, CH",FM-12,99999,V020,"040,1,N,0020,1","22000,1,9,N","020000,1,N,1","+0244,1","+0224,1","10084,1","06,0000,9,1",,,,,"01,99,1,01,1,00,1,99999,9,04,1,00,1",,"999,M,+0328,1","99999,9,09699,1","7,1,002,1,+999,9",,,SYN076AAXX  22181 57328 32970 10402 10244 20224 39699 40084 57002 81040 333 10328;,Q01  00002PRCP06
07-22T21:00:00,4,31.2,107.5,344.0,"DA XIAN, CH",FM-12,99999,V020,"040,1,N,0020,1","22000,1,9,N","015000,1,N,1","+0241,1","+0222,1","10080,1",,,,,,"04,99,1,04,1,00,1,99999,9,04,1,00,1",,,,"7,1,004,1,+999,9",,,SYN060AAXX  22211 57328 42965 40402 10241 20222 40080 57004 84040;,
07-23T00:00:00,4,31.2,107.5,344.0,"DA XIAN, CH",FM-12,99999,V020,"020,1,N,0020,1","22000,1,9,N","030000,1,N,1","+0264,1","+0223,1","10083,1","06,0000,9,1",,,,"00,1,+99999,9,99,9","00,99,1,00,1,00,1,99999,9,00,1,00,1",,,"99999,9,09698,1","2,1,003,1,+001,1",,,SYN070AAXX  23001 57328 32980 00202 10264 20223 39698 40083 52003 333 05100;,Q01  00002PRCP06
07-23T03:00:00,4,31.2,107.5,344.0,"DA XIAN, CH",FM-12,99999,V020,"090,1,N,0030,1","22000,1,9,N","030000,1,N,1","+0327,1","+0216,1","10082,1",,,,,,"01,99,1,01,1,01,1,01250,1,00,1,00,1",,,,"4,1,000,1,+999,9",,,SYN060AAXX  23031 57328 42680 10903 10327 20216 40082 54000 81100;,
07-23T06:00:00,4,31.2,107.5,344.0,"DA XIAN, CH",FM-12,99999,V020,"110,1,N,0020,1","22000,1,9,N","030000,1,N,1","+0335,1","+0208,1","10057,1","06,0000,9,1",,,,,"03,99,1,03,1,01,1,01250,1,00,1,00,1",,"999,N,+0238,1","99999,9,09674,1","7,1,024,1,+999,9",,,SYN076AAXX  23061 57328 32680 31102 10335 20208 39674 40057 57024 83100 333 20238;,Q01  00002PRCP06
07-23T09:00:00,4,31.2,107.5,344.0,"DA XIAN, CH",FM-12,99999,V020,"140,1,N,0020,1","01200,1,9,N","030000,1,N,1","+0336,1","+0210,1","10041,1",,,,,,"06,99,1,06,1,01,1,01250,1,00,1,00,1",,,,"7,1,016,1,+999,9",,,SYN060AAXX  23091 57328 42680 61402 10336 20210 40041 57016 86100;,
07-23T12:00:00,4,31.2,107.5,344.0,"DA XIAN, CH",FM-12,99999,V020,"040,1,N,0010,1","22000,1,9,N","030000,1,N,1","+0311,1","+0228,1","10038,1","06,0000,9,1",,,,"00,1,+99999,9,99,9","00,99,1,00,1,00,1,99999,9,00,1,00,1",,,"99999,9,09655,1","7,1,003,1,+999,9",,,SYN060AAXX  23121 57328 32980 00401 10311 20228 39655 40038 57003;,Q01  00002PRCP06
07-23T15:00:00,4,31.2,107.5,344.0,"DA XIAN, CH",FM-12,99999,V020,"040,1,N,0030,1","99999,9,9,N","020000,1,N,1","+0274,1","+0238,1","10054,1",,,,,,"06,99,1,06,1,00,1,99999,9,04,1,00,1",,,,"2,1,017,1,+999,9",,,SYN060AAXX  23151 57328 42970 60403 10274 20238 40054 52017 86040;,
07-23T18:00:00,4,31.2,107.5,344.0,"DA XIAN, CH",FM-12,99999,V020,"070,1,N,0020,1","22000,1,9,N","015000,1,N,1","+0256,1","+0230,1","10054,1","06,0000,9,1",,,,"00,1,+99999,9,99,9","00,99,1,00,1,00,1,99999,9,00,1,00,1",,"999,M,+0344,1","99999,9,09672,1","4,1,000,1,+999,9",,,SYN070AAXX  23181 57328 32965 00702 10256 20230 39672 40054 54000 333 10344;,Q01  00002PRCP06
07-23T21:00:00,4,31.2,107.5,344.0,"DA XIAN, CH",FM-12,99999,V020,"040,1,N,0020,1","22000,1,9,N","012000,1,N,1","+0243,1","+0226,1","10050,1",,,,,"00,1,+99999,9,99,9","00,99,1,00,1,00,1,99999,9,00,1,00,1",,,,"7,1,005,1,+999,9",,,SYN054AAXX  23211 57328 42962 00402 10243 20226 40050 57005;,
07-24T00:00:00,4,31.2,107.5,344.0,"DA XIAN, CH",FM-12,99999,V020,"040,1,N,0020,1","22000,1,9,N","020000,1,N,1","+0261,1","+0222,1","10058,1","06,0000,9,1",,,,"00,1,+99999,9,99,9","00,99,1,00,1,00,1,99999,9,00,1,00,1",,,"99999,9,09674,1","2,1,007,1,+002,1",,,SYN070AAXX  24001 57328 32970 00402 10261 20222 39674 40058 52007 333 05200;,Q01  00002PRCP06
07-24T03:00:00,4,31.2,107.5,344.0,"DA XIAN, CH",FM-12,99999,V020,"070,1,N,0010,1","22000,1,9,N","030000,1,N,1","+0333,1","+0213,1","10048,1",,,,,"00,1,+99999,9,99,9","00,99,1,00,1,00,1,99999,9,00,1,00,1",,,,"7,1,007,1,+999,9",,,SYN054AAXX  24031 57328 42980 00701 10333 20213 40048 57007;,
07-24T06:00:00,4,31.2,107.5,344.0,"DA XIAN, CH",FM-12,99999,V020,"180,1,N,0010,1","22000,1,9,N","030000,1,N,1","+0351,1","+0216,1","10027,1","06,0000,9,1",,,,,"02,99,1,02,1,01,1,01250,1,00,1,00,1",,"999,N,+0232,1","99999,9,09647,1","7,1,020,1,+999,9",,,SYN076AAXX  24061 57328 32680 21801 10351 20216 39647 40027 57020 82100 333 20232;,Q01  00002PRCP06
07-24T09:00:00,4,31.2,107.5,344.0,"DA XIAN, CH",FM-12,99999,V020,"160,1,N,0030,1","22000,1,9,N","030000,1,N,1","+0349,1","+0207,1","10010,1",,,,,,"02,99,1,02,1,01,1,01250,1,00,1,00,1",,,,"7,1,018,1,+999,9",,,SYN060AAXX  24091 57328 42680 21603 10349 20207 40010 57018 82100;,
07-24T12:00:00,4,31.2,107.5,344.0,"DA XIAN, CH",FM-12,99999,V020,"999,9,C,0000,1","22000,1,9,N","030000,1,N,1","+0321,1","+0229,1","10009,1","06,0000,9,1",,,,"00,1,+99999,9,99,9","00,99,1,00,1,00,1,99999,9,00,1,00,1",,,"99999,9,09628,1","7,1,001,1,+999,9",,,SYN060AAXX  24121 57328 32980 00000 10321 20229 39628 40009 57001;,Q01  00002PRCP06
07-24T15:00:00,4,31.2,107.5,344.0,"DA XIAN, CH",FM-12,99999,V020,"040,1,N,0020,1","22000,1,9,N","015000,1,N,1","+0273,1","+0231,1","10024,1",,,,,"00,1,+99999,9,99,9","00,99,1,00,1,00,1,99999,9,00,1,00,1",,,,"2,1,016,1,+999,9",,,SYN054AAXX  24151 57328 42965 00402 10273 20231 40024 52016;,
07-24T18:00:00,4,31.2,107.5,344.0,"DA XIAN, CH",FM-12,99999,V020,"040,1,N,0020,1","22000,1,9,N","015000,1,N,1","+0257,1","+0231,1","10026,1","06,0000,9,1",,,,"00,1,+99999,9,99,9","00,99,1,00,1,00,1,99999,9,00,1,00,1",,"999,M,+0357,1","99999,9,09646,1","2,1,002,1,+999,9",,,SYN070AAXX  24181 57328 32965 00402 10257 20231 39646 40026 52002 333 10357;,Q01  00002PRCP06
07-24T21:00:00,4,31.2,107.5,344.0,"DA XIAN, CH",FM-12,99999,V020,"040,1,N,0030,1","22000,1,9,N","015000,1,N,1","+0245,1","+0225,1","10022,1",,,,,"00,1,+99999,9,99,9","00,99,1,00,1,00,1,99999,9,00,1,00,1",,,,"7,1,005,1,+999,9",,,SYN054AAXX  24211 57328 42965 00403 10245 20225 40022 57005;,
07-25T00:00:00,4,31.2,107.5,344.0,"DA XIAN, CH",FM-12,99999,V020,"040,1,N,0040,1","22000,1,9,N","030000,1,N,1","+0259,1","+0221,1","10027,1","06,0000,9,1",,,,,"01,99,1,00,1,00,1,99999,9,00,1,01,1",,,"99999,9,09645,1","2,1,004,1,+003,1",,,SYN076AAXX  25001 57328 32980 10404 10259 20221 39645 40027 52004 80001 333 05300;,Q01  00002PRCP06
07-25T03:00:00,4,31.2,107.5,344.0,"DA XIAN, CH",FM-12,99999,V020,"020,1,N,0030,1","22000,1,9,N","030000,1,N,1","+0321,1","+0230,1","10022,1",,,,,"00,1,+99999,9,99,9","00,99,1,00,1,00,1,99999,9,00,1,00,1",,,,"7,1,004,1,+999,9",,,SYN054AAXX  25031 57328 42980 00203 10321 20230 40022 57004;,
07-25T06:00:00,4,31.2,107.5,344.0,"DA XIAN, CH",FM-12,99999,V020,"090,1,N,0030,1","22000,1,9,N","030000,1,N,1","+0345,1","+0205,1","10001,1","06,0000,9,1",,,,,"02,99,1,02,1,01,1,01250,1,00,1,00,1",,"999,N,+0242,1","99999,9,09621,1","7,1,020,1,+999,9",,,SYN076AAXX  25061 57328 32680 20903 10345 20205 39621 40001 57020 82100 333 20242;,Q01  00002PRCP06
07-25T09:00:00,4,31.2,107.5,344.0,"DA XIAN, CH",FM-12,99999,V020,"140,1,N,0030,1","22000,1,9,N","030000,1,N,1","+0353,1","+0222,1","09985,1",,,,,,"01,99,1,01,1,01,1,01250,1,00,1,00,1",,,,"7,1,015,1,+999,9",,,SYN060AAXX  25091 57328 42680 11403 10353 20222 49985 57015 81100;,
07-25T12:00:00,4,31.2,107.5,344.0,"DA XIAN, CH",FM-12,99999,V020,"040,1,N,0020,1","22000,1,9,N","030000,1,N,1","+0324,1","+0231,1","09991,1","06,0000,9,1",,,,,"02,99,1,00,1,00,1,99999,9,00,1,01,1",,,"99999,9,09611,1","2,1,005,1,+999,9",,,SYN066AAXX  25121 57328 32980 20402 10324 20231 39611 49991 52005 80001;,Q01  00002PRCP06
07-25T15:00:00,4,31.2,107.5,344.0,"DA XIAN, CH",FM-12,99999,V020,"070,1,N,0010,1","22000,1,9,N","020000,1,N,1","+0281,1","+0236,1","10003,1",,,,,,"02,99,1,02,1,00,1,99999,9,04,1,00,1",,,,"2,1,012,1,+999,9",,,SYN060AAXX  25151 57328 42970 20701 10281 20236 40003 52012 82040;,
07-25T18:00:00,4,31.2,107.5,344.0,"DA XIAN, CH",FM-12,99999,V020,"040,1,N,0030,1","22000,1,9,N","015000,1,N,1","+0261,1","+0229,1","10006,1","06,0000,9,1",,,,"00,1,+99999,9,99,9","00,99,1,00,1,00,1,99999,9,00,1,00,1",,"999,M,+0359,1","99999,9,09626,1","2,1,003,1,+999,9",,,SYN070AAXX  25181 57328 32965 00403 10261 20229 39626 40006 52003 333 10359;,Q01  00002PRCP06
07-25T21:00:00,4,31.2,107.5,344.0,"DA XIAN, CH",FM-12,99999,V020,"040,1,N,0020,1","22000,1,9,N","015000,1,N,1","+0245,1","+0223,1","10010,1",,,,,"00,1,+99999,9,99,9","00,99,1,00,1,00,1,99999,9,00,1,00,1",,,,"2,1,004,1,+999,9",,,SYN054AAXX  25211 57328 42965 00402 10245 20223 40010 52004;,
07-26T00:00:00,4,31.2,107.5,344.0,"DA XIAN, CH",FM-12,99999,V020,"040,1,N,0030,1","99999,9,9,N","015000,1,N,1","+0254,1","+0223,1","10025,1","06,0000,9,1",,,,,"07,99,1,07,1,00,1,99999,9,04,1,99,9",,,"99999,9,09643,1","2,1,013,1,+000,1",,,SYN076AAXX  26001 57328 32965 70403 10254 20223 39643 40025 52013 8704/ 333 00051;,Q01  00002PRCP06
07-26T03:00:00,4,31.2,107.5,344.0,"DA XIAN, CH",FM-12,99999,V020,"020,1,N,0030,1","99999,9,9,N","030000,1,N,1","+0302,1","+0216,1","10025,1",,,,,,"07,99,1,07,1,00,1,99999,9,04,1,99,9",,,,"4,1,000,1,+999,9",,,SYN060AAXX  26031 57328 42980 70203 10302 20216 40025 54000 8704/;,
07-26T06:00:00,4,31.2,107.5,344.0,"DA XIAN, CH",FM-12,99999,V020,"020,1,N,0030,1","99999,9,9,N","030000,1,N,1","+0325,1","+0228,1","10013,1","06,0000,9,1",,,,,"07,99,1,07,1,00,1,99999,9,04,1,99,9",,"999,N,+0241,1","99999,9,09632,1","7,1,011,1,+999,9",,,SYN076AAXX  26061 57328 32980 70203 10325 20228 39632 40013 57011 8704/ 333 20241;,Q01  00002PRCP06
07-26T09:00:00,4,31.2,107.5,344.0,"DA XIAN, CH",FM-12,99999,V020,"040,1,N,0030,1","99999,9,9,N","030000,1,N,1","+0323,1","+0226,1","10003,1",,,,,,"07,99,1,07,1,00,1,99999,9,04,1,99,9",,,,"7,1,011,1,+999,9",,,SYN060AAXX  26091 57328 42980 70403 10323 20226 40003 57011 8704/;,
07-26T12:00:00,4,31.2,107.5,344.0,"DA XIAN, CH",FM-12,99999,V020,"040,1,N,0020,1","99999,9,9,N","030000,1,N,1","+0302,1","+0240,1","10014,1","06,0000,9,1",,,,,"06,99,1,04,1,00,1,99999,9,04,1,02,1",,,"99999,9,09631,1","2,1,010,1,+999,9",,,SYN066AAXX  26121 57328 32980 60402 10302 20240 39631 40014 52010 84042;,Q01  00002PRCP06
07-26T15:00:00,4,31.2,107.5,344.0,"DA XIAN, CH",FM-12,99999,V020,"040,1,N,0030,1","22000,1,9,N","020000,1,N,1","+0255,1","+0235,1","10027,1",,,,,"00,1,+99999,9,99,9","00,99,1,00,1,00,1,99999,9,00,1,00,1",,,,"2,1,013,1,+999,9",,,SYN054AAXX  26151 57328 42970 00403 10255 20235 40027 52013;,
07-26T18:00:00,4,31.2,107.5,344.0,"DA XIAN, CH",FM-12,99999,V020,"040,1,N,0030,1","22000,1,9,N","015000,1,N,1","+0248,1","+0228,1","10022,1","06,0000,9,1",,,,,"01,99,1,01,1,00,1,99999,9,04,1,00,1",,"999,M,+0334,1","99999,9,09640,1","7,1,004,1,+999,9",,,SYN076AAXX  26181 57328 32965 10403 10248 20228 39640 40022 57004 81040 333 10334;,Q01  00002PRCP06
07-26T21:00:00,4,31.2,107.5,344.0,"DA XIAN, CH",FM-12,99999,V020,"040,1,N,0030,1","22000,1,9,N","012000,1,N,1","+0242,1","+0220,1","10023,1",,,,,,"02,99,1,02,1,00,1,99999,9,04,1,00,1",,,,"4,1,000,1,+999,9",,,SYN060AAXX  26211 57328 42962 20403 10242 20220 40023 54000 82040;,
07-27T00:00:00,4,31.2,107.5,344.0,"DA XIAN, CH",FM-12,99999,V020,"020,1,N,0030,1","99999,9,9,N","015000,1,N,1","+0253,1","+0218,1","10039,1","06,0000,9,1",,,,,"06,99,1,06,1,00,1,99999,9,04,1,00,1",,,"99999,9,09655,1","2,1,015,1,+001,1",,,SYN076AAXX  27001 57328 32965 60203 10253 20218 39655 40039 52015 86040 333 00100;,Q01  00002PRCP06
07-27T03:00:00,4,31.2,107.5,344.0,"DA XIAN, CH",FM-12,99999,V020,"040,1,N,0020,1","99999,9,9,N","020000,1,N,1","+0307,1","+0220,1","10047,1",,,,,,"07,99,1,07,1,00,1,99999,9,04,1,99,9",,,,"2,1,008,1,+999,9",,,SYN060AAXX  27031 57328 42970 70402 10307 20220 40047 52008 8704/;,
07-27T06:00:00,4,31.2,107.5,344.0,"DA XIAN, CH",FM-12,99999,V020,"999,9,C,0000,1","22000,1,9,N","030000,1,N,1","+0335,1","+0229,1","10036,1","06,0000,9,1",,,,,"03,99,1,03,1,00,1,99999,9,04,1,00,1",,"999,N,+0241,1","99999,9,09654,1","7,1,009,1,+999,9",,,SYN075AAXX  27061 57328 32980 30000 10335 20229 39654 40036 5700983040 333 20241;,Q01  00002PRCP06
07-27T09:00:00,4,31.2,107.5,344.0,"DA XIAN, CH",FM-12,99999,V020,"340,1,N,0020,1","22000,1,9,N","030000,1,N,1","+0339,1","+0222,1","10021,1",,,,,,"02,99,1,00,1,00,1,99999,9,00,1,02,1",,,,"7,1,015,1,+999,9",,,SYN060AAXX  27091 57328 42980 23402 10339 20222 40021 57015 80002;,
07-27T12:00:00,4,31.2,107.5,344.0,"DA XIAN, CH",FM-12,99999,V020,"040,1,N,0030,1","22000,1,9,N","030000,1,N,1","+0299,1","+0234,1","10029,1","06,0000,9,1",,,,,"02,99,1,02,1,00,1,99999,9,04,1,00,1",,,"99999,9,09645,1","2,1,006,1,+999,9",,,SYN066AAXX  27121 57328 32980 20403 10299 20234 39645 40029 52006 82040;,Q01  00002PRCP06
07-27T15:00:00,4,31.2,107.5,344.0,"DA XIAN, CH",FM-12,99999,V020,"040,1,N,0030,1","22000,1,9,N","020000,1,N,1","+0271,1","+0232,1","10043,1",,,,,,"03,99,1,03,1,00,1,99999,9,04,1,00,1",,,,"2,1,015,1,+999,9",,,SYN060AAXX  27151 57328 42970 30403 10271 20232 40043 52015 83040;,
07-27T18:00:00,4,31.2,107.5,344.0,"DA XIAN, CH",FM-12,99999,V020,"020,1,N,0030,1","22000,1,9,N","015000,1,N,1","+0254,1","+0235,1","10042,1","06,0000,9,1",,,,"00,1,+99999,9,99,9","00,99,1,00,1,00,1,99999,9,00,1,00,1",,"999,M,+0349,1","99999,9,09660,1","4,1,000,1,+999,9",,,SYN070AAXX  27181 57328 32965 00203 10254 20235 39660 40042 54000 333 10349;,Q01  00002PRCP06
07-27T21:00:00,4,31.2,107.5,344.0,"DA XIAN, CH",FM-12,99999,V020,"040,1,N,0020,1","22000,1,9,N","015000,1,N,1","+0245,1","+0231,1","10044,1",,,,,,"02,99,1,02,1,00,1,99999,9,04,1,00,1",,,,"2,1,002,1,+999,9",,,SYN060AAXX  27211 57328 42965 20402 10245 20231 40044 52002 82040;,
07-28T00:00:00,4,31.2,107.5,344.0,"DA XIAN, CH",FM-12,99999,V020,"999,9,C,0000,1","22000,1,9,N","015000,1,N,1","+0257,1","+0234,1","10062,1","06,0000,9,1",,,,,"02,99,1,02,1,00,1,99999,9,04,1,00,1",,,"99999,9,09677,1","2,1,015,1,+002,1",,,SYN076AAXX  28001 57328 32965 20000 10257 20234 39677 40062 52015 82040 333 00200;,Q01  00002PRCP06
07-28T03:00:00,4,31.2,107.5,344.0,"DA XIAN, CH",FM-12,99999,V020,"999,9,C,0000,1","22000,1,9,N","015000,1,N,1","+0313,1","+0234,1","10058,1",,,,,"00,1,+99999,9,99,9","00,99,1,00,1,00,1,99999,9,00,1,00,1",,,,"7,1,002,1,+999,9",,,SYN054AAXX  28031 57328 42965 00000 10313 20234 40058 57002;,
07-28T06:00:00,4,31.2,107.5,344.0,"DA XIAN, CH",FM-12,99999,V020,"040,1,N,0020,1","22000,1,9,N","015000,1,N,1","+0341,1","+0236,1","10037,1","06,0000,9,1",,,,,"01,99,1,01,1,01,1,01250,1,00,1,00,1",,"999,N,+0243,1","99999,9,09656,1","7,1,019,1,+999,9",,,SYN076AAXX  28061 57328 32665 10402 10341 20236 39656 40037 57019 81100 333 20243;,Q01  00002PRCP06
07-28T09:00:00,4,31.2,107.5,344.0,"DA XIAN, CH",FM-12,99999,V020,"999,9,C,0000,1","03600,1,9,N","020000,1,N,1","+0347,1","+0235,1","10015,1",,,,,,"06,99,1,01,1,01,1,01250,1,04,1,00,1",,,,"7,1,022,1,+999,9",,,SYN060AAXX  28091 57328 42670 60000 10347 20235 40015 57022 81140;,
07-28T12:00:00,4,31.2,107.5,344.0,"DA XIAN, CH",FM-12,99999,V020,"040,1,N,0020,1","22000,1,9,N","020000,1,N,1","+0321,1","+0243,1","10018,1","06,0000,9,1",,,,,"01,99,1,00,1,00,1,99999,9,00,1,01,1",,,"99999,9,09636,1","2,1,002,1,+999,9",,,SYN066AAXX  28121 57328 32970 10402 10321 20243 39636 40018 52002 80001;,Q01  00002PRCP06
07-28T15:00:00,4,31.2,107.5,344.0,"DA XIAN, CH",FM-12,99999,V020,"040,1,N,0020,1","22000,1,9,N","020000,1,N,1","+0277,1","+0242,1","10044,1",,,,,"00,1,+99999,9,99,9","00,99,1,00,1,00,1,99999,9,00,1,00,1",,,,"2,1,026,1,+999,9",,,SYN054AAXX  28151 57328 42970 00402 10277 20242 40044 52026;,
07-28T18:00:00,4,31.2,107.5,344.0,"DA XIAN, CH",FM-12,99999,V020,"040,1,N,0020,1","22000,1,9,N","015000,1,N,1","+0263,1","+0237,1","10040,1","06,0000,9,1",,,,"00,1,+99999,9,99,9","00,99,1,00,1,00,1,99999,9,00,1,00,1",,"999,M,+0353,1","99999,9,09659,1","7,1,003,1,+999,9",,,SYN070AAXX  28181 57328 32965 00402 10263 20237 39659 40040 57003 333 10353;,Q01  00002PRCP06
07-28T21:00:00,4,31.2,107.5,344.0,"DA XIAN, CH",FM-12,99999,V020,"040,1,N,0040,1","22000,1,9,N","012000,1,N,1","+0257,1","+0234,1","10040,1",,,,,"00,1,+99999,9,99,9","00,99,1,00,1,00,1,99999,9,00,1,00,1",,,,"4,1,000,1,+999,9",,,SYN054AAXX  28211 57328 42962 00404 10257 20234 40040 54000;,
07-29T00:00:00,4,31.2,107.5,344.0,"DA XIAN, CH",FM-12,99999,V020,"040,1,N,0020,1","22000,1,9,N","012000,1,N,1","+0271,1","+0229,1","10051,1","06,0000,9,1",,,,,"01,99,1,01,1,00,1,99999,9,04,1,00,1",,,"99999,9,09669,1","2,1,010,1,+001,1",,,SYN076AAXX  29001 57328 32962 10402 10271 20229 39669 40051 52010 81040 333 05101;,Q01  00002PRCP06
07-29T03:00:00,4,31.2,107.5,344.0,"DA XIAN, CH",FM-12,99999,V020,"040,1,N,0030,1","22000,1,9,N","020000,1,N,1","+0328,1","+0244,1","10051,1",,,,,"00,1,+99999,9,99,9","00,99,1,00,1,00,1,99999,9,00,1,00,1",,,,"2,1,001,1,+999,9",,,SYN054AAXX  29031 57328 42970 00403 10328 20244 40051 52001;,
07-29T06:00:00,4,31.2,107.5,344.0,"DA XIAN, CH",FM-12,99999,V020,"320,1,N,0010,1","22000,1,9,N","030000,1,N,1","+0360,1","+0219,1","10033,1","06,0000,9,1",,,,,"02,99,1,02,1,01,1,01250,1,00,1,00,1",,"999,N,+0251,1","99999,9,09653,1","7,1,017,1,+999,9",,,SYN076AAXX  29061 57328 32680 23201 10360 20219 39653 40033 57017 82100 333 20251;,Q01  00002PRCP06
07-29T09:00:00,4,31.2,107.5,344.0,"DA XIAN, CH",FM-12,99999,V020,"040,1,N,0020,1","22000,1,9,N","030000,1,N,1","+0369,1","+0220,1","10015,1",,,,,,"01,99,1,01,1,01,1,01250,1,00,1,00,1",,,,"7,1,017,1,+999,9",,,SYN060AAXX  29091 57328 42680 10402 10369 20220 40015 57017 81100;,
07-29T12:00:00,4,31.2,107.5,344.0,"DA XIAN, CH",FM-12,99999,V020,"999,9,C,0000,1","99999,9,9,N","020000,1,N,1","+0332,1","+0236,1","10028,1","06,0000,9,1",,,,,"06,99,1,00,1,00,1,99999,9,00,1,02,1",,,"99999,9,09647,1","2,1,011,1,+999,9",,,SYN066AAXX  29121 57328 32970 60000 10332 20236 39647 40028 52011 80002;,Q01  00002PRCP06
07-29T15:00:00,4,31.2,107.5,344.0,"DA XIAN, CH",FM-12,99999,V020,"040,1,N,0020,1","22000,1,9,N","015000,1,N,1","+0296,1","+0238,1","10044,1",,,,,,"02,99,1,00,1,00,1,99999,9,00,1,02,1",,,,"2,1,017,1,+999,9",,,SYN060AAXX  29151 57328 42965 20402 10296 20238 40044 52017 80002;,
07-29T18:00:00,4,31.2,107.5,344.0,"DA XIAN, CH",FM-12,99999,V020,"070,1,N,0030,1","03600,1,9,N","012000,1,N,1","+0278,1","+0237,1","10039,1","06,0000,9,1",,,,,"06,99,1,01,1,09,1,01750,1,04,1,00,1",,"999,M,+0369,1","99999,9,09660,1","7,1,004,1,+999,9","13,1",,SYN082AAXX  29181 57328 31762 60703 10278 20237 39660 40039 57004 71300 81940 333 10369;,Q01  00002PRCP06
07-29T21:00:00,4,31.2,107.5,344.0,"DA XIAN, CH",FM-12,99999,V020,"020,1,N,0030,1","01500,1,9,N","012000,1,N,1","+0269,1","+0232,1","10041,1","24,0000,2,1",,"9,1,03,1",,,"08,99,1,08,1,09,1,01750,1,99,9,99,9",,,,"2,1,002,1,+999,9","80,1",,SYN076AAXX  29211 57328 41762 80203 10269 20232 40041 52002 78090 889// 333 79999;,
07-30T00:00:00,4,31.2,107.5,344.0,"DA XIAN, CH",FM-12,99999,V020,"020,1,N,0040,1","03600,1,9,N","015000,1,N,1","+0269,1","+0229,1","10053,1","06,9999,9,9","24,0000,2,1","9,1,06,1","8,1,06,1",,"06,99,1,01,1,01,1,01250,1,04,1,00,1",,,"99999,9,09671,1","2,1,009,1,+000,1","00,1",,SYN094AAXX  30001 57328 11665 60204 10269 20229 39671 40053 52009 69901 70098 81140 333 00000 79999;,
07-30T03:00:00,4,31.2,107.5,344.0,"DA XIAN, CH",FM-12,99999,V020,"020,1,N,0030,1","22000,1,9,N","030000,1,N,1","+0317,1","+0241,1","10054,1",,,,,"00,1,+99999,9,99,9","00,99,1,00,1,00,1,99999,9,00,1,00,1",,,,"2,1,002,1,+999,9",,,SYN054AAXX  30031 57328 42980 00203 10317 20241 40054 52002;,
07-30T06:00:00,4,31.2,107.5,344.0,"DA XIAN, CH",FM-12,99999,V020,"220,1,N,0030,1","01200,1,9,N","030000,1,N,1","+0339,1","+0235,1","10033,1","06,0000,9,1",,,,,"06,99,1,06,1,01,1,01250,1,00,1,00,1",,"999,N,+0260,1","99999,9,09653,1","7,1,020,1,+999,9",,,SYN076AAXX  30061 57328 32680 62203 10339 20235 39653 40033 57020 86100 333 20260;,Q01  00002PRCP06
07-30T09:00:00,4,31.2,107.5,344.0,"DA XIAN, CH",FM-12,99999,V020,"250,1,N,0060,1","01500,1,9,N","015000,1,N,1","+0287,1","+0248,1","10041,1",,,,,,"08,99,1,08,1,09,1,01750,1,99,9,99,9",,,,"2,1,004,1,+999,9","95,1",,SYN066AAXX  30091 57328 41765 82506 10287 20248 40041 52004 79500 889//;,
07-30T12:00:00,4,31.2,107.5,344.0,"DA XIAN, CH",FM-12,99999,V020,"040,1,N,0010,1","01500,1,9,N","015000,1,N,1","+0237,1","+0237,1","10057,1","06,0511,9,1",,"9,1,06,1","8,1,06,1",,"08,99,1,08,1,09,1,01750,1,99,9,99,9",,,"99999,9,09669,1","2,1,012,1,+999,9","95,1",,SYN078AAXX  30121 57328 11765 80401 10237 20237 39669 40057 52012 60511 79598 889//;,
07-30T15:00:00,4,31.2,107.5,344.0,"DA XIAN, CH",FM-12,99999,V020,"140,1,N,0020,1","99999,9,9,N","012000,1,N,1","+0241,1","+0235,1","10065,1",,,"8,1,03,1",,,"08,99,1,08,1,00,1,99999,9,02,1,99,9",,,,"2,1,011,1,+999,9","00,1",,SYN066AAXX  30151 57328 41962 81402 10241 20235 40065 52011 70080 8802/;,
07-30T18:00:00,4,31.2,107.5,344.0,"DA XIAN, CH",FM-12,99999,V020,"040,1,N,0020,1","99999,9,9,N","012000,1,N,1","+0241,1","+0238,1","10053,1","06,9999,9,9",,"8,1,06,1",,,"06,99,1,06,1,00,1,99999,9,04,1,00,1",,"999,M,+0360,1","99999,9,09670,1","7,1,010,1,+999,9","00,1",,SYN088AAXX  30181 57328 11962 60402 10241 20238 39670 40053 57010 69901 70080 86040 333 10360;,
07-30T21:00:00,4,31.2,107.5,344.0,"DA XIAN, CH",FM-12,99999,V020,"040,1,N,0020,1","99999,9,9,N","008000,1,N,1","+0243,1","+0237,1","10049,1","24,0508,9,1",,,,,"08,99,1,08,1,00,1,99999,9,02,1,99,9",,,,"7,1,007,1,+999,9","10,1",,SYN076AAXX  30211 57328 41958 80402 10243 20237 40049 57007 71000 8802/ 333 70507;,
07-31T00:00:00,4,31.2,107.5,344.0,"DA XIAN, CH",FM-12,99999,V020,"999,9,C,0000,1","99999,9,9,N","007000,1,N,1","+0250,1","+9999,9","10062,1","06,0020,9,1","24,0526,9,1",,,,"08,99,1,02,1,09,1,01750,1,99,9,99,9",,,"99999,9,09673,1","2,1,010,1,+000,1","80,1",,SYN094AAXX  31001 57328 11757 80000 10250 20043 39673 40062 52010 60021 78000 829// 333 00052 70527;,
07-31T03:00:00,4,31.2,107.5,344.0,"DA XIAN, CH",FM-12,99999,V020,"040,1,N,0020,1","02100,1,9,N","015000,1,N,1","+0261,1","+0244,1","10067,1",,,"8,1,03,1","6,1,03,1",,"08,99,1,08,1,05,1,02250,1,99,9,99,9",,,,"2,1,006,1,+999,9","60,1",,SYN066AAXX  31031 57328 41865 80402 10261 20244 40067 52006 76086 885//;,
07-31T06:00:00,4,31.2,107.5,344.0,"DA XIAN, CH",FM-12,99999,V020,"020,1,N,0030,1","99999,9,9,N","020000,1,N,1","+0295,1","+0253,1","10043,1","06,9999,9,9",,"8,1,06,1","6,1,06,1",,"07,99,1,07,1,00,1,99999,9,04,1,99,9",,"999,N,+0225,1","99999,9,09658,1","7,1,021,1,+999,9","00,1",,SYN088AAXX  31061 57328 11970 70203 10295 20253 39658 40043 57021 69911 70086 8704/ 333 20225;,
07-31T09:00:00,4,31.2,107.5,344.0,"DA XIAN, CH",FM-12,99999,V020,"340,1,N,0010,1","01500,1,9,N","015000,1,N,1","+0237,1","+0221,1","10040,1",,,"9,1,03,1","8,1,03,1",,"08,99,1,08,1,09,1,01750,1,99,9,99,9",,,,"7,1,007,1,+999,9","95,1",,SYN066AAXX  31091 57328 41765 83401 10237 20221 40040 57007 79598 889//;,
07-31T12:00:00,4,31.2,107.5,344.0,"DA XIAN, CH",FM-12,99999,V020,"090,1,N,0010,1","22000,1,9,N","025000,1,N,1","+0233,1","+0227,1","10045,1","06,0130,9,1",,"9,1,06,1","8,1,06,1",,"01,99,1,01,1,00,1,99999,9,04,1,00,1",,,"99999,9,09656,1","2,1,005,1,+999,9","00,1",,SYN078AAXX  31121 57328 11975 10901 10233 20227 39656 40045 52005 60131 70098 81040;,
07-31T15:00:00,4,31.2,107.5,344.0,"DA XIAN, CH",FM-12,99999,V020,"040,1,N,0020,1","99999,9,9,N","007000,1,N,1","+0235,1","+0229,1","10047,1",,,,,,"07,99,1,07,1,00,1,99999,9,04,1,99,9",,,,"2,1,003,1,+999,9","10,1",,SYN066AAXX  31151 57328 41957 70402 10235 20229 40047 52003 71000 8704/;,
07-31T18:00:00,4,31.2,107.5,344.0,"DA XIAN, CH",FM-12,99999,V020,"040,1,N,0030,1","99999,9,9,N","005000,1,N,1","+0236,1","+0230,1","10041,1","06,0000,9,1",,,,,"07,99,1,07,1,00,1,99999,9,04,1,99,9",,"999,M,+0312,1","99999,9,09655,1","7,1,004,1,+999,9","10,1",,SYN082AAXX  31181 57328 31950 70403 10236 20230 39655 40041 57004 71000 8704/ 333 10312;,Q01  00002PRCP06
07-31T21:00:00,4,31.2,107.5,344.0,"DA XIAN, CH",FM-12,99999,V020,"999,9,C,0000,1","99999,9,9,N","005000,1,N,1","+0239,1","+0235,1","10034,1","24,0155,9,1",,,,,"08,99,1,08,1,00,1,99999,9,07,1,99,9",,,,"7,1,010,1,+999,9","10,1",,SYN076AAXX  31211 57328 41950 80000 10239 20235 40034 57010 71000 8807/ 333 70154;,
08-01T00:00:00,4,31.2,107.5,344.0,"DA XIAN, CH",FM-12,99999,V020,"999,9,C,0000,1","02100,1,9,N","006000,1,N,1","+0247,1","+0240,1","10041,1","06,0003,9,1","24,0137,9,1","6,1,06,1",,,"08,99,1,08,1,05,1,02250,1,99,9,99,9",,,"99999,9,09652,1","2,1,007,1,-020,1","21,1",,SYN094AAXX  01001 57328 11856 80000 10247 20240 39652 40041 52007 69931 72160 885// 333 05200 70137;,
08-01T03:00:00,4,31.2,107.5,344.0,"DA XIAN, CH",FM-12,99999,V020,"020,1,N,0030,1","22000,1,9,N","012000,1,N,1","+0281,1","+0246,1","10038,1",,,"9,1,03,1","8,1,03,1",,"04,99,1,04,1,00,1,99999,9,04,1,00,1",,,,"4,1,000,1,+999,9","00,1",,SYN066AAXX  01031 57328 41962 40203 10281 20246 40038 54000 70098 84040;,
08-01T06:00:00,4,31.2,107.5,344.0,"DA XIAN, CH",FM-12,99999,V020,"140,1,N,0020,1","01200,1,9,N","020000,1,N,1","+0313,1","+0243,1","10019,1","06,9999,9,9",,"9,1,06,1","8,1,06,1",,"07,99,1,07,1,09,1,01250,1,99,9,99,9",,"999,N,+0229,1","99999,9,09635,1","7,1,017,1,+999,9","95,1",,SYN088AAXX  01061 57328 11670 71402 10313 20243 39635 40019 57017 69901 79598 879// 333 20229;,
08-01T09:00:00,4,31.2,107.5,344.0,"DA XIAN, CH",FM-12,99999,V020,"040,1,N,0020,1","22000,1,9,N","030000,1,N,1","+0336,1","+0249,1","09992,1",,,"9,1,03,1",,,"04,99,1,04,1,01,1,01250,1,00,1,00,1",,,,"7,1,024,1,+999,9","00,1",,SYN066AAXX  01091 57328 41680 40402 10336 20249 49992 57024 70090 84100;,
08-01T12:00:00,4,31.2,107.5,344.0,"DA XIAN, CH",FM-12,99999,V020,"040,1,N,0030,1","22000,1,9,N","030000,1,N,1","+0295,1","+0243,1","09998,1","06,0000,2,1",,"9,1,06,1",,,"02,99,1,00,1,00,1,99999,9,00,1,02,1",,,"99999,9,09615,1","2,1,004,1,+999,9","00,1",,SYN072AAXX  01121 57328 31980 20403 10295 20243 39615 49998 52004 70090 80002;,
08-01T15:00:00,4,31.2,107.5,344.0,"DA XIAN, CH",FM-12,99999,V020,"040,1,N,0010,1","22000,1,9,N","020000,1,N,1","+0275,1","+0244,1","10013,1",,,,,,"02,99,1,00,1,00,1,99999,9,00,1,02,1",,,,"2,1,015,1,+999,9",,,SYN060AAXX  01151 57328 42970 20401 10275 20244 40013 52015 80002;,
08-01T18:00:00,4,31.2,107.5,344.0,"DA XIAN, CH",FM-12,99999,V020,"040,1,N,0030,1","99999,9,9,N","015000,1,N,1","+0264,1","+0243,1","10005,1","06,0000,9,1",,,,,"07,99,1,07,1,00,1,99999,9,04,1,99,9",,"999,M,+0337,1","99999,9,09624,1","7,1,006,1,+999,9",,,SYN076AAXX  01181 57328 32965 70403 10264 20243 39624 40005 57006 8704/ 333 10337;,Q01  00002PRCP06
08-01T21:00:00,4,31.2,107.5,344.0,"DA XIAN, CH",FM-12,99999,V020,"040,1,N,0030,1","99999,9,9,N","011000,1,N,1","+0255,1","+0242,1","09998,1","24,0003,9,1",,,,,"07,99,1,07,1,00,1,99999,9,04,1,99,9",,,,"7,1,006,1,+999,9",,,SYN070AAXX  01211 57328 42961 70403 10255 20242 49998 57006 8704/ 333 70003;,
08-02T00:00:00,4,31.2,107.5,344.0,"DA XIAN, CH",FM-12,99999,V020,"040,1,N,0020,1","22000,1,9,N","012000,1,N,1","+0272,1","+0242,1","10010,1","06,0000,9,1","24,0000,2,1",,,,"04,99,1,04,1,00,1,99999,9,04,1,00,1",,,"99999,9,09628,1","2,1,010,1,-020,1",,,SYN082AAXX  02001 57328 32962 40402 10272 20242 39628 40010 52010 84040 333 05203 79999;,Q01  00002PRCP06
08-02T03:00:00,4,31.2,107.5,344.0,"DA XIAN, CH",FM-12,99999,V020,"140,1,N,0040,1","03600,1,9,N","020000,1,N,1","+0329,1","+0236,1","10015,1",,,,,,"07,99,1,01,1,01,1,00800,1,04,1,99,9",,,,"2,1,007,1,+999,9",,,SYN060AAXX  02031 57328 42570 71404 10329 20236 40015 52007 8114/;,
08-02T06:00:00,4,31.2,107.5,344.0,"DA XIAN, CH",FM-12,99999,V020,"110,1,N,0020,1","03600,1,9,N","030000,1,N,1","+0329,1","+0230,1","10000,1","06,0000,9,1",,,,,"06,99,1,01,1,01,1,01250,1,04,1,00,1",,"999,N,+0252,1","99999,9,09620,1","7,1,015,1,+999,9",,,SYN076AAXX  02061 57328 32680 61102 10329 20230 39620 40000 57015 81140 333 20252;,Q01  00002PRCP06
08-02T09:00:00,4,31.2,107.5,344.0,"DA XIAN, CH",FM-12,99999,V020,"020,1,N,0020,1","03600,1,9,N","030000,1,N,1","+0329,1","+0244,1","09984,1",,,,,,"07,99,1,01,1,01,1,01250,1,04,1,99,9",,,,"7,1,016,1,+999,9",,,SYN060AAXX  02091 57328 42680 70202 10329 20244 49984 57016 8114/;,
08-02T12:00:00,4,31.2,107.5,344.0,"DA XIAN, CH",FM-12,99999,V020,"040,1,N,0020,1","22000,1,9,N","030000,1,N,1","+0311,1","+0250,1","09982,1","06,0000,9,1",,,,,"01,99,1,01,1,00,1,99999,9,04,1,00,1",,,"99999,9,09602,1","7,1,002,1,+999,9",,,SYN066AAXX  02121 57328 32980 10402 10311 20250 39602 49982 57002 81040;,Q01  00002PRCP06
08-02T15:00:00,4,31.2,107.5,344.0,"DA XIAN, CH",FM-12,99999,V020,"040,1,N,0020,1","99999,9,9,N","020000,1,N,1","+0279,1","+0254,1","09993,1",,,,,,"07,99,1,07,1,00,1,99999,9,04,1,99,9",,,,"2,1,012,1,+999,9",,,SYN060AAXX  02151 57328 42970 70402 10279 20254 49993 52012 8704/;,
08-02T18:00:00,4,31.2,107.5,344.0,"DA XIAN, CH",FM-12,99999,V020,"040,1,N,0030,1","99999,9,9,N","030000,1,N,1","+0273,1","+0248,1","09993,1","06,0000,9,1",,,,,"07,99,1,07,1,00,1,99999,9,04,1,99,9",,"999,M,+0349,1","99999,9,09614,1","4,1,000,1,+999,9",,,SYN076AAXX  02181 57328 32980 70403 10273 20248 39614 49993 54000 8704/ 333 10349;,Q01  00002PRCP06
08-02T21:00:00,4,31.2,107.5,344.0,"DA XIAN, CH",FM-12,99999,V020,"040,1,N,0020,1","99999,9,9,N","018000,1,N,1","+0263,1","+0240,1","09986,1",,,,,,"07,99,1,07,1,00,1,99999,9,04,1,99,9",,,,"7,1,008,1,+999,9",,,SYN060AAXX  02211 57328 42968 70402 10263 20240 49986 57008 8704/;,
08-03T00:00:00,4,31.2,107.5,344.0,"DA XIAN, CH",FM-12,99999,V020,"040,1,N,0020,1","99999,9,9,N","012000,1,N,1","+0269,1","+0241,1","10000,1","06,0000,9,1",,,,,"07,99,1,07,1,00,1,99999,9,04,1,99,9",,,"99999,9,09619,1","2,1,013,1,+001,1",,,SYN076AAXX  03001 57328 32962 70402 10269 20241 39619 40000 52013 8704/ 333 05100;,Q01  00002PRCP06
08-03T03:00:00,4,31.2,107.5,344.0,"DA XIAN, CH",FM-12,99999,V020,"040,1,N,0010,1","99999,9,9,N","025000,1,N,1","+0309,1","+0248,1","10005,1",,,,,,"07,99,1,07,1,00,1,99999,9,04,1,99,9",,,,"2,1,005,1,+999,9",,,SYN060AAXX  03031 57328 42975 70401 10309 20248 40005 52005 8704/;,
08-03T06:00:00,4,31.2,107.5,344.0,"DA XIAN, CH",FM-12,99999,V020,"360,1,N,0020,1","22000,1,9,N","025000,1,N,1","+0344,1","+0247,1","09988,1","06,0000,9,1",,,,,"03,99,1,01,1,01,1,01250,1,04,1,00,1",,"999,N,+0257,1","99999,9,09610,1","7,1,014,1,+999,9",,,SYN076AAXX  03061 57328 32675 33602 10344 20247 39610 49988 57014 81140 333 20257;,Q01  00002PRCP06
08-03T09:00:00,4,31.2,107.5,344.0,"DA XIAN, CH",FM-12,99999,V020,"070,1,N,0030,1","22000,1,9,N","030000,1,N,1","+0347,1","+0241,1","09970,1",,,,,,"01,99,1,01,1,01,1,01250,1,00,1,00,1",,,,"7,1,018,1,+999,9",,,SYN060AAXX  03091 57328 42680 10703 10347 20241 49970 57018 81100;,
08-03T12:00:00,4,31.2,107.5,344.0,"DA XIAN, CH",FM-12,99999,V020,"999,9,C,0000,1","22000,1,9,N","030000,1,N,1","+0311,1","+0250,1","09978,1","06,0000,9,1",,,,,"01,99,1,00,1,00,1,99999,9,00,1,01,1",,,"99999,9,09598,1","2,1,006,1,+999,9",,,SYN066AAXX  03121 57328 32980 10000 10311 20250 39598 49978 52006 80001;,Q01  00002PRCP06
08-03T15:00:00,4,31.2,107.5,344.0,"DA XIAN, CH",FM-12,99999,V020,"040,1,N,0020,1","22000,1,9,N","012000,1,N,1","+0282,1","+0254,1","10001,1",,,,,"00,1,+99999,9,99,9","00,99,1,00,1,00,1,99999,9,00,1,00,1",,,,"2,1,023,1,+999,9",,,SYN054AAXX  03151 57328 42962 00402 10282 20254 40001 52023;,
08-03T18:00:00,4,31.2,107.5,344.0,"DA XIAN, CH",FM-12,99999,V020,"040,1,N,0030,1","22000,1,9,N","012000,1,N,1","+0269,1","+0249,1","09995,1","06,0000,9,1",,,,"00,1,+99999,9,99,9","00,99,1,00,1,00,1,99999,9,00,1,00,1",,"999,M,+0355,1","99999,9,09616,1","7,1,005,1,+999,9",,,SYN070AAXX  03181 57328 32962 00403 10269 20249 39616 49995 57005 333 10355;,Q01  00002PRCP06
08-03T21:00:00,4,31.2,107.5,344.0,"DA XIAN, CH",FM-12,99999,V020,"040,1,N,0020,1","22000,1,9,N","008000,1,N,1","+0260,1","+0249,1","09996,1",,,,,,"02,99,1,02,1,00,1,99999,9,04,1,00,1",,,,"2,1,001,1,+999,9","10,1",,SYN066AAXX  03211 57328 41958 20402 10260 20249 49996 52001 71000 82040;,
08-04T00:00:00,4,31.2,107.5,344.0,"DA XIAN, CH",FM-12,99999,V020,"040,1,N,0030,1","99999,9,9,N","008000,1,N,1","+0266,1","+0249,1","10012,1","06,0000,9,1",,,,,"08,99,1,08,1,00,1,99999,9,07,1,99,9",,,"99999,9,09630,1","2,1,013,1,+001,1","10,1",,SYN082AAXX  04001 57328 31958 80403 10266 20249 39630 40012 52013 71000 8807/ 333 00100;,Q01  00002PRCP06
08-04T03:00:00,4,31.2,107.5,344.0,"DA XIAN, CH",FM-12,99999,V020,"040,1,N,0010,1","99999,9,9,N","008000,1,N,1","+0311,1","+0263,1","10015,1",,,,,,"08,99,1,08,1,00,1,99999,9,07,1,99,9",,,,"2,1,004,1,+999,9","10,1",,SYN066AAXX  04031 57328 41958 80401 10311 20263 40015 52004 71000 8807/;,
08-04T06:00:00,4,31.2,107.5,344.0,"DA XIAN, CH",FM-12,99999,V020,"140,1,N,0020,1","01500,1,9,N","003000,1,N,1","+0241,1","+0235,1","10032,1","06,0201,9,1",,"9,1,06,1","8,1,06,1",,"08,99,1,08,1,09,1,01750,1,99,9,99,9",,"999,N,+0239,1","99999,9,09645,1","2,1,011,1,+999,9","95,1",,SYN088AAXX  04061 57328 11730 81402 10241 20235 39645 40032 52011 60201 79598 889// 333 20239;,
08-04T09:00:00,4,31.2,107.5,344.0,"DA XIAN, CH",FM-12,99999,V020,"020,1,N,0040,1","02100,1,9,N","020000,1,N,1","+0245,1","+0231,1","10013,1",,,"9,1,03,1","8,1,03,1",,"07,99,1,07,1,05,1,02250,1,99,9,99,9",,,,"7,1,018,1,+999,9","00,1",,SYN066AAXX  04091 57328 41870 70204 10245 20231 40013 57018 70098 875//;,
08-04T12:00:00,4,31.2,107.5,344.0,"DA XIAN, CH",FM-12,99999,V020,"040,1,N,0030,1","99999,9,9,N","020000,1,N,1","+0246,1","+0232,1","10015,1","06,0051,9,1",,"9,1,06,1","8,1,06,1",,"06,99,1,00,1,00,1,99999,9,00,1,02,1",,,"99999,9,09629,1","2,1,002,1,+999,9","00,1",,SYN078AAXX  04121 57328 11970 60403 10246 20232 39629 40015 52002 60051 70098 80002;,
08-04T15:00:00,4,31.2,107.5,344.0,"DA XIAN, CH",FM-12,99999,V020,"040,1,N,0020,1","99999,9,9,N","012000,1,N,1","+0240,1","+0230,1","10033,1",,,,,,"06,99,1,06,1,00,1,99999,9,04,1,00,1",,,,"2,1,020,1,+999,9",,,SYN060AAXX  04151 57328 42962 60402 10240 20230 40033 52020 86040;,
08-04T18:00:00,4,31.2,107.5,344.0,"DA XIAN, CH",FM-12,99999,V020,"020,1,N,0030,1","99999,9,9,N","012000,1,N,1","+0237,1","+0230,1","10037,1","06,0000,9,1",,,,,"07,99,1,07,1,00,1,99999,9,04,1,99,9",,"999,M,+0320,1","99999,9,09648,1","7,1,001,1,+999,9",,,SYN076AAXX  04181 57328 32962 70203 10237 20230 39648 40037 57001 8704/ 333 10320;,Q01  00002PRCP06
08-04T21:00:00,4,31.2,107.5,344.0,"DA XIAN, CH",FM-12,99999,V020,"040,1,N,0030,1","99999,9,9,N","012000,1,N,1","+0237,1","+0230,1","10034,1","24,0257,9,1",,,,,"07,99,1,07,1,00,1,99999,9,04,1,99,9",,,,"7,1,002,1,+999,9",,,SYN070AAXX  04211 57328 42962 70403 10237 20230 40034 57002 8704/ 333 70256;,
08-05T00:00:00,4,31.2,107.5,344.0,"DA XIAN, CH",FM-12,99999,V020,"040,1,N,0030,1","99999,9,9,N","015000,1,N,1","+0259,1","+0233,1","10041,1","06,0000,9,1","24,0257,9,1",,,,"05,99,1,05,1,00,1,99999,9,04,1,00,1",,,"99999,9,09654,1","2,1,008,1,+020,1",,,SYN082AAXX  05001 57328 32965 50403 10259 20233 39654 40041 52008 85040 333 00251 70256;,Q01  00002PRCP06
08-05T03:00:00,4,31.2,107.5,344.0,"DA XIAN, CH",FM-12,99999,V020,"040,1,N,0030,1","99999,9,9,N","030000,1,N,1","+0287,1","+0233,1","10046,1",,,,,,"06,99,1,06,1,00,1,99999,9,04,1,00,1",,,,"2,1,006,1,+999,9",,,SYN060AAXX  05031 57328 42980 60403 10287 20233 40046 52006 86040;,
08-05T06:00:00,4,31.2,107.5,344.0,"DA XIAN, CH",FM-12,99999,V020,"140,1,N,0020,1","03600,1,9,N","030000,1,N,1","+0295,1","+0223,1","10043,1","06,0000,9,1",,,,,"07,99,1,01,1,01,1,01250,1,04,1,99,9",,"999,N,+0235,1","99999,9,09657,1","7,1,003,1,+999,9",,,SYN076AAXX  05061 57328 32680 71402 10295 20223 39657 40043 57003 8114/ 333 20235;,Q01  00002PRCP06
08-05T09:00:00,4,31.2,107.5,344.0,"DA XIAN, CH",FM-12,99999,V020,"040,1,N,0020,1","99999,9,9,N","030000,1,N,1","+0293,1","+0233,1","10026,1",,,,,,"07,99,1,07,1,00,1,99999,9,04,1,99,9",,,,"7,1,016,1,+999,9",,,SYN060AAXX  05091 57328 42980 70402 10293 20233 40026 57016 8704/;,
08-05T12:00:00,4,31.2,107.5,344.0,"DA XIAN, CH",FM-12,99999,V020,"999,9,C,0000,1","99999,9,9,N","020000,1,N,1","+0278,1","+0218,1","10033,1","06,0000,9,1",,,,,"07,99,1,07,1,00,1,99999,9,04,1,99,9",,,"99999,9,09648,1","2,1,007,1,+999,9",,,SYN066AAXX  05121 57328 32970 70000 10278 20218 39648 40033 52007 8704/;,Q01  00002PRCP06
08-05T15:00:00,4,31.2,107.5,344.0,"DA XIAN, CH",FM-12,99999,V020,"220,1,N,0010,1","99999,9,9,N","012000,1,N,1","+0259,1","+0224,1","10054,1",,,"6,1,03,1",,,"07,99,1,07,1,00,1,99999,9,04,1,99,9",,,,"2,1,021,1,+999,9","00,1",,SYN066AAXX  05151 57328 41962 72201 10259 20224 40054 52021 70060 8704/;,
08-05T18:00:00,4,31.2,107.5,344.0,"DA XIAN, CH",FM-12,99999,V020,"040,1,N,0030,1","99999,9,9,N","012000,1,N,1","+0243,1","+0231,1","10050,1","06,9999,9,9",,"6,1,06,1",,,"07,99,1,07,1,00,1,99999,9,04,1,99,9",,"999,M,+0320,1","99999,9,09665,1","7,1,004,1,+999,9","00,1",,SYN088AAXX  05181 57328 11962 70403 10243 20231 39665 40050 57004 69901 70060 8704/ 333 10320;,
08-05T21:00:00,4,31.2,107.5,344.0,"DA XIAN, CH",FM-12,99999,V020,"040,1,N,0030,1","02100,1,9,N","012000,1,N,1","+0245,1","+0233,1","10048,1","24,0000,9,1",,,,,"08,99,1,08,1,05,1,02250,1,99,9,99,9",,,,"7,1,002,1,+999,9",,,SYN070AAXX  05211 57328 42862 80403 10245 20233 40048 57002 885// 333 79999;,Q01  00002PRCP24
08-06T00:00:00,4,31.2,107.5,344.0,"DA XIAN, CH",FM-12,99999,V020,"040,1,N,0030,1","02100,1,9,N","015000,1,N,1","+0249,1","+0235,1","10064,1","06,0000,9,1","24,0000,9,1",,,,"08,99,1,08,1,05,1,02250,1,99,9,99,9",,,"99999,9,09677,1","2,1,014,1,+020,1",,,SYN082AAXX  06001 57328 32865 80403 10249 20235 39677 40064 52014 885// 333 00251 79999;,Q01  00002PRCP06Q02  00002PRCP24
08-06T03:00:00,4,31.2,107.5,344.0,"DA XIAN, CH",FM-12,99999,V020,"020,1,N,0030,1","99999,9,9,N","020000,1,N,1","+0287,1","+0228,1","10070,1",,,,,,"06,99,1,06,1,00,1,99999,9,04,1,00,1",,,,"2,1,007,1,+999,9",,,SYN060AAXX  06031 57328 42970 60203 10287 20228 40070 52007 86040;,
08-06T06:00:00,4,31.2,107.5,344.0,"DA XIAN, CH",FM-12,99999,V020,"110,1,N,0020,1","03600,1,9,N","030000,1,N,1","+0322,1","+0220,1","10055,1","06,0000,9,1",,,,,"07,99,1,01,1,01,1,01250,1,04,1,99,9",,"999,N,+0239,1","99999,9,09671,1","7,1,013,1,+999,9",,,SYN076AAXX  06061 57328 32680 71102 10322 20220 39671 40055 57013 8114/ 333 20239;,Q01  00002PRCP06
08-06T09:00:00,4,31.2,107.5,344.0,"DA XIAN, CH",FM-12,99999,V020,"220,1,N,0020,1","99999,9,9,N","030000,1,N,1","+0307,1","+0205,1","10045,1",,,,,,"07,99,1,07,1,00,1,99999,9,04,1,99,9",,,,"7,1,010,1,+999,9",,,SYN060AAXX  06091 57328 42980 72202 10307 20205 40045 57010 8704/;,
08-06T12:00:00,4,31.2,107.5,344.0,"DA XIAN, CH",FM-12,99999,V020,"140,1,N,0010,1","22000,1,9,N","030000,1,N,1","+0298,1","+0220,1","10052,1","06,0000,9,1",,,,,"01,99,1,01,1,00,1,99999,9,04,1,00,1",,,"99999,9,09667,1","2,1,006,1,+999,9",,,SYN066AAXX  06121 57328 32980 11401 10298 20220 39667 40052 52006 81040;,Q01  00002PRCP06
08-06T15:00:00,4,31.2,107.5,344.0,"DA XIAN, CH",FM-12,99999,V020,"040,1,N,0020,1","22000,1,9,N","030000,1,N,1","+0257,1","+0228,1","10074,1",,,,,"00,1,+99999,9,99,9","00,99,1,00,1,00,1,99999,9,00,1,00,1",,,,"2,1,021,1,+999,9",,,SYN054AAXX  06151 57328 42980 00402 10257 20228 40074 52021;,
08-06T18:00:00,4,31.2,107.5,344.0,"DA XIAN, CH",FM-12,99999,V020,"040,1,N,0020,1","22000,1,9,N","020000,1,N,1","+0243,1","+0227,1","10067,1","06,0000,9,1",,,,"00,1,+99999,9,99,9","00,99,1,00,1,00,1,99999,9,00,1,00,1",,"999,M,+0329,1","99999,9,09683,1","7,1,005,1,+999,9",,,SYN070AAXX  06181 57328 32970 00402 10243 20227 39683 40067 57005 333 10329;,Q01  00002PRCP06
08-06T21:00:00,4,31.2,107.5,344.0,"DA XIAN, CH",FM-12,99999,V020,"040,1,N,0030,1","22000,1,9,N","012000,1,N,1","+0234,1","+0222,1","10064,1",,,,,,"01,99,1,01,1,00,1,99999,9,04,1,00,1",,,,"7,1,005,1,+999,9",,,SYN060AAXX  06211 57328 42962 10403 10234 20222 40064 57005 81040;,
08-07T00:00:00,4,31.2,107.5,344.0,"DA XIAN, CH",FM-12,99999,V020,"020,1,N,0030,1","99999,9,9,N","015000,1,N,1","+0247,1","+0228,1","10076,1","06,0000,9,1",,,,,"07,99,1,07,1,00,1,99999,9,04,1,99,9",,,"99999,9,09690,1","2,1,012,1,+001,1",,,SYN076AAXX  07001 57328 32965 70203 10247 20228 39690 40076 52012 8704/ 333 00100;,Q01  00002PRCP06
08-07T03:00:00,4,31.2,107.5,344.0,"DA XIAN, CH",FM-12,99999,V020,"020,1,N,0020,1","22000,1,9,N","020000,1,N,1","+0301,1","+0239,1","10072,1",,,,,,"01,99,1,01,1,01,1,01250,1,00,1,00,1",,,,"7,1,003,1,+999,9",,,SYN060AAXX  07031 57328 42670 10202 10301 20239 40072 57003 81100;,
08-07T06:00:00,4,31.2,107.5,344.0,"DA XIAN, CH",FM-12,99999,V020,"999,9,C,0000,1","01200,1,9,N","030000,1,N,1","+0331,1","+0232,1","10049,1","06,0000,9,1",,,,,"05,99,1,05,1,01,1,01250,1,00,1,00,1",,"999,N,+0233,1","99999,9,09666,1","7,1,021,1,+999,9",,,SYN076AAXX  07061 57328 32680 50000 10331 20232 39666 40049 57021 85100 333 20233;,Q01  00002PRCP06
08-07T09:00:00,4,31.2,107.5,344.0,"DA XIAN, CH",FM-12,99999,V020,"140,1,N,0030,1","01200,1,9,N","030000,1,N,1","+0319,1","+0225,1","10034,1",,,,,,"06,99,1,06,1,01,1,01250,1,00,1,00,1",,,,"7,1,016,1,+999,9",,,SYN060AAXX  07091 57328 42680 61403 10319 20225 40034 57016 86100;,
08-07T12:00:00,4,31.2,107.5,344.0,"DA XIAN, CH",FM-12,99999,V020,"999,9,C,0000,1","99999,9,9,N","030000,1,N,1","+0299,1","+0252,1","10032,1","06,0000,9,1",,,,,"06,99,1,02,1,00,1,99999,9,04,1,01,1",,,"99999,9,09648,1","7,1,002,1,+999,9",,,SYN066AAXX  07121 57328 32980 60000 10299 20252 39648 40032 57002 82041;,Q01  00002PRCP06
08-07T15:00:00,4,31.2,107.5,344.0,"DA XIAN, CH",FM-12,99999,V020,"040,1,N,0030,1","22000,1,9,N","020000,1,N,1","+0267,1","+0244,1","10041,1",,,,,"00,1,+99999,9,99,9","00,99,1,00,1,00,1,99999,9,00,1,00,1",,,,"2,1,010,1,+999,9",,,SYN054AAXX  07151 57328 42970 00403 10267 20244 40041 52010;,
08-07T18:00:00,4,31.2,107.5,344.0,"DA XIAN, CH",FM-12,99999,V020,"040,1,N,0020,1","22000,1,9,N","012000,1,N,1","+0256,1","+0243,1","10031,1","06,0000,9,1",,,,"00,1,+99999,9,99,9","00,99,1,00,1,00,1,99999,9,00,1,00,1",,"999,M,+0336,1","99999,9,09649,1","7,1,009,1,+999,9",,,SYN070AAXX  07181 57328 32962 00402 10256 20243 39649 40031 57009 333 10336;,Q01  00002PRCP06
08-07T21:00:00,4,31.2,107.5,344.0,"DA XIAN, CH",FM-12,99999,V020,"040,1,N,0030,1","99999,9,9,N","012000,1,N,1","+0249,1","+0239,1","10033,1",,,,,,"08,99,1,08,1,00,1,99999,9,07,1,99,9",,,,"2,1,001,1,+999,9",,,SYN060AAXX  07211 57328 42962 80403 10249 20239 40033 52001 8807/;,
08-08T00:00:00,4,31.2,107.5,344.0,"DA XIAN, CH",FM-12,99999,V020,"040,1,N,0030,1","22000,1,9,N","012000,1,N,1","+0263,1","+0237,1","10033,1","06,0000,9,1",,,,"00,1,+99999,9,99,9","00,99,1,00,1,00,1,99999,9,00,1,00,1",,,"99999,9,09650,1","4,1,000,1,+004,1",,,SYN070AAXX  08001 57328 32962 00403 10263 20237 39650 40033 54000 333 05402;,Q01  00002PRCP06
08-08T03:00:00,4,31.2,107.5,344.0,"DA XIAN, CH",FM-12,99999,V020,"020,1,N,0020,1","22000,1,9,N","030000,1,N,1","+0317,1","+0244,1","10034,1",,,,,"00,1,+99999,9,99,9","00,99,1,00,1,00,1,99999,9,00,1,00,1",,,,"2,1,002,1,+999,9",,,SYN054AAXX  08031 57328 42980 00202 10317 20244 40034 52002;,
08-08T06:00:00,4,31.2,107.5,344.0,"DA XIAN, CH",FM-12,99999,V020,"140,1,N,0030,1","22000,1,9,N","030000,1,N,1","+0350,1","+0227,1","10015,1","06,0000,9,1",,,,,"04,99,1,99,9,99,9,01250,1,99,9,99,9",,,"99999,9,09635,1",,,,SYN075AAXX  08061 57328 32680 41403 10350 20227 39635 40015 5717 84100 333 20247;,Q01  00002PRCP06
08-08T09:00:00,4,31.2,107.5,344.0,"DA XIAN, CH",FM-12,99999,V020,"140,1,N,0010,1","22000,1,9,N","030000,1,N,1","+0353,1","+0227,1","09997,1",,,,,,"01,99,1,01,1,01,1,01250,1,00,1,00,1",,,,"7,1,017,1,+999,9",,,SYN060AAXX  08091 57328 42680 11401 10353 20227 49997 57017 81100;,
08-08T12:00:00,4,31.2,107.5,344.0,"DA XIAN, CH",FM-12,99999,V020,"040,1,N,0020,1","22000,1,9,N","030000,1,N,1","+0321,1","+0252,1","09999,1","06,0000,9,1",,,,"00,1,+99999,9,99,9","00,99,1,00,1,00,1,99999,9,00,1,00,1",,,"99999,9,09618,1","4,1,000,1,+999,9",,,SYN060AAXX  08121 57328 32980 00402 10321 20252 39618 49999 54000;,Q01  00002PRCP06
08-08T15:00:00,4,31.2,107.5,344.0,"DA XIAN, CH",FM-12,99999,V020,"040,1,N,0020,1","22000,1,9,N","030000,1,N,1","+0283,1","+0255,1","10008,1",,,,,,"02,99,1,02,1,00,1,99999,9,04,1,00,1",,,,"2,1,010,1,+999,9",,,SYN060AAXX  08151 57328 42980 20402 10283 20255 40008 52010 82040;,
08-08T18:00:00,4,31.2,107.5,344.0,"DA XIAN, CH",FM-12,99999,V020,"040,1,N,0030,1","22000,1,9,N","025000,1,N,1","+0271,1","+0249,1","10007,1","06,0000,9,1",,,,"00,1,+99999,9,99,9","00,99,1,00,1,00,1,99999,9,00,1,00,1",,"999,M,+0360,1","99999,9,09628,1","4,1,000,1,+999,9",,,SYN070AAXX  08181 57328 32975 00403 10271 20249 39628 40007 54000 333 10360;,Q01  00002PRCP06
08-08T21:00:00,4,31.2,107.5,344.0,"DA XIAN, CH",FM-12,99999,V020,"020,1,N,0030,1","22000,1,9,N","012000,1,N,1","+0259,1","+0242,1","10006,1",,,,,"00,1,+99999,9,99,9","00,99,1,00,1,00,1,99999,9,00,1,00,1",,,,"7,1,001,1,+999,9",,,SYN054AAXX  08211 57328 42962 00203 10259 20242 40006 57001;,
08-09T00:00:00,4,31.2,107.5,344.0,"DA XIAN, CH",FM-12,99999,V020,"040,1,N,0030,1","22000,1,9,N","015000,1,N,1","+0274,1","+0241,1","10024,1","06,0000,9,1",,,,"00,1,+99999,9,99,9","00,99,1,00,1,00,1,99999,9,00,1,00,1",,,"99999,9,09643,1","2,1,016,1,+001,1",,,SYN070AAXX  09001 57328 32965 00403 10274 20241 39643 40024 52016 333 05101;,Q01  00002PRCP06
08-09T03:00:00,4,31.2,107.5,344.0,"DA XIAN, CH",FM-12,99999,V020,"020,1,N,0020,1","22000,1,9,N","030000,1,N,1","+0329,1","+0253,1","10024,1",,,,,"00,1,+99999,9,99,9","00,99,1,00,1,00,1,99999,9,00,1,00,1",,,,"2,1,001,1,+999,9",,,SYN054AAXX  09031 57328 42980 00202 10329 20253 40024 52001;,
08-09T06:00:00,4,31.2,107.5,344.0,"DA XIAN, CH",FM-12,99999,V020,"090,1,N,0020,1","22000,1,9,N","030000,1,N,1","+0353,1","+0222,1","10004,1","06,0000,9,1",,,,,"01,99,1,01,1,01,1,01250,1,00,1,00,1",,"999,N,+0253,1","99999,9,09626,1","7,1,018,1,+999,9",,,SYN076AAXX  09061 57328 32680 10902 10353 20222 39626 40004 57018 81100 333 20253;,Q01  00002PRCP06
08-09T09:00:00,4,31.2,107.5,344.0,"DA XIAN, CH",FM-12,99999,V020,"090,1,N,0030,1","22000,1,9,N","030000,1,N,1","+0359,1","+0241,1","09990,1",,,,,,"01,99,1,01,1,01,1,01250,1,00,1,00,1",,,,"7,1,014,1,+999,9",,,SYN060AAXX  09091 57328 42680 10903 10359 20241 49990 57014 81100;,
08-09T12:00:00,4,31.2,107.5,344.0,"DA XIAN, CH",FM-12,99999,V020,"040,1,N,0020,1","22000,1,9,N","030000,1,N,1","+0326,1","+0251,1","09992,1","06,0000,9,1",,,,"00,1,+99999,9,99,9","00,99,1,00,1,00,1,99999,9,00,1,00,1",,,"99999,9,09613,1","2,1,001,1,+999,9",,,SYN060AAXX  09121 57328 32980 00402 10326 20251 39613 49992 52001;,Q01  00002PRCP06
08-09T15:00:00,4,31.2,107.5,344.0,"DA XIAN, CH",FM-12,99999,V020,"040,1,N,0030,1","22000,1,9,N","015000,1,N,1","+0289,1","+0254,1","10005,1",,,,,"00,1,+99999,9,99,9","00,99,1,00,1,00,1,99999,9,00,1,00,1",,,,"2,1,013,1,+999,9",,,SYN054AAXX  09151 57328 42965 00403 10289 20254 40005 52013;,
08-09T18:00:00,4,31.2,107.5,344.0,"DA XIAN, CH",FM-12,99999,V020,"040,1,N,0020,1","22000,1,9,N","012000,1,N,1","+0276,1","+0247,1","10009,1","06,0000,9,1",,,,"00,1,+99999,9,99,9","00,99,1,00,1,00,1,99999,9,00,1,00,1",,"999,M,+0372,1","99999,9,09631,1","2,1,005,1,+999,9",,,SYN070AAXX  09181 57328 32962 00402 10276 20247 39631 40009 52005 333 10372;,Q01  00002PRCP06
08-09T21:00:00,4,31.2,107.5,344.0,"DA XIAN, CH",FM-12,99999,V020,"040,1,N,0030,1","22000,1,9,N","012000,1,N,1","+0267,1","+0244,1","10009,1",,,,,"00,1,+99999,9,99,9","00,99,1,00,1,00,1,99999,9,00,1,00,1",,,,"4,1,000,1,+999,9",,,SYN054AAXX  09211 57328 42962 00403 10267 20244 40009 54000;,
08-10T00:00:00,4,31.2,107.5,344.0,"DA XIAN, CH",FM-12,99999,V020,"070,1,N,0020,1","22000,1,9,N","015000,1,N,1","+0279,1","+0241,1","10026,1","06,0000,9,1",,,,"00,1,+99999,9,99,9","00,99,1,00,1,00,1,99999,9,00,1,00,1",,,"99999,9,09646,1","2,1,015,1,+000,1",,,SYN070AAXX  10001 57328 32965 00702 10279 20241 39646 40026 52015 333 00001;,Q01  00002PRCP06
08-10T03:00:00,4,31.2,107.5,344.0,"DA XIAN, CH",FM-12,99999,V020,"020,1,N,0020,1","22000,1,9,N","030000,1,N,1","+0334,1","+0243,1","10024,1",,,,,"00,1,+99999,9,99,9","00,99,1,00,1,00,1,99999,9,00,1,00,1",,,,"7,1,001,1,+999,9",,,SYN054AAXX  10031 57328 42980 00202 10334 20243 40024 57001;,
08-10T06:00:00,4,31.2,107.5,344.0,"DA XIAN, CH",FM-12,99999,V020,"999,9,C,0000,1","22000,1,9,N","030000,1,N,1","+0361,1","+0225,1","10004,1","06,0000,9,1",,,,,"01,99,1,01,1,01,1,01250,1,00,1,00,1",,"999,N,+0260,1","99999,9,09626,1","7,1,019,1,+999,9",,,SYN076AAXX  10061 57328 32680 10000 10361 20225 39626 40004 57019 81100 333 20260;,Q01  00002PRCP06
08-10T09:00:00,4,31.2,107.5,344.0,"DA XIAN, CH",FM-12,99999,V020,"999,9,C,0000,1","22000,1,9,N","030000,1,N,1","+0373,1","+0233,1","09985,1",,,,,,"01,99,1,01,1,01,1,01250,1,00,1,00,1",,,,"7,1,018,1,+999,9",,,SYN060AAXX  10091 57328 42680 10000 10373 20233 49985 57018 81100;,
08-10T12:00:00,4,31.2,107.5,344.0,"DA XIAN, CH",FM-12,99999,V020,"040,1,N,0030,1","22000,1,9,N","030000,1,N,1","+0333,1","+0252,1","09991,1","06,0000,9,1",,,,,"02,99,1,00,1,00,1,99999,9,00,1,02,1",,,"99999,9,09612,1","2,1,004,1,+999,9",,,SYN066AAXX  10121 57328 32980 20403 10333 20252 39612 49991 52004 80002;,Q01  00002PRCP06
08-10T18:00:00,4,31.2,107.5,344.0,"DA XIAN, CH",FM-12,99999,V020,"040,1,N,0030,1","99999,9,9,N","012000,1,N,1","+0282,1","+0251,1","10003,1","06,0000,9,1",,,,,"07,99,1,00,1,00,1,99999,9,00,1,02,1",,"999,M,+0377,1","99999,9,09626,1","7,1,003,1,+999,9",,,SYN076AAXX  10181 57328 32962 70403 10282 20251 39626 40003 57003 80002 333 10377;,Q01  00002PRCP06
08-10T21:00:00,4,31.2,107.5,344.0,"DA XIAN, CH",FM-12,99999,V020,"040,1,N,0030,1","99999,9,9,N","012000,1,N,1","+0275,1","+0247,1","10003,1",,,,,,"06,99,1,00,1,00,1,99999,9,00,1,02,1",,,,"4,1,000,1,+999,9",,,SYN060AAXX  10211 57328 42962 60403 10275 20247 40003 54000 80002;,
08-11T00:00:00,4,31.2,107.5,344.0,"DA XIAN, CH",FM-12,99999,V020,"040,1,N,0040,1","22000,1,9,N","015000,1,N,1","+0283,1","+0244,1","10021,1","06,0000,9,1",,,,,"02,99,1,02,1,00,1,99999,9,04,1,00,1",,,"99999,9,09641,1","2,1,015,1,+001,1",,,SYN076AAXX  11001 57328 32965 20404 10283 20244 39641 40021 52015 82040 333 05100;,Q01  00002PRCP06
08-11T03:00:00,4,31.2,107.5,344.0,"DA XIAN, CH",FM-12,99999,V020,"020,1,N,0030,1","22000,1,9,N","020000,1,N,1","+0339,1","+0261,1","10018,1",,,,,"00,1,+99999,9,99,9","00,99,1,00,1,00,1,99999,9,00,1,00,1",,,,"7,1,001,1,+999,9",,,SYN054AAXX  11031 57328 42970 00203 10339 20261 40018 57001;,
08-11T06:00:00,4,31.2,107.5,344.0,"DA XIAN, CH",FM-12,99999,V020,"220,1,N,0030,1","22000,1,9,N","030000,1,N,1","+0375,1","+0229,1","10003,1","06,0000,9,1",,,,,"02,99,1,02,1,01,1,01250,1,00,1,00,1",,"999,N,+0268,1","99999,9,09627,1","7,1,013,1,+999,9",,,SYN076AAXX  11061 57328 32680 22203 10375 20229 39627 40003 57013 82100 333 20268;,Q01  00002PRCP06
08-11T09:00:00,4,31.2,107.5,344.0,"DA XIAN, CH",FM-12,99999,V020,"320,1,N,0010,1","22000,1,9,N","030000,1,N,1","+0387,1","+0232,1","09983,1",,,,,,"01,99,1,01,1,01,1,01250,1,00,1,02,1",,,,"7,1,019,1,+999,9",,,SYN060AAXX  11091 57328 42680 13201 10387 20232 49983 57019 81102;,
08-11T12:00:00,4,31.2,107.5,344.0,"DA XIAN, CH",FM-12,99999,V020,"040,1,N,0030,1","22000,1,9,N","030000,1,N,1","+0333,1","+0250,1","09993,1","06,0000,9,1",,,,,"01,99,1,01,1,00,1,99999,9,04,1,00,1",,,"99999,9,09615,1","2,1,007,1,+999,9",,,SYN066AAXX  11121 57328 32980 10403 10333 20250 39615 49993 52007 81040;,Q01  00002PRCP06
08-11T15:00:00,4,31.2,107.5,344.0,"DA XIAN, CH",FM-12,99999,V020,"040,1,N,0030,1","22000,1,9,N","018000,1,N,1","+0297,1","+0250,1","10014,1",,,,,"00,1,+99999,9,99,9","00,99,1,00,1,00,1,99999,9,00,1,00,1",,,,"2,1,021,1,+999,9",,,SYN054AAXX  11151 57328 42968 00403 10297 20250 40014 52021;,
08-11T18:00:00,4,31.2,107.5,344.0,"DA XIAN, CH",FM-12,99999,V020,"040,1,N,0030,1","99999,9,9,N","015000,1,N,1","+0285,1","+0241,1","10014,1","06,0000,9,1",,,,,"08,99,1,99,9,99,9,99999,9,99,9,99,9",,"999,M,+0387,1","99999,9,09637,1","2,1,001,1,+999,9",,,SYN070AAXX  11181 57328 32965 80403 10285 20241 39637 40014 52001 333 10387;,Q01  00002PRCP06
08-11T21:00:00,4,31.2,107.5,344.0,"DA XIAN, CH",FM-12,99999,V020,"040,1,N,0040,1","99999,9,9,N","015000,1,N,1","+0275,1","+0235,1","10013,1",,,,,,"07,99,1,07,1,00,1,99999,9,04,1,99,9",,,,"4,1,000,1,+999,9",,,SYN060AAXX  11211 57328 42965 70404 10275 20235 40013 54000 8704/;,
08-12T00:00:00,4,31.2,107.5,344.0,"DA XIAN, CH",FM-12,99999,V020,"040,1,N,0030,1","22000,1,9,N","030000,1,N,1","+0285,1","+0237,1","10029,1","06,0000,9,1",,,,,"01,99,1,01,1,00,1,99999,9,04,1,00,1",,,"99999,9,09649,1","2,1,012,1,+001,1",,,SYN076AAXX  12001 57328 32980 10403 10285 20237 39649 40029 52012 81040 333 00100;,Q01  00002PRCP06
08-12T03:00:00,4,31.2,107.5,344.0,"DA XIAN, CH",FM-12,99999,V020,"040,1,N,0030,1","99999,9,9,N","030000,1,N,1","+0321,1","+0240,1","10036,1",,,,,,"06,99,1,00,1,00,1,99999,9,00,1,02,1",,,,"2,1,007,1,+999,9",,,SYN060AAXX  12031 57328 42980 60403 10321 20240 40036 52007 80002;,
08-12T06:00:00,4,31.2,107.5,344.0,"DA XIAN, CH",FM-12,99999,V020,"110,1,N,0030,1","99999,9,9,N","030000,1,N,1","+0362,1","+0236,1","10015,1","06,0000,9,1",,,,,"06,99,1,06,1,00,1,99999,9,04,1,00,1",,"999,N,+0266,1","99999,9,09638,1","7,1,018,1,+999,9",,,SYN076AAXX  12061 57328 32980 61103 10362 20236 39638 40015 57018 86040 333 20266;,Q01  00002PRCP06
08-12T09:00:00,4,31.2,107.5,344.0,"DA XIAN, CH",FM-12,99999,V020,"040,1,N,0040,1","99999,9,9,N","030000,1,N,1","+0257,1","+0247,1","10014,1",,,"9,1,03,1","8,1,03,1",,"06,99,1,06,1,00,1,99999,9,04,1,00,1",,,,"7,1,008,1,+999,9","29,1",,SYN066AAXX  12091 57328 41980 60404 10257 20247 40014 57008 72998 86040;,
08-12T12:00:00,4,31.2,107.5,344.0,"DA XIAN, CH",FM-12,99999,V020,"040,1,N,0020,1","22000,1,9,N","025000,1,N,1","+0272,1","+0245,1","10021,1","06,0150,9,1",,"9,1,06,1","8,1,06,1","00,1,+99999,9,99,9","00,99,1,00,1,00,1,99999,9,00,1,00,1",,,"99999,9,09638,1","2,1,008,1,+999,9","00,1","3,06,0170,1",SYN088AAXX  12121 57328 11975 00402 10272 20245 39638 40021 52008 60151 70098 333 91117 91509;,
08-12T15:00:00,4,31.2,107.5,344.0,"DA XIAN, CH",FM-12,99999,V020,"040,1,N,0020,1","02100,1,9,N","012000,1,N,1","+0266,1","+0246,1","10042,1",,,,,,"07,99,1,07,1,05,1,02250,1,99,9,99,9",,,,"2,1,022,1,+999,9",,,SYN060AAXX  12151 57328 42862 70402 10266 20246 40042 52022 875//;,
08-12T18:00:00,4,31.2,107.5,344.0,"DA XIAN, CH",FM-12,99999,V020,"040,1,N,0030,1","99999,9,9,N","012000,1,N,1","+0261,1","+0245,1","10031,1","06,0000,9,1",,,,,"07,99,1,07,1,00,1,99999,9,04,1,99,9",,"999,M,+0364,1","99999,9,09652,1","7,1,008,1,+999,9",,,SYN076AAXX  12181 57328 32962 70403 10261 20245 39652 40031 57008 8704/ 333 10364;,Q01  00002PRCP06
08-12T21:00:00,4,31.2,107.5,344.0,"DA XIAN, CH",FM-12,99999,V020,"040,1,N,0030,1","22000,1,9,N","012000,1,N,1","+0261,1","+0244,1","10030,1","24,0150,9,1",,,,,"02,99,1,02,1,00,1,99999,9,04,1,00,1",,,,"7,1,008,1,+999,9",,,SYN070AAXX  12211 57328 42962 20403 10261 20244 40030 57008 82040 333 70151;,
08-13T00:00:00,4,31.2,107.5,344.0,"DA XIAN, CH",FM-12,99999,V020,"040,1,N,0030,1","22000,1,9,N","015000,1,N,1","+0275,1","+0247,1","10038,1","06,0000,9,1","24,0150,9,1",,,,"01,99,1,01,1,01,1,01250,1,00,1,00,1",,,"99999,9,09654,1","2,1,010,1,+010,1",,,SYN082AAXX  13001 57328 32665 10403 10275 20247 39654 40038 52010 81100 333 00151 70151;,Q01  00002PRCP06
08-13T03:00:00,4,31.2,107.5,344.0,"DA XIAN, CH",FM-12,99999,V020,"140,1,N,0020,1","22000,1,9,N","020000,1,N,1","+0338,1","+0232,1","10045,1",,,,,,"02,99,1,01,1,00,1,99999,9,04,1,02,1",,,,"2,1,010,1,+999,9",,,SYN060AAXX  13031 57328 42970 21402 10338 20232 40045 52010 81042;,
08-13T06:00:00,4,31.2,107.5,344.0,"DA XIAN, CH",FM-12,99999,V020,"040,1,N,0010,1","22000,1,9,N","030000,1,N,1","+0356,1","+0229,1","10025,1","06,0000,9,1",,,,,"01,99,1,01,1,01,1,01250,1,00,1,00,1",,"999,N,+0235,1","99999,9,09645,1","7,1,019,1,+999,9",,,SYN076AAXX  13061 57328 32680 10401 10356 20229 39645 40025 57019 81100 333 20235;,Q01  00002PRCP06
08-13T09:00:00,4,31.2,107.5,344.0,"DA XIAN, CH",FM-12,99999,V020,"040,1,N,0010,1","22000,1,9,N","030000,1,N,1","+0356,1","+0224,1","10004,1",,,,,"00,1,+99999,9,99,9","00,99,1,00,1,00,1,99999,9,00,1,00,1",,,,"7,1,020,1,+999,9",,,SYN054AAXX  13091 57328 42980 00401 10356 20224 40004 57020;,
08-13T12:00:00,4,31.2,107.5,344.0,"DA XIAN, CH",FM-12,99999,V020,"070,1,N,0010,1","22000,1,9,N","020000,1,N,1","+0323,1","+0228,1","10009,1","06,0000,9,1",,,,,"01,99,1,01,1,00,1,99999,9,04,1,00,1",,,"99999,9,09629,1","2,1,004,1,+999,9",,,SYN066AAXX  13121 57328 32970 10701 10323 20228 39629 40009 52004 81040;,Q01  00002PRCP06
08-13T15:00:00,4,31.2,107.5,344.0,"DA XIAN, CH",FM-12,99999,V020,"040,1,N,0020,1","22000,1,9,N","012000,1,N,1","+0287,1","+0237,1","10036,1",,,,,"00,1,+99999,9,99,9","00,99,1,00,1,00,1,99999,9,00,1,00,1",,,,"2,1,027,1,+999,9",,,SYN054AAXX  13151 57328 42962 00402 10287 20237 40036 52027;,
08-13T18:00:00,4,31.2,107.5,344.0,"DA XIAN, CH",FM-12,99999,V020,"040,1,N,0020,1","22000,1,9,N","012000,1,N,1","+0272,1","+0244,1","10039,1","06,0000,9,1",,,,"00,1,+99999,9,99,9","00,99,1,00,1,00,1,99999,9,00,1,00,1",,"999,M,+0361,1","99999,9,09660,1","2,1,004,1,+999,9",,,SYN070AAXX  13181 57328 32962 00402 10272 20244 39660 40039 52004 333 10361;,Q01  00002PRCP06
08-13T21:00:00,4,31.2,107.5,344.0,"DA XIAN, CH",FM-12,99999,V020,"040,1,N,0020,1","22000,1,9,N","012000,1,N,1","+0260,1","+0237,1","10038,1",,,,,"00,1,+99999,9,99,9","00,99,1,00,1,00,1,99999,9,00,1,00,1",,,,"7,1,002,1,+999,9",,,SYN054AAXX  13211 57328 42962 00402 10260 20237 40038 57002;,
08-14T00:00:00,4,31.2,107.5,344.0,"DA XIAN, CH",FM-12,99999,V020,"999,9,C,0000,1","99999,9,9,N","008000,1,N,1","+0275,1","+0241,1","10049,1","06,0000,9,1",,,,,"07,99,1,07,1,00,1,99999,9,04,1,99,9",,,"99999,9,09667,1","2,1,009,1,+001,1","10,1",,SYN082AAXX  14001 57328 31958 70000 10275 20241 39667 40049 52009 71000 8704/ 333 00100;,Q01  00002PRCP06
08-14T03:00:00,4,31.2,107.5,344.0,"DA XIAN, CH",FM-12,99999,V020,"360,1,N,0020,1","22000,1,9,N","015000,1,N,1","+0321,1","+0236,1","10049,1",,,,,"00,1,+99999,9,99,9","00,99,1,00,1,00,1,99999,9,00,1,00,1",,,,"2,1,001,1,+999,9",,,SYN054AAXX  14031 57328 42965 03602 10321 20236 40049 52001;,
08-14T06:00:00,4,31.2,107.5,344.0,"DA XIAN, CH",FM-12,99999,V020,"020,1,N,0010,1","22000,1,9,N","030000,1,N,1","+0359,1","+0223,1","10024,1","06,0000,9,1",,,,,"01,99,1,01,1,01,1,01250,1,00,1,00,1",,"999,N,+0255,1","99999,9,09645,1","7,1,023,1,+999,9",,,SYN076AAXX  14061 57328 32680 10201 10359 20223 39645 40024 57023 81100 333 20255;,Q01  00002PRCP06
08-14T09:00:00,4,31.2,107.5,344.0,"DA XIAN, CH",FM-12,99999,V020,"090,1,N,0020,1","22000,1,9,N","030000,1,N,1","+0359,1","+0219,1","10004,1",,,,,"00,1,+99999,9,99,9","00,99,1,00,1,00,1,99999,9,00,1,00,1",,,,"7,1,020,1,+999,9",,,SYN054AAXX  14091 57328 42980 00902 10359 20219 40004 57020;,
08-14T12:00:00,4,31.2,107.5,344.0,"DA XIAN, CH",FM-12,99999,V020,"070,1,N,0020,1","22000,1,9,N","030000,1,N,1","+0324,1","+0240,1","10006,1","06,0000,9,1",,,,,"01,99,1,00,1,00,1,99999,9,00,1,02,1",,,"99999,9,09626,1","2,1,001,1,+999,9",,,SYN066AAXX  14121 57328 32980 10702 10324 20240 39626 40006 52001 80002;,Q01  00002PRCP06
08-14T15:00:00,4,31.2,107.5,344.0,"DA XIAN, CH",FM-12,99999,V020,"140,1,N,0010,1","22000,1,9,N","025000,1,N,1","+0295,1","+0242,1","10030,1",,,,,"00,1,+99999,9,99,9","00,99,1,00,1,00,1,99999,9,00,1,00,1",,,,"2,1,024,1,+999,9",,,SYN054AAXX  14151 57328 42975 01401 10295 20242 40030 52024;,
08-14T18:00:00,4,31.2,107.5,344.0,"DA XIAN, CH",FM-12,99999,V020,"040,1,N,0020,1","22000,1,9,N","025000,1,N,1","+0268,1","+0235,1","10031,1","06,0000,9,1",,,,"00,1,+99999,9,99,9","00,99,1,00,1,00,1,99999,9,00,1,00,1",,"999,M,+0360,1","99999,9,09652,1","2,1,002,1,+999,9",,,SYN070AAXX  14181 57328 32975 00402 10268 20235 39652 40031 52002 333 10360;,Q01  00002PRCP06
08-14T21:00:00,4,31.2,107.5,344.0,"DA XIAN, CH",FM-12,99999,V020,"040,1,N,0020,1","22000,1,9,N","015000,1,N,1","+0253,1","+0233,1","10027,1",,,,,"00,1,+99999,9,99,9","00,99,1,00,1,00,1,99999,9,00,1,00,1",,,,"7,1,005,1,+999,9",,,SYN054AAXX  14211 57328 42965 00402 10253 20233 40027 57005;,
08-15T00:00:00,4,31.2,107.5,344.0,"DA XIAN, CH",FM-12,99999,V020,"040,1,N,0010,1","22000,1,9,N","020000,1,N,1","+0271,1","+0223,1","10029,1","06,0000,9,1",,,,,"02,99,1,00,1,00,1,99999,9,00,1,01,1",,,"99999,9,09648,1","2,1,001,1,+002,1",,,SYN076AAXX  15001 57328 32970 20401 10271 20223 39648 40029 52001 80001 333 05200;,Q01  00002PRCP06
08-15T03:00:00,4,31.2,107.5,344.0,"DA XIAN, CH",FM-12,99999,V020,"020,1,N,0030,1","22000,1,9,N","030000,1,N,1","+0327,1","+0207,1","10027,1",,,,,,"02,99,1,02,1,00,1,99999,9,04,1,00,1",,,,"4,1,000,1,+999,9",,,SYN060AAXX  15031 57328 42980 20203 10327 20207 40027 54000 82040;,
08-15T06:00:00,4,31.2,107.5,344.0,"DA XIAN, CH",FM-12,99999,V020,"040,1,N,0020,1","01200,1,9,N","030000,1,N,1","+0359,1","+0219,1","10011,1","06,0000,9,1",,,,,"07,99,1,06,1,01,1,01250,1,04,1,99,9",,"999,N,+0224,1","99999,9,09633,1","7,1,015,1,+999,9",,,SYN076AAXX  15061 57328 32680 70402 10359 20219 39633 40011 57015 8614/ 333 20224;,Q01  00002PRCP06
08-15T09:00:00,4,31.2,107.5,344.0,"DA XIAN, CH",FM-12,99999,V020,"040,1,N,0050,1","03600,1,9,N","030000,1,N,1","+0319,1","+0199,1","10008,1",,,,,,"07,99,1,01,1,01,1,01250,1,04,1,99,9",,,,"7,1,007,1,+999,9",,,SYN060AAXX  15091 57328 42680 70405 10319 20199 40008 57007 8114/;,
08-15T12:00:00,4,31.2,107.5,344.0,"DA XIAN, CH",FM-12,99999,V020,"040,1,N,0040,1","02100,1,9,N","030000,1,N,1","+0301,1","+0197,1","10023,1","06,9999,9,9",,"6,1,06,1",,,"07,99,1,07,1,05,1,02250,1,99,9,99,9",,,"99999,9,09641,1","2,1,015,1,+999,9","00,1",,SYN078AAXX  15121 57328 11880 70404 10301 20197 39641 40023 52015 69901 70060 875//;,
08-15T15:00:00,4,31.2,107.5,344.0,"DA XIAN, CH",FM-12,99999,V020,"070,1,N,0030,1","02100,1,9,N","030000,1,N,1","+0283,1","+0206,1","10041,1",,,,,,"07,99,1,07,1,05,1,02250,1,99,9,99,9",,,,"2,1,019,1,+999,9",,,SYN060AAXX  15151 57328 42880 70703 10283 20206 40041 52019 875//;,
08-15T18:00:00,4,31.2,107.5,344.0,"DA XIAN, CH",FM-12,99999,V020,"040,1,N,0020,1","02100,1,9,N","020000,1,N,1","+0271,1","+0211,1","10038,1","06,9999,9,9",,,,,"08,99,1,08,1,05,1,02250,1,99,9,99,9",,"999,M,+0360,1","99999,9,09659,1","7,1,001,1,+999,9","60,1",,SYN088AAXX  15181 57328 11870 80402 10271 20211 39659 40038 57001 69901 76000 885// 333 10360;,
08-15T21:00:00,4,31.2,107.5,344.0,"DA XIAN, CH",FM-12,99999,V020,"040,1,N,0020,1","02100,1,9,N","015000,1,N,1","+0261,1","+0211,1","10042,1","24,0000,2,1",,"6,1,03,1",,,"07,99,1,07,1,05,1,02250,1,99,9,99,9",,,,"4,1,000,1,+999,9","00,1",,SYN076AAXX  15211 57328 41865 70402 10261 20211 40042 54000 70060 875// 333 79999;,
08-16T00:00:00,4,31.2,107.5,344.0,"DA XIAN, CH",FM-12,99999,V020,"040,1,N,0010,1","99999,9,9,N","020000,1,N,1","+0266,1","+0211,1","10056,1","06,9999,9,9","24,0000,2,1","6,1,06,1",,,"07,99,1,07,1,00,1,99999,9,04,1,99,9",,,"99999,9,09672,1","2,1,013,1,+020,1","00,1",,SYN094AAXX  16001 57328 11970 70401 10266 20211 39672 40056 52013 69901 70060 8704/ 333 00251 79999;,
08-16T03:00:00,4,31.2,107.5,344.0,"DA XIAN, CH",FM-12,99999,V020,"090,1,N,0040,1","22000,1,9,N","030000,1,N,1","+0318,1","+0203,1","10062,1",,,,,,"02,99,1,01,1,01,1,01250,1,04,1,00,1",,,,"2,1,008,1,+999,9",,,SYN060AAXX  16031 57328 42680 20904 10318 20203 40062 52008 81140;,
08-16T06:00:00,4,31.2,107.5,344.0,"DA XIAN, CH",FM-12,99999,V020,"040,1,N,0020,1","03600,1,9,N","030000,1,N,1","+0340,1","+0209,1","10044,1","06,0000,9,1",,,,,"06,99,1,04,1,01,1,01250,1,04,1,00,1",,"999,N,+0253,1","99999,9,09663,1","7,1,017,1,+999,9",,,SYN076AAXX  16061 57328 32680 60402 10340 20209 39663 40044 57017 84140 333 20253;,Q01  00002PRCP06
08-16T09:00:00,4,31.2,107.5,344.0,"DA XIAN, CH",FM-12,99999,V020,"020,1,N,0030,1","03600,1,9,N","030000,1,N,1","+0342,1","+0190,1","10033,1",,,,,,"06,99,1,02,1,01,1,01250,1,04,1,00,1",,,,"7,1,011,1,+999,9",,,SYN060AAXX  16091 57328 42680 60203 10342 20190 40033 57011 82140;,
08-16T12:00:00,4,31.2,107.5,344.0,"DA XIAN, CH",FM-12,99999,V020,"110,1,N,0010,1","99999,9,9,N","030000,1,N,1","+0312,1","+0211,1","10047,1","06,0000,9,1",,,,,"05,99,1,05,1,00,1,99999,9,04,1,00,1",,,"99999,9,09664,1","2,1,012,1,+999,9",,,SYN066AAXX  16121 57328 32980 51101 10312 20211 39664 40047 52012 85040;,Q01  00002PRCP06
08-16T15:00:00,4,31.2,107.5,344.0,"DA XIAN, CH",FM-12,99999,V020,"040,1,N,0030,1","22000,1,9,N","030000,1,N,1","+0273,1","+0217,1","10073,1",,,,,"00,1,+99999,9,99,9","00,99,1,00,1,00,1,99999,9,00,1,00,1",,,,"2,1,026,1,+999,9",,,SYN054AAXX  16151 57328 42980 00403 10273 20217 40073 52026;,
08-16T18:00:00,4,31.2,107.5,344.0,"DA XIAN, CH",FM-12,99999,V020,"040,1,N,0020,1","99999,9,9,N","020000,1,N,1","+0252,1","+0218,1","10071,1","06,0000,9,1",,,,,"06,99,1,06,1,00,1,99999,9,04,1,00,1",,"999,M,+0347,1","99999,9,09688,1","7,1,002,1,+999,9",,,SYN076AAXX  16181 57328 32970 60402 10252 20218 39688 40071 57002 86040 333 10347;,Q01  00002PRCP06
08-16T21:00:00,4,31.2,107.5,344.0,"DA XIAN, CH",FM-12,99999,V020,"040,1,N,0030,1","99999,9,9,N","015000,1,N,1","+0240,1","+0212,1","10068,1",,,,,,"07,99,1,07,1,00,1,99999,9,04,1,99,9",,,,"7,1,003,1,+999,9",,,SYN060AAXX  16211 57328 42965 70403 10240 20212 40068 57003 8704/;,
08-17T00:00:00,4,31.2,107.5,344.0,"DA XIAN, CH",FM-12,99999,V020,"020,1,N,0030,1","99999,9,9,N","020000,1,N,1","+0245,1","+0200,1","10080,1","06,0000,9,1",,,,,"07,99,1,01,1,00,1,99999,9,04,1,01,1",,,"99999,9,09695,1","2,1,010,1,+002,1",,,SYN076AAXX  17001 57328 32970 70203 10245 20200 39695 40080 52010 81041 333 00252;,Q01  00002PRCP06
08-17T03:00:00,4,31.2,107.5,344.0,"DA XIAN, CH",FM-12,99999,V020,"020,1,N,0020,1","99999,9,9,N","020000,1,N,1","+0291,1","+0205,1","10088,1",,,,,,"06,99,1,06,1,00,1,99999,9,04,1,00,1",,,,"2,1,008,1,+999,9",,,SYN060AAXX  17031 57328 42970 60202 10291 20205 40088 52008 86040;,
08-17T06:00:00,4,31.2,107.5,344.0,"DA XIAN, CH",FM-12,99999,V020,"999,9,C,0000,1","99999,9,9,N","030000,1,N,1","+0333,1","+0174,1","10069,1","06,0000,9,1",,,,,"07,99,1,07,1,00,1,99999,9,04,1,99,9",,"999,N,+0235,1","99999,9,09686,1","7,1,017,1,+999,9",,,SYN076AAXX  17061 57328 32980 70000 10333 20174 39686 40069 57017 8704/ 333 20235;,Q01  00002PRCP06
08-17T09:00:00,4,31.2,107.5,344.0,"DA XIAN, CH",FM-12,99999,V020,"020,1,N,0010,1","99999,9,9,N","030000,1,N,1","+0341,1","+0170,1","10047,1",,,,,,"07,99,1,00,1,00,1,99999,9,00,1,02,1",,,,"7,1,022,1,+999,9",,,SYN060AAXX  17091 57328 42980 70201 10341 20170 40047 57022 80002;,
08-17T12:00:00,4,31.2,107.5,344.0,"DA XIAN, CH",FM-12,99999,V020,"020,1,N,0010,1","22000,1,9,N","030000,1,N,1","+0301,1","+0200,1","10045,1","06,0000,9,1",,,,"00,1,+99999,9,99,9","00,99,1,00,1,00,1,99999,9,00,1,00,1",,,"99999,9,09660,1","7,1,004,1,+999,9",,,SYN060AAXX  17121 57328 32980 00201 10301 20200 39660 40045 57004;,Q01  00002PRCP06
08-17T15:00:00,4,31.2,107.5,344.0,"DA XIAN, CH",FM-12,99999,V020,"040,1,N,0020,1","22000,1,9,N","020000,1,N,1","+0259,1","+0194,1","10066,1",,,,,"00,1,+99999,9,99,9","00,99,1,00,1,00,1,99999,9,00,1,00,1",,,,"2,1,021,1,+999,9",,,SYN054AAXX  17151 57328 42970 00402 10259 20194 40066 52021;,
08-17T18:00:00,4,31.2,107.5,344.0,"DA XIAN, CH",FM-12,99999,V020,"040,1,N,0020,1","22000,1,9,N","015000,1,N,1","+0236,1","+0201,1","10066,1","06,0000,9,1",,,,"00,1,+99999,9,99,9","00,99,1,00,1,00,1,99999,9,00,1,00,1",,"999,M,+0344,1","99999,9,09682,1","2,1,001,1,+999,9",,,SYN070AAXX  17181 57328 32965 00402 10236 20201 39682 40066 52001 333 10344;,Q01  00002PRCP06
08-17T21:00:00,4,31.2,107.5,344.0,"DA XIAN, CH",FM-12,99999,V020,"020,1,N,0040,1","22000,1,9,N","020000,1,N,1","+0225,1","+0201,1","10062,1",,,,,"00,1,+99999,9,99,9","00,99,1,00,1,00,1,99999,9,00,1,00,1",,,,"7,1,004,1,+999,9",,,SYN054AAXX  17211 57328 42970 00204 10225 20201 40062 57004;,
08-18T00:00:00,4,31.2,107.5,344.0,"DA XIAN, CH",FM-12,99999,V020,"040,1,N,0020,1","22000,1,9,N","020000,1,N,1","+0244,1","+0202,1","10075,1","06,0000,9,1",,,,,"02,99,1,00,1,00,1,99999,9,00,1,01,1",,,"99999,9,09689,1","2,1,011,1,+001,1",,,SYN076AAXX  18001 57328 32970 20402 10244 20202 39689 40075 52011 80001 333 05100;,Q01  00002PRCP06
08-18T03:00:00,4,31.2,107.5,344.0,"DA XIAN, CH",FM-12,99999,V020,"020,1,N,0020,1","22000,1,9,N","030000,1,N,1","+0307,1","+0191,1","10072,1",,,,,,"02,99,1,02,1,00,1,99999,9,04,1,00,1",,,,"7,1,002,1,+999,9",,,SYN060AAXX  18031 57328 42980 20202 10307 20191 40072 57002 82040;,
08-18T06:00:00,4,31.2,107.5,344.0,"DA XIAN, CH",FM-12,99999,V020,"320,1,N,0020,1","22000,1,9,N","030000,1,N,1","+0345,1","+0194,1","10046,1","06,0000,9,1",,,,,"01,99,1,01,1,01,1,01250,1,00,1,00,1",,"999,N,+0220,1","99999,9,09663,1","7,1,024,1,+999,9",,,SYN076AAXX  18061 57328 32680 13202 10345 20194 39663 40046 57024 81100 333 20220;,Q01  00002PRCP06
08-18T09:00:00,4,31.2,107.5,344.0,"DA XIAN, CH",FM-12,99999,V020,"040,1,N,0020,1","22000,1,9,N","030000,1,N,1","+0355,1","+0187,1","10027,1",,,,,,"01,99,1,01,1,01,1,01250,1,00,1,00,1",,,,"7,1,018,1,+999,9",,,SYN060AAXX  18091 57328 42680 10402 10355 20187 40027 57018 81100;,
08-18T12:00:00,4,31.2,107.5,344.0,"DA XIAN, CH",FM-12,99999,V020,"040,1,N,0020,1","22000,1,9,N","030000,1,N,1","+0309,1","+0196,1","10029,1","06,0000,9,1",,,,"00,1,+99999,9,99,9","00,99,1,00,1,00,1,99999,9,00,1,00,1",,,"99999,9,09645,1","4,1,000,1,+999,9",,,SYN060AAXX  18121 57328 32980 00402 10309 20196 39645 40029 54000;,Q01  00002PRCP06
08-18T15:00:00,4,31.2,107.5,344.0,"DA XIAN, CH",FM-12,99999,V020,"040,1,N,0020,1","22000,1,9,N","030000,1,N,1","+0261,1","+0204,1","10042,1",,,,,"00,1,+99999,9,99,9","00,99,1,00,1,00,1,99999,9,00,1,00,1",,,,"2,1,014,1,+999,9",,,SYN054AAXX  18151 57328 42980 00402 10261 20204 40042 52014;,
08-18T18:00:00,4,31.2,107.5,344.0,"DA XIAN, CH",FM-12,99999,V020,"020,1,N,0030,1","22000,1,9,N","015000,1,N,1","+0243,1","+0202,1","10044,1","06,0000,9,1",,,,"00,1,+99999,9,99,9","00,99,1,00,1,00,1,99999,9,00,1,00,1",,"999,M,+0359,1","99999,9,09662,1","2,1,003,1,+999,9",,,SYN070AAXX  18181 57328 32965 00203 10243 20202 39662 40044 52003 333 10359;,Q01  00002PRCP06
08-18T21:00:00,4,31.2,107.5,344.0,"DA XIAN, CH",FM-12,99999,V020,"040,1,N,0030,1","22000,1,9,N","015000,1,N,1","+0229,1","+0202,1","10043,1",,,,,"00,1,+99999,9,99,9","00,99,1,00,1,00,1,99999,9,00,1,00,1",,,,"7,1,001,1,+999,9",,,SYN054AAXX  18211 57328 42965 00403 10229 20202 40043 57001;,
08-19T00:00:00,4,31.2,107.5,344.0,"DA XIAN, CH",FM-12,99999,V020,"040,1,N,0030,1","22000,1,9,N","015000,1,N,1","+0238,1","+0203,1","10056,1","06,0000,9,1",,,,,"01,99,1,01,1,00,1,99999,9,04,1,00,1",,,"99999,9,09671,1","2,1,010,1,+002,1",,,SYN076AAXX  19001 57328 32965 10403 10238 20203 39671 40056 52010 81040 333 05251;,Q01  00002PRCP06
08-19T03:00:00,4,31.2,107.5,344.0,"DA XIAN, CH",FM-12,99999,V020,"999,9,C,0000,1","22000,1,9,N","030000,1,N,1","+0315,1","+0189,1","10053,1",,,,,"00,1,+99999,9,99,9","00,99,1,00,1,00,1,99999,9,00,1,00,1",,,,"7,1,001,1,+999,9",,,SYN054AAXX  19031 57328 42980 00000 10315 20189 40053 57001;,
08-19T06:00:00,4,31.2,107.5,344.0,"DA XIAN, CH",FM-12,99999,V020,"140,1,N,0030,1","09000,1,9,N","030000,1,N,1","+0349,1","+0196,1","10022,1","06,0000,9,1",,,,,"07,99,1,02,1,01,1,01250,1,00,1,02,1",,"999,N,+0223,1","99999,9,09641,1","7,1,029,1,+999,9",,,SYN076AAXX  19061 57328 32680 71403 10349 20196 39641 40022 57029 82102 333 20223;,Q01  00002PRCP06
08-19T09:00:00,4,31.2,107.5,344.0,"DA XIAN, CH",FM-12,99999,V020,"140,1,N,0020,1","03600,1,9,N","030000,1,N,1","+0346,1","+0156,1","09999,1",,,,,,"07,99,1,01,1,01,1,01250,1,04,1,99,9",,,,"7,1,023,1,+999,9",,,SYN060AAXX  19091 57328 42680 71402 10346 20156 49999 57023 8114/;,
08-19T12:00:00,4,31.2,107.5,344.0,"DA XIAN, CH",FM-12,99999,V020,"110,1,N,0030,1","99999,9,9,N","020000,1,N,1","+0323,1","+0165,1","09998,1","06,0000,9,1",,,,,"08,99,1,08,1,00,1,99999,9,07,1,99,9",,,"99999,9,09616,1","7,1,002,1,+999,9",,,SYN066AAXX  19121 57328 32970 81103 10323 20165 39616 49998 57002 8807/;,Q01  00002PRCP06
08-19T15:00:00,4,31.2,107.5,344.0,"DA XIAN, CH",FM-12,99999,V020,"140,1,N,0020,1","99999,9,9,N","020000,1,N,1","+0303,1","+0154,1","10012,1",,,,,,"08,99,1,08,1,00,1,99999,9,02,1,99,9",,,,"2,1,017,1,+999,9",,,SYN060AAXX  19151 57328 42970 81402 10303 20154 40012 52017 8802/;,
08-19T18:00:00,4,31.2,107.5,344.0,"DA XIAN, CH",FM-12,99999,V020,"140,1,N,0010,1","99999,9,9,N","015000,1,N,1","+0294,1","+0158,1","10007,1","06,0000,9,1",,,,,"08,99,1,08,1,00,1,99999,9,07,1,99,9",,"999,M,+0354,1","99999,9,09630,1","7,1,003,1,+999,9",,,SYN076AAXX  19181 57328 32965 81401 10294 20158 39630 40007 57003 8807/ 333 10354;,Q01  00002PRCP06
08-19T21:00:00,4,31.2,107.5,344.0,"DA XIAN, CH",FM-12,99999,V020,"040,1,N,0040,1","01500,1,9,N","012000,1,N,1","+0207,1","+0187,1","10035,1","24,0013,9,1",,"9,1,03,1","8,1,03,1",,"08,99,1,08,1,09,1,01750,1,99,9,99,9",,,,"2,1,021,1,+999,9","95,1",,SYN076AAXX  19211 57328 41762 80404 10207 20187 40035 52021 79598 889// 333 70013;,
08-20T00:00:00,4,31.2,107.5,344.0,"DA XIAN, CH",FM-12,99999,V020,"020,1,N,0040,1","00750,1,9,N","003000,1,N,1","+0209,1","+0203,1","10051,1","06,0211,9,2","24,0206,9,2","9,1,06,1","8,1,06,1",,"08,99,1,08,1,09,1,00800,1,99,9,99,9",,,"99999,9,09665,1","2,1,014,1,-010,1","80,1",,SYN094AAXX  20001 57328 11530 80204 10209 20203 39665 40051 52014 60211 78098 889// 333 05153 70206;,
08-20T03:00:00,4,31.2,107.5,344.0,"DA XIAN, CH",FM-12,99999,V020,"040,1,N,0020,1","99999,9,9,N","008000,1,N,1","+0203,1","+0197,1","10059,1",,,"8,1,03,1","6,1,03,1",,"08,99,1,08,1,00,1,99999,9,02,1,99,9",,,,"2,1,006,1,+999,9","60,1",,SYN066AAXX  20031 57328 41958 80402 10203 20197 40059 52006 76086 8802/;,
08-20T06:00:00,4,31.2,107.5,344.0,"DA XIAN, CH",FM-12,99999,V020,"020,1,N,0030,1","02100,1,9,N","008000,1,N,1","+0205,1","+0200,1","10057,1","06,0170,9,1",,"8,1,06,1","6,1,06,1",,"08,99,1,08,1,05,1,02250,1,99,9,99,9",,"999,N,+0198,1","99999,9,09669,1","7,1,002,1,+999,9","60,1",,SYN088AAXX  20061 57328 11858 80203 10205 20200 39669 40057 57002 60171 76086 885// 333 20198;,
08-20T09:00:00,4,31.2,107.5,344.0,"DA XIAN, CH",FM-12,99999,V020,"040,1,N,0030,1","02100,1,9,N","015000,1,N,1","+0216,1","+0204,1","10057,1",,,"6,1,03,1",,,"08,99,1,08,1,05,1,02250,1,99,9,99,9",,,,"7,1,005,1,+999,9","00,1",,SYN066AAXX  20091 57328 41865 80403 10216 20204 40057 57005 70060 885//;,
08-20T12:00:00,4,31.2,107.5,344.0,"DA XIAN, CH",FM-12,99999,V020,"999,9,C,0000,1","02100,1,9,N","025000,1,N,1","+0221,1","+0203,1","10060,1","06,9999,9,9",,"6,1,06,1",,,"08,99,1,08,1,05,1,02250,1,99,9,99,9",,,"99999,9,09667,1","2,1,003,1,+999,9","00,1",,SYN078AAXX  20121 57328 11875 80000 10221 20203 39667 40060 52003 69921 70060 885//;,
08-20T15:00:00,4,31.2,107.5,344.0,"DA XIAN, CH",FM-12,99999,V020,"090,1,N,0010,1","02100,1,9,N","020000,1,N,1","+0219,1","+0208,1","10076,1",,,,,,"08,99,1,08,1,05,1,02250,1,99,9,99,9",,,,"2,1,015,1,+999,9",,,SYN060AAXX  20151 57328 42870 80901 10219 20208 40076 52015 885//;,
08-20T18:00:00,4,31.2,107.5,344.0,"DA XIAN, CH",FM-12,99999,V020,"040,1,N,0020,1","99999,9,9,N","015000,1,N,1","+0217,1","+0208,1","10071,1","06,0000,9,1",,,,,"08,99,1,08,1,00,1,99999,9,02,1,99,9",,"999,M,+0295,1","99999,9,09677,1","7,1,005,1,+999,9",,,SYN076AAXX  20181 57328 32965 80402 10217 20208 39677 40071 57005 8802/ 333 10295;,Q01  00002PRCP06
08-20T21:00:00,4,31.2,107.5,344.0,"DA XIAN, CH",FM-12,99999,V020,"020,1,N,0030,1","99999,9,9,N","012000,1,N,1","+0218,1","+0204,1","10062,1","24,0363,9,1",,,,,"08,99,1,08,1,00,1,99999,9,02,1,99,9",,,,"7,1,008,1,+999,9",,,SYN070AAXX  20211 57328 42962 80203 10218 20204 40062 57008 8802/ 333 70363;,
08-21T00:00:00,4,31.2,107.5,344.0,"DA XIAN, CH",FM-12,99999,V020,"040,1,N,0010,1","99999,9,9,N","005000,1,N,1","+0221,1","+0207,1","10071,1","06,0000,9,1","24,0170,9,1",,,,"08,99,1,08,1,00,1,99999,9,07,1,99,9",,,"99999,9,09679,1","2,1,010,1,+010,1","10,1",,SYN088AAXX  21001 57328 31950 80401 10221 20207 39679 40071 52010 71000 8807/ 333 00101 70170;,Q01  00002PRCP06
08-21T03:00:00,4,31.2,107.5,344.0,"DA XIAN, CH",FM-12,99999,V020,"999,9,C,0000,1","99999,9,9,N","007000,1,N,1","+0245,1","+0203,1","10079,1",,,,,,"08,99,1,08,1,00,1,99999,9,07,1,99,9",,,,"2,1,009,1,+999,9","10,1",,SYN066AAXX  21031 57328 41957 80000 10245 20203 40079 52009 71000 8807/;,
08-21T06:00:00,4,31.2,107.5,344.0,"DA XIAN, CH",FM-12,99999,V020,"040,1,N,0010,1","99999,9,9,N","008000,1,N,1","+0261,1","+0215,1","10069,1","06,0000,9,1",,,,,"08,99,1,08,1,00,1,99999,9,07,1,99,9",,"999,N,+0204,1","99999,9,09679,1","7,1,009,1,+999,9","10,1",,SYN082AAXX  21061 57328 31958 80401 10261 20215 39679 40069 57009 71000 8807/ 333 20204;,Q01  00002PRCP06
08-21T09:00:00,4,31.2,107.5,344.0,"DA XIAN, CH",FM-12,99999,V020,"040,1,N,0010,1","99999,9,9,N","020000,1,N,1","+0261,1","+0214,1","10056,1",,,,,,"08,99,1,08,1,00,1,99999,9,07,1,99,9",,,,"7,1,012,1,+999,9",,,SYN060AAXX  21091 57328 42970 80401 10261 20214 40056 57012 8807/;,
08-21T12:00:00,4,31.2,107.5,344.0,"DA XIAN, CH",FM-12,99999,V020,"999,9,C,0000,1","99999,9,9,N","015000,1,N,1","+0251,1","+0220,1","10064,1","06,0000,9,1",,,,,"08,99,1,08,1,00,1,99999,9,07,1,99,9",,,"99999,9,09674,1","2,1,007,1,+999,9",,,SYN066AAXX  21121 57328 32965 80000 10251 20220 39674 40064 52007 8807/;,Q01  00002PRCP06
08-21T15:00:00,4,31.2,107.5,344.0,"DA XIAN, CH",FM-12,99999,V020,"999,9,C,0000,1","99999,9,9,N","006000,1,N,1","+0242,1","+0223,1","10077,1",,,,,,"08,99,1,08,1,00,1,99999,9,07,1,99,9",,,,"2,1,013,1,+999,9","10,1",,SYN066AAXX  21151 57328 41956 80000 10242 20223 40077 52013 71000 8807/;,
08-21T18:00:00,4,31.2,107.5,344.0,"DA XIAN, CH",FM-12,99999,V020,"999,9,C,0000,1","99999,9,9,N","005000,1,N,1","+0233,1","+0223,1","10073,1","06,0000,9,1",,,,,"08,99,1,08,1,00,1,99999,9,07,1,99,9",,"999,M,+0266,1","99999,9,09684,1","7,1,003,1,+999,9","10,1",,SYN082AAXX  21181 57328 31950 80000 10233 20223 39684 40073 57003 71000 8807/ 333 10266;,Q01  00002PRCP06
08-21T21:00:00,4,31.2,107.5,344.0,"DA XIAN, CH",FM-12,99999,V020,"999,9,C,0000,1","99999,9,9,N","008000,1,N,1","+0229,1","+0219,1","10071,1",,,,,,"08,99,1,08,1,00,1,99999,9,07,1,99,9",,,,"7,1,002,1,+999,9","10,1",,SYN066AAXX  21211 57328 41958 80000 10229 20219 40071 57002 71000 8807/;,
08-22T00:00:00,4,31.2,107.5,344.0,"DA XIAN, CH",FM-12,99999,V020,"040,1,N,0010,1","99999,9,9,N","015000,1,N,1","+0230,1","+0209,1","10085,1","06,0000,9,1",,,,,"08,99,1,08,1,00,1,99999,9,07,1,99,9",,,"99999,9,09695,1","2,1,013,1,+002,1",,,SYN076AAXX  22001 57328 32965 80401 10230 20209 39695 40085 52013 8807/ 333 00201;,Q01  00002PRCP06
08-22T03:00:00,4,31.2,107.5,344.0,"DA XIAN, CH",FM-12,99999,V020,"070,1,N,0010,1","99999,9,9,N","020000,1,N,1","+0260,1","+0200,1","10084,1",,,,,,"07,99,1,07,1,00,1,99999,9,04,1,99,9",,,,"4,1,000,1,+999,9",,,SYN060AAXX  22031 57328 42970 70701 10260 20200 40084 54000 8704/;,
08-22T06:00:00,4,31.2,107.5,344.0,"DA XIAN, CH",FM-12,99999,V020,"020,1,N,0020,1","01200,1,9,N","030000,1,N,1","+0291,1","+0215,1","10071,1","06,0000,9,1",,,,,"06,99,1,05,1,01,1,01250,1,04,1,00,1",,"999,N,+0226,1","99999,9,09684,1","7,1,011,1,+999,9",,,SYN076AAXX  22061 57328 32680 60202 10291 20215 39684 40071 57011 85140 333 20226;,Q01  00002PRCP06
08-22T09:00:00,4,31.2,107.5,344.0,"DA XIAN, CH",FM-12,99999,V020,"140,1,N,0010,1","99999,9,9,N","012000,1,N,1","+0279,1","+0226,1","10061,1",,,,,,"08,99,1,08,1,00,1,99999,9,07,1,99,9",,,,"7,1,011,1,+999,9",,,SYN060AAXX  22091 57328 42962 81401 10279 20226 40061 57011 8807/;,
08-22T12:00:00,4,31.2,107.5,344.0,"DA XIAN, CH",FM-12,99999,V020,"220,1,N,0020,1","02100,1,9,N","015000,1,N,1","+0268,1","+0234,1","10071,1","06,0000,9,1",,,,,"08,99,1,08,1,05,1,02250,1,99,9,99,9",,,"99999,9,09682,1","2,1,009,1,+999,9",,,SYN066AAXX  22121 57328 32865 82202 10268 20234 39682 40071 52009 885//;,Q01  00002PRCP06
08-22T15:00:00,4,31.2,107.5,344.0,"DA XIAN, CH",FM-12,99999,V020,"220,1,N,0020,1","02100,1,9,N","012000,1,N,1","+0250,1","+0225,1","10085,1",,,"6,1,03,1",,,"06,99,1,06,1,05,1,02250,1,00,1,00,1",,,,"2,1,014,1,+999,9","21,1",,SYN066AAXX  22151 57328 41862 62202 10250 20225 40085 52014 72160 86500;,
08-22T18:00:00,4,31.2,107.5,344.0,"DA XIAN, CH",FM-12,99999,V020,"999,9,C,0000,1","02100,1,9,N","008000,1,N,1","+0242,1","+0224,1","10077,1","06,9999,9,9",,"6,1,06,1",,,"08,99,1,08,1,05,1,02250,1,99,9,99,9",,"999,M,+0300,1","99999,9,09690,1","7,1,006,1,+999,9","60,1",,SYN088AAXX  22181 57328 11858 80000 10242 20224 39690 40077 57006 69921 76060 885// 333 10300;,
08-22T21:00:00,4,31.2,107.5,344.0,"DA XIAN, CH",FM-12,99999,V020,"090,1,N,0010,1","02100,1,9,N","012000,1,N,1","+0237,1","+0222,1","10076,1","24,0003,9,1",,"6,1,03,1",,,"08,99,1,08,1,05,1,02250,1,99,9,99,9",,,,"7,1,002,1,+999,9","00,1",,SYN076AAXX  22211 57328 41862 80901 10237 20222 40076 57002 70060 885// 333 70002;,
08-23T00:00:00,4,31.2,107.5,344.0,"DA XIAN, CH",FM-12,99999,V020,"020,1,N,0020,1","02100,1,9,N","020000,1,N,1","+0234,1","+0222,1","10085,1","06,9999,9,9","24,0005,9,1","6,1,06,1",,,"08,99,1,08,1,05,1,02250,1,99,9,99,9",,,"99999,9,09696,1","2,1,008,1,+000,1","21,1",,SYN094AAXX  23001 57328 11870 80202 10234 20222 39696 40085 52008 69921 72160 885// 333 00000 70004;,
08-23T03:00:00,4,31.2,107.5,344.0,"DA XIAN, CH",FM-12,99999,V020,"999,9,C,0000,1","99999,9,9,N","030000,1,N,1","+0245,1","+0217,1","10090,1",,,,,,"08,99,1,08,1,00,1,99999,9,07,1,99,9",,,,"2,1,004,1,+999,9",,,SYN060AAXX  23031 57328 42980 80000 10245 20217 40090 52004 8807/;,
08-23T06:00:00,4,31.2,107.5,344.0,"DA XIAN, CH",FM-12,99999,V020,"040,1,N,0020,1","02100,1,9,N","025000,1,N,1","+0231,1","+0219,1","10086,1","06,0010,9,1",,"6,1,06,1",,,"08,99,1,08,1,05,1,02250,1,99,9,99,9",,"999,N,+0229,1","99999,9,09695,1","7,1,005,1,+999,9","60,1",,SYN088AAXX  23061 57328 11875 80402 10231 20219 39695 40086 57005 60011 76060 885// 333 20229;,
08-23T09:00:00,4,31.2,107.5,344.0,"DA XIAN, CH",FM-12,99999,V020,"020,1,N,0030,1","00420,1,9,N","030000,1,N,1","+0227,1","+0221,1","10080,1",,,"6,1,03,1","6,1,03,1",,"08,99,1,08,1,05,1,00450,1,99,9,99,9",,,,"7,1,006,1,+999,9","60,1",,SYN066AAXX  23091 57328 41480 80203 10227 20221 40080 57006 76066 885//;,
08-23T12:00:00,4,31.2,107.5,344.0,"DA XIAN, CH",FM-12,99999,V020,"040,1,N,0020,1","02100,1,9,N","020000,1,N,1","+0225,1","+0218,1","10078,1","06,0051,9,1",,"6,1,06,1","6,1,06,1",,"08,99,1,08,1,05,1,02250,1,99,9,99,9",,,"99999,9,09686,1","7,1,003,1,+999,9","60,1",,SYN078AAXX  23121 57328 11870 80402 10225 20218 39686 40078 57003 60051 76066 885//;,
08-23T15:00:00,4,31.2,107.5,344.0,"DA XIAN, CH",FM-12,99999,V020,"070,1,N,0020,1","02100,1,9,N","012000,1,N,1","+0224,1","+0220,1","10083,1",,,"6,1,03,1","6,1,03,1",,"08,99,1,08,1,05,1,02250,1,99,9,99,9",,,,"2,1,006,1,+999,9","60,1",,SYN066AAXX  23151 57328 41862 80702 10224 20220 40083 52006 76066 885//;,
08-23T18:00:00,4,31.2,107.5,344.0,"DA XIAN, CH",FM-12,99999,V020,"070,1,N,0020,1","02100,1,9,N","012000,1,N,1","+0223,1","+0214,1","10077,1","06,0020,9,1",,"6,1,06,1",,,"08,99,1,08,1,05,1,02250,1,99,9,99,9",,"999,M,+0248,1","99999,9,09685,1","7,1,007,1,+999,9","00,1",,SYN088AAXX  23181 57328 11862 80702 10223 20214 39685 40077 57007 60021 70060 885// 333 10248;,
08-23T21:00:00,4,31.2,107.5,344.0,"DA XIAN, CH",FM-12,99999,V020,"999,9,C,0000,1","02100,1,9,N","020000,1,N,1","+0221,1","+0214,1","10078,1","24,0084,9,1",,"6,1,03,1",,,"08,99,1,08,1,05,1,02250,1,99,9,99,9",,,,"2,1,001,1,+999,9","21,1",,SYN076AAXX  23211 57328 41870 80000 10221 20214 40078 52001 72160 885// 333 70083;,
08-24T00:00:00,4,31.2,107.5,344.0,"DA XIAN, CH",FM-12,99999,V020,"070,1,N,0010,1","99999,9,9,N","008000,1,N,1","+0219,1","+0213,1","10087,1","06,0020,9,1","24,0097,9,1","6,1,06,1",,,"08,99,1,08,1,00,1,99999,9,02,1,99,9",,,"99999,9,09694,1","2,1,008,1,+000,1","60,1",,SYN094AAXX  24001 57328 11958 80701 10219 20213 39694 40087 52008 60021 76060 8802/ 333 00052 70096;,
08-24T03:00:00,4,31.2,107.5,344.0,"DA XIAN, CH",FM-12,99999,V020,"040,1,N,0030,1","99999,9,9,N","012000,1,N,1","+0244,1","+0222,1","10083,1",,,,,,"07,99,1,07,1,00,1,99999,9,04,1,99,9",,,,"7,1,002,1,+999,9",,,SYN060AAXX  24031 57328 42962 70403 10244 20222 40083 57002 8704/;,
08-24T06:00:00,4,31.2,107.5,344.0,"DA XIAN, CH",FM-12,99999,V020,"999,9,C,0000,1","99999,9,9,N","020000,1,N,1","+0273,1","+0228,1","10056,1","06,9999,9,9",,"6,1,06,1",,,"08,99,1,08,1,00,1,99999,9,07,1,99,9",,"999,N,+0215,1","99999,9,09668,1","7,1,024,1,+999,9","00,1",,SYN088AAXX  24061 57328 11970 80000 10273 20228 39668 40056 57024 69911 70060 8807/ 333 20215;,
08-24T09:00:00,4,31.2,107.5,344.0,"DA XIAN, CH",FM-12,99999,V020,"999,9,C,0000,1","99999,9,9,N","020000,1,N,1","+0270,1","+0234,1","10045,1",,,,,,"08,99,1,08,1,00,1,99999,9,07,1,99,9",,,,"7,1,011,1,+999,9",,,SYN060AAXX  24091 57328 42970 80000 10270 20234 40045 57011 8807/;,
08-24T12:00:00,4,31.2,107.5,344.0,"DA XIAN, CH",FM-12,99999,V020,"020,1,N,0020,1","99999,9,9,N","018000,1,N,1","+0255,1","+0238,1","10058,1","06,0000,9,1",,,,,"08,99,1,08,1,00,1,99999,9,07,1,99,9",,,"99999,9,09668,1","2,1,011,1,+999,9",,,SYN066AAXX  24121 57328 32968 80202 10255 20238 39668 40058 52011 8807/;,Q01  00002PRCP06
08-24T15:00:00,4,31.2,107.5,344.0,"DA XIAN, CH",FM-12,99999,V020,"040,1,N,0020,1","99999,9,9,N","012000,1,N,1","+0253,1","+0225,1","10061,1",,,,,,"08,99,1,08,1,00,1,99999,9,07,1,99,9",,,,"2,1,005,1,+999,9",,,SYN060AAXX  24151 57328 42962 80402 10253 20225 40061 52005 8807/;,
08-24T18:00:00,4,31.2,107.5,344.0,"DA XIAN, CH",FM-12,99999,V020,"040,1,N,0020,1","99999,9,9,N","012000,1,N,1","+0245,1","+0225,1","10056,1","06,0000,9,1",,,,,"08,99,1,08,1,00,1,99999,9,07,1,99,9",,"999,M,+0284,1","99999,9,09669,1","7,1,004,1,+999,9",,,SYN076AAXX  24181 57328 32962 80402 10245 20225 39669 40056 57004 8807/ 333 10284;,Q01  00002PRCP06
08-24T21:00:00,4,31.2,107.5,344.0,"DA XIAN, CH",FM-12,99999,V020,"040,1,N,0020,1","99999,9,9,N","015000,1,N,1","+0237,1","+0219,1","10050,1","24,0015,9,1",,,,,"08,99,1,08,1,00,1,99999,9,07,1,99,9",,,,"7,1,006,1,+999,9",,,SYN070AAXX  24211 57328 42965 80402 10237 20219 40050 57006 8807/ 333 70016;,
08-25T00:00:00,4,31.2,107.5,344.0,"DA XIAN, CH",FM-12,99999,V020,"020,1,N,0020,1","99999,9,9,N","025000,1,N,1","+0235,1","+0210,1","10061,1","06,0000,9,1","24,0000,2,1",,,,"08,99,1,08,1,00,1,99999,9,07,1,99,9",,,"99999,9,09672,1","2,1,009,1,-020,1",,,SYN082AAXX  25001 57328 32975 80202 10235 20210 39672 40061 52009 8807/ 333 05202 70001;,Q01  00002PRCP06
08-25T03:00:00,4,31.2,107.5,344.0,"DA XIAN, CH",FM-12,99999,V020,"040,1,N,0020,1","02100,1,9,N","025000,1,N,1","+0239,1","+0215,1","10065,1",,,,,,"08,99,1,08,1,05,1,02250,1,99,9,99,9",,,,"2,1,004,1,+999,9","60,1",,SYN066AAXX  25031 57328 41875 80402 10239 20215 40065 52004 76000 885//;,
08-25T06:00:00,4,31.2,107.5,344.0,"DA XIAN, CH",FM-12,99999,V020,"040,1,N,0020,1","99999,9,9,N","015000,1,N,1","+0243,1","+0223,1","10049,1","06,9999,9,9",,"6,1,06,1",,,"08,99,1,08,1,00,1,99999,9,02,1,99,9",,"999,N,+0227,1","99999,9,09660,1","7,1,016,1,+999,9","60,1",,SYN088AAXX  25061 57328 11965 80402 10243 20223 39660 40049 57016 69921 76060 8802/ 333 20227;,
08-25T09:00:00,4,31.2,107.5,344.0,"DA XIAN, CH",FM-12,99999,V020,"090,1,N,0020,1","99999,9,9,N","008000,1,N,1","+0232,1","+0225,1","10043,1",,,"6,1,03,1",,,"08,99,1,08,1,00,1,99999,9,02,1,99,9",,,,"7,1,007,1,+999,9","60,1",,SYN066AAXX  25091 57328 41958 80902 10232 20225 40043 57007 76060 8802/;,
08-25T12:00:00,4,31.2,107.5,344.0,"DA XIAN, CH",FM-12,99999,V020,"040,1,N,0030,1","99999,9,9,N","008000,1,N,1","+0231,1","+0225,1","10039,1","06,0010,9,1",,"6,1,06,1",,,"08,99,1,08,1,00,1,99999,9,07,1,99,9",,,"99999,9,09649,1","7,1,004,1,+999,9","10,1",,SYN078AAXX  25121 57328 11958 80403 10231 20225 39649 40039 57004 60011 71060 8807/;,
08-25T15:00:00,4,31.2,107.5,344.0,"DA XIAN, CH",FM-12,99999,V020,"040,1,N,0020,1","99999,9,9,N","008000,1,N,1","+0227,1","+0220,1","10048,1",,,,,,"07,99,1,07,1,00,1,99999,9,04,1,99,9",,,,"2,1,009,1,+999,9","10,1",,SYN066AAXX  25151 57328 41958 70402 10227 20220 40048 52009 71000 8704/;,
08-25T18:00:00,4,31.2,107.5,344.0,"DA XIAN, CH",FM-12,99999,V020,"040,1,N,0010,1","99999,9,9,N","012000,1,N,1","+0228,1","+0221,1","10040,1","06,0000,9,1",,,,,"08,99,1,08,1,00,1,99999,9,07,1,99,9",,"999,M,+0247,1","99999,9,09651,1","7,1,007,1,+999,9",,,SYN076AAXX  25181 57328 32962 80401 10228 20221 39651 40040 57007 8807/ 333 10247;,Q01  00002PRCP06
08-25T21:00:00,4,31.2,107.5,344.0,"DA XIAN, CH",FM-12,99999,V020,"040,1,N,0010,1","99999,9,9,N","012000,1,N,1","+0226,1","+0219,1","10029,1","24,0015,9,1",,,,,"08,99,1,08,1,00,1,99999,9,07,1,99,9",,,,"7,1,012,1,+999,9",,,SYN070AAXX  25211 57328 42962 80401 10226 20219 40029 57012 8807/ 333 70014;,
08-26T00:00:00,4,31.2,107.5,344.0,"DA XIAN, CH",FM-12,99999,V020,"040,1,N,0020,1","99999,9,9,N","008000,1,N,1","+0231,1","+0221,1","10033,1","06,0000,9,1","24,0015,9,1",,,,"08,99,1,08,1,00,1,99999,9,07,1,99,9",,,"99999,9,09643,1","2,1,004,1,-030,1","10,1",,SYN088AAXX  26001 57328 31958 80402 10231 20221 39643 40033 52004 71000 8807/ 333 05300 70014;,Q01  00002PRCP06
08-26T03:00:00,4,31.2,107.5,344.0,"DA XIAN, CH",FM-12,99999,V020,"040,1,N,0010,1","99999,9,9,N","015000,1,N,1","+0247,1","+0224,1","10037,1",,,,,,"08,99,1,08,1,00,1,99999,9,02,1,99,9",,,,"2,1,005,1,+999,9",,,SYN060AAXX  26031 57328 42965 80401 10247 20224 40037 52005 8802/;,
08-26T06:00:00,4,31.2,107.5,344.0,"DA XIAN, CH",FM-12,99999,V020,"070,1,N,0020,1","99999,9,9,N","015000,1,N,1","+0259,1","+0230,1","10023,1","06,9999,9,9",,"6,1,06,1",,,"08,99,1,08,1,00,1,99999,9,02,1,99,9",,"999,N,+0223,1","99999,9,09635,1","7,1,013,1,+999,9","00,1",,SYN088AAXX  26061 57328 11965 80702 10259 20230 39635 40023 57013 69901 70060 8802/ 333 20223;,
08-26T09:00:00,4,31.2,107.5,344.0,"DA XIAN, CH",FM-12,99999,V020,"020,1,N,0050,1","99999,9,9,N","025000,1,N,1","+0259,1","+0221,1","10012,1",,,"6,1,03,1",,,"08,99,1,08,1,00,1,99999,9,07,1,99,9",,,,"7,1,010,1,+999,9","00,1",,SYN066AAXX  26091 57328 41975 80205 10259 20221 40012 57010 70060 8807/;,
08-26T12:00:00,4,31.2,107.5,344.0,"DA XIAN, CH",FM-12,99999,V020,"040,1,N,0030,1","99999,9,9,N","030000,1,N,1","+0246,1","+0199,1","10017,1","06,9999,9,9",,"6,1,06,1",,,"08,99,1,08,1,00,1,99999,9,07,1,99,9",,,"99999,9,09629,1","2,1,004,1,+999,9","00,1",,SYN078AAXX  26121 57328 11980 80403 10246 20199 39629 40017 52004 69901 70060 8807/;,
08-26T15:00:00,4,31.2,107.5,344.0,"DA XIAN, CH",FM-12,99999,V020,"999,9,C,0000,1","99999,9,9,N","030000,1,N,1","+0237,1","+0194,1","10022,1",,,,,,"08,99,1,08,1,00,1,99999,9,07,1,99,9",,,,"2,1,005,1,+999,9",,,SYN060AAXX  26150 57328 42980 80000 10237 20194 40022 52005 8807/;,
08-26T18:00:00,4,31.2,107.5,344.0,"DA XIAN, CH",FM-12,99999,V020,"999,9,C,0000,1","99999,9,9,N","030000,1,N,1","+0231,1","+0204,1","10015,1","06,0000,9,1",,,,,"08,99,1,08,1,00,1,99999,9,07,1,99,9",,"999,M,+0266,1","99999,9,09628,1","7,1,006,1,+999,9",,,SYN076AAXX  26181 57328 32980 80000 10231 20204 39628 40015 57006 8807/ 333 10266;,Q01  00002PRCP06
08-26T21:00:00,4,31.2,107.5,344.0,"DA XIAN, CH",FM-12,99999,V020,"040,1,N,0020,1","99999,9,9,N","012000,1,N,1","+0224,1","+0204,1","10007,1","24,0000,9,1",,,,,"08,99,1,08,1,00,1,99999,9,07,1,99,9",,,,"7,1,008,1,+999,9",,,SYN070AAXX  26211 57328 42962 80402 10224 20204 40007 57008 8807/ 333 79999;,Q01  00002PRCP24
08-27T00:00:00,4,31.2,107.5,344.0,"DA XIAN, CH",FM-12,99999,V020,"040,1,N,0010,1","99999,9,9,N","015000,1,N,1","+0223,1","+0208,1","10018,1","06,9999,9,9","24,0000,2,1","6,1,06,1",,,"08,99,1,08,1,00,1,99999,9,07,1,99,9",,,"99999,9,09629,1","2,1,009,1,-010,1","21,1",,SYN094AAXX  27001 57328 11965 80401 10223 20208 39629 40018 52009 69901 72160 8807/ 333 05151 79999;,
08-27T03:00:00,4,31.2,107.5,344.0,"DA XIAN, CH",FM-12,99999,V020,"040,1,N,0020,1","99999,9,9,N","015000,1,N,1","+0224,1","+0204,1","10027,1",,,,,,"08,99,1,08,1,00,1,99999,9,07,1,99,9",,,,"2,1,009,1,+999,9","21,1",,SYN066AAXX  27031 57328 41965 80402 10224 20204 40027 52009 72100 8807/;,
08-27T06:00:00,4,31.2,107.5,344.0,"DA XIAN, CH",FM-12,99999,V020,"040,1,N,0030,1","02100,1,9,N","020000,1,N,1","+0232,1","+0213,1","10026,1","06,9999,9,9",,"6,1,06,1",,,"08,99,1,08,1,05,1,02250,1,99,9,99,9",,"999,N,+0220,1","99999,9,09637,1","7,1,001,1,+999,9","00,1",,SYN088AAXX  27061 57328 11870 80403 10232 20213 39637 40026 57001 69901 70060 885// 333 20220;,
08-27T09:00:00,4,31.2,107.5,344.0,"DA XIAN, CH",FM-12,99999,V020,"040,1,N,0030,1","99999,9,9,N","030000,1,N,1","+0239,1","+0211,1","10025,1",,,,,,"08,99,1,08,1,00,1,99999,9,07,1,99,9",,,,"7,1,001,1,+999,9",,,SYN060AAXX  27091 57328 42980 80403 10239 20211 40025 57001 8807/;,
08-27T12:00:00,4,31.2,107.5,344.0,"DA XIAN, CH",FM-12,99999,V020,"040,1,N,0020,1","99999,9,9,N","012000,1,N,1","+0235,1","+0220,1","10044,1","06,9999,9,9",,"6,1,06,1",,,"08,99,1,08,1,00,1,99999,9,07,1,99,9",,,"99999,9,09654,1","2,1,018,1,+999,9","00,1",,SYN078AAXX  27121 57328 11962 80402 10235 20220 39654 40044 52018 69901 70060 8807/;,
08-27T15:00:00,4,31.2,107.5,344.0,"DA XIAN, CH",FM-12,99999,V020,"999,9,C,0000,1","99999,9,9,N","006000,1,N,1","+0233,1","+0200,1","10055,1",,,,,,"08,99,1,08,1,00,1,99999,9,07,1,99,9",,,,"2,1,010,1,+999,9","10,1",,SYN066AAXX  27151 57328 41956 80000 10233 20200 40055 52010 71000 8807/;,
08-27T18:00:00,4,31.2,107.5,344.0,"DA XIAN, CH",FM-12,99999,V020,"999,9,C,0000,1","99999,9,9,N","006000,1,N,1","+0226,1","+0206,1","10052,1","06,0000,9,1",,,,,"08,99,1,08,1,00,1,99999,9,07,1,99,9",,"999,M,+0242,1","99999,9,09661,1","7,1,003,1,+999,9","10,1",,SYN082AAXX  27181 57328 31956 80000 10226 20206 39661 40052 57003 71000 8807/ 333 10242;,Q01  00002PRCP06
08-27T21:00:00,4,31.2,107.5,344.0,"DA XIAN, CH",FM-12,99999,V020,"999,9,C,0000,1","99999,9,9,N","006000,1,N,1","+0225,1","+0215,1","10051,1","24,0000,2,1",,,,,"08,99,1,08,1,00,1,99999,9,07,1,99,9",,,,"4,1,000,1,+999,9","10,1",,SYN076AAXX  27211 57328 41956 80000 10225 20215 40051 54000 71000 8807/ 333 79999;,
08-28T00:00:00,4,31.2,107.5,344.0,"DA XIAN, CH",FM-12,99999,V020,"020,1,N,0010,1","99999,9,9,N","012000,1,N,1","+0224,1","+0212,1","10061,1","06,9999,9,9","24,0000,2,1","6,1,06,1",,,"08,99,1,08,1,00,1,99999,9,07,1,99,9",,,"99999,9,09670,1","2,1,009,1,+040,1","21,1",,SYN094AAXX  28001 57328 11962 80201 10224 20212 39670 40061 52009 69911 72160 8807/ 333 00400 70001;,
08-28T03:00:00,4,31.2,107.5,344.0,"DA XIAN, CH",FM-12,99999,V020,"040,1,N,0030,1","99999,9,9,N","020000,1,N,1","+0237,1","+0201,1","10068,1",,,,,,"08,99,1,08,1,00,1,99999,9,07,1,99,9",,,,"2,1,008,1,+999,9",,,SYN060AAXX  28031 57328 42970 80403 10237 20201 40068 52008 8807/;,
08-28T06:00:00,4,31.2,107.5,344.0,"DA XIAN, CH",FM-12,99999,V020,"020,1,N,0010,1","99999,9,9,N","030000,1,N,1","+0251,1","+0203,1","10057,1","06,0000,2,1",,,,,"08,99,1,08,1,00,1,99999,9,07,1,99,9",,"999,N,+0221,1","99999,9,09667,1","7,1,011,1,+999,9",,,SYN076AAXX  28061 57328 32980 80201 10251 20203 39667 40057 57011 8807/ 333 20221;,
08-28T09:00:00,4,31.2,107.5,344.0,"DA XIAN, CH",FM-12,99999,V020,"020,1,N,0040,1","99999,9,9,N","030000,1,N,1","+0265,1","+0212,1","10045,1",,,,,,"07,99,1,07,1,00,1,99999,9,04,1,99,9",,,,"7,1,010,1,+999,9",,,SYN060AAXX  28091 57328 42980 70204 10265 20212 40045 57010 8704/;,
08-28T12:00:00,4,31.2,107.5,344.0,"DA XIAN, CH",FM-12,99999,V020,"999,9,C,0000,1","99999,9,9,N","030000,1,N,1","+0247,1","+0210,1","10055,1","06,0000,9,1",,,,,"08,99,1,08,1,00,1,99999,9,07,1,99,9",,,"99999,9,09665,1","2,1,008,1,+999,9",,,SYN066AAXX  28121 57328 32980 80000 10247 20210 39665 40055 52008 8807/;,Q01  00002PRCP06
08-28T15:00:00,4,31.2,107.5,344.0,"DA XIAN, CH",FM-12,99999,V020,"040,1,N,0010,1","99999,9,9,N","020000,1,N,1","+0237,1","+0202,1","10070,1",,,,,,"08,99,1,08,1,00,1,99999,9,02,1,99,9",,,,"2,1,015,1,+999,9","60,1",,SYN066AAXX  28151 57328 41970 80401 10237 20202 40070 52015 76000 8802/;,
08-28T18:00:00,4,31.2,107.5,344.0,"DA XIAN, CH",FM-12,99999,V020,"040,1,N,0020,1","99999,9,9,N","015000,1,N,1","+0217,1","+0208,1","10072,1","06,0005,9,1",,"6,1,06,1",,,"08,99,1,08,1,00,1,99999,9,02,1,99,9",,"999,M,+0267,1","99999,9,09681,1","2,1,001,1,+999,9","60,1",,SYN088AAXX  28181 57328 11965 80402 10217 20208 39681 40072 52001 69941 76060 8802/ 333 10267;,
08-28T21:00:00,4,31.2,107.5,344.0,"DA XIAN, CH",FM-12,99999,V020,"040,1,N,0020,1","99999,9,9,N","020000,1,N,1","+0215,1","+0203,1","10067,1","24,0005,9,1",,"6,1,03,1",,,"08,99,1,08,1,00,1,99999,9,02,1,99,9",,,,"7,1,004,1,+999,9","00,1",,SYN076AAXX  28211 57328 41970 80402 10215 20203 40067 57004 70060 8802/ 333 70006;,
08-29T00:00:00,4,31.2,107.5,344.0,"DA XIAN, CH",FM-12,99999,V020,"020,1,N,0020,1","02100,1,9,N","015000,1,N,1","+0210,1","+0202,1","10083,1","06,0020,9,2","24,0018,9,2","6,1,06,1",,,"08,99,1,08,1,05,1,02250,1,99,9,99,9",,,"99999,9,09691,1","2,1,014,1,+020,1","60,1",,SYN094AAXX  29001 57328 11865 80202 10210 20202 39691 40083 52014 60021 76060 885// 333 00251 70019;,
08-29T03:00:00,4,31.2,107.5,344.0,"DA XIAN, CH",FM-12,99999,V020,"040,1,N,0020,1","02100,1,9,N","006000,1,N,1","+0211,1","+0206,1","10093,1",,,"6,1,03,1","6,1,03,1",,"08,99,1,08,1,05,1,02250,1,99,9,99,9",,,,"2,1,009,1,+999,9","60,1",,SYN066AAXX  29031 57328 41856 80402 10211 20206 40093 52009 76066 885//;,
08-29T06:00:00,4,31.2,107.5,344.0,"DA XIAN, CH",FM-12,99999,V020,"040,1,N,0020,1","02100,1,9,N","030000,1,N,1","+0221,1","+0212,1","10082,1","06,0099,9,1",,"6,1,06,1","6,1,06,1",,"08,99,1,08,1,05,1,02250,1,99,9,99,9",,"999,N,+0208,1","99999,9,09689,1","7,1,011,1,+999,9","60,1",,SYN088AAXX  29061 57328 11880 80402 10221 20212 39689 40082 57011 60101 76066 885// 333 20208;,
08-29T09:00:00,4,31.2,107.5,344.0,"DA XIAN, CH",FM-12,99999,V020,"040,1,N,0020,1","02100,1,9,N","030000,1,N,1","+0225,1","+0210,1","10075,1",,,"6,1,03,1",,,"08,99,1,08,1,05,1,02250,1,99,9,99,9",,,,"7,1,007,1,+999,9","60,1",,SYN066AAXX  29091 57328 41880 80402 10225 20210 40075 57007 76060 885//;,
08-29T12:00:00,4,31.2,107.5,344.0,"DA XIAN, CH",FM-12,99999,V020,"040,1,N,0020,1","02100,1,9,N","030000,1,N,1","+0221,1","+0206,1","10080,1","06,9999,9,9",,"6,1,06,1",,,"08,99,1,08,1,05,1,02250,1,99,9,99,9",,,"99999,9,09687,1","2,1,005,1,+999,9","00,1",,SYN078AAXX  29121 57328 11880 80402 10221 20206 39687 40080 52005 69901 70060 885//;,
08-29T15:00:00,4,31.2,107.5,344.0,"DA XIAN, CH",FM-12,99999,V020,"090,1,N,0010,1","02100,1,9,N","018000,1,N,1","+0221,1","+0209,1","10089,1",,,,,,"08,99,1,08,1,05,1,02250,1,99,9,99,9",,,,"2,1,008,1,+999,9",,,SYN060AAXX  29151 57328 42868 80901 10221 20209 40089 52008 885//;,
08-29T18:00:00,4,31.2,107.5,344.0,"DA XIAN, CH",FM-12,99999,V020,"040,1,N,0010,1","02100,1,9,N","015000,1,N,1","+0215,1","+0209,1","10081,1","06,0005,9,1",,"6,1,06,1",,,"08,99,1,08,1,05,1,02250,1,99,9,99,9",,"999,M,+0230,1","99999,9,09688,1","7,1,007,1,+999,9","60,1",,SYN088AAXX  29181 57328 11865 80401 10215 20209 39688 40081 57007 69951 76060 885// 333 10230;,
08-29T21:00:00,4,31.2,107.5,344.0,"DA XIAN, CH",FM-12,99999,V020,"040,1,N,0010,1","02100,1,9,N","018000,1,N,1","+0215,1","+0209,1","10074,1","24,0119,9,1",,"6,1,03,1","6,1,03,1",,"08,99,1,08,1,05,1,02250,1,99,9,99,9",,,,"7,1,007,1,+999,9","21,1",,SYN076AAXX  29211 57328 41868 80401 10215 20209 40074 57007 72166 885// 333 70120;,
08-30T00:00:00,4,31.2,107.5,344.0,"DA XIAN, CH",FM-12,99999,V020,"040,1,N,0020,1","02100,1,9,N","030000,1,N,1","+0215,1","+0197,1","10081,1","06,9999,9,9","24,0107,9,1","6,1,06,1",,,"08,99,1,08,1,05,1,02250,1,99,9,99,9",,,"99999,9,09688,1","2,1,007,1,+000,1","00,1",,SYN094AAXX  30001 57328 11880 80402 10215 20197 39688 40081 52007 69921 70060 885// 333 00001 70106;,
08-30T03:00:00,4,31.2,107.5,344.0,"DA XIAN, CH",FM-12,99999,V020,"220,1,N,0010,1","02100,1,9,N","030000,1,N,1","+0249,1","+0207,1","10078,1",,,,,,"08,99,1,08,1,05,1,02250,1,99,9,99,9",,,,"7,1,001,1,+999,9",,,SYN060AAXX  30031 57328 42880 82201 10249 20207 40078 57001 885//;,
08-30T06:00:00,4,31.2,107.5,344.0,"DA XIAN, CH",FM-12,99999,V020,"999,9,C,0000,1","02100,1,9,N","025000,1,N,1","+0253,1","+0204,1","10071,1","06,0000,9,1",,,,,"08,99,1,08,1,05,1,02250,1,99,9,99,9",,"999,N,+0211,1","99999,9,09680,1","7,1,007,1,+999,9",,,SYN076AAXX  30061 57328 32875 80000 10253 20204 39680 40071 57007 885// 333 20211;,Q01  00002PRCP06
08-30T09:00:00,4,31.2,107.5,344.0,"DA XIAN, CH",FM-12,99999,V020,"090,1,N,0020,1","02100,1,9,N","030000,1,N,1","+0253,1","+0210,1","10058,1",,,,,,"08,99,1,06,1,05,1,02250,1,07,1,99,9",,,,"7,1,012,1,+999,9",,,SYN060AAXX  30091 57328 42880 80902 10253 20210 40058 57012 8657/;,
08-30T12:00:00,4,31.2,107.5,344.0,"DA XIAN, CH",FM-12,99999,V020,"999,9,C,0000,1","02100,1,9,N","030000,1,N,1","+0241,1","+0208,1","10062,1","06,0000,9,1",,,,,"08,99,1,08,1,05,1,02250,1,99,9,99,9",,,"99999,9,09671,1","2,1,003,1,+999,9",,,SYN066AAXX  30121 57328 32880 80000 10241 20208 39671 40062 52003 885//;,Q01  00002PRCP06
08-30T15:00:00,4,31.2,107.5,344.0,"DA XIAN, CH",FM-12,99999,V020,"040,1,N,0020,1","02100,1,9,N","030000,1,N,1","+0231,1","+0216,1","10074,1",,,,,,"08,99,1,08,1,05,1,02250,1,99,9,99,9",,,,"2,1,013,1,+999,9",,,SYN060AAXX  30151 57328 42880 80402 10231 20216 40074 52013 885//;,
08-30T18:00:00,4,31.2,107.5,344.0,"DA XIAN, CH",FM-12,99999,V020,"070,1,N,0010,1","02100,1,9,N","015000,1,N,1","+0225,1","+0216,1","10069,1","06,0000,9,1",,,,,"08,99,1,08,1,05,1,02250,1,99,9,99,9",,"999,M,+0260,1","99999,9,09679,1","7,1,005,1,+999,9",,,SYN076AAXX  30181 57328 32865 80701 10225 20216 39679 40069 57005 885// 333 10260;,Q01  00002PRCP06
08-30T21:00:00,4,31.2,107.5,344.0,"DA XIAN, CH",FM-12,99999,V020,"040,1,N,0010,1","99999,9,9,N","012000,1,N,1","+0222,1","+0212,1","10060,1",,,,,,"08,99,1,08,1,00,1,99999,9,07,1,99,9",,,,"7,1,009,1,+999,9",,,SYN060AAXX  30211 57328 42962 80401 10222 20212 40060 57009 8807/;,
08-31T00:00:00,4,31.2,107.5,344.0,"DA XIAN, CH",FM-12,99999,V020,"999,9,C,0000,1","99999,9,9,N","012000,1,N,1","+0227,1","+0215,1","10069,1","06,0000,9,1",,,,,"08,99,1,08,1,00,1,99999,9,07,1,99,9",,,"99999,9,09678,1","2,1,008,1,+001,1",,,SYN076AAXX  31001 57328 32962 80000 10227 20215 39678 40069 52008 8807/ 333 05101;,Q01  00002PRCP06
08-31T03:00:00,4,31.2,107.5,344.0,"DA XIAN, CH",FM-12,99999,V020,"020,1,N,0010,1","99999,9,9,N","015000,1,N,1","+0259,1","+0221,1","10074,1",,,,,,"07,99,1,07,1,00,1,99999,9,04,1,99,9",,,,"2,1,007,1,+999,9",,,SYN060AAXX  31031 57328 42965 70201 10259 20221 40074 52007 8704/;,
08-31T06:00:00,4,31.2,107.5,344.0,"DA XIAN, CH",FM-12,99999,V020,"040,1,N,0030,1","99999,9,9,N","020000,1,N,1","+0258,1","+0218,1","10070,1","06,0000,9,1",,,,,"08,99,1,08,1,00,1,99999,9,07,1,99,9",,"999,N,+0220,1","99999,9,09680,1","7,1,005,1,+999,9",,,SYN076AAXX  31061 57328 32970 80403 10258 20218 39680 40070 57005 8807/ 333 20220;,Q01  00002PRCP06
08-31T09:00:00,4,31.2,107.5,344.0,"DA XIAN, CH",FM-12,99999,V020,"070,1,N,0030,1","99999,9,9,N","020000,1,N,1","+0247,1","+0224,1","10060,1",,,"6,1,03,1",,,"08,99,1,08,1,00,1,99999,9,07,1,99,9",,,,"7,1,010,1,+999,9","60,1",,SYN066AAXX  31091 57328 41970 80703 10247 20224 40060 57010 76060 8807/;,
08-31T12:00:00,4,31.2,107.5,344.0,"DA XIAN, CH",FM-12,99999,V020,"040,1,N,0010,1","02100,1,9,N","012000,1,N,1","+0243,1","+0228,1","10064,1","06,9999,9,9",,"6,1,06,1",,,"08,99,1,08,1,05,1,02250,1,99,9,99,9",,,"99999,9,09674,1","2,1,004,1,+999,9","60,1",,SYN078AAXX  31121 57328 11862 80401 10243 20228 39674 40064 52004 69901 76060 885//;,
08-31T15:00:00,4,31.2,107.5,344.0,"DA XIAN, CH",FM-12,99999,V020,"090,1,N,0010,1","02100,1,9,N","012000,1,N,1","+0234,1","+0225,1","10076,1",,,"6,1,03,1",,,"08,99,1,08,1,05,1,02250,1,99,9,99,9",,,,"2,1,013,1,+999,9","60,1",,SYN066AAXX  31151 57328 41862 80901 10234 20225 40076 52013 76060 885//;,
08-31T18:00:00,4,31.2,107.5,344.0,"DA XIAN, CH",FM-12,99999,V020,"999,9,C,0000,1","99999,9,9,N","012000,1,N,1","+0230,1","+0223,1","10072,1","06,9999,9,9",,"6,1,06,1",,,"08,99,1,08,1,00,1,99999,9,07,1,99,9",,"999,M,+0267,1","99999,9,09683,1","7,1,004,1,+999,9","00,1",,SYN088AAXX  31181 57328 11962 80000 10230 20223 39683 40072 57004 69911 70060 8807/ 333 10267;,
08-31T21:00:00,4,31.2,107.5,344.0,"DA XIAN, CH",FM-12,99999,V020,"140,1,N,0010,1","02100,1,9,N","008000,1,N,1","+0229,1","+0223,1","10073,1","24,0003,9,1",,"6,1,03,1",,,"08,99,1,08,1,05,1,02250,1,99,9,99,9",,,,"4,1,000,1,+999,9","60,1",,SYN076AAXX  31211 57328 41858 81401 10229 20223 40073 54000 76060 885// 333 70003;,
09-01T00:00:00,4,31.2,107.5,344.0,"DA XIAN, CH",FM-12,99999,V020,"999,9,C,0000,1","99999,9,9,N","002000,1,N,1","+0229,1","+0223,1","10084,1","06,0008,9,1","24,0008,9,1","6,1,06,1",,,"08,99,1,08,1,00,1,99999,9,02,1,99,9",,,"99999,9,09693,1","2,1,010,1,+020,1","21,1",,SYN094AAXX  01001 57328 11920 80000 10229 20223 39693 40084 52010 69971 72160 8802/ 333 00200 70008;,
09-01T03:00:00,4,31.2,107.5,344.0,"DA XIAN, CH",FM-12,99999,V020,"999,9,C,0000,1","99999,9,9,N","003000,1,N,1","+0235,1","+0229,1","10091,1",,,"6,1,03,1",,,"08,99,1,08,1,00,1,99999,9,02,1,99,9",,,,"2,1,007,1,+999,9","60,1",,SYN066AAXX  01031 57328 41930 80000 10235 20229 40091 52007 76060 8802/;,
09-01T06:00:00,4,31.2,107.5,344.0,"DA XIAN, CH",FM-12,99999,V020,"999,9,C,0000,1","99999,9,9,N","008000,1,N,1","+0241,1","+0226,1","10089,1","06,9999,9,9",,"6,1,06,1",,,"08,99,1,08,1,00,1,99999,9,02,1,99,9",,"999,N,+0226,1","99999,9,09698,1","7,1,002,1,+999,9","60,1",,SYN088AAXX  01061 57328 11958 80000 10241 20226 39698 40089 57002 69911 76060 8802/ 333 20226;,
09-01T09:00:00,4,31.2,107.5,344.0,"DA XIAN, CH",FM-12,99999,V020,"040,1,N,0010,1","02100,1,9,N","008000,1,N,1","+0233,1","+0227,1","10080,1",,,"6,1,03,1","6,1,03,1",,"08,99,1,08,1,05,1,02250,1,99,9,99,9",,,,"7,1,009,1,+999,9","60,1",,SYN066AAXX  01091 57328 41858 80401 10233 20227 40080 57009 76066 885//;,
09-01T12:00:00,4,31.2,107.5,344.0,"DA XIAN, CH",FM-12,99999,V020,"999,9,C,0000,1","02100,1,9,N","006000,1,N,1","+0233,1","+0227,1","10084,1","06,0051,9,1",,"6,1,06,1","6,1,06,1",,"08,99,1,08,1,05,1,02250,1,99,9,99,9",,,"99999,9,09692,1","2,1,003,1,+999,9","60,1",,SYN078AAXX  01121 57328 11856 80000 10233 20227 39692 40084 52003 60051 76066 885//;,
09-01T15:00:00,4,31.2,107.5,344.0,"DA XIAN, CH",FM-12,99999,V020,"040,1,N,0020,1","02100,1,9,N","006000,1,N,1","+0229,1","+0226,1","10094,1",,,"6,1,03,1",,,"08,99,1,08,1,05,1,02250,1,99,9,99,9",,,,"2,1,010,1,+999,9","10,1",,SYN066AAXX  01151 57328 41856 80402 10229 20226 40094 52010 71060 885//;,
09-01T18:00:00,4,31.2,107.5,344.0,"DA XIAN, CH",FM-12,99999,V020,"999,9,C,0000,1","02100,1,9,N","006000,1,N,1","+0229,1","+0226,1","10090,1","06,9999,9,9",,"6,1,06,1",,,"08,99,1,08,1,05,1,02250,1,99,9,99,9",,"999,M,+0250,1","99999,9,09699,1","7,1,003,1,+999,9","60,1",,SYN088AAXX  01181 57328 11856 80000 10229 20226 39699 40090 57003 69901 76060 885// 333 10250;,
09-01T21:00:00,4,31.2,107.5,344.0,"DA XIAN, CH",FM-12,99999,V020,"020,1,N,0010,1","02100,1,9,N","006000,1,N,1","+0227,1","+0224,1","10084,1","24,0058,9,1",,"6,1,03,1","6,1,03,1",,"08,99,1,08,1,05,1,02250,1,99,9,99,9",,,,"7,1,007,1,+999,9","21,1",,SYN076AAXX  01211 57328 41856 80201 10227 20224 40084 57007 72166 885// 333 70059;,
09-02T00:00:00,4,31.2,107.5,344.0,"DA XIAN, CH",FM-12,99999,V020,"999,9,C,0000,1","00210,1,9,N","007000,1,N,1","+0229,1","+0225,1","10089,1","06,9999,9,9","24,0053,9,1","6,1,06,1",,,"08,99,1,08,1,05,1,00250,1,99,9,99,9",,,"99999,9,09697,1","2,1,005,1,+000,1","10,1",,SYN094AAXX  02001 57328 11357 80000 10229 20225 39697 40089 52005 69901 71060 885// 333 00000 70054;,
09-02T03:00:00,4,31.2,107.5,344.0,"DA XIAN, CH",FM-12,99999,V020,"040,1,N,0020,1","99999,9,9,N","015000,1,N,1","+0257,1","+0234,1","10086,1",,,,,,"08,99,1,08,1,00,1,99999,9,07,1,99,9",,,,"7,1,001,1,+999,9",,,SYN060AAXX  02031 57328 42965 80402 10257 20234 40086 57001 8807/;,
09-02T06:00:00,4,31.2,107.5,344.0,"DA XIAN, CH",FM-12,99999,V020,"360,1,N,0020,1","99999,9,9,N","030000,1,N,1","+0295,1","+0241,1","10060,1","06,0000,9,1",,,,,"07,99,1,07,1,00,1,99999,9,04,1,99,9",,"999,N,+0226,1","99999,9,09673,1","7,1,023,1,+999,9",,,SYN076AAXX  02061 57328 32980 73602 10295 20241 39673 40060 57023 8704/ 333 20226;,Q01  00002PRCP06
09-02T09:00:00,4,31.2,107.5,344.0,"DA XIAN, CH",FM-12,99999,V020,"040,1,N,0010,1","99999,9,9,N","030000,1,N,1","+0294,1","+0246,1","10043,1",,,,,,"08,99,1,08,1,00,1,99999,9,07,1,99,9",,,,"7,1,016,1,+999,9",,,SYN060AAXX  02091 57328 42980 80401 10294 20246 40043 57016 8807/;,
09-02T12:00:00,4,31.2,107.5,344.0,"DA XIAN, CH",FM-12,99999,V020,"020,1,N,0010,1","02100,1,9,N","020000,1,N,1","+0275,1","+0250,1","10046,1","06,0000,9,1",,,,,"08,99,1,08,1,05,1,02250,1,99,9,99,9",,,"99999,9,09659,1","2,1,002,1,+999,9",,,SYN066AAXX  02121 57328 32870 80201 10275 20250 39659 40046 52002 885//;,Q01  00002PRCP06
09-02T15:00:00,4,31.2,107.5,344.0,"DA XIAN, CH",FM-12,99999,V020,"040,1,N,0010,1","02100,1,9,N","012000,1,N,1","+0262,1","+0241,1","10056,1",,,,,,"08,99,1,08,1,05,1,02250,1,99,9,99,9",,,,"2,1,010,1,+999,9",,,SYN060AAXX  02151 57328 42862 80401 10262 20241 40056 52010 885//;,
09-02T18:00:00,4,31.2,107.5,344.0,"DA XIAN, CH",FM-12,99999,V020,"040,1,N,0020,1","99999,9,9,N","012000,1,N,1","+0254,1","+0235,1","10050,1","06,0000,9,1",,,,,"08,99,1,08,1,00,1,99999,9,07,1,99,9",,"999,M,+0306,1","99999,9,09665,1","7,1,004,1,+999,9",,,SYN076AAXX  02181 57328 32962 80402 10254 20235 39665 40050 57004 8807/ 333 10306;,Q01  00002PRCP06
09-02T21:00:00,4,31.2,107.5,344.0,"DA XIAN, CH",FM-12,99999,V020,"040,1,N,0010,1","99999,9,9,N","008000,1,N,1","+0250,1","+0236,1","10042,1",,,,,,"08,99,1,08,1,00,1,99999,9,07,1,99,9",,,,"7,1,008,1,+999,9","10,1",,SYN066AAXX  02211 57328 41958 80401 10250 20236 40042 57008 71000 8807/;,
09-03T00:00:00,4,31.2,107.5,344.0,"DA XIAN, CH",FM-12,99999,V020,"020,1,N,0020,1","99999,9,9,N","012000,1,N,1","+0248,1","+0232,1","10054,1","06,0000,9,1",,,,,"08,99,1,08,1,00,1,99999,9,07,1,99,9",,,"99999,9,09667,1","2,1,010,1,+003,1",,,SYN076AAXX  03001 57328 32962 80202 10248 20232 39667 40054 52010 8807/ 333 05302;,Q01  00002PRCP06
09-03T03:00:00,4,31.2,107.5,344.0,"DA XIAN, CH",FM-12,99999,V020,"040,1,N,0020,1","99999,9,9,N","012000,1,N,1","+0263,1","+0233,1","10054,1",,,"6,1,03,1",,,"08,99,1,08,1,00,1,99999,9,07,1,99,9",,,,"2,1,001,1,+999,9","00,1",,SYN066AAXX  03031 57328 41962 80402 10263 20233 40054 52001 70060 8807/;,
09-03T06:00:00,4,31.2,107.5,344.0,"DA XIAN, CH",FM-12,99999,V020,"040,1,N,0020,1","99999,9,9,N","012000,1,N,1","+0265,1","+0241,1","10045,1","06,9999,9,9",,"6,1,06,1",,,"08,99,1,08,1,00,1,99999,9,07,1,99,9",,"999,N,+0246,1","99999,9,09659,1","7,1,009,1,+999,9","60,1",,SYN088AAXX  03061 57328 11962 80402 10265 20241 39659 40045 57009 69921 76060 8807/ 333 20246;,
09-03T09:00:00,4,31.2,107.5,344.0,"DA XIAN, CH",FM-12,99999,V020,"040,1,N,0030,1","99999,9,9,N","008000,1,N,1","+0242,1","+0233,1","10040,1",,,"6,1,03,1","6,1,03,1",,"08,99,1,08,1,00,1,99999,9,02,1,99,9",,,,"7,1,007,1,+999,9","60,1",,SYN066AAXX  03091 57328 41958 80403 10242 20233 40040 57007 76066 8802/;,
09-03T12:00:00,4,31.2,107.5,344.0,"DA XIAN, CH",FM-12,99999,V020,"040,1,N,0040,1","03600,1,9,N","006000,1,N,1","+0236,1","+0232,1","10048,1","06,0180,9,1",,"6,1,06,1","6,1,06,1",,"08,99,1,01,1,07,1,00800,1,02,1,99,9",,,"99999,9,09659,1","2,1,007,1,+999,9","61,1",,SYN078AAXX  03121 57328 11556 80404 10236 20232 39659 40048 52007 60181 76166 8172/;,
09-03T15:00:00,4,31.2,107.5,344.0,"DA XIAN, CH",FM-12,99999,V020,"070,1,N,0020,1","01500,1,9,N","006000,1,N,1","+0237,1","+0233,1","10048,1",,,"9,1,03,1","6,1,03,1",,"08,99,1,08,1,09,1,01750,1,99,9,99,9",,,,"2,1,001,1,+999,9","95,1",,SYN066AAXX  03151 57328 41756 80702 10237 20233 40048 52001 79596 889//;,
09-03T18:00:00,4,31.2,107.5,344.0,"DA XIAN, CH",FM-12,99999,V020,"360,1,N,0030,1","01500,1,9,N","006000,1,N,1","+0237,1","+0234,1","10050,1","06,0259,9,1",,"9,1,06,1","6,1,06,1",,"08,99,1,08,1,09,1,01750,1,99,9,99,9",,"999,M,+0280,1","99999,9,09662,1","2,1,002,1,+999,9","95,1",,SYN088AAXX  03181 57328 11756 83603 10237 20234 39662 40050 52002 60261 79596 889// 333 10280;,
09-03T21:00:00,4,31.2,107.5,344.0,"DA XIAN, CH",FM-12,99999,V020,"360,1,N,0020,1","01500,1,9,N","005000,1,N,1","+0235,1","+0232,1","10047,1","24,0658,9,1",,"9,1,03,1","8,1,03,1",,"08,99,1,08,1,09,1,01750,1,99,9,99,9",,,,"7,1,004,1,+999,9","80,1",,SYN076AAXX  03211 57328 41750 83602 10235 20232 40047 57004 78098 889// 333 70659;,
09-04T00:00:00,4,31.2,107.5,344.0,"DA XIAN, CH",FM-12,99999,V020,"040,1,N,0010,1","02100,1,9,N","003000,1,N,1","+0235,1","+0234,1","10058,1","06,0310,9,1","24,0747,9,1","9,1,06,1","8,1,06,1",,"08,99,1,08,1,05,1,02250,1,99,9,99,9",,,"99999,9,09668,1","2,1,010,1,+000,1","60,1",,SYN094AAXX  04001 57328 11830 80401 10235 20234 39668 40058 52010 60311 76098 885// 333 00051 70747;,
09-04T03:00:00,4,31.2,107.5,344.0,"DA XIAN, CH",FM-12,99999,V020,"020,1,N,0010,1","02100,1,9,N","003000,1,N,1","+0239,1","+0236,1","10065,1",,,"6,1,03,1","6,1,03,1",,"08,99,1,08,1,05,1,02250,1,99,9,99,9",,,,"2,1,007,1,+999,9","60,1",,SYN066AAXX  04031 57328 41830 80201 10239 20236 40065 52007 76066 885//;,
09-04T06:00:00,4,31.2,107.5,344.0,"DA XIAN, CH",FM-12,99999,V020,"020,1,N,9999,9","99999,9,9,N","005000,1,N,1","+0241,1","+0238,1","10052,1","06,0109,9,1",,"6,1,06,1","6,1,06,1",,"08,99,1,08,1,00,1,99999,9,02,1,99,9",,"999,N,+0233,1","99999,9,09663,1","7,1,012,1,+999,9","61,1",,SYN088AAXX  04061 57328 11950 80230 10241 20238 39663 40052 57012 60111 76166 8802/ 333 20233;,Q01+003003WOSPD 
09-04T09:00:00,4,31.2,107.5,344.0,"DA XIAN, CH",FM-12,99999,V020,"040,1,N,0030,1","00420,1,9,N","002000,1,N,1","+0239,1","+0236,1","10042,1",,,"6,1,03,1","6,1,03,1",,"08,99,1,08,1,09,1,00450,1,99,9,99,9",,,,"7,1,010,1,+999,9","95,1",,SYN066AAXX  04091 57328 41420 80403 10239 20236 40042 57010 79566 889//;,
09-04T12:00:00,4,31.2,107.5,344.0,"DA XIAN, CH",FM-12,99999,V020,"040,1,N,0010,1","01500,1,9,N","003000,1,N,1","+0234,1","+0233,1","10048,1","06,0711,9,1",,"9,1,06,1","6,1,06,1",,"08,99,1,08,1,09,1,01750,1,99,9,99,9",,,"99999,9,09658,1","2,1,005,1,+999,9","80,1",,SYN078AAXX  04121 57328 11730 80401 10234 20233 39658 40048 52005 60711 78096 889//;,
09-04T15:00:00,4,31.2,107.5,344.0,"DA XIAN, CH",FM-12,99999,V020,"040,1,N,0030,1","01500,1,9,N","002000,1,N,1","+0233,1","+0233,1","10055,1",,,"8,1,03,1","8,1,03,1",,"08,99,1,08,1,09,1,01750,1,99,9,99,9",,,,"2,1,007,1,+999,9","80,1",,SYN066AAXX  04151 57328 41720 80403 10233 20233 40055 52007 78088 889//;,
09-04T21:00:00,4,31.2,107.5,344.0,"DA XIAN, CH",FM-12,99999,V020,"040,1,N,0010,1","00420,1,9,N","030000,1,N,1","+0223,1","+0217,1","10042,1","24,1234,9,1",,"6,1,03,1",,,"08,99,1,08,1,05,1,00450,1,99,9,99,9",,,,"7,1,008,1,+999,9","60,1",,SYN076AAXX  04211 57328 41480 80401 10223 20217 40042 57008 76060 885// 333 71234;,
09-05T00:00:00,4,31.2,107.5,344.0,"DA XIAN, CH",FM-12,99999,V020,"090,1,N,0030,1","00420,1,9,N","008000,1,N,1","+0218,1","+0214,1","10052,1","06,0130,9,1","24,1262,9,1","6,1,06,1",,,"08,99,1,08,1,05,1,00450,1,99,9,99,9",,,"99999,9,09661,1","2,1,009,1,-010,1","60,1",,SYN094AAXX  05001 57328 11458 80903 10218 20214 39661 40052 52009 60131 76060 885// 333 05152 71262;,
09-05T03:00:00,4,31.2,107.5,344.0,"DA XIAN, CH",FM-12,99999,V020,"040,1,N,0030,1","01500,1,9,N","003000,1,N,1","+0214,1","+0213,1","10066,1",,,"9,1,03,1","6,1,03,1",,"08,99,1,08,1,09,1,01750,1,99,9,99,9",,,,"2,1,013,1,+999,9","95,1",,SYN066AAXX  05031 57328 41730 80403 10214 20213 40066 52013 79596 889//;,
09-05T06:00:00,4,31.2,107.5,344.0,"DA XIAN, CH",FM-12,99999,V020,"020,1,N,0040,1","00420,1,9,N","005000,1,N,1","+0217,1","+0217,1","10059,1","06,1359,9,1",,"9,1,06,1","6,1,06,1",,"08,99,1,08,1,09,1,00450,1,99,9,99,9",,"999,N,+0211,1","99999,9,09667,1","7,1,007,1,+999,9","95,1",,SYN088AAXX  05061 57328 11450 80204 10217 20217 39667 40059 57007 61361 79596 889// 333 20211;,
09-05T09:00:00,4,31.2,107.5,344.0,"DA XIAN, CH",FM-12,99999,V020,"040,1,N,0030,1","01500,1,9,N","006000,1,N,1","+0225,1","+0222,1","10047,1",,,"9,1,03,1","8,1,03,1",,"08,99,1,08,1,09,1,01750,1,99,9,99,9",,,,"7,1,011,1,+999,9","80,1",,SYN066AAXX  05091 57328 41756 80403 10225 20222 40047 57011 78098 889//;,
09-05T12:00:00,4,31.2,107.5,344.0,"DA XIAN, CH",FM-12,99999,V020,"040,1,N,0020,1","02100,1,9,N","006000,1,N,1","+0221,1","+0217,1","10058,1","06,0079,9,1",,"9,1,06,1","8,1,06,1",,"08,99,1,08,1,05,1,02250,1,99,9,99,9",,,"99999,9,09666,1","2,1,010,1,+999,9","60,1",,SYN078AAXX  05121 57328 11856 80402 10221 20217 39666 40058 52010 60081 76098 885//;,
09-05T15:00:00,4,31.2,107.5,344.0,"DA XIAN, CH",FM-12,99999,V020,"040,1,N,0040,1","02100,1,9,N","015000,1,N,1","+0220,1","+0216,1","10070,1",,,"6,1,03,1",,,"08,99,1,08,1,05,1,02250,1,99,9,99,9",,,,"2,1,011,1,+999,9","00,1",,SYN066AAXX  05151 57328 41865 80404 10220 20216 40070 52011 70060 885//;,
09-05T18:00:00,4,31.2,107.5,344.0,"DA XIAN, CH",FM-12,99999,V020,"040,1,N,0010,1","02100,1,9,N","015000,1,N,1","+0215,1","+0209,1","10065,1","06,0003,9,1",,"6,1,06,1",,,"08,99,1,08,1,05,1,02250,1,99,9,99,9",,"999,M,+0227,1","99999,9,09672,1","7,1,005,1,+999,9","60,1",,SYN088AAXX  05181 57328 11865 80401 10215 20209 39672 40065 57005 69931 76060 885// 333 10227;,
09-05T21:00:00,4,31.2,107.5,344.0,"DA XIAN, CH",FM-12,99999,V020,"999,9,C,0000,1","02100,1,9,N","020000,1,N,1","+0217,1","+0214,1","10063,1","24,1572,9,1",,"6,1,03,1","6,1,03,1",,"08,99,1,08,1,05,1,02250,1,99,9,99,9",,,,"7,1,001,1,+999,9","21,1",,SYN076AAXX  05211 57328 41870 80000 10217 20214 40063 57001 72166 885// 333 71572;,
09-06T00:00:00,4,31.2,107.5,344.0,"DA XIAN, CH",FM-12,99999,V020,"040,1,N,0030,1","02100,1,9,N","008000,1,N,1","+0212,1","+0206,1","10073,1","06,0020,9,1","24,1468,9,1","6,1,06,1",,,"08,99,1,08,1,05,1,02250,1,99,9,99,9",,,"99999,9,09680,1","2,1,009,1,+020,1","60,1",,SYN094AAXX  06001 57328 11858 80403 10212 20206 39680 40073 52009 60021 76060 885// 333 00251 71469;,
09-06T03:00:00,4,31.2,107.5,344.0,"DA XIAN, CH",FM-12,99999,V020,"040,1,N,0040,1","02100,1,9,N","015000,1,N,1","+0219,1","+0207,1","10080,1",,,"6,1,03,1",,,"08,99,1,08,1,05,1,02250,1,99,9,99,9",,,,"2,1,007,1,+999,9","60,1",,SYN066AAXX  06031 57328 41865 80404 10219 20207 40080 52007 76060 885//;,
09-06T06:00:00,4,31.2,107.5,344.0,"DA XIAN, CH",FM-12,99999,V020,"040,1,N,0020,1","02100,1,9,N","020000,1,N,1","+0224,1","+0217,1","10070,1","06,0010,9,1",,"6,1,06,1",,,"08,99,1,08,1,05,1,02250,1,99,9,99,9",,"999,N,+0208,1","99999,9,09677,1","7,1,010,1,+999,9","60,1",,SYN088AAXX  06061 57328 11870 80402 10224 20217 39677 40070 57010 60011 76060 885// 333 20208;,
09-06T09:00:00,4,31.2,107.5,344.0,"DA XIAN, CH",FM-12,99999,V020,"090,1,N,0010,1","02100,1,9,N","030000,1,N,1","+0229,1","+0214,1","10067,1",,,"6,1,03,1",,,"08,99,1,08,1,05,1,02250,1,99,9,99,9",,,,"7,1,002,1,+999,9","21,1",,SYN066AAXX  06091 57328 41880 80901 10229 20214 40067 57002 72160 885//;,
09-06T12:00:00,4,31.2,107.5,344.0,"DA XIAN, CH",FM-12,99999,V020,"360,1,N,0010,1","02100,1,9,N","012000,1,N,1","+0228,1","+0221,1","10077,1","06,0008,9,1",,"6,1,06,1",,,"08,99,1,08,1,05,1,02250,1,99,9,99,9",,,"99999,9,09684,1","2,1,009,1,+999,9","60,1",,SYN078AAXX  06121 57328 11862 83601 10228 20221 39684 40077 52009 69971 76060 885//;,
09-06T15:00:00,4,31.2,107.5,344.0,"DA XIAN, CH",FM-12,99999,V020,"140,1,N,0010,1","02100,1,9,N","015000,1,N,1","+0222,1","+0215,1","10093,1",,,"6,1,03,1",,,"08,99,1,08,1,05,1,02250,1,99,9,99,9",,,,"2,1,016,1,+999,9","00,1",,SYN066AAXX  06151 57328 41865 81401 10222 20215 40093 52016 70060 885//;,
09-06T18:00:00,4,31.2,107.5,344.0,"DA XIAN, CH",FM-12,99999,V020,"090,1,N,0010,1","02100,1,9,N","012000,1,N,1","+0213,1","+0211,1","10090,1","06,9999,9,9",,"6,1,06,1",,,"08,99,1,08,1,05,1,02250,1,99,9,99,9",,"999,M,+0234,1","99999,9,09697,1","7,1,003,1,+999,9","00,1",,SYN088AAXX  06181 57328 11862 80901 10213 20211 39697 40090 57003 69901 70060 885// 333 10234;,
09-06T21:00:00,4,31.2,107.5,344.0,"DA XIAN, CH",FM-12,99999,V020,"340,1,N,0020,1","02100,1,9,N","012000,1,N,1","+0211,1","+0208,1","10092,1","24,0038,9,1",,"6,1,03,1",,,"08,99,1,08,1,05,1,02250,1,99,9,99,9",,,,"2,1,002,1,+999,9","60,1",,SYN076AAXX  06211 57328 41862 83402 10211 20208 40092 52002 76060 885// 333 70039;,
09-07T00:00:00,4,31.2,107.5,344.0,"DA XIAN, CH",FM-12,99999,V020,"999,9,C,0000,1","99999,9,9,N","003000,1,N,1","+0215,1","+0212,1","10109,1","06,0005,9,1","24,0028,9,1","6,1,06,1",,,"08,99,1,08,1,00,1,99999,9,07,1,99,9",,,"99999,9,09715,1","2,1,016,1,+040,1","10,1",,SYN094AAXX  07001 57328 11930 80000 10215 20212 39715 40109 52016 69961 71060 8807/ 333 00400 70027;,
09-07T03:00:00,4,31.2,107.5,344.0,"DA XIAN, CH",FM-12,99999,V020,"999,9,C,0000,1","99999,9,9,N","007000,1,N,1","+0241,1","+0217,1","10114,1",,,,,,"08,99,1,08,1,00,1,99999,9,04,1,99,9",,,,"2,1,006,1,+999,9","10,1",,SYN066AAXX  07031 57328 41957 80000 10241 20217 40114 52006 71000 8804/;,
09-07T09:00:00,4,31.2,107.5,344.0,"DA XIAN, CH",FM-12,99999,V020,"999,9,C,0000,1","99999,9,9,N","008000,1,N,1","+0253,1","+0230,1","10098,1",,,"6,1,03,1",,,"08,99,1,08,1,00,1,99999,9,02,1,99,9",,,,"7,1,004,1,+999,9","60,1",,SYN066AAXX  07091 57328 41958 80000 10253 20230 40098 57004 76060 8802/;,
09-07T12:00:00,4,31.2,107.5,344.0,"DA XIAN, CH",FM-12,99999,V020,"140,1,N,0020,1","02100,1,9,N","007000,1,N,1","+0215,1","+0198,1","10126,1","06,0030,9,1",,"6,1,06,1",,,"08,99,1,08,1,05,1,02250,1,99,9,99,9",,,"99999,9,09731,1","2,1,025,1,+999,9","60,1",,SYN078AAXX  07121 57328 11857 81402 10215 20198 39731 40126 52025 60031 76060 885//;,
09-07T15:00:00,4,31.2,107.5,344.0,"DA XIAN, CH",FM-12,99999,V020,"220,1,N,0020,1","02100,1,9,N","005000,1,N,1","+0190,1","+0182,1","10156,1",,,"6,1,03,1","6,1,03,1",,"08,99,1,08,1,05,1,02250,1,99,9,99,9",,,,"2,1,029,1,+999,9","60,1",,SYN066AAXX  07151 57328 41850 82202 10190 20182 40156 52029 76066 885//;,
09-07T18:00:00,4,31.2,107.5,344.0,"DA XIAN, CH",FM-12,99999,V020,"999,9,C,0000,1","02100,1,9,N","006000,1,N,1","+0189,1","+0179,1","10164,1","06,0041,9,1",,"6,1,06,1","6,1,06,1",,"08,99,1,08,1,05,1,02250,1,99,9,99,9",,"999,M,+0261,1","99999,9,09768,1","2,1,008,1,+999,9","60,1",,SYN088AAXX  07181 57328 11856 80000 10189 20179 39768 40164 52008 60041 76066 885// 333 10261;,
09-07T21:00:00,4,31.2,107.5,344.0,"DA XIAN, CH",FM-12,99999,V020,"140,1,N,0010,1","99999,9,9,N","005000,1,N,1","+0187,1","+0177,1","10165,1","24,0066,9,1",,"6,1,03,1",,,"08,99,1,08,1,00,1,99999,9,07,1,99,9",,,,"2,1,001,1,+999,9","10,1",,SYN076AAXX  07211 57328 41950 81401 10187 20177 40165 52001 71060 8807/ 333 70066;,
09-08T00:00:00,4,31.2,107.5,344.0,"DA XIAN, CH",FM-12,99999,V020,"020,1,N,0020,1","99999,9,9,N","007000,1,N,1","+0187,1","+0181,1","10176,1","06,9999,9,9","24,0066,9,1","6,1,06,1",,,"08,99,1,08,1,00,1,99999,9,07,1,99,9",,,"99999,9,09777,1","2,1,008,1,+060,1","10,1",,SYN094AAXX  08001 57328 11957 80202 10187 20181 39777 40176 52008 69901 71060 8807/ 333 00653 70065;,
09-08T03:00:00,4,31.2,107.5,344.0,"DA XIAN, CH",FM-12,99999,V020,"999,9,C,0000,1","03600,1,9,N","030000,1,N,1","+0214,1","+0171,1","10179,1",,,,,,"07,99,1,03,1,05,1,02250,1,04,1,99,9",,,,"2,1,003,1,+999,9",,,SYN060AAXX  08031 57328 42880 70000 10214 20171 40179 52003 8354/;,
09-08T06:00:00,4,31.2,107.5,344.0,"DA XIAN, CH",FM-12,99999,V020,"140,1,N,0020,1","22000,1,9,N","030000,1,N,1","+0251,1","+0183,1","10155,1","06,0000,9,1",,,,,"03,99,1,01,1,01,1,01250,1,04,1,00,1",,"999,N,+0182,1","99999,9,09759,1","7,1,021,1,+999,9",,,SYN076AAXX  08061 57328 32680 31402 10251 20183 39759 40155 57021 81140 333 20182;,Q01  00002PRCP06
09-08T09:00:00,4,31.2,107.5,344.0,"DA XIAN, CH",FM-12,99999,V020,"140,1,N,0020,1","99999,9,9,N","030000,1,N,1","+0253,1","+0178,1","10132,1",,,,,,"07,99,1,07,1,00,1,99999,9,04,1,99,9",,,,"7,1,022,1,+999,9",,,SYN060AAXX  08091 57328 42980 71402 10253 20178 40132 57022 8704/;,
09-08T12:00:00,4,31.2,107.5,344.0,"DA XIAN, CH",FM-12,99999,V020,"110,1,N,0010,1","99999,9,9,N","020000,1,N,1","+0229,1","+0192,1","10146,1","06,0000,9,1",,,,,"06,99,1,06,1,00,1,99999,9,04,1,00,1",,,"99999,9,09749,1","2,1,012,1,+999,9",,,SYN066AAXX  08121 57328 32970 61101 10229 20192 39749 40146 52012 86040;,Q01  00002PRCP06
09-08T15:00:00,4,31.2,107.5,344.0,"DA XIAN, CH",FM-12,99999,V020,"999,9,C,0000,1","22000,1,9,N","005000,1,N,1","+0197,1","+0188,1","10160,1",,,,,,"01,99,1,01,1,00,1,99999,9,04,1,00,1",,,,"2,1,013,1,+999,9","10,1",,SYN066AAXX  08151 57328 41950 10000 10197 20188 40160 52013 71000 81040;,
09-08T18:00:00,4,31.2,107.5,344.0,"DA XIAN, CH",FM-12,99999,V020,"040,1,N,0020,1","22000,1,9,N","007000,1,N,1","+0186,1","+0183,1","10158,1","06,0000,9,1",,,,"00,1,+99999,9,99,9","00,99,1,00,1,00,1,99999,9,00,1,00,1",,"999,M,+0266,1","99999,9,09762,1","4,1,000,1,+999,9","10,1",,SYN076AAXX  08181 57328 31957 00402 10186 20183 39762 40158 54000 71000 333 10266;,Q01  00002PRCP06
09-08T21:00:00,4,31.2,107.5,344.0,"DA XIAN, CH",FM-12,99999,V020,"040,1,N,0020,1","22000,1,9,N","005000,1,N,1","+0187,1","+0182,1","10150,1",,,,,"00,1,+99999,9,99,9","00,99,1,00,1,00,1,99999,9,00,1,00,1",,,,"7,1,008,1,+999,9","10,1",,SYN060AAXX  08211 57328 41950 00402 10187 20182 40150 57008 71000;,
09-09T00:00:00,4,31.2,107.5,344.0,"DA XIAN, CH",FM-12,99999,V020,"999,9,C,0000,1","99999,9,9,N","006000,1,N,1","+0196,1","+0188,1","10159,1","06,0000,9,1",,,,,"08,99,1,08,1,00,1,99999,9,07,1,99,9",,,"99999,9,09762,1","2,1,008,1,+002,1","10,1",,SYN082AAXX  09001 57328 31956 80000 10196 20188 39762 40159 52008 71000 8807/ 333 05201;,Q01  00002PRCP06
09-09T03:00:00,4,31.2,107.5,344.0,"DA XIAN, CH",FM-12,99999,V020,"220,1,N,0010,1","22000,1,9,N","008000,1,N,1","+0235,1","+0189,1","10158,1",,,,,,"04,99,1,04,1,01,1,00800,1,00,1,00,1",,,,"4,1,000,1,+999,9","10,1",,SYN066AAXX  09031 57328 41558 42201 10235 20189 40158 54000 71000 84100;,
09-09T06:00:00,4,31.2,107.5,344.0,"DA XIAN, CH",FM-12,99999,V020,"220,1,N,0010,1","22000,1,9,N","012000,1,N,1","+0265,1","+0192,1","10135,1","06,0000,9,1",,,,,"04,99,1,04,1,01,1,01250,1,00,1,00,1",,"999,N,+0180,1","99999,9,09741,1","7,1,021,1,+999,9",,,SYN076AAXX  09061 57328 32662 42201 10265 20192 39741 40135 57021 84100 333 20180;,Q01  00002PRCP06
09-09T09:00:00,4,31.2,107.5,344.0,"DA XIAN, CH",FM-12,99999,V020,"220,1,N,0020,1","22000,1,9,N","015000,1,N,1","+0281,1","+0199,1","10120,1",,,,,"00,1,+99999,9,99,9","00,99,1,00,1,00,1,99999,9,00,1,00,1",,,,"7,1,014,1,+999,9",,,SYN054AAXX  09091 57328 42965 02202 10281 20199 40120 57014;,
09-09T12:00:00,4,31.2,107.5,344.0,"DA XIAN, CH",FM-12,99999,V020,"040,1,N,0020,1","22000,1,9,N","015000,1,N,1","+0241,1","+0206,1","10135,1","06,0000,9,1",,,,"00,1,+99999,9,99,9","00,99,1,00,1,00,1,99999,9,00,1,00,1",,,"99999,9,09740,1","2,1,013,1,+999,9",,,SYN060AAXX  09121 57328 32965 00402 10241 20206 39740 40135 52013;,Q01  00002PRCP06
09-09T15:00:00,4,31.2,107.5,344.0,"DA XIAN, CH",FM-12,99999,V020,"110,1,N,0010,1","22000,1,9,N","012000,1,N,1","+0214,1","+0202,1","10149,1",,,,,"00,1,+99999,9,99,9","00,99,1,00,1,00,1,99999,9,00,1,00,1",,,,"2,1,014,1,+999,9",,,SYN054AAXX  09151 57328 42962 01101 10214 20202 40149 52014;,
09-09T18:00:00,4,31.2,107.5,344.0,"DA XIAN, CH",FM-12,99999,V020,"070,1,N,0010,1","22000,1,9,N","008000,1,N,1","+0202,1","+0194,1","10148,1","06,0000,9,1",,,,,"01,99,1,01,1,00,1,99999,9,04,1,00,1",,"999,M,+0282,1","99999,9,09754,1","4,1,000,1,+999,9","10,1",,SYN082AAXX  09181 57328 31958 10701 10202 20194 39754 40148 54000 71000 81040 333 10282;,Q01  00002PRCP06
09-09T21:00:00,4,31.2,107.5,344.0,"DA XIAN, CH",FM-12,99999,V020,"070,1,N,0010,1","00030,1,9,N","000500,1,N,1","+0192,1","+0190,1","10147,1",,,,,"09,1,+99999,9,99,9","09,99,1,09,1,99,9,99999,9,99,9,99,9",,,,"4,1,000,1,+999,9","47,1",,SYN060AAXX  09211 57328 41/05 90701 10192 20190 40147 54000 74700;,
09-10T00:00:00,4,31.2,107.5,344.0,"DA XIAN, CH",FM-12,99999,V020,"020,1,N,0020,1","99999,9,9,N","001200,1,N,1","+0191,1","+0191,1","10161,1","06,0000,9,1",,"4,1,06,1",,,"08,99,1,08,1,00,1,99999,9,07,1,99,9",,,"99999,9,09764,1","2,1,010,1,+000,1","28,1",,SYN082AAXX  10001 57328 31912 80202 10191 20191 39764 40161 52010 72840 8807/ 333 00051;,Q01  00002PRCP06
09-10T03:00:00,4,31.2,107.5,344.0,"DA XIAN, CH",FM-12,99999,V020,"020,1,N,0010,1","22000,1,9,N","008000,1,N,1","+0240,1","+0202,1","10167,1",,,,,"00,1,+99999,9,99,9","00,99,1,00,1,00,1,99999,9,00,1,00,1",,,,"2,1,008,1,+999,9","10,1",,SYN060AAXX  10031 57328 41958 00201 10240 20202 40167 52008 71000;,
09-10T06:00:00,4,31.2,107.5,344.0,"DA XIAN, CH",FM-12,99999,V020,"340,1,N,0020,1","22000,1,9,N","015000,1,N,1","+0287,1","+0197,1","10137,1","06,0000,9,1",,,,,"02,99,1,02,1,01,1,01250,1,00,1,00,1",,"999,N,+0187,1","99999,9,09745,1","7,1,027,1,+999,9",,,SYN076AAXX  10061 57328 32665 23402 10287 20197 39745 40137 57027 82100 333 20187;,Q01  00002PRCP06
09-10T09:00:00,4,31.2,107.5,344.0,"DA XIAN, CH",FM-12,99999,V020,"140,1,N,0010,1","22000,1,9,N","020000,1,N,1","+0299,1","+0176,1","10112,1",,,,,"00,1,+99999,9,99,9","00,99,1,00,1,00,1,99999,9,00,1,00,1",,,,"7,1,024,1,+999,9",,,SYN054AAXX  10091 57328 42970 01401 10299 20176 40112 57024;,
09-10T12:00:00,4,31.2,107.5,344.0,"DA XIAN, CH",FM-12,99999,V020,"040,1,N,0010,1","22000,1,9,N","015000,1,N,1","+0246,1","+0199,1","10128,1","06,0000,9,1",,,,"00,1,+99999,9,99,9","00,99,1,00,1,00,1,99999,9,00,1,00,1",,,"99999,9,09733,1","2,1,012,1,+999,9",,,SYN060AAXX  10121 57328 32965 00401 10246 20199 39733 40128 52012;,Q01  00002PRCP06
09-10T15:00:00,4,31.2,107.5,344.0,"DA XIAN, CH",FM-12,99999,V020,"040,1,N,0010,1","22000,1,9,N","012000,1,N,1","+0215,1","+0197,1","10146,1",,,,,"00,1,+99999,9,99,9","00,99,1,00,1,00,1,99999,9,00,1,00,1",,,,"2,1,019,1,+999,9",,,SYN054AAXX  10151 57328 42962 00401 10215 20197 40146 52019;,
09-10T18:00:00,4,31.2,107.5,344.0,"DA XIAN, CH",FM-12,99999,V020,"040,1,N,0020,1","99999,9,9,N","015000,1,N,1","+0203,1","+0181,1","10142,1","06,0000,9,1",,,,,"07,99,1,07,1,00,1,99999,9,04,1,99,9",,"999,M,+0305,1","99999,9,09750,1","7,1,002,1,+999,9",,,SYN076AAXX  10181 57328 32965 70402 10203 20181 39750 40142 57002 8704/ 333 10305;,Q01  00002PRCP06
09-10T21:00:00,4,31.2,107.5,344.0,"DA XIAN, CH",FM-12,99999,V020,"040,1,N,0020,1","99999,9,9,N","015000,1,N,1","+0201,1","+0175,1","10135,1",,,,,,"07,99,1,07,1,00,1,99999,9,04,1,99,9",,,,"7,1,006,1,+999,9",,,SYN060AAXX  10211 57328 42965 70402 10201 20175 40135 57006 8704/;,
09-11T00:00:00,4,31.2,107.5,344.0,"DA XIAN, CH",FM-12,99999,V020,"999,9,C,0000,1","22000,1,9,N","020000,1,N,1","+0205,1","+0176,1","10149,1","06,0000,9,1",,,,"00,1,+99999,9,99,9","00,99,1,00,1,00,1,99999,9,00,1,00,1",,,"99999,9,09754,1","2,1,010,1,+001,1",,,SYN070AAXX  11001 57328 32970 00000 10205 20176 39754 40149 52010 333 05101;,Q01  00002PRCP06
09-11T03:00:00,4,31.2,107.5,344.0,"DA XIAN, CH",FM-12,99999,V020,"999,9,C,0000,1","22000,1,9,N","030000,1,N,1","+0264,1","+0182,1","10154,1",,,,,,"04,99,1,00,1,00,1,99999,9,00,1,01,1",,,,"2,1,007,1,+999,9",,,SYN060AAXX  11031 57328 42980 40000 10264 20182 40154 52007 80001;,
09-11T06:00:00,4,31.2,107.5,344.0,"DA XIAN, CH",FM-12,99999,V020,"999,9,C,0000,1","99999,9,9,N","030000,1,N,1","+0302,1","+0168,1","10131,1","06,0000,9,1",,,,,"06,99,1,06,1,00,1,99999,9,04,1,00,1",,"999,N,+0195,1","99999,9,09740,1","7,1,021,1,+999,9",,,SYN076AAXX  11061 57328 32980 60000 10302 20168 39740 40131 57021 86040 333 20195;,Q01  00002PRCP06
09-11T09:00:00,4,31.2,107.5,344.0,"DA XIAN, CH",FM-12,99999,V020,"999,9,C,0000,1","09000,1,9,N","030000,1,N,1","+0299,1","+0172,1","10113,1",,,,,,"05,99,1,01,1,01,1,01250,1,00,1,02,1",,,,"7,1,017,1,+999,9",,,SYN060AAXX  11091 57328 42680 50000 10299 20172 40113 57017 81102;,
09-11T12:00:00,4,31.2,107.5,344.0,"DA XIAN, CH",FM-12,99999,V020,"040,1,N,0010,1","22000,1,9,N","025000,1,N,1","+0243,1","+0191,1","10120,1","06,0000,9,1",,,,,"02,99,1,02,1,00,1,99999,9,04,1,00,1",,,"99999,9,09726,1","2,1,003,1,+999,9",,,SYN066AAXX  11121 57328 32975 20401 10243 20191 39726 40120 52003 82040;,Q01  00002PRCP06
09-11T15:00:00,4,31.2,107.5,344.0,"DA XIAN, CH",FM-12,99999,V020,"040,1,N,0020,1","22000,1,9,N","015000,1,N,1","+0217,1","+0194,1","10135,1",,,,,"00,1,+99999,9,99,9","00,99,1,00,1,00,1,99999,9,00,1,00,1",,,,"2,1,017,1,+999,9",,,SYN054AAXX  11151 57328 42965 00402 10217 20194 40135 52017;,
09-11T18:00:00,4,31.2,107.5,344.0,"DA XIAN, CH",FM-12,99999,V020,"040,1,N,0020,1","22000,1,9,N","015000,1,N,1","+0205,1","+0183,1","10129,1","06,0000,9,1",,,,"00,1,+99999,9,99,9","00,99,1,00,1,00,1,99999,9,00,1,00,1",,"999,M,+0304,1","99999,9,09739,1","7,1,004,1,+999,9",,,SYN070AAXX  11181 57328 32965 00402 10205 20183 39739 40129 57004 333 10304;,Q01  00002PRCP06
09-11T21:00:00,4,31.2,107.5,344.0,"DA XIAN, CH",FM-12,99999,V020,"040,1,N,0020,1","22000,1,9,N","015000,1,N,1","+0199,1","+0182,1","10132,1",,,,,"00,1,+99999,9,99,9","00,99,1,00,1,00,1,99999,9,00,1,00,1",,,,"2,1,002,1,+999,9",,,SYN054AAXX  11211 57328 42965 00402 10199 20182 40132 52002;,
09-12T00:00:00,4,31.2,107.5,344.0,"DA XIAN, CH",FM-12,99999,V020,"020,1,N,0010,1","22000,1,9,N","017000,1,N,1","+0204,1","+0180,1","10143,1","06,0000,9,1",,,,,"02,99,1,02,1,00,1,99999,9,04,1,00,1",,,"99999,9,09748,1","2,1,007,1,+001,1",,,SYN076AAXX  12001 57328 32967 20201 10204 20180 39748 40143 52007 82040 333 05100;,Q01  00002PRCP06
09-12T03:00:00,4,31.2,107.5,344.0,"DA XIAN, CH",FM-12,99999,V020,"360,1,N,0020,1","22000,1,9,N","030000,1,N,1","+0263,1","+0184,1","10149,1",,,,,"00,1,+99999,9,99,9","00,99,1,00,1,00,1,99999,9,00,1,00,1",,,,"2,1,008,1,+999,9",,,SYN054AAXX  12031 57328 42980 03602 10263 20184 40149 52008;,
09-12T06:00:00,4,31.2,107.5,344.0,"DA XIAN, CH",FM-12,99999,V020,"220,1,N,0020,1","22000,1,9,N","030000,1,N,1","+0297,1","+0181,1","10123,1","06,0000,9,1",,,,,"01,99,1,01,1,01,1,01250,1,00,1,00,1",,"999,N,+0193,1","99999,9,09732,1","7,1,024,1,+999,9",,,SYN076AAXX  12061 57328 32680 12202 10297 20181 39732 40123 57024 81100 333 20193;,Q01  00002PRCP06
09-12T09:00:00,4,31.2,107.5,344.0,"DA XIAN, CH",FM-12,99999,V020,"320,1,N,0010,1","22000,1,9,N","030000,1,N,1","+0307,1","+0175,1","10106,1",,,,,,"01,99,1,01,1,01,1,01250,1,00,1,00,1",,,,"7,1,016,1,+999,9",,,SYN060AAXX  12091 57328 42680 13201 10307 20175 40106 57016 81100;,
09-12T12:00:00,4,31.2,107.5,344.0,"DA XIAN, CH",FM-12,99999,V020,"090,1,N,0010,1","99999,9,9,N","020000,1,N,1","+0254,1","+0198,1","10127,1","06,0000,9,1",,,,,"07,99,1,07,1,00,1,99999,9,04,1,99,9",,,"99999,9,09733,1","2,1,017,1,+999,9",,,SYN066AAXX  12121 57328 32970 70901 10254 20198 39733 40127 52017 8704/;,Q01  00002PRCP06
09-12T15:00:00,4,31.2,107.5,344.0,"DA XIAN, CH",FM-12,99999,V020,"040,1,N,0010,1","99999,9,9,N","015000,1,N,1","+0227,1","+0201,1","10142,1",,,,,,"08,99,1,08,1,00,1,99999,9,07,1,99,9",,,,"2,1,017,1,+999,9",,,SYN060AAXX  12151 57328 42965 80401 10227 20201 40142 52017 8807/;,
09-12T18:00:00,4,31.2,107.5,344.0,"DA XIAN, CH",FM-12,99999,V020,"999,9,C,0000,1","02100,1,9,N","008000,1,N,1","+0221,1","+0206,1","10146,1","06,0030,9,1",,"6,1,06,1",,,"08,99,1,08,1,05,1,02250,1,99,9,99,9",,"999,M,+0309,1","99999,9,09756,1","2,1,006,1,+999,9","60,1",,SYN088AAXX  12181 57328 11858 80000 10221 20206 39756 40146 52006 60031 76060 885// 333 10309;,
09-12T21:00:00,4,31.2,107.5,344.0,"DA XIAN, CH",FM-12,99999,V020,"070,1,N,0020,1","02100,1,9,N","007000,1,N,1","+0211,1","+0208,1","10149,1","24,0071,9,1",,"6,1,03,1","6,1,03,1",,"08,99,1,08,1,05,1,02250,1,99,9,99,9",,,,"2,1,002,1,+999,9","60,1",,SYN076AAXX  12211 57328 41857 80702 10211 20208 40149 52002 76066 885// 333 70071;,
09-13T00:00:00,4,31.2,107.5,344.0,"DA XIAN, CH",FM-12,99999,V020,"999,9,C,0000,1","02100,1,9,N","015000,1,N,1","+0203,1","+0197,1","10172,1","06,0109,9,1","24,0140,9,1","6,1,06,1","6,1,06,1",,"08,99,1,08,1,05,1,02250,1,99,9,99,9",,,"99999,9,09777,1","2,1,019,1,+030,1","60,1",,SYN094AAXX  13001 57328 11865 80000 10203 20197 39777 40172 52019 60111 76066 885// 333 00300 70139;,
09-13T03:00:00,4,31.2,107.5,344.0,"DA XIAN, CH",FM-12,99999,V020,"999,9,C,0000,1","99999,9,9,N","015000,1,N,1","+0219,1","+0198,1","10179,1",,,"6,1,03,1","6,1,03,1",,"08,99,1,08,1,00,1,99999,9,07,1,99,9",,,,"2,1,006,1,+999,9","21,1",,SYN066AAXX  13031 57328 41965 80000 10219 20198 40179 52006 72166 8807/;,
09-13T06:00:00,4,31.2,107.5,344.0,"DA XIAN, CH",FM-12,99999,V020,"140,1,N,0020,1","22000,1,9,N","030000,1,N,1","+0251,1","+0183,1","10155,1","06,0000,2,1",,,,,"03,99,1,01,1,01,1,01250,1,04,1,00,1",,"999,N,+0182,1","99999,9,09759,1","7,1,021,1,+999,9",,,SYN076AAXX  08061 57328 32680 31402 10251 20183 39759 40155 57021 81140 333 20182;,
09-13T09:00:00,4,31.2,107.5,344.0,"DA XIAN, CH",FM-12,99999,V020,"999,9,C,0000,1","99999,9,9,N","030000,1,N,1","+0236,1","+0186,1","10149,1",,,,,,"07,99,1,07,1,00,1,99999,9,04,1,99,9",,,,"7,1,011,1,+999,9",,,SYN060AAXX  13091 57328 42980 70000 10236 20186 40149 57011 8704/;,
09-13T12:00:00,4,31.2,107.5,344.0,"DA XIAN, CH",FM-12,99999,V020,"040,1,N,0020,1","22000,1,9,N","030000,1,N,1","+0211,1","+0179,1","10162,1","06,0000,9,1",,,,"00,1,+99999,9,99,9","00,99,1,00,1,00,1,99999,9,00,1,00,1",,,"99999,9,09764,1","2,1,010,1,+999,9",,,SYN060AAXX  13121 57328 32980 00402 10211 20179 39764 40162 52010;,Q01  00002PRCP06
09-13T15:00:00,4,31.2,107.5,344.0,"DA XIAN, CH",FM-12,99999,V020,"020,1,N,0010,1","22000,1,9,N","015000,1,N,1","+0189,1","+0179,1","10177,1",,,,,"00,1,+99999,9,99,9","00,99,1,00,1,00,1,99999,9,00,1,00,1",,,,"2,1,014,1,+999,9",,,SYN054AAXX  13151 57328 42965 00201 10189 20179 40177 52014;,
09-13T18:00:00,4,31.2,107.5,344.0,"DA XIAN, CH",FM-12,99999,V020,"020,1,N,0020,1","00060,1,9,N","000600,1,N,1","+0179,1","+0176,1","10157,1","06,0000,9,1",,,,"09,1,+99999,9,99,9","09,99,1,09,1,99,9,99999,9,99,9,99,9",,"999,M,+0249,1","99999,9,09759,1","7,1,019,1,+999,9","47,1",,SYN076AAXX  13181 57328 31/06 90202 10179 20176 39759 40157 57019 74700 333 10249;,Q01  00002PRCP06
09-13T21:00:00,4,31.2,107.5,344.0,"DA XIAN, CH",FM-12,99999,V020,"040,1,N,0030,1","22000,1,9,N","003000,1,N,1","+0175,1","+0170,1","10143,1","24,0071,9,1",,"4,1,03,1",,"00,1,+99999,9,99,9","00,99,1,00,1,00,1,99999,9,00,1,00,1",,,,"7,1,013,1,+999,9","10,1",,SYN070AAXX  13211 57328 41930 00403 10175 20170 40143 57013 71040 333 70070;,
09-14T00:00:00,4,31.2,107.5,344.0,"DA XIAN, CH",FM-12,99999,V020,"020,1,N,0030,1","99999,9,9,N","003000,1,N,1","+0177,1","+0167,1","10150,1","06,0000,9,1","24,0003,9,1","4,1,06,1",,,"07,99,1,07,1,00,1,99999,9,04,1,00,1",,,"99999,9,09751,1","2,1,005,1,-030,1","10,1",,SYN088AAXX  14001 57328 31930 70203 10177 20167 39751 40150 52005 71040 87040 333 05353 70002;,Q01  00002PRCP06
09-14T03:00:00,4,31.2,107.5,344.0,"DA XIAN, CH",FM-12,99999,V020,"040,1,N,0010,1","03600,1,9,N","015000,1,N,1","+0223,1","+0182,1","10149,1",,,,,,"07,99,1,01,1,01,1,01250,1,04,1,00,1",,,,"2,1,001,1,+999,9",,,SYN060AAXX  14031 57328 42665 70401 10223 20182 40149 52001 81140;,
09-14T06:00:00,4,31.2,107.5,344.0,"DA XIAN, CH",FM-12,99999,V020,"220,1,N,0010,1","22000,1,9,N","020000,1,N,1","+0270,1","+0177,1","10115,1","06,0000,9,1",,,,,"02,99,1,02,1,01,1,01250,1,00,1,00,1",,"999,N,+0170,1","99999,9,09721,1","7,1,031,1,+999,9",,,SYN076AAXX  14061 57328 32670 22201 10270 20177 39721 40115 57031 82100 333 20170;,Q01  00002PRCP06
09-14T09:00:00,4,31.2,107.5,344.0,"DA XIAN, CH",FM-12,99999,V020,"999,9,C,0000,1","22000,1,9,N","020000,1,N,1","+0275,1","+0166,1","10084,1",,,,,"00,1,+99999,9,99,9","00,99,1,00,1,00,1,99999,9,00,1,00,1",,,,"7,1,029,1,+999,9",,,SYN054AAXX  14091 57328 42970 00000 10275 20166 40084 57029;,
09-14T12:00:00,4,31.2,107.5,344.0,"DA XIAN, CH",FM-12,99999,V020,"040,1,N,0010,1","22000,1,9,N","015000,1,N,1","+0225,1","+0189,1","10096,1","06,0000,9,1",,,,"00,1,+99999,9,99,9","00,99,1,00,1,00,1,99999,9,00,1,00,1",,,"99999,9,09700,1","2,1,008,1,+999,9",,,SYN060AAXX  14121 57328 32965 00401 10225 20189 39700 40096 52008;,Q01  00002PRCP06
09-14T15:00:00,4,31.2,107.5,344.0,"DA XIAN, CH",FM-12,99999,V020,"040,1,N,0020,1","22000,1,9,N","012000,1,N,1","+0199,1","+0186,1","10108,1",,,,,"00,1,+99999,9,99,9","00,99,1,00,1,00,1,99999,9,00,1,00,1",,,,"2,1,013,1,+999,9",,,SYN054AAXX  14151 57328 42962 00402 10199 20186 40108 52013;,
09-14T18:00:00,4,31.2,107.5,344.0,"DA XIAN, CH",FM-12,99999,V020,"040,1,N,0010,1","22000,1,9,N","008000,1,N,1","+0189,1","+0179,1","10100,1","06,0000,9,1",,,,"00,1,+99999,9,99,9","00,99,1,00,1,00,1,99999,9,00,1,00,1",,"999,M,+0280,1","99999,9,09708,1","7,1,005,1,+999,9","10,1",,SYN076AAXX  14181 57328 31958 00401 10189 20179 39708 40100 57005 71000 333 10280;,Q01  00002PRCP06
09-14T21:00:00,4,31.2,107.5,344.0,"DA XIAN, CH",FM-12,99999,V020,"040,1,N,0030,1","00030,1,9,N","000300,1,N,1","+0176,1","+0174,1","10092,1",,,,,"09,1,+99999,9,99,9","09,99,1,09,1,99,9,99999,9,99,9,99,9",,,,"7,1,009,1,+999,9","47,1",,SYN060AAXX  14211 57328 41/03 90403 10176 20174 40092 57009 74700;,
09-15T00:00:00,4,31.2,107.5,344.0,"DA XIAN, CH",FM-12,99999,V020,"020,1,N,0040,1","22000,1,9,N","001200,1,N,1","+0177,1","+0171,1","10105,1","06,0000,9,1",,"4,1,06,1",,"00,1,+99999,9,99,9","00,99,1,00,1,00,1,99999,9,00,1,00,1",,,"99999,9,09709,1","2,1,010,1,+004,1","10,1",,SYN076AAXX  15001 57328 31912 00204 10177 20171 39709 40105 52010 71040 333 05400;,Q01  00002PRCP06
09-15T03:00:00,4,31.2,107.5,344.0,"DA XIAN, CH",FM-12,99999,V020,"040,1,N,0020,1","22000,1,9,N","008000,1,N,1","+0239,1","+0190,1","10105,1",,,,,"00,1,+99999,9,99,9","00,99,1,00,1,00,1,99999,9,00,1,00,1",,,,"2,1,002,1,+999,9","10,1",,SYN060AAXX  15031 57328 41958 00402 10239 20190 40105 52002 71000;,
09-15T06:00:00,4,31.2,107.5,344.0,"DA XIAN, CH",FM-12,99999,V020,"360,1,N,0010,1","22000,1,9,N","020000,1,N,1","+0283,1","+0178,1","10077,1","06,0000,9,1",,,,"00,1,+99999,9,99,9","00,99,1,00,1,00,1,99999,9,00,1,00,1",,"999,N,+0171,1","99999,9,09686,1","7,1,025,1,+999,9",,,SYN070AAXX  15061 57328 32970 03601 10283 20178 39686 40077 57025 333 20171;,Q01  00002PRCP06
09-15T09:00:00,4,31.2,107.5,344.0,"DA XIAN, CH",FM-12,99999,V020,"360,1,N,0010,1","22000,1,9,N","030000,1,N,1","+0291,1","+0175,1","10058,1",,,,,"00,1,+99999,9,99,9","00,99,1,00,1,00,1,99999,9,00,1,00,1",,,,"7,1,018,1,+999,9",,,SYN054AAXX  15091 57328 42980 03601 10291 20175 40058 57018;,
09-15T12:00:00,4,31.2,107.5,344.0,"DA XIAN, CH",FM-12,99999,V020,"040,1,N,0020,1","22000,1,9,N","014000,1,N,1","+0243,1","+0194,1","10067,1","06,0000,9,1",,,,"00,1,+99999,9,99,9","00,99,1,00,1,00,1,99999,9,00,1,00,1",,,"99999,9,09673,1","2,1,005,1,+999,9",,,SYN060AAXX  15121 57328 32964 00402 10243 20194 39673 40067 52005;,Q01  00002PRCP06
09-15T15:00:00,4,31.2,107.5,344.0,"DA XIAN, CH",FM-12,99999,V020,"040,1,N,0020,1","22000,1,9,N","012000,1,N,1","+0217,1","+0197,1","10083,1",,,,,"00,1,+99999,9,99,9","00,99,1,00,1,00,1,99999,9,00,1,00,1",,,,"2,1,018,1,+999,9",,,SYN054AAXX  15151 57328 42962 00402 10217 20197 40083 52018;,
09-15T18:00:00,4,31.2,107.5,344.0,"DA XIAN, CH",FM-12,99999,V020,"040,1,N,0020,1","99999,9,9,N","012000,1,N,1","+0209,1","+0190,1","10090,1","06,0000,9,1",,,,,"07,99,1,07,1,00,1,99999,9,04,1,99,9",,"999,M,+0300,1","99999,9,09700,1","2,1,009,1,+999,9",,,SYN076AAXX  15181 57328 32962 70402 10209 20190 39700 40090 52009 8704/ 333 10300;,Q01  00002PRCP06
09-15T21:00:00,4,31.2,107.5,344.0,"DA XIAN, CH",FM-12,99999,V020,"040,1,N,0010,1","22000,1,9,N","008000,1,N,1","+0203,1","+0191,1","10095,1",,,,,,"04,99,1,04,1,00,1,99999,9,04,1,00,1",,,,"2,1,005,1,+999,9","10,1",,SYN066AAXX  15211 57328 41958 40401 10203 20191 40095 52005 71000 84040;,
09-16T00:00:00,4,31.2,107.5,344.0,"DA XIAN, CH",FM-12,99999,V020,"040,1,N,0020,1","22000,1,9,N","015000,1,N,1","+0207,1","+0188,1","10110,1","06,0000,9,1",,,,"00,1,+99999,9,99,9","00,99,1,00,1,00,1,99999,9,00,1,00,1",,,"99999,9,09717,1","2,1,012,1,+001,1",,,SYN070AAXX  16001 57328 32965 00402 10207 20188 39717 40110 52012 333 00103;,Q01  00002PRCP06
09-16T03:00:00,4,31.2,107.5,344.0,"DA XIAN, CH",FM-12,99999,V020,"040,1,N,0010,1","22000,1,9,N","020000,1,N,1","+0274,1","+0192,1","10113,1",,,,,"00,1,+99999,9,99,9","00,99,1,00,1,00,1,99999,9,00,1,00,1",,,,"2,1,005,1,+999,9",,,SYN054AAXX  16031 57328 42970 00401 10274 20192 40113 52005;,
09-16T06:00:00,4,31.2,107.5,344.0,"DA XIAN, CH",FM-12,99999,V020,"999,9,C,0000,1","22000,1,9,N","030000,1,N,1","+0321,1","+0196,1","10088,1","06,0000,9,1",,,,"00,1,+99999,9,99,9","00,99,1,00,1,00,1,99999,9,00,1,00,1",,"999,N,+0199,1","99999,9,09701,1","7,1,021,1,+999,9",,,SYN070AAXX  16061 57328 32980 00000 10321 20196 39701 40088 57021 333 20199;,Q01  00002PRCP06
09-16T09:00:00,4,31.2,107.5,344.0,"DA XIAN, CH",FM-12,99999,V020,"140,1,N,0020,1","22000,1,9,N","030000,1,N,1","+0318,1","+0200,1","10076,1",,,,,"00,1,+99999,9,99,9","00,99,1,00,1,00,1,99999,9,00,1,00,1",,,,"7,1,013,1,+999,9",,,SYN054AAXX  16091 57328 42980 01402 10318 20200 40076 57013;,
09-16T12:00:00,4,31.2,107.5,344.0,"DA XIAN, CH",FM-12,99999,V020,"040,1,N,0010,1","22000,1,9,N","020000,1,N,1","+0261,1","+0214,1","10082,1","06,0000,9,1",,,,"00,1,+99999,9,99,9","00,99,1,00,1,00,1,99999,9,00,1,00,1",,,"99999,9,09691,1","2,1,003,1,+999,9",,,SYN060AAXX  16121 57328 32970 00401 10261 20214 39691 40082 52003;,Q01  00002PRCP06
09-16T15:00:00,4,31.2,107.5,344.0,"DA XIAN, CH",FM-12,99999,V020,"040,1,N,0020,1","22000,1,9,N","015000,1,N,1","+0235,1","+0208,1","10097,1",,,,,"00,1,+99999,9,99,9","00,99,1,00,1,00,1,99999,9,00,1,00,1",,,,"2,1,017,1,+999,9",,,SYN054AAXX  16151 57328 42965 00402 10235 20208 40097 52017;,
09-16T18:00:00,4,31.2,107.5,344.0,"DA XIAN, CH",FM-12,99999,V020,"040,1,N,0030,1","22000,1,9,N","012000,1,N,1","+0219,1","+0199,1","10098,1","06,0000,9,1",,,,"00,1,+99999,9,99,9","00,99,1,00,1,00,1,99999,9,00,1,00,1",,"999,M,+0325,1","99999,9,09711,1","2,1,003,1,+999,9",,,SYN070AAXX  16181 57328 32962 00403 10219 20199 39711 40098 52003 333 10325;,Q01  00002PRCP06
09-16T21:00:00,4,31.2,107.5,344.0,"DA XIAN, CH",FM-12,99999,V020,"040,1,N,0030,1","22000,1,9,N","005000,1,N,1","+0205,1","+0189,1","10096,1",,,,,"00,1,+99999,9,99,9","00,99,1,00,1,00,1,99999,9,00,1,00,1",,,,"7,1,003,1,+999,9","10,1",,SYN060AAXX  16211 57328 41950 00403 10205 20189 40096 57003 71000;,
09-17T00:00:00,4,31.2,107.5,344.0,"DA XIAN, CH",FM-12,99999,V020,"040,1,N,0010,1","22000,1,9,N","012000,1,N,1","+0211,1","+0188,1","10117,1","06,0000,9,1",,,,"00,1,+99999,9,99,9","00,99,1,00,1,00,1,99999,9,00,1,00,1",,,"99999,9,09725,1","2,1,017,1,+001,1",,,SYN070AAXX  17001 57328 32962 00401 10211 20188 39725 40117 52017 333 00100;,Q01  00002PRCP06
09-17T03:00:00,4,31.2,107.5,344.0,"DA XIAN, CH",FM-12,99999,V020,"040,1,N,0010,1","22000,1,9,N","012000,1,N,1","+0291,1","+0195,1","10117,1",,,,,"00,1,+99999,9,99,9","00,99,1,00,1,00,1,99999,9,00,1,00,1",,,,"2,1,003,1,+999,9",,,SYN054AAXX  17031 57328 42962 00401 10291 20195 40117 52003;,
09-17T06:00:00,4,31.2,107.5,344.0,"DA XIAN, CH",FM-12,99999,V020,"110,1,N,0010,1","22000,1,9,N","020000,1,N,1","+0329,1","+0188,1","10093,1","06,0000,9,1",,,,"00,1,+99999,9,99,9","00,99,1,00,1,00,1,99999,9,00,1,00,1",,"999,N,+0199,1","99999,9,09707,1","7,1,021,1,+999,9",,,SYN070AAXX  17061 57328 32970 01101 10329 20188 39707 40093 57021 333 20199;,Q01  00002PRCP06
09-17T09:00:00,4,31.2,107.5,344.0,"DA XIAN, CH",FM-12,99999,V020,"110,1,N,0010,1","22000,1,9,N","020000,1,N,1","+0325,1","+0175,1","10082,1",,,,,"00,1,+99999,9,99,9","00,99,1,00,1,00,1,99999,9,00,1,00,1",,,,"7,1,012,1,+999,9",,,SYN054AAXX  17091 57328 42970 01101 10325 20175 40082 57012;,
09-17T12:00:00,4,31.2,107.5,344.0,"DA XIAN, CH",FM-12,99999,V020,"040,1,N,0010,1","22000,1,9,N","015000,1,N,1","+0257,1","+0198,1","10098,1","06,0000,9,1",,,,"00,1,+99999,9,99,9","00,99,1,00,1,00,1,99999,9,00,1,00,1",,,"99999,9,09706,1","2,1,011,1,+999,9",,,SYN060AAXX  17121 57328 32965 00401 10257 20198 39706 40098 52011;,Q01  00002PRCP06
09-17T15:00:00,4,31.2,107.5,344.0,"DA XIAN, CH",FM-12,99999,V020,"040,1,N,0010,1","22000,1,9,N","012000,1,N,1","+0226,1","+0192,1","10112,1",,,,,"00,1,+99999,9,99,9","00,99,1,00,1,00,1,99999,9,00,1,00,1",,,,"2,1,017,1,+999,9",,,SYN054AAXX  17151 57328 42962 00401 10226 20192 40112 52017;,
09-17T18:00:00,4,31.2,107.5,344.0,"DA XIAN, CH",FM-12,99999,V020,"040,1,N,0020,1","22000,1,9,N","012000,1,N,1","+0219,1","+0190,1","10111,1","06,0000,9,1",,,,"00,1,+99999,9,99,9","00,99,1,00,1,00,1,99999,9,00,1,00,1",,"999,M,+0338,1","99999,9,09724,1","2,1,001,1,+999,9",,,SYN070AAXX  17181 57328 32962 00402 10219 20190 39724 40111 52001 333 10338;,Q01  00002PRCP06
09-17T21:00:00,4,31.2,107.5,344.0,"DA XIAN, CH",FM-12,99999,V020,"040,1,N,0030,1","99999,9,9,N","012000,1,N,1","+0211,1","+0181,1","10109,1",,,,,,"07,99,1,07,1,00,1,99999,9,04,1,99,9",,,,"7,1,003,1,+999,9",,,SYN060AAXX  17211 57328 42962 70403 10211 20181 40109 57003 8704/;,
09-18T00:00:00,4,31.2,107.5,344.0,"DA XIAN, CH",FM-12,99999,V020,"040,1,N,0030,1","99999,9,9,N","020000,1,N,1","+0220,1","+0177,1","10125,1","06,0000,9,1",,,,,"05,99,1,05,1,00,1,99999,9,04,1,00,1",,,"99999,9,09733,1","2,1,012,1,+001,1",,,SYN076AAXX  18001 57328 32970 50403 10220 20177 39733 40125 52012 85040 333 00101;,Q01  00002PRCP06
09-18T03:00:00,4,31.2,107.5,344.0,"DA XIAN, CH",FM-12,99999,V020,"040,1,N,0030,1","22000,1,9,N","025000,1,N,1","+0281,1","+0190,1","10125,1",,,,,"00,1,+99999,9,99,9","00,99,1,00,1,00,1,99999,9,00,1,00,1",,,,"2,1,002,1,+999,9",,,SYN054AAXX  18031 57328 42975 00403 10281 20190 40125 52002;,
09-18T09:00:00,4,31.2,107.5,344.0,"DA XIAN, CH",FM-12,99999,V020,"140,1,N,0010,1","99999,9,9,N","025000,1,N,1","+0315,1","+0189,1","10082,1",,,,,,"07,99,1,07,1,00,1,99999,9,04,1,99,9",,,,"7,1,015,1,+999,9",,,SYN060AAXX  18091 57328 42975 71401 10315 20189 40082 57015 8704/;,
09-18T12:00:00,4,31.2,107.5,344.0,"DA XIAN, CH",FM-12,99999,V020,"040,1,N,0010,1","99999,9,9,N","020000,1,N,1","+0277,1","+0215,1","10084,1","06,0000,9,1",,,,,"07,99,1,07,1,00,1,99999,9,04,1,99,9",,,"99999,9,09695,1","4,1,000,1,+999,9",,,SYN066AAXX  18121 57328 32970 70401 10277 20215 39695 40084 54000 8704/;,Q01  00002PRCP06
09-18T15:00:00,4,31.2,107.5,344.0,"DA XIAN, CH",FM-12,99999,V020,"040,1,N,0020,1","02100,1,9,N","012000,1,N,1","+0239,1","+0209,1","10109,1",,,"6,1,03,1",,,"08,99,1,08,1,05,1,02250,1,99,9,99,9",,,,"2,1,025,1,+999,9","60,1",,SYN066AAXX  18151 57328 41862 80402 10239 20209 40109 52025 76060 885//;,
09-18T18:00:00,4,31.2,107.5,344.0,"DA XIAN, CH",FM-12,99999,V020,"040,1,N,0020,1","02100,1,9,N","012000,1,N,1","+0223,1","+0202,1","10094,1","06,0030,9,1",,"6,1,06,1",,,"08,99,1,08,1,05,1,02250,1,99,9,99,9",,"999,M,+0330,1","99999,9,09708,1","7,1,012,1,+999,9","60,1",,SYN088AAXX  18181 57328 11862 80402 10223 20202 39708 40094 57012 60031 76060 885// 333 10330;,
09-18T21:00:00,4,31.2,107.5,344.0,"DA XIAN, CH",FM-12,99999,V020,"040,1,N,0020,1","02100,1,9,N","006000,1,N,1","+0211,1","+0205,1","10086,1","24,0056,9,1",,"6,1,03,1","6,1,03,1",,"08,99,1,08,1,05,1,02250,1,99,9,99,9",,,,"7,1,010,1,+999,9","60,1",,SYN076AAXX  18211 57328 41856 80402 10211 20205 40086 57010 76066 885// 333 70055;,
09-19T00:00:00,4,31.2,107.5,344.0,"DA XIAN, CH",FM-12,99999,V020,"999,9,C,0000,1","99999,9,9,N","006000,1,N,1","+0216,1","+0205,1","10087,1","06,0041,9,1","24,0066,9,1","6,1,06,1","6,1,06,1",,"08,99,1,08,1,00,1,99999,9,02,1,99,9",,,"99999,9,09697,1","7,1,001,1,-040,1","21,1",,SYN094AAXX  19001 57328 11956 80000 10216 20205 39697 40087 57001 60041 72166 8802/ 333 05400 70065;,
09-19T03:00:00,4,31.2,107.5,344.0,"DA XIAN, CH",FM-12,99999,V020,"999,9,C,0000,1","99999,9,9,N","006000,1,N,1","+0243,1","+0216,1","10092,1",,,,,,"08,99,1,08,1,00,1,99999,9,02,1,99,9",,,,"2,1,004,1,+999,9","10,1",,SYN066AAXX  19031 57328 41956 80000 10243 20216 40092 52004 71000 8802/;,
09-19T06:00:00,4,31.2,107.5,344.0,"DA XIAN, CH",FM-12,99999,V020,"360,1,N,0010,1","99999,9,9,N","008000,1,N,1","+0279,1","+0232,1","10077,1","06,0000,2,1",,,,,"07,99,1,07,1,00,1,99999,9,04,1,99,9",,"999,N,+0210,1","99999,9,09688,1","7,1,013,1,+999,9","10,1",,SYN082AAXX  19061 57328 31958 73601 10279 20232 39688 40077 57013 71000 8704/ 333 20210;,
09-19T09:00:00,4,31.2,107.5,344.0,"DA XIAN, CH",FM-12,99999,V020,"040,1,N,0020,1","01500,1,9,N","004000,1,N,1","+0231,1","+0224,1","10076,1",,,,,,"08,99,1,08,1,09,1,01750,1,99,9,99,9",,,,"7,1,005,1,+999,9","95,1",,SYN066AAXX  19091 57328 41740 80402 10231 20224 40076 57005 79500 889//;,
09-19T12:00:00,4,31.2,107.5,344.0,"DA XIAN, CH",FM-12,99999,V020,"040,1,N,0050,1","00420,1,9,N","015000,1,N,1","+0216,1","+0193,1","10097,1","06,0041,9,1",,"9,1,06,1","8,1,06,1",,"08,99,1,08,1,09,1,00450,1,99,9,99,9",,,"99999,9,09703,1","2,1,020,1,+999,9","25,1",,SYN078AAXX  19121 57328 11465 80405 10216 20193 39703 40097 52020 60041 72598 889//;,
09-19T15:00:00,4,31.2,107.5,344.0,"DA XIAN, CH",FM-12,99999,V020,"999,9,C,0000,1","00420,1,9,N","020000,1,N,1","+0213,1","+0170,1","10113,1",,,"8,1,03,1",,,"08,99,1,08,1,09,1,00450,1,99,9,99,9",,,,"2,1,017,1,+999,9","00,1",,SYN066AAXX  19151 57328 41470 80000 10213 20170 40113 52017 70080 889//;,
09-19T18:00:00,4,31.2,107.5,344.0,"DA XIAN, CH",FM-12,99999,V020,"999,9,C,0000,1","02100,1,9,N","020000,1,N,1","+0207,1","+0173,1","10112,1","06,0003,9,1",,"9,1,06,1","8,1,06,1",,"08,99,1,08,1,05,1,02250,1,99,9,99,9",,"999,M,+0280,1","99999,9,09721,1","2,1,001,1,+999,9","00,1",,SYN088AAXX  19181 57328 11870 80000 10207 20173 39721 40112 52001 69931 70098 885// 333 10280;,
09-19T21:00:00,4,31.2,107.5,344.0,"DA XIAN, CH",FM-12,99999,V020,"110,1,N,0010,1","02100,1,9,N","020000,1,N,1","+0206,1","+0189,1","10122,1","24,0056,9,1",,,,,"08,99,1,08,1,05,1,02250,1,99,9,99,9",,,,"2,1,006,1,+999,9",,,SYN070AAXX  19211 57328 42870 81101 10206 20189 40122 52006 885// 333 70056;,
09-20T00:00:00,4,31.2,107.5,344.0,"DA XIAN, CH",FM-12,99999,V020,"360,1,N,0010,1","02100,1,9,N","030000,1,N,1","+0204,1","+0184,1","10153,1","06,0000,9,1","24,0046,9,1",,,,"08,99,1,08,1,05,1,02250,1,99,9,99,9",,,"99999,9,09756,1","2,1,029,1,+060,1",,,SYN082AAXX  20001 57328 32880 83601 10204 20184 39756 40153 52029 885// 333 00651 70046;,Q01  00002PRCP06
09-20T03:00:00,4,31.2,107.5,344.0,"DA XIAN, CH",FM-12,99999,V020,"140,1,N,0010,1","99999,9,9,N","020000,1,N,1","+0212,1","+0182,1","10172,1",,,"6,1,03,1",,,"08,99,1,08,1,00,1,99999,9,07,1,99,9",,,,"2,1,019,1,+999,9","00,1",,SYN066AAXX  20031 57328 41970 81401 10212 20182 40172 52019 70060 8807/;,
09-20T06:00:00,4,31.2,107.5,344.0,"DA XIAN, CH",FM-12,99999,V020,"220,1,N,0010,1","99999,9,9,N","015000,1,N,1","+0213,1","+0188,1","10172,1","06,0005,9,1",,"6,1,06,1",,,"08,99,1,08,1,00,1,99999,9,02,1,99,9",,"999,N,+0201,1","99999,9,09774,1","7,1,001,1,+999,9","60,1",,SYN088AAXX  20061 57328 11965 82201 10213 20188 39774 40172 57001 69961 76060 8802/ 333 20201;,
09-20T09:00:00,4,31.2,107.5,344.0,"DA XIAN, CH",FM-12,99999,V020,"999,9,C,0000,1","99999,9,9,N","020000,1,N,1","+0212,1","+0180,1","10177,1",,,"6,1,03,1",,,"08,99,1,08,1,00,1,99999,9,07,1,99,9",,,,"2,1,005,1,+999,9","00,1",,SYN066AAXX  20091 57328 41970 80000 10212 20180 40177 52005 70060 8807/;,
09-20T12:00:00,4,31.2,107.5,344.0,"DA XIAN, CH",FM-12,99999,V020,"999,9,C,0000,1","99999,9,9,N","020000,1,N,1","+0206,1","+0192,1","10190,1","06,0005,9,1",,"6,1,06,1",,,"08,99,1,08,1,00,1,99999,9,07,1,99,9",,,"99999,9,09791,1","2,1,012,1,+999,9","00,1",,SYN078AAXX  20121 57328 11970 80000 10206 20192 39791 40190 52012 69941 70060 8807/;,
09-20T15:00:00,4,31.2,107.5,344.0,"DA XIAN, CH",FM-12,99999,V020,"040,1,N,0020,1","02100,1,9,N","020000,1,N,1","+0197,1","+0189,1","10204,1",,,,,,"08,99,1,08,1,05,1,02250,1,99,9,99,9",,,,"2,1,013,1,+999,9",,,SYN060AAXX  20151 57328 42870 80402 10197 20189 40204 52013 885//;,
09-20T18:00:00,4,31.2,107.5,344.0,"DA XIAN, CH",FM-12,99999,V020,"040,1,N,0010,1","02100,1,9,N","012000,1,N,1","+0193,1","+0187,1","10198,1","06,0000,9,1",,,,,"08,99,1,08,1,05,1,02250,1,99,9,99,9",,"999,M,+0215,1","99999,9,09798,1","7,1,006,1,+999,9",,,SYN076AAXX  20181 57328 32862 80401 10193 20187 39798 40198 57006 885// 333 10215;,Q01  00002PRCP06
09-20T21:00:00,4,31.2,107.5,344.0,"DA XIAN, CH",FM-12,99999,V020,"360,1,N,0010,1","99999,9,9,N","012000,1,N,1","+0191,1","+0185,1","10204,1","24,0010,9,1",,,,,"07,99,1,07,1,00,1,99999,9,04,1,00,1",,,,"2,1,006,1,+999,9",,,SYN070AAXX  20211 57328 42962 73601 10191 20185 40204 52006 87040 333 70010;,
09-21T00:00:00,4,31.2,107.5,344.0,"DA XIAN, CH",FM-12,99999,V020,"040,1,N,0010,1","22000,1,9,N","008000,1,N,1","+0192,1","+0184,1","10218,1","06,0000,9,1","24,0010,9,1",,,"00,1,+99999,9,99,9","00,99,1,00,1,00,1,99999,9,00,1,00,1",,,"99999,9,09817,1","2,1,013,1,+060,1","10,1",,SYN082AAXX  21001 57328 31958 00401 10192 20184 39817 40218 52013 71000 333 00651 70010;,Q01  00002PRCP06
09-21T03:00:00,4,31.2,107.5,344.0,"DA XIAN, CH",FM-12,99999,V020,"040,1,N,0010,1","22000,1,9,N","030000,1,N,1","+0239,1","+0162,1","10214,1",,,,,,"03,99,1,03,1,01,1,01250,1,00,1,00,1",,,,"7,1,001,1,+999,9",,,SYN060AAXX  21031 57328 42680 30401 10239 20162 40214 57001 83100;,
09-21T06:00:00,4,31.2,107.5,344.0,"DA XIAN, CH",FM-12,99999,V020,"220,1,N,0030,1","01200,1,9,N","030000,1,N,1","+0265,1","+0151,1","10193,1","06,0000,9,1",,,,,"07,99,1,07,1,01,1,01250,1,00,1,00,1",,"999,N,+0183,1","99999,9,09797,1","7,1,019,1,+999,9",,,SYN076AAXX  21061 57328 32680 72203 10265 20151 39797 40193 57019 87100 333 20183;,Q01  00002PRCP06
09-21T09:00:00,4,31.2,107.5,344.0,"DA XIAN, CH",FM-12,99999,V020,"220,1,N,0020,1","99999,9,9,N","030000,1,N,1","+0239,1","+0150,1","10182,1",,,,,,"07,99,1,07,1,00,1,99999,9,04,1,99,9",,,,"7,1,013,1,+999,9",,,SYN060AAXX  21091 57328 42980 72202 10239 20150 40182 57013 8704/;,
09-21T12:00:00,4,31.2,107.5,344.0,"DA XIAN, CH",FM-12,99999,V020,"090,1,N,0010,1","99999,9,9,N","015000,1,N,1","+0208,1","+0164,1","10189,1","06,0000,9,1",,,,,"07,99,1,07,1,00,1,99999,9,04,1,99,9",,,"99999,9,09789,1","2,1,005,1,+999,9",,,SYN066AAXX  21121 57328 32965 70901 10208 20164 39789 40189 52005 8704/;,Q01  00002PRCP06
09-21T15:00:00,4,31.2,107.5,344.0,"DA XIAN, CH",FM-12,99999,V020,"040,1,N,0010,1","99999,9,9,N","012000,1,N,1","+0199,1","+0170,1","10193,1",,,,,,"08,99,1,08,1,00,1,99999,9,07,1,99,9",,,,"2,1,007,1,+999,9",,,SYN060AAXX  21151 57328 42962 80401 10199 20170 40193 52007 8807/;,
09-21T18:00:00,4,31.2,107.5,344.0,"DA XIAN, CH",FM-12,99999,V020,"070,1,N,0020,1","99999,9,9,N","012000,1,N,1","+0191,1","+0175,1","10182,1","06,0000,9,1",,,,,"08,99,1,08,1,00,1,99999,9,07,1,99,9",,"999,M,+0268,1","99999,9,09786,1","7,1,010,1,+999,9",,,SYN076AAXX  21181 57328 32962 80702 10191 20175 39786 40182 57010 8807/ 333 10268;,Q01  00002PRCP06
09-21T21:00:00,4,31.2,107.5,344.0,"DA XIAN, CH",FM-12,99999,V020,"999,9,C,0000,1","99999,9,9,N","012000,1,N,1","+0191,1","+0172,1","10174,1",,,,,,"08,99,1,08,1,00,1,99999,9,07,1,99,9",,,,"7,1,009,1,+999,9",,,SYN060AAXX  21211 57328 42962 80000 10191 20172 40174 57009 8807/;,
09-22T00:00:00,4,31.2,107.5,344.0,"DA XIAN, CH",FM-12,99999,V020,"040,1,N,0020,1","99999,9,9,N","015000,1,N,1","+0193,1","+0177,1","10187,1","06,0000,9,1",,,,,"08,99,1,08,1,00,1,99999,9,07,1,99,9",,,"99999,9,09787,1","2,1,010,1,+003,1",,,SYN076AAXX  22001 57328 32965 80402 10193 20177 39787 40187 52010 8807/ 333 05300;,Q01  00002PRCP06
09-22T03:00:00,4,31.2,107.5,344.0,"DA XIAN, CH",FM-12,99999,V020,"020,1,N,0010,1","99999,9,9,N","015000,1,N,1","+0213,1","+0178,1","10192,1",,,,,,"08,99,1,08,1,00,1,99999,9,07,1,99,9",,,,"2,1,006,1,+999,9",,,SYN060AAXX  22031 57328 42965 80201 10213 20178 40192 52006 8807/;,
09-22T06:00:00,4,31.2,107.5,344.0,"DA XIAN, CH",FM-12,99999,V020,"999,9,C,0000,1","99999,9,9,N","030000,1,N,1","+0247,1","+0153,1","10159,1","06,0000,9,1",,,,,"07,99,1,07,1,00,1,99999,9,04,1,99,9",,"999,N,+0186,1","99999,9,09763,1","7,1,030,1,+999,9",,,SYN076AAXX  22061 57328 32980 70000 10247 20153 39763 40159 57030 8704/ 333 20186;,Q01  00002PRCP06
09-22T09:00:00,4,31.2,107.5,344.0,"DA XIAN, CH",FM-12,99999,V020,"220,1,N,0030,1","22000,1,9,N","030000,1,N,1","+0257,1","+0161,1","10140,1",,,,,,"02,99,1,02,1,00,1,99999,9,04,1,00,1",,,,"7,1,018,1,+999,9",,,SYN060AAXX  22091 57328 42980 22203 10257 20161 40140 57018 82040;,
09-22T12:00:00,4,31.2,107.5,344.0,"DA XIAN, CH",FM-12,99999,V020,"040,1,N,0020,1","22000,1,9,N","020000,1,N,1","+0221,1","+0178,1","10150,1","06,0000,9,1",,,,,"02,99,1,02,1,00,1,99999,9,04,1,00,1",,,"99999,9,09753,1","2,1,008,1,+999,9",,,SYN066AAXX  22121 57328 32970 20402 10221 20178 39753 40150 52008 82040;,Q01  00002PRCP06
09-22T15:00:00,4,31.2,107.5,344.0,"DA XIAN, CH",FM-12,99999,V020,"040,1,N,0030,1","22000,1,9,N","015000,1,N,1","+0191,1","+0175,1","10167,1",,,,,"00,1,+99999,9,99,9","00,99,1,00,1,00,1,99999,9,00,1,00,1",,,,"2,1,015,1,+999,9",,,SYN054AAXX  22151 57328 42965 00403 10191 20175 40167 52015;,
09-22T18:00:00,4,31.2,107.5,344.0,"DA XIAN, CH",FM-12,99999,V020,"020,1,N,0010,1","99999,9,9,N","012000,1,N,1","+0185,1","+0172,1","10158,1","06,0000,9,1",,,,,"05,99,1,05,1,00,1,99999,9,04,1,00,1",,"999,M,+0262,1","99999,9,09762,1","7,1,006,1,+999,9",,,SYN076AAXX  22181 57328 32962 50201 10185 20172 39762 40158 57006 85040 333 10262;,Q01  00002PRCP06
09-22T21:00:00,4,31.2,107.5,344.0,"DA XIAN, CH",FM-12,99999,V020,"040,1,N,0030,1","22000,1,9,N","005000,1,N,1","+0172,1","+0167,1","10148,1",,,,,"00,1,+99999,9,99,9","00,99,1,00,1,00,1,99999,9,00,1,00,1",,,,"7,1,010,1,+999,9","10,1",,SYN060AAXX  22211 57328 41950 00403 10172 20167 40148 57010 71000;,
09-23T00:00:00,4,31.2,107.5,344.0,"DA XIAN, CH",FM-12,99999,V020,"040,1,N,0030,1","22000,1,9,N","003000,1,N,1","+0172,1","+0164,1","10161,1","06,0000,9,1",,,,,"01,99,1,01,1,00,1,99999,9,04,1,00,1",,,"99999,9,09762,1","2,1,010,1,+003,1","10,1",,SYN082AAXX  23001 57328 31930 10403 10172 20164 39762 40161 52010 71000 81040 333 05352;,Q01  00002PRCP06
09-23T03:00:00,4,31.2,107.5,344.0,"DA XIAN, CH",FM-12,99999,V020,"320,1,N,0010,1","22000,1,9,N","015000,1,N,1","+0237,1","+0167,1","10160,1",,,,,,"02,99,1,02,1,00,1,99999,9,04,1,00,1",,,,"2,1,001,1,+999,9",,,SYN060AAXX  23031 57328 42965 23201 10237 20167 40160 52001 82040;,
09-23T06:00:00,4,31.2,107.5,344.0,"DA XIAN, CH",FM-12,99999,V020,"040,1,N,0020,1","09000,1,9,N","020000,1,N,1","+0274,1","+0153,1","10124,1","06,0000,9,1",,,,,"07,99,1,02,1,01,1,01250,1,00,1,02,1",,"999,N,+0163,1","99999,9,09731,1","7,1,032,1,+999,9",,,SYN076AAXX  23061 57328 32670 70402 10274 20153 39731 40124 57032 82102 333 20163;,Q01  00002PRCP06
09-23T09:00:00,4,31.2,107.5,344.0,"DA XIAN, CH",FM-12,99999,V020,"220,1,N,0010,1","99999,9,9,N","020000,1,N,1","+0277,1","+0153,1","10110,1",,,,,,"07,99,1,07,1,00,1,99999,9,04,1,99,9",,,,"7,1,014,1,+999,9",,,SYN060AAXX  23091 57328 42970 72201 10277 20153 40110 57014 8704/;,
09-23T12:00:00,4,31.2,107.5,344.0,"DA XIAN, CH",FM-12,99999,V020,"140,1,N,0020,1","99999,9,9,N","008000,1,N,1","+0245,1","+0179,1","10125,1","06,0000,9,1",,,,,"08,99,1,08,1,00,1,99999,9,07,1,99,9",,,"99999,9,09729,1","2,1,012,1,+999,9","10,1",,SYN072AAXX  23121 57328 31958 81402 10245 20179 39729 40125 52012 71000 8807/;,Q01  00002PRCP06
09-23T15:00:00,4,31.2,107.5,344.0,"DA XIAN, CH",FM-12,99999,V020,"220,1,N,0020,1","99999,9,9,N","008000,1,N,1","+0233,1","+0180,1","10140,1",,,,,,"08,99,1,08,1,00,1,99999,9,07,1,99,9",,,,"2,1,018,1,+999,9","10,1",,SYN066AAXX  23151 57328 41958 82202 10233 20180 40140 52018 71000 8807/;,
09-23T18:00:00,4,31.2,107.5,344.0,"DA XIAN, CH",FM-12,99999,V020,"140,1,N,0020,1","99999,9,9,N","008000,1,N,1","+0204,1","+0172,1","10142,1","06,9999,9,9",,"6,1,06,1",,,"08,99,1,08,1,00,1,99999,9,07,1,99,9",,"999,M,+0289,1","99999,9,09749,1","2,1,002,1,+999,9","60,1",,SYN088AAXX  23181 57328 11958 81402 10204 20172 39749 40142 52002 69901 76060 8807/ 333 10289;,
09-23T21:00:00,4,31.2,107.5,344.0,"DA XIAN, CH",FM-12,99999,V020,"040,1,N,0030,1","02100,1,9,N","008000,1,N,1","+0189,1","+0179,1","10131,1","24,0025,9,1",,"6,1,03,1","6,1,03,1",,"08,99,1,08,1,05,1,02250,1,99,9,99,9",,,,"7,1,011,1,+999,9","60,1",,SYN076AAXX  23211 57328 41858 80403 10189 20179 40131 57011 76066 885// 333 70025;,
09-24T00:00:00,4,31.2,107.5,344.0,"DA XIAN, CH",FM-12,99999,V020,"040,1,N,0020,1","99999,9,9,N","007000,1,N,1","+0189,1","+0179,1","10146,1","06,0030,9,2","24,0028,9,2","6,1,06,1","6,1,06,1",,"08,99,1,08,1,00,1,99999,9,02,1,99,9",,,"99999,9,09750,1","2,1,012,1,-010,1","60,1",,SYN094AAXX  24001 57328 11957 80402 10189 20179 39750 40146 52012 60031 76066 8802/ 333 05102 70027;,
09-24T03:00:00,4,31.2,107.5,344.0,"DA XIAN, CH",FM-12,99999,V020,"020,1,N,0020,1","99999,9,9,N","005000,1,N,1","+0189,1","+0183,1","10151,1",,,"6,1,03,1","6,1,03,1",,"08,99,1,08,1,00,1,99999,9,02,1,99,9",,,,"2,1,004,1,+999,9","60,1",,SYN066AAXX  24031 57328 41950 80202 10189 20183 40151 52004 76066 8802/;,
09-24T06:00:00,4,31.2,107.5,344.0,"DA XIAN, CH",FM-12,99999,V020,"020,1,N,0010,1","99999,9,9,N","004000,1,N,1","+0188,1","+0182,1","10144,1","06,0079,9,1",,"6,1,06,1","6,1,06,1",,"08,99,1,08,1,00,1,99999,9,02,1,99,9",,"999,N,+0184,1","99999,9,09745,1","7,1,009,1,+999,9","60,1",,SYN088AAXX  24061 57328 11940 80201 10188 20182 39745 40144 57009 60081 76066 8802/ 333 20184;,
09-24T09:00:00,4,31.2,107.5,344.0,"DA XIAN, CH",FM-12,99999,V020,"999,9,C,0000,1","02100,1,9,N","004000,1,N,1","+0185,1","+0182,1","10144,1",,,"6,1,03,1","6,1,03,1",,"08,99,1,08,1,05,1,02250,1,99,9,99,9",,,,"7,1,001,1,+999,9","60,1",,SYN066AAXX  24091 57328 41840 80000 10185 20182 40144 57001 76066 885//;,
09-24T12:00:00,4,31.2,107.5,344.0,"DA XIAN, CH",FM-12,99999,V020,"020,1,N,0020,1","02100,1,9,N","007000,1,N,1","+0183,1","+0177,1","10153,1","06,0109,9,1",,"6,1,06,1","6,1,06,1",,"08,99,1,08,1,05,1,02250,1,99,9,99,9",,,"99999,9,09753,1","2,1,009,1,+999,9","60,1",,SYN078AAXX  24121 57328 11857 80202 10183 20177 39753 40153 52009 60111 76066 885//;,
09-24T15:00:00,4,31.2,107.5,344.0,"DA XIAN, CH",FM-12,99999,V020,"040,1,N,0010,1","02100,1,9,N","006000,1,N,1","+0183,1","+0177,1","10173,1",,,"6,1,03,1",,,"08,99,1,08,1,05,1,02250,1,99,9,99,9",,,,"2,1,019,1,+999,9","60,1",,SYN066AAXX  24151 57328 41856 80401 10183 20177 40173 52019 76060 885//;,
09-24T18:00:00,4,31.2,107.5,344.0,"DA XIAN, CH",FM-12,99999,V020,"999,9,C,0000,1","02100,1,9,N","007000,1,N,1","+0183,1","+0177,1","10162,1","06,9999,9,9",,"6,1,06,1",,,"08,99,1,08,1,05,1,02250,1,99,9,99,9",,"999,M,+0201,1","99999,9,09761,1","7,1,011,1,+999,9","10,1",,SYN088AAXX  24181 57328 11857 80000 10183 20177 39761 40162 57011 69901 71060 885// 333 10201;,
09-24T21:00:00,4,31.2,107.5,344.0,"DA XIAN, CH",FM-12,99999,V020,"040,1,N,0010,1","02100,1,9,N","008000,1,N,1","+0183,1","+0177,1","10163,1","24,0188,9,1",,,,,"08,99,1,08,1,05,1,02250,1,99,9,99,9",,,,"2,1,001,1,+999,9","60,1",,SYN076AAXX  24211 57328 41858 80401 10183 20177 40163 52001 76000 885// 333 70187;,
09-25T00:00:00,4,31.2,107.5,344.0,"DA XIAN, CH",FM-12,99999,V020,"999,9,C,0000,1","00210,1,9,N","007000,1,N,1","+0185,1","+0179,1","10174,1","06,9999,9,9","24,0185,9,1","6,1,06,1",,,"08,99,1,08,1,05,1,00250,1,99,9,99,9",,,"99999,9,09773,1","2,1,011,1,+020,1","10,1",,SYN094AAXX  25001 57328 11357 80000 10185 20179 39773 40174 52011 69901 71060 885// 333 00200 70185;,
09-25T03:00:00,4,31.2,107.5,344.0,"DA XIAN, CH",FM-12,99999,V020,"999,9,C,0000,1","02100,1,9,N","015000,1,N,1","+0195,1","+0176,1","10185,1",,,,,,"08,99,1,08,1,05,1,02250,1,99,9,99,9",,,,"2,1,011,1,+999,9",,,SYN060AAXX  25031 57328 42865 80000 10195 20176 40185 52011 885//;,
09-25T06:00:00,4,31.2,107.5,344.0,"DA XIAN, CH",FM-12,99999,V020,"110,1,N,0010,1","02100,1,9,N","020000,1,N,1","+0199,1","+0173,1","10176,1","06,0000,9,1",,,,,"08,99,1,08,1,05,1,02250,1,99,9,99,9",,"999,N,+0180,1","99999,9,09776,1","7,1,008,1,+999,9",,,SYN076AAXX  25061 57328 32870 81101 10199 20173 39776 40176 57008 885// 333 20180;,Q01  00002PRCP06
09-25T09:00:00,4,31.2,107.5,344.0,"DA XIAN, CH",FM-12,99999,V020,"999,9,C,0000,1","02100,1,9,N","020000,1,N,1","+0197,1","+0176,1","10176,1",,,,,,"08,99,1,08,1,05,1,02250,1,99,9,99,9",,,,"7,1,001,1,+999,9",,,SYN060AAXX  25091 57328 42870 80000 10197 20176 40176 57001 885//;,
09-25T12:00:00,4,31.2,107.5,344.0,"DA XIAN, CH",FM-12,99999,V020,"999,9,C,0000,1","02100,1,9,N","007000,1,N,1","+0191,1","+0180,1","10191,1","06,9999,9,9",,"6,1,06,1",,,"08,99,1,08,1,05,1,02250,1,99,9,99,9",,,"99999,9,09790,1","2,1,015,1,+999,9","60,1",,SYN078AAXX  25121 57328 11857 80000 10191 20180 39790 40191 52015 69901 76060 885//;,
09-25T15:00:00,4,31.2,107.5,344.0,"DA XIAN, CH",FM-12,99999,V020,"999,9,C,0000,1","02100,1,9,N","005000,1,N,1","+0187,1","+0182,1","10201,1",,,"6,1,03,1",,,"08,99,1,08,1,05,1,02250,1,99,9,99,9",,,,"2,1,010,1,+999,9","10,1",,SYN066AAXX  25151 57328 41850 80000 10187 20182 40201 52010 71060 885//;,
09-25T18:00:00,4,31.2,107.5,344.0,"DA XIAN, CH",FM-12,99999,V020,"999,9,C,0000,1","02100,1,9,N","005000,1,N,1","+0186,1","+0183,1","10196,1","06,9999,9,9",,"6,1,06,1",,,"08,99,1,08,1,05,1,02250,1,99,9,99,9",,"999,M,+0201,1","99999,9,09795,1","7,1,005,1,+999,9","10,1",,SYN088AAXX  25181 57328 11850 80000 10186 20183 39795 40196 57005 69901 71060 885// 333 10201;,
09-25T21:00:00,4,31.2,107.5,344.0,"DA XIAN, CH",FM-12,99999,V020,"040,1,N,0020,1","02100,1,9,N","004000,1,N,1","+0185,1","+0182,1","10191,1","24,0005,9,1",,"6,1,03,1",,,"08,99,1,08,1,05,1,02250,1,99,9,99,9",,,,"7,1,005,1,+999,9","60,1",,SYN076AAXX  25211 57328 41840 80402 10185 20182 40191 57005 76060 885// 333 70005;,
09-26T00:00:00,4,31.2,107.5,344.0,"DA XIAN, CH",FM-12,99999,V020,"110,1,N,0010,1","02100,1,9,N","005000,1,N,1","+0187,1","+0184,1","10196,1","06,0005,9,1","24,0005,9,1","6,1,06,1",,,"08,99,1,08,1,05,1,02250,1,99,9,99,9",,,"99999,9,09794,1","2,1,004,1,+020,1","10,1",,SYN094AAXX  26001 57328 11850 81101 10187 20184 39794 40196 52004 69951 71060 885// 333 00200 70005;,
09-26T03:00:00,4,31.2,107.5,344.0,"DA XIAN, CH",FM-12,99999,V020,"999,9,C,0000,1","02100,1,9,N","012000,1,N,1","+0205,1","+0180,1","10201,1",,,,,,"08,99,1,08,1,05,1,02250,1,99,9,99,9",,,,"2,1,006,1,+999,9",,,SYN060AAXX  26031 57328 42862 80000 10205 20180 40201 52006 885//;,
09-26T06:00:00,4,31.2,107.5,344.0,"DA XIAN, CH",FM-12,99999,V020,"999,9,C,0000,1","02100,1,9,N","015000,1,N,1","+0223,1","+0184,1","10178,1","06,0000,9,1",,,,,"08,99,1,08,1,05,1,02250,1,99,9,99,9",,"999,N,+0183,1","99999,9,09779,1","7,1,021,1,+999,9",,,SYN076AAXX  26061 57328 32865 80000 10223 20184 39779 40178 57021 885// 333 20183;,Q01  00002PRCP06
09-26T09:00:00,4,31.2,107.5,344.0,"DA XIAN, CH",FM-12,99999,V020,"999,9,C,0000,1","99999,9,9,N","020000,1,N,1","+0224,1","+0187,1","10167,1",,,,,,"08,99,1,08,1,00,1,99999,9,07,1,99,9",,,,"7,1,010,1,+999,9",,,SYN060AAXX  26091 57328 42970 80000 10224 20187 40167 57010 8807/;,
09-26T12:00:00,4,31.2,107.5,344.0,"DA XIAN, CH",FM-12,99999,V020,"999,9,C,0000,1","99999,9,9,N","012000,1,N,1","+0212,1","+0192,1","10173,1","06,0000,9,1",,,,,"08,99,1,08,1,00,1,99999,9,07,1,99,9",,,"99999,9,09774,1","2,1,005,1,+999,9",,,SYN066AAXX  26121 57328 32962 80000 10212 20192 39774 40173 52005 8807/;,Q01  00002PRCP06
09-26T15:00:00,4,31.2,107.5,344.0,"DA XIAN, CH",FM-12,99999,V020,"999,9,C,0000,1","99999,9,9,N","008000,1,N,1","+0203,1","+0191,1","10186,1",,,,,,"08,99,1,08,1,00,1,99999,9,07,1,99,9",,,,"2,1,013,1,+999,9","10,1",,SYN066AAXX  26151 57328 41958 80000 10203 20191 40186 52013 71000 8807/;,
09-26T18:00:00,4,31.2,107.5,344.0,"DA XIAN, CH",FM-12,99999,V020,"040,1,N,0020,1","02100,1,9,N","007000,1,N,1","+0199,1","+0193,1","10179,1","06,9999,9,9",,,,,"08,99,1,08,1,05,1,02250,1,99,9,99,9",,"999,M,+0226,1","99999,9,09781,1","7,1,006,1,+999,9","60,1",,SYN088AAXX  26181 57328 11857 80402 10199 20193 39781 40179 57006 69901 76000 885// 333 10226;,
09-26T21:00:00,4,31.2,107.5,344.0,"DA XIAN, CH",FM-12,99999,V020,"070,1,N,0020,1","02100,1,9,N","007000,1,N,1","+0197,1","+0192,1","10174,1","24,0003,9,1",,"6,1,03,1",,,"08,99,1,08,1,05,1,02250,1,99,9,99,9",,,,"7,1,005,1,+999,9","10,1",,SYN076AAXX  26211 57328 41857 80702 10197 20192 40174 57005 71060 885// 333 70002;,
09-27T00:00:00,4,31.2,107.5,344.0,"DA XIAN, CH",FM-12,99999,V020,"999,9,C,0000,1","99999,9,9,N","002000,1,N,1","+0199,1","+0193,1","10186,1","06,9999,9,9","24,0003,9,1","6,1,06,1",,,"08,99,1,08,1,00,1,99999,9,07,1,99,9",,,"99999,9,09787,1","2,1,011,1,-010,1","10,1",,SYN094AAXX  27001 57328 11920 80000 10199 20193 39787 40186 52011 69921 71060 8807/ 333 05101 70002;,
09-27T03:00:00,4,31.2,107.5,344.0,"DA XIAN, CH",FM-12,99999,V020,"999,9,C,0000,1","99999,9,9,N","008000,1,N,1","+0209,1","+0194,1","10196,1",,,,,,"08,99,1,08,1,00,1,99999,9,07,1,99,9",,,,"2,1,010,1,+999,9","10,1",,SYN066AAXX  27031 57328 41958 80000 10209 20194 40196 52010 71000 8807/;,
09-27T06:00:00,4,31.2,107.5,344.0,"DA XIAN, CH",FM-12,99999,V020,"020,1,N,0010,1","99999,9,9,N","012000,1,N,1","+0215,1","+0184,1","10178,1","06,9999,9,9",,"6,1,06,1",,,"08,99,1,08,1,00,1,99999,9,07,1,99,9",,"999,N,+0195,1","99999,9,09780,1","7,1,017,1,+999,9","21,1",,SYN088AAXX  27061 57328 11962 80201 10215 20184 39780 40178 57017 69901 72160 8807/ 333 20195;,
09-27T09:00:00,4,31.2,107.5,344.0,"DA XIAN, CH",FM-12,99999,V020,"040,1,N,0010,1","99999,9,9,N","015000,1,N,1","+0223,1","+0192,1","10164,1",,,,,,"08,99,1,08,1,00,1,99999,9,07,1,99,9",,,,"7,1,013,1,+999,9",,,SYN060AAXX  27091 57328 42965 80401 10223 20192 40164 57013 8807/;,
09-27T12:00:00,4,31.2,107.5,344.0,"DA XIAN, CH",FM-12,99999,V020,"999,9,C,0000,1","99999,9,9,N","008000,1,N,1","+0213,1","+0194,1","10165,1","06,0000,2,1",,,,,"08,99,1,08,1,00,1,99999,9,07,1,99,9",,,"99999,9,09767,1","4,1,000,1,+999,9","10,1",,SYN072AAXX  27121 57328 31958 80000 10213 20194 39767 40165 54000 71000 8807/;,
09-27T15:00:00,4,31.2,107.5,344.0,"DA XIAN, CH",FM-12,99999,V020,"040,1,N,0010,1","99999,9,9,N","008000,1,N,1","+0203,1","+0197,1","10172,1",,,"6,1,03,1",,,"08,99,1,08,1,00,1,99999,9,07,1,99,9",,,,"2,1,007,1,+999,9","10,1",,SYN066AAXX  27151 57328 41958 80401 10203 20197 40172 52007 71060 8807/;,
09-27T18:00:00,4,31.2,107.5,344.0,"DA XIAN, CH",FM-12,99999,V020,"040,1,N,0010,1","99999,9,9,N","006000,1,N,1","+0199,1","+0194,1","10157,1","06,9999,9,9",,"6,1,06,1",,,"08,99,1,08,1,00,1,99999,9,07,1,99,9",,"999,M,+0227,1","99999,9,09759,1","7,1,015,1,+999,9","10,1",,SYN088AAXX  27181 57328 11956 80401 10199 20194 39759 40157 57015 69901 71060 8807/ 333 10227;,
09-27T21:00:00,4,31.2,107.5,344.0,"DA XIAN, CH",FM-12,99999,V020,"999,9,C,0000,1","99999,9,9,N","004000,1,N,1","+0199,1","+0194,1","10143,1","24,0000,2,1",,,,,"08,99,1,08,1,00,1,99999,9,07,1,99,9",,,,"7,1,013,1,+999,9","10,1",,SYN076AAXX  27211 57328 41940 80000 10199 20194 40143 57013 71000 8807/ 333 79999;,
09-28T00:00:00,4,31.2,107.5,344.0,"DA XIAN, CH",FM-12,99999,V020,"020,1,N,0010,1","99999,9,9,N","004000,1,N,1","+0199,1","+0193,1","10146,1","06,0000,9,1","24,0000,2,1",,,,"08,99,1,08,1,00,1,99999,9,07,1,99,9",,,"99999,9,09749,1","2,1,003,1,-040,1","10,1",,SYN088AAXX  28001 57328 31940 80201 10199 20193 39749 40146 52003 71000 8807/ 333 05400 79999;,Q01  00002PRCP06
09-28T03:00:00,4,31.2,107.5,344.0,"DA XIAN, CH",FM-12,99999,V020,"320,1,N,0010,1","99999,9,9,N","015000,1,N,1","+0237,1","+0186,1","10145,1",,,,,,"06,99,1,06,1,00,1,99999,9,04,1,00,1",,,,"2,1,001,1,+999,9",,,SYN060AAXX  28031 57328 42965 63201 10237 20186 40145 52001 86040;,
09-28T06:00:00,4,31.2,107.5,344.0,"DA XIAN, CH",FM-12,99999,V020,"999,9,C,0000,1","99999,9,9,N","025000,1,N,1","+0241,1","+0189,1","10123,1","06,0000,9,1",,,,,"08,99,1,08,1,00,1,99999,9,07,1,99,9",,"999,N,+0195,1","99999,9,09728,1","7,1,022,1,+999,9",,,SYN076AAXX  28061 57328 32975 80000 10241 20189 39728 40123 57022 8807/ 333 20195;,Q01  00002PRCP06
09-28T09:00:00,4,31.2,107.5,344.0,"DA XIAN, CH",FM-12,99999,V020,"040,1,N,0020,1","99999,9,9,N","025000,1,N,1","+0239,1","+0200,1","10108,1",,,,,,"08,99,1,08,1,00,1,99999,9,07,1,99,9",,,,"7,1,014,1,+999,9",,,SYN060AAXX  28091 57328 42975 80402 10239 20200 40108 57014 8807/;,
09-28T12:00:00,4,31.2,107.5,344.0,"DA XIAN, CH",FM-12,99999,V020,"040,1,N,0010,1","99999,9,9,N","025000,1,N,1","+0225,1","+0204,1","10115,1","06,0000,9,1",,,,,"08,99,1,08,1,00,1,99999,9,07,1,99,9",,,"99999,9,09720,1","2,1,006,1,+999,9",,,SYN066AAXX  28121 57328 32975 80401 10225 20204 39720 40115 52006 8807/;,Q01  00002PRCP06
09-28T15:00:00,4,31.2,107.5,344.0,"DA XIAN, CH",FM-12,99999,V020,"040,1,N,0030,1","02100,1,9,N","012000,1,N,1","+0217,1","+0203,1","10121,1",,,,,,"08,99,1,08,1,05,1,02250,1,99,9,99,9",,,,"2,1,007,1,+999,9","60,1",,SYN066AAXX  28151 57328 41862 80403 10217 20203 40121 52007 76000 885//;,
09-28T18:00:00,4,31.2,107.5,344.0,"DA XIAN, CH",FM-12,99999,V020,"040,1,N,0030,1","02100,1,9,N","008000,1,N,1","+0213,1","+0201,1","10114,1","06,9999,9,9",,"6,1,06,1",,,"08,99,1,08,1,05,1,02250,1,99,9,99,9",,"999,M,+0250,1","99999,9,09721,1","7,1,006,1,+999,9","60,1",,SYN088AAXX  28181 57328 11858 80403 10213 20201 39721 40114 57006 69901 76060 885// 333 10250;,
09-28T21:00:00,4,31.2,107.5,344.0,"DA XIAN, CH",FM-12,99999,V020,"090,1,N,0020,1","02100,1,9,N","005000,1,N,1","+0207,1","+0201,1","10109,1","24,0013,9,1",,"6,1,03,1",,,"08,99,1,08,1,05,1,02250,1,99,9,99,9",,,,"7,1,006,1,+999,9","60,1",,SYN076AAXX  28211 57328 41850 80902 10207 20201 40109 57006 76060 885// 333 70012;,
09-29T00:00:00,4,31.2,107.5,344.0,"DA XIAN, CH",FM-12,99999,V020,"040,1,N,0010,1","02100,1,9,N","008000,1,N,1","+0201,1","+0195,1","10119,1","06,0020,9,2","24,0018,9,2","6,1,06,1",,,"08,99,1,08,1,05,1,02250,1,99,9,99,9",,,"99999,9,09724,1","2,1,009,1,-030,1","21,1",,SYN094AAXX  29001 57328 11858 80401 10201 20195 39724 40119 52009 60021 72160 885// 333 05300 70019;,
09-29T03:00:00,4,31.2,107.5,344.0,"DA XIAN, CH",FM-12,99999,V020,"999,9,C,0000,1","02100,1,9,N","007000,1,N,1","+0207,1","+0198,1","10127,1",,,"6,1,03,1",,,"08,99,1,08,1,05,1,02250,1,99,9,99,9",,,,"2,1,007,1,+999,9","60,1",,SYN066AAXX  29031 57328 41857 80000 10207 20198 40127 52007 76060 885//;,
09-29T06:00:00,4,31.2,107.5,344.0,"DA XIAN, CH",FM-12,99999,V020,"040,1,N,0010,1","99999,9,9,N","008000,1,N,1","+0220,1","+0202,1","10100,1","06,9999,9,9",,"6,1,06,1",,,"08,99,1,08,1,00,1,99999,9,02,1,99,9",,"999,N,+0198,1","99999,9,09706,1","7,1,025,1,+999,9","10,1",,SYN088AAXX  29061 57328 11958 80401 10220 20202 39706 40100 57025 69901 71060 8802/ 333 20198;,
09-29T09:00:00,4,31.2,107.5,344.0,"DA XIAN, CH",FM-12,99999,V020,"040,1,N,0010,1","99999,9,9,N","008000,1,N,1","+0229,1","+0205,1","10087,1",,,,,,"08,99,1,08,1,00,1,99999,9,07,1,99,9",,,,"7,1,012,1,+999,9","10,1",,SYN066AAXX  29091 57328 41958 80401 10229 20205 40087 57012 71000 8807/;,
09-29T12:00:00,4,31.2,107.5,344.0,"DA XIAN, CH",FM-12,99999,V020,"999,9,C,0000,1","99999,9,9,N","008000,1,N,1","+0221,1","+0203,1","10088,1","06,0000,9,1",,,,,"08,99,1,08,1,00,1,99999,9,07,1,99,9",,,"99999,9,09694,1","4,1,000,1,+999,9","10,1",,SYN072AAXX  29121 57328 31958 80000 10221 20203 39694 40088 54000 71000 8807/;,Q01  00002PRCP06
09-29T15:00:00,4,31.2,107.5,344.0,"DA XIAN, CH",FM-12,99999,V020,"999,9,C,0000,1","02100,1,9,N","012000,1,N,1","+0222,1","+0199,1","10099,1",,,,,,"08,99,1,08,1,05,1,02250,1,99,9,99,9",,,,"2,1,011,1,+999,9","60,1",,SYN066AAXX  29151 57328 41862 80000 10222 20199 40099 52011 76000 885//;,
09-29T18:00:00,4,31.2,107.5,344.0,"DA XIAN, CH",FM-12,99999,V020,"040,1,N,0010,1","02100,1,9,N","012000,1,N,1","+0217,1","+0205,1","10097,1","06,9999,9,9",,"6,1,06,1",,,"08,99,1,08,1,05,1,02250,1,99,9,99,9",,"999,M,+0230,1","99999,9,09703,1","7,1,002,1,+999,9","00,1",,SYN088AAXX  29181 57328 11862 80401 10217 20205 39703 40097 57002 69911 70060 885// 333 10230;,
09-29T21:00:00,4,31.2,107.5,344.0,"DA XIAN, CH",FM-12,99999,V020,"999,9,C,0000,1","02100,1,9,N","006000,1,N,1","+0217,1","+0206,1","10098,1","24,0010,9,1",,"6,1,03,1",,,"08,99,1,08,1,05,1,02250,1,99,9,99,9",,,,"2,1,002,1,+999,9","60,1",,SYN076AAXX  29211 57328 41856 80000 10217 20206 40098 52002 76060 885// 333 70009;,
09-30T00:00:00,4,31.2,107.5,344.0,"DA XIAN, CH",FM-12,99999,V020,"999,9,C,0000,1","99999,9,9,N","002000,1,N,1","+0219,1","+0210,1","10119,1","06,0003,9,1","24,0005,9,1","6,1,06,1",,,"08,99,1,08,1,00,1,99999,9,02,1,99,9",,,"99999,9,09725,1","2,1,020,1,+000,1","10,1",,SYN094AAXX  30001 57328 11920 80000 10219 20210 39725 40119 52020 69931 71060 8802/ 333 00002 70004;,
09-30T03:00:00,4,31.2,107.5,344.0,"DA XIAN, CH",FM-12,99999,V020,"040,1,N,0010,1","99999,9,9,N","003000,1,N,1","+0219,1","+0212,1","10133,1",,,"6,1,03,1",,,"08,99,1,08,1,00,1,99999,9,02,1,99,9",,,,"2,1,013,1,+999,9","10,1",,SYN066AAXX  30031 57328 41930 80401 10219 20212 40133 52013 71060 8802/;,
09-30T06:00:00,4,31.2,107.5,344.0,"DA XIAN, CH",FM-12,99999,V020,"999,9,C,0000,1","99999,9,9,N","003000,1,N,1","+0215,1","+0212,1","10131,1","06,0030,9,1",,"6,1,06,1",,,"08,99,1,08,1,00,1,99999,9,02,1,99,9",,"999,N,+0213,1","99999,9,09736,1","7,1,002,1,+999,9","60,1",,SYN088AAXX  30061 57328 11930 80000 10215 20212 39736 40131 57002 60031 76060 8802/ 333 20213;,
09-30T09:00:00,4,31.2,107.5,344.0,"DA XIAN, CH",FM-12,99999,V020,"020,1,N,0050,1","02100,1,9,N","030000,1,N,1","+0191,1","+0158,1","10157,1",,,"6,1,03,1","6,1,03,1",,"08,99,1,08,1,05,1,02250,1,99,9,99,9",,,,"2,1,023,1,+999,9","21,1",,SYN066AAXX  30091 57328 41880 80205 10191 20158 40157 52023 72166 885//;,
09-30T12:00:00,4,31.2,107.5,344.0,"DA XIAN, CH",FM-12,99999,V020,"040,1,N,0030,1","02100,1,9,N","030000,1,N,1","+0177,1","+0103,1","10197,1","06,0041,9,1",,"6,1,06,1",,,"08,99,1,08,1,05,1,02250,1,99,9,99,9",,,"99999,9,09797,1","2,1,038,1,+999,9","00,1",,SYN078AAXX  30121 57328 11880 80403 10177 20103 39797 40197 52038 60041 70060 885//;,
09-30T15:00:00,4,31.2,107.5,344.0,"DA XIAN, CH",FM-12,99999,V020,"040,1,N,0060,1","02100,1,9,N","030000,1,N,1","+0135,1","+0128,1","10233,1",,,"6,1,03,1",,,"08,99,1,08,1,05,1,02250,1,99,9,99,9",,,,"2,1,031,1,+999,9","60,1",,SYN066AAXX  30151 57328 41880 80406 10135 20128 40233 52031 76060 885//;,
09-30T18:00:00,4,31.2,107.5,344.0,"DA XIAN, CH",FM-12,99999,V020,"040,1,N,0030,1","02100,1,9,N","030000,1,N,1","+0129,1","+0118,1","10251,1","06,0160,9,1",,"6,1,06,1",,,"08,99,1,08,1,05,1,02250,1,99,9,99,9",,"999,M,+0219,1","99999,9,09845,1","2,1,017,1,+999,9","60,1",,SYN088AAXX  30181 57328 11880 80403 10129 20118 39845 40251 52017 60161 76060 885// 333 10219;,
09-30T21:00:00,4,31.2,107.5,344.0,"DA XIAN, CH",FM-12,99999,V020,"040,1,N,0010,1","02100,1,9,N","020000,1,N,1","+0128,1","+0115,1","10287,1","24,0244,9,1",,"6,1,03,1","6,1,03,1",,"08,99,1,08,1,05,1,02250,1,99,9,99,9",,,,"2,1,033,1,+999,9","21,1",,SYN076AAXX  30211 57328 41870 80401 10128 20115 40287 52033 72166 885// 333 70244;,
10-01T00:00:00,4,31.2,107.5,344.0,"DA XIAN, CH",FM-12,99999,V020,"999,9,C,0000,1","02100,1,9,N","025000,1,N,1","+0136,1","+0112,1","10315,1","06,0020,9,1","24,0241,9,1","6,1,06,1",,,"08,99,1,08,1,05,1,02250,1,99,9,99,9",,,"99999,9,09904,1","2,1,026,1,+180,1","00,1",,SYN094AAXX  01001 57328 11875 80000 10136 20112 39904 40315 52026 60021 70060 885// 333 01858 70242;,
10-01T03:00:00,4,31.2,107.5,344.0,"DA XIAN, CH",FM-12,99999,V020,"999,9,C,0000,1","99999,9,9,N","030000,1,N,1","+0147,1","+0112,1","10344,1",,,"6,1,03,1",,,"08,99,1,08,1,00,1,99999,9,07,1,99,9",,,,"2,1,026,1,+999,9","21,1",,SYN066AAXX  01031 57328 41980 80000 10147 20112 40344 52026 72160 8807/;,
10-01T06:00:00,4,31.2,107.5,344.0,"DA XIAN, CH",FM-12,99999,V020,"140,1,N,0020,1","99999,9,9,N","030000,1,N,1","+0163,1","+0097,1","10333,1","06,9999,9,9",,"6,1,06,1",,,"08,99,1,08,1,00,1,99999,9,07,1,99,9",,"999,N,+0124,1","99999,9,09920,1","7,1,010,1,+999,9","00,1",,SYN088AAXX  01061 57328 11980 81402 10163 20097 39920 40333 57010 69911 70060 8807/ 333 20124;,
10-01T09:00:00,4,31.2,107.5,344.0,"DA XIAN, CH",FM-12,99999,V020,"220,1,N,0010,1","22000,1,9,N","030000,1,N,1","+0189,1","+0109,1","10310,1",,,,,,"01,99,1,01,1,00,1,99999,9,04,1,00,1",,,,"7,1,020,1,+999,9",,,SYN060AAXX  01091 57328 42980 12201 10189 20109 40310 57020 81040;,
10-01T12:00:00,4,31.2,107.5,344.0,"DA XIAN, CH",FM-12,99999,V020,"999,9,C,0000,1","22000,1,9,N","020000,1,N,1","+0156,1","+0110,1","10314,1","06,0000,9,1",,,,"00,1,+99999,9,99,9","00,99,1,00,1,00,1,99999,9,00,1,00,1",,,"99999,9,09902,1","2,1,002,1,+999,9",,,SYN060AAXX  01121 57328 32970 00000 10156 20110 39902 40314 52002;,Q01  00002PRCP06
10-01T15:00:00,4,31.2,107.5,344.0,"DA XIAN, CH",FM-12,99999,V020,"040,1,N,0020,1","22000,1,9,N","020000,1,N,1","+0141,1","+0121,1","10326,1",,,,,,"04,99,1,04,1,00,1,99999,9,04,1,00,1",,,,"2,1,011,1,+999,9",,,SYN060AAXX  01151 57328 42970 40402 10141 20121 40326 52011 84040;,
10-01T18:00:00,4,31.2,107.5,344.0,"DA XIAN, CH",FM-12,99999,V020,"999,9,C,0000,1","22000,1,9,N","015000,1,N,1","+0121,1","+0110,1","10316,1","06,0000,9,1",,,,"00,1,+99999,9,99,9","00,99,1,00,1,00,1,99999,9,00,1,00,1",,"999,M,+0193,1","99999,9,09903,1","7,1,010,1,+999,9",,,SYN070AAXX  01181 57328 32965 00000 10121 20110 39903 40316 57010 333 10193;,Q01  00002PRCP06
10-01T21:00:00,4,31.2,107.5,344.0,"DA XIAN, CH",FM-12,99999,V020,"040,1,N,0010,1","22000,1,9,N","000200,1,N,1","+0115,1","+0113,1","10315,1","24,0000,2,1",,"4,1,03,1",,"00,1,+99999,9,99,9","00,99,1,00,1,00,1,99999,9,00,1,00,1",,,,"2,1,001,1,+999,9","44,1",,SYN070AAXX  01211 57328 41902 00401 10115 20113 40315 52001 74440 333 70001;,
10-02T00:00:00,4,31.2,107.5,344.0,"DA XIAN, CH",FM-12,99999,V020,"090,1,N,0010,1","99999,9,9,N","003000,1,N,1","+0119,1","+0111,1","10323,1","06,0000,9,1","24,0000,2,1","4,1,06,1",,,"08,99,1,08,1,00,1,99999,9,07,1,99,9",,,"99999,9,09909,1","2,1,005,1,+010,1","10,1",,SYN088AAXX  02001 57328 31930 80901 10119 20111 39909 40323 52005 71040 8807/ 333 00152 70001;,Q01  00002PRCP06
10-02T03:00:00,4,31.2,107.5,344.0,"DA XIAN, CH",FM-12,99999,V020,"040,1,N,0010,1","99999,9,9,N","008000,1,N,1","+0139,1","+0113,1","10324,1",,,,,,"08,99,1,08,1,00,1,99999,9,07,1,99,9",,,,"2,1,002,1,+999,9","10,1",,SYN066AAXX  02031 57328 41958 80401 10139 20113 40324 52002 71000 8807/;,
10-02T06:00:00,4,31.2,107.5,344.0,"DA XIAN, CH",FM-12,99999,V020,"040,1,N,0020,1","03600,1,9,N","012000,1,N,1","+0178,1","+0115,1","10290,1","06,0000,9,1",,,,,"07,99,1,01,1,01,1,01250,1,04,1,99,9",,"999,N,+0111,1","99999,9,09879,1","7,1,032,1,+999,9",,,SYN076AAXX  02061 57328 32662 70402 10178 20115 39879 40290 57032 8114/ 333 20111;,Q01  00002PRCP06
10-02T09:00:00,4,31.2,107.5,344.0,"DA XIAN, CH",FM-12,99999,V020,"999,9,C,0000,1","99999,9,9,N","020000,1,N,1","+0185,1","+0109,1","10260,1",,,,,,"07,99,1,07,1,00,1,99999,9,04,1,99,9",,,,"7,1,028,1,+999,9",,,SYN060AAXX  02091 57328 42970 70000 10185 20109 40260 57028 8704/;,
10-02T12:00:00,4,31.2,107.5,344.0,"DA XIAN, CH",FM-12,99999,V020,"999,9,C,0000,1","99999,9,9,N","012000,1,N,1","+0151,1","+0126,1","10264,1","06,0000,9,1",,,,,"07,99,1,07,1,00,1,99999,9,04,1,99,9",,,"99999,9,09852,1","2,1,001,1,+999,9",,,SYN066AAXX  02121 57328 32962 70000 10151 20126 39852 40264 52001 8704/;,Q01  00002PRCP06
10-02T15:00:00,4,31.2,107.5,344.0,"DA XIAN, CH",FM-12,99999,V020,"999,9,C,0000,1","99999,9,9,N","008000,1,N,1","+0136,1","+0121,1","10275,1",,,,,,"07,99,1,07,1,00,1,99999,9,04,1,99,9",,,,"2,1,011,1,+999,9","10,1",,SYN066AAXX  02151 57328 41958 70000 10136 20121 40275 52011 71000 8704/;,
10-02T18:00:00,4,31.2,107.5,344.0,"DA XIAN, CH",FM-12,99999,V020,"020,1,N,0010,1","99999,9,9,N","006000,1,N,1","+0137,1","+0126,1","10254,1","06,0000,9,1",,,,,"08,99,1,08,1,00,1,99999,9,07,1,99,9",,"999,M,+0189,1","99999,9,09846,1","7,1,017,1,+999,9","10,1",,SYN082AAXX  02181 57328 31956 80201 10137 20126 39846 40254 57017 71000 8807/ 333 10189;,Q01  00002PRCP06
10-02T21:00:00,4,31.2,107.5,344.0,"DA XIAN, CH",FM-12,99999,V020,"070,1,N,0020,1","99999,9,9,N","006000,1,N,1","+0136,1","+0131,1","10246,1",,,,,,"08,99,1,08,1,00,1,99999,9,07,1,99,9",,,,"7,1,007,1,+999,9","10,1",,SYN066AAXX  02211 57328 41956 80702 10136 20131 40246 57007 71000 8807/;,
10-03T00:00:00,4,31.2,107.5,344.0,"DA XIAN, CH",FM-12,99999,V020,"040,1,N,0010,1","99999,9,9,N","008000,1,N,1","+0141,1","+0130,1","10259,1","06,0000,9,1",,,,,"07,99,1,07,1,00,1,99999,9,04,1,99,9",,,"99999,9,09849,1","2,1,010,1,+006,1","10,1",,SYN082AAXX  03001 57328 31958 70401 10141 20130 39849 40259 52010 71000 8704/ 333 05602;,Q01  00002PRCP06
10-03T03:00:00,4,31.2,107.5,344.0,"DA XIAN, CH",FM-12,99999,V020,"360,1,N,0020,1","99999,9,9,N","015000,1,N,1","+0185,1","+0129,1","10253,1",,,,,,"05,99,1,05,1,00,1,99999,9,04,1,00,1",,,,"7,1,004,1,+999,9",,,SYN060AAXX  03031 57328 42965 53602 10185 20129 40253 57004 85040;,
10-03T06:00:00,4,31.2,107.5,344.0,"DA XIAN, CH",FM-12,99999,V020,"140,1,N,0010,1","99999,9,9,N","015000,1,N,1","+0210,1","+0133,1","10223,1","06,0000,9,1",,,,,"08,99,1,08,1,00,1,99999,9,07,1,99,9",,"999,N,+0132,1","99999,9,09818,1","7,1,027,1,+999,9",,,SYN076AAXX  03061 57328 32965 81401 10210 20133 39818 40223 57027 8807/ 333 20132;,Q01  00002PRCP06
10-03T09:00:00,4,31.2,107.5,344.0,"DA XIAN, CH",FM-12,99999,V020,"220,1,N,0010,1","99999,9,9,N","020000,1,N,1","+0213,1","+0114,1","10205,1",,,,,,"07,99,1,07,1,00,1,99999,9,04,1,99,9",,,,"7,1,017,1,+999,9",,,SYN060AAXX  03091 57328 42970 72201 10213 20114 40205 57017 8704/;,
10-03T12:00:00,4,31.2,107.5,344.0,"DA XIAN, CH",FM-12,99999,V020,"040,1,N,0010,1","22000,1,9,N","015000,1,N,1","+0180,1","+0141,1","10221,1","06,0000,9,1",,,,"00,1,+99999,9,99,9","00,99,1,00,1,00,1,99999,9,00,1,00,1",,,"99999,9,09815,1","2,1,014,1,+999,9",,,SYN060AAXX  03121 57328 32965 00401 10180 20141 39815 40221 52014;,Q01  00002PRCP06
10-03T15:00:00,4,31.2,107.5,344.0,"DA XIAN, CH",FM-12,99999,V020,"070,1,N,0010,1","22000,1,9,N","012000,1,N,1","+0149,1","+0135,1","10232,1",,,,,"00,1,+99999,9,99,9","00,99,1,00,1,00,1,99999,9,00,1,00,1",,,,"2,1,011,1,+999,9",,,SYN054AAXX  03151 57328 42962 00701 10149 20135 40232 52011;,
10-03T18:00:00,4,31.2,107.5,344.0,"DA XIAN, CH",FM-12,99999,V020,"070,1,N,0020,1","22000,1,9,N","008000,1,N,1","+0135,1","+0131,1","10229,1","06,0000,9,1",,,,"00,1,+99999,9,99,9","00,99,1,00,1,00,1,99999,9,00,1,00,1",,"999,M,+0217,1","99999,9,09824,1","7,1,002,1,+999,9","10,1",,SYN076AAXX  03181 57328 31958 00702 10135 20131 39824 40229 57002 71000 333 10217;,Q01  00002PRCP06
10-03T21:00:00,4,31.2,107.5,344.0,"DA XIAN, CH",FM-12,99999,V020,"040,1,N,0030,1","22000,1,9,N","001200,1,N,1","+0125,1","+0123,1","10224,1",,,,,"00,1,+99999,9,99,9","00,99,1,00,1,00,1,99999,9,00,1,00,1",,,,"7,1,005,1,+999,9","10,1",,SYN060AAXX  03211 57328 41912 00403 10125 20123 40224 57005 71000;,
10-04T00:00:00,4,31.2,107.5,344.0,"DA XIAN, CH",FM-12,99999,V020,"040,1,N,0030,1","99999,9,9,N","002000,1,N,1","+0131,1","+0127,1","10226,1","06,0000,9,1",,,,,"08,99,1,08,1,00,1,99999,9,07,1,99,9",,,"99999,9,09819,1","4,1,000,1,+003,1","10,1",,SYN082AAXX  04001 57328 31920 80403 10131 20127 39819 40226 54000 71000 8807/ 333 05351;,Q01  00002PRCP06
10-04T03:00:00,4,31.2,107.5,344.0,"DA XIAN, CH",FM-12,99999,V020,"020,1,N,0020,1","99999,9,9,N","012000,1,N,1","+0169,1","+0138,1","10230,1",,,,,,"07,99,1,07,1,00,1,99999,9,04,1,99,9",,,,"2,1,004,1,+999,9",,,SYN060AAXX  04031 57328 42962 70202 10169 20138 40230 52004 8704/;,
10-04T06:00:00,4,31.2,107.5,344.0,"DA XIAN, CH",FM-12,99999,V020,"999,9,C,0000,1","99999,9,9,N","012000,1,N,1","+0181,1","+0144,1","10203,1","06,9999,9,9",,,,,"08,99,1,08,1,00,1,99999,9,07,1,99,9",,"999,N,+0121,1","99999,9,09797,1","7,1,026,1,+999,9","60,1",,SYN088AAXX  04061 57328 11962 80000 10181 20144 39797 40203 57026 69901 76000 8807/ 333 20121;,
10-04T09:00:00,4,31.2,107.5,344.0,"DA XIAN, CH",FM-12,99999,V020,"110,1,N,0020,1","99999,9,9,N","012000,1,N,1","+0169,1","+0141,1","10200,1",,,"6,1,03,1","6,1,03,1",,"08,99,1,08,1,00,1,99999,9,07,1,99,9",,,,"7,1,004,1,+999,9","60,1",,SYN066AAXX  04091 57328 41962 81102 10169 20141 40200 57004 76066 8807/;,
10-04T12:00:00,4,31.2,107.5,344.0,"DA XIAN, CH",FM-12,99999,V020,"090,1,N,0020,1","02100,1,9,N","007000,1,N,1","+0159,1","+0147,1","10205,1","06,0010,9,1",,"6,1,06,1","6,1,06,1",,"08,99,1,08,1,05,1,02250,1,99,9,99,9",,,"99999,9,09797,1","2,1,004,1,+999,9","60,1",,SYN078AAXX  04121 57328 11857 80902 10159 20147 39797 40205 52004 69991 76066 885//;,
10-04T15:00:00,4,31.2,107.5,344.0,"DA XIAN, CH",FM-12,99999,V020,"070,1,N,0010,1","02100,1,9,N","007000,1,N,1","+0157,1","+0136,1","10226,1",,,"6,1,03,1","6,1,03,1",,"08,99,1,08,1,05,1,02250,1,99,9,99,9",,,,"2,1,023,1,+999,9","60,1",,SYN066AAXX  04151 57328 41857 80701 10157 20136 40226 52023 76066 885//;,
10-04T18:00:00,4,31.2,107.5,344.0,"DA XIAN, CH",FM-12,99999,V020,"020,1,N,0050,1","02100,1,9,N","006000,1,N,1","+0148,1","+0132,1","10227,1","06,9999,9,9",,"6,1,06,1","6,1,06,1",,"08,99,1,08,1,05,1,02250,1,99,9,99,9",,"999,M,+0181,1","99999,9,09821,1","2,1,001,1,+999,9","60,1",,SYN088AAXX  04181 57328 11856 80205 10148 20132 39821 40227 52001 69921 76066 885// 333 10181;,
10-04T21:00:00,4,31.2,107.5,344.0,"DA XIAN, CH",FM-12,99999,V020,"040,1,N,0040,1","02100,1,9,N","005000,1,N,1","+0139,1","+0132,1","10232,1","24,0025,9,1",,"6,1,03,1","6,1,03,1",,"08,99,1,08,1,05,1,02250,1,99,9,99,9",,,,"2,1,003,1,+999,9","60,1",,SYN076AAXX  04211 57328 41850 80404 10139 20132 40232 52003 76066 885// 333 70026;,
10-05T00:00:00,4,31.2,107.5,344.0,"DA XIAN, CH",FM-12,99999,V020,"040,1,N,0040,1","02100,1,9,N","005000,1,N,1","+0137,1","+0132,1","10255,1","06,0071,9,1","24,0076,9,1","6,1,06,1","6,1,06,1",,"08,99,1,08,1,05,1,02250,1,99,9,99,9",,,"99999,9,09846,1","2,1,022,1,+030,1","60,1",,SYN094AAXX  05001 57328 11850 80404 10137 20132 39846 40255 52022 60071 76066 885// 333 00301 70076;,
10-05T03:00:00,4,31.2,107.5,344.0,"DA XIAN, CH",FM-12,99999,V020,"040,1,N,0010,1","02100,1,9,N","008000,1,N,1","+0147,1","+0140,1","10264,1",,,"6,1,03,1","6,1,03,1",,"08,99,1,08,1,05,1,02250,1,99,9,99,9",,,,"2,1,009,1,+999,9","60,1",,SYN066AAXX  05031 57328 41858 80401 10147 20140 40264 52009 76066 885//;,
10-05T06:00:00,4,31.2,107.5,344.0,"DA XIAN, CH",FM-12,99999,V020,"020,1,N,0010,1","03600,1,9,N","020000,1,N,1","+0160,1","+0143,1","10241,1","06,0020,9,1",,"6,1,06,1",,,"08,99,1,02,1,01,1,00800,1,07,1,99,9",,"999,N,+0133,1","99999,9,09833,1","7,1,022,1,+999,9","00,1",,SYN088AAXX  05061 57328 11570 80201 10160 20143 39833 40241 57022 60021 70060 8217/ 333 20133;,
10-05T09:00:00,4,31.2,107.5,344.0,"DA XIAN, CH",FM-12,99999,V020,"020,1,N,0020,1","99999,9,9,N","030000,1,N,1","+0170,1","+0135,1","10226,1",,,,,,"08,99,1,08,1,00,1,99999,9,07,1,99,9",,,,"7,1,014,1,+999,9",,,SYN060AAXX  05091 57328 42980 80202 10170 20135 40226 57014 8807/;,
10-05T12:00:00,4,31.2,107.5,344.0,"DA XIAN, CH",FM-12,99999,V020,"999,9,C,0000,1","99999,9,9,N","012000,1,N,1","+0161,1","+0140,1","10241,1","06,0000,9,1",,,,,"08,99,1,08,1,00,1,99999,9,07,1,99,9",,,"99999,9,09832,1","2,1,013,1,+999,9",,,SYN066AAXX  05121 57328 32962 80000 10161 20140 39832 40241 52013 8807/;,Q01  00002PRCP06
10-05T15:00:00,4,31.2,107.5,344.0,"DA XIAN, CH",FM-12,99999,V020,"999,9,C,0000,1","99999,9,9,N","012000,1,N,1","+0154,1","+0142,1","10252,1",,,,,,"08,99,1,08,1,00,1,99999,9,07,1,99,9",,,,"2,1,011,1,+999,9",,,SYN060AAXX  05151 57328 42962 80000 10154 20142 40252 52011 8807/;,
10-05T18:00:00,4,31.2,107.5,344.0,"DA XIAN, CH",FM-12,99999,V020,"040,1,N,0010,1","99999,9,9,N","008000,1,N,1","+0146,1","+0137,1","10243,1","06,0000,9,1",,,,,"07,99,1,07,1,00,1,99999,9,04,1,99,9",,"999,M,+0174,1","99999,9,09835,1","7,1,008,1,+999,9","10,1",,SYN082AAXX  05181 57328 31958 70401 10146 20137 39835 40243 57008 71000 8704/ 333 10174;,Q01  00002PRCP06
10-05T21:00:00,4,31.2,107.5,344.0,"DA XIAN, CH",FM-12,99999,V020,"040,1,N,0010,1","99999,9,9,N","005000,1,N,1","+0142,1","+0138,1","10241,1","24,0066,9,1",,,,,"08,99,1,08,1,00,1,99999,9,02,1,99,9",,,,"7,1,002,1,+999,9","10,1",,SYN076AAXX  05211 57328 41950 80401 10142 20138 40241 57002 71000 8802/ 333 70067;,
10-06T00:00:00,4,31.2,107.5,344.0,"DA XIAN, CH",FM-12,99999,V020,"020,1,N,0010,1","99999,9,9,N","003000,1,N,1","+0143,1","+0136,1","10253,1","06,0000,9,1","24,0018,9,1",,,,"08,99,1,08,1,00,1,99999,9,07,1,99,9",,,"99999,9,09844,1","2,1,011,1,+000,1","10,1",,SYN088AAXX  06001 57328 31930 80201 10143 20136 39844 40253 52011 71000 8807/ 333 00001 70017;,Q01  00002PRCP06
10-06T03:00:00,4,31.2,107.5,344.0,"DA XIAN, CH",FM-12,99999,V020,"320,1,N,0010,1","22000,1,9,N","012000,1,N,1","+0185,1","+0129,1","10257,1",,,,,,"03,99,1,03,1,01,1,01250,1,00,1,00,1",,,,"2,1,006,1,+999,9",,,SYN060AAXX  06031 57328 42662 33201 10185 20129 40257 52006 83100;,
10-06T06:00:00,4,31.2,107.5,344.0,"DA XIAN, CH",FM-12,99999,V020,"140,1,N,0010,1","01200,1,9,N","012000,1,N,1","+0201,1","+0124,1","10223,1","06,0000,9,1",,,,,"07,99,1,07,1,01,1,01250,1,99,9,99,9",,"999,N,+0142,1","99999,9,09818,1","7,1,032,1,+999,9",,,SYN076AAXX  06061 57328 32662 71401 10201 20124 39818 40223 57032 871// 333 20142;,Q01  00002PRCP06
10-06T09:00:00,4,31.2,107.5,344.0,"DA XIAN, CH",FM-12,99999,V020,"320,1,N,0010,1","09000,1,9,N","030000,1,N,1","+0203,1","+0114,1","10202,1",,,,,,"07,99,1,01,1,01,1,01250,1,00,1,02,1",,,,"7,1,020,1,+999,9",,,SYN060AAXX  06091 57328 42680 73201 10203 20114 40202 57020 81102;,
10-06T12:00:00,4,31.2,107.5,344.0,"DA XIAN, CH",FM-12,99999,V020,"999,9,C,0000,1","99999,9,9,N","012000,1,N,1","+0170,1","+0141,1","10217,1","06,0000,9,1",,,,,"08,99,1,08,1,00,1,99999,9,07,1,99,9",,,"99999,9,09810,1","2,1,012,1,+999,9",,,SYN066AAXX  06121 57328 32962 80000 10170 20141 39810 40217 52012 8807/;,Q01  00002PRCP06
10-06T15:00:00,4,31.2,107.5,344.0,"DA XIAN, CH",FM-12,99999,V020,"999,9,C,0000,1","99999,9,9,N","008000,1,N,1","+0149,1","+0139,1","10226,1",,,,,,"08,99,1,08,1,00,1,99999,9,07,1,99,9",,,,"2,1,010,1,+999,9","10,1",,SYN066AAXX  06151 57328 41958 80000 10149 20139 40226 52010 71000 8807/;,
10-06T18:00:00,4,31.2,107.5,344.0,"DA XIAN, CH",FM-12,99999,V020,"040,1,N,0010,1","22000,1,9,N","005000,1,N,1","+0133,1","+0129,1","10220,1","06,0000,9,1",,,,"00,1,+99999,9,99,9","00,99,1,00,1,00,1,99999,9,00,1,00,1",,"999,M,+0212,1","99999,9,09815,1","7,1,005,1,+999,9","10,1",,SYN076AAXX  06181 57328 31950 00401 10133 20129 39815 40220 57005 71000 333 10212;,Q01  00002PRCP06
10-06T21:00:00,4,31.2,107.5,344.0,"DA XIAN, CH",FM-12,99999,V020,"999,9,C,0000,1","00015,1,9,N","000000,1,N,1","+0127,1","+0127,1","10210,1",,,"4,1,03,1",,"09,1,+99999,9,99,9","09,99,1,09,1,99,9,99999,9,99,9,99,9",,,,"7,1,010,1,+999,9","47,1",,SYN060AAXX  06211 57328 41/00 90000 10127 20127 40210 57010 74740;,
10-07T00:00:00,4,31.2,107.5,344.0,"DA XIAN, CH",FM-12,99999,V020,"999,9,C,0000,1","00015,1,9,N","000000,1,N,1","+0127,1","+0127,1","10222,1","06,0000,9,1",,"4,1,06,1",,"09,1,+99999,9,99,9","09,99,1,09,1,99,9,99999,9,99,9,99,9",,,"99999,9,09814,1","2,1,009,1,+003,1","45,1",,SYN076AAXX  07001 57328 31/00 90000 10127 20127 39814 40222 52009 74540 333 05352;,Q01  00002PRCP06
10-07T03:00:00,4,31.2,107.5,344.0,"DA XIAN, CH",FM-12,99999,V020,"999,9,C,0000,1","02100,1,9,N","004000,1,N,1","+0157,1","+0140,1","10227,1",,,"4,1,03,1","4,1,03,1",,"08,99,1,08,1,05,1,02250,1,99,9,99,9",,,,"2,1,005,1,+999,9","28,1",,SYN066AAXX  07031 57328 41840 80000 10157 20140 40227 52005 72844 885//;,
10-07T06:00:00,4,31.2,107.5,344.0,"DA XIAN, CH",FM-12,99999,V020,"999,9,C,0000,1","99999,9,9,N","003000,1,N,1","+0189,1","+0145,1","10198,1","06,0000,9,1",,"4,1,06,1",,,"08,99,1,08,1,00,1,99999,9,07,1,99,9",,"999,N,+0119,1","99999,9,09793,1","7,1,026,1,+999,9","10,1",,SYN082AAXX  07061 57328 31930 80000 10189 20145 39793 40198 57026 71040 8807/ 333 20119;,Q01  00002PRCP06
10-07T09:00:00,4,31.2,107.5,344.0,"DA XIAN, CH",FM-12,99999,V020,"320,1,N,0010,1","99999,9,9,N","006000,1,N,1","+0199,1","+0138,1","10184,1",,,,,,"08,99,1,08,1,00,1,99999,9,07,1,99,9",,,,"7,1,014,1,+999,9","10,1",,SYN066AAXX  07091 57328 41956 83201 10199 20138 40184 57014 71000 8807/;,
10-07T12:00:00,4,31.2,107.5,344.0,"DA XIAN, CH",FM-12,99999,V020,"999,9,C,0000,1","02100,1,9,N","005000,1,N,1","+0170,1","+0150,1","10188,1","06,0000,9,1",,,,,"07,99,1,07,1,05,1,02250,1,99,9,99,9",,,"99999,9,09781,1","2,1,002,1,+999,9","10,1",,SYN072AAXX  07121 57328 31850 70000 10170 20150 39781 40188 52002 71000 875//;,Q01  00002PRCP06
10-07T15:00:00,4,31.2,107.5,344.0,"DA XIAN, CH",FM-12,99999,V020,"040,1,N,0020,1","02100,1,9,N","003000,1,N,1","+0151,1","+0141,1","10203,1",,,,,,"08,99,1,08,1,05,1,02250,1,99,9,99,9",,,,"2,1,015,1,+999,9","10,1",,SYN066AAXX  07151 57328 41830 80402 10151 20141 40203 52015 71000 885//;,
10-07T18:00:00,4,31.2,107.5,344.0,"DA XIAN, CH",FM-12,99999,V020,"040,1,N,0020,1","00015,1,9,N","000000,1,N,1","+0137,1","+0137,1","10192,1","06,0000,9,1",,"4,1,06,1",,"09,1,+99999,9,99,9","09,99,1,09,1,99,9,99999,9,99,9,99,9",,"999,M,+0203,1","99999,9,09787,1","7,1,009,1,+999,9","47,1",,SYN076AAXX  07181 57328 31/00 90402 10137 20137 39787 40192 57009 74740 333 10203;,Q01  00002PRCP06
10-07T21:00:00,4,31.2,107.5,344.0,"DA XIAN, CH",FM-12,99999,V020,"040,1,N,0020,1","00015,1,9,N","000000,1,N,1","+0134,1","+0132,1","10180,1",,,"4,1,03,1","4,1,03,1","09,1,+99999,9,99,9","09,99,1,09,1,99,9,99999,9,99,9,99,9",,,,"7,1,011,1,+999,9","45,1",,SYN060AAXX  07211 57328 41/00 90402 10134 20132 40180 57011 74544;,
10-08T00:00:00,4,31.2,107.5,344.0,"DA XIAN, CH",FM-12,99999,V020,"070,1,N,0030,1","99999,9,9,N","002000,1,N,1","+0134,1","+0130,1","10197,1","06,0000,9,1",,"4,1,06,1","4,1,06,1",,"08,99,1,08,1,00,1,99999,9,07,1,99,9",,,"99999,9,09790,1","2,1,014,1,+002,1","28,1",,SYN082AAXX  08001 57328 31920 80703 10134 20130 39790 40197 52014 72844 8807/ 333 05201;,Q01  00002PRCP06
10-08T03:00:00,4,31.2,107.5,344.0,"DA XIAN, CH",FM-12,99999,V020,"020,1,N,0040,1","22000,1,9,N","008000,1,N,1","+0156,1","+0137,1","10198,1",,,,,,"03,99,1,03,1,01,1,00800,1,00,1,00,1",,,,"2,1,002,1,+999,9","10,1",,SYN066AAXX  08031 57328 41558 30204 10156 20137 40198 52002 71000 83100;,
10-08T06:00:00,4,31.2,107.5,344.0,"DA XIAN, CH",FM-12,99999,V020,"999,9,C,0000,1","22000,1,9,N","012000,1,N,1","+0223,1","+0150,1","10161,1","06,0000,9,1",,,,"00,1,+99999,9,99,9","00,99,1,00,1,00,1,99999,9,00,1,00,1",,"999,N,+0129,1","99999,9,09760,1","7,1,032,1,+999,9",,,SYN070AAXX  08061 57328 32962 00000 10223 20150 39760 40161 57032 333 20129;,Q01  00002PRCP06
10-08T09:00:00,4,31.2,107.5,344.0,"DA XIAN, CH",FM-12,99999,V020,"999,9,C,0000,1","22000,1,9,N","015000,1,N,1","+0245,1","+0136,1","10138,1",,,,,,"02,99,1,00,1,00,1,99999,9,00,1,02,1",,,,"7,1,021,1,+999,9",,,SYN060AAXX  08091 57328 42965 20000 10245 20136 40138 57021 80002;,
10-08T12:00:00,4,31.2,107.5,344.0,"DA XIAN, CH",FM-12,99999,V020,"040,1,N,0010,1","22000,1,9,N","011000,1,N,1","+0183,1","+0153,1","10146,1","06,0000,9,1",,,,"00,1,+99999,9,99,9","00,99,1,00,1,00,1,99999,9,00,1,00,1",,,"99999,9,09742,1","2,1,003,1,+999,9",,,SYN060AAXX  08121 57328 32961 00401 10183 20153 39742 40146 52003;,Q01  00002PRCP06
10-08T15:00:00,4,31.2,107.5,344.0,"DA XIAN, CH",FM-12,99999,V020,"040,1,N,0030,1","22000,1,9,N","008000,1,N,1","+0155,1","+0145,1","10157,1",,,,,,"02,99,1,00,1,00,1,99999,9,00,1,02,1",,,,"2,1,010,1,+999,9","10,1",,SYN066AAXX  08151 57328 41958 20403 10155 20145 40157 52010 71000 80002;,
10-08T18:00:00,4,31.2,107.5,344.0,"DA XIAN, CH",FM-12,99999,V020,"020,1,N,0040,1","22000,1,9,N","007000,1,N,1","+0151,1","+0139,1","10144,1","06,0000,9,1",,,,,"02,99,1,02,1,00,1,99999,9,04,1,00,1",,"999,M,+0252,1","99999,9,09744,1","7,1,008,1,+999,9","10,1",,SYN082AAXX  08181 57328 31957 20204 10151 20139 39744 40144 57008 71000 82040 333 10252;,Q01  00002PRCP06
10-08T21:00:00,4,31.2,107.5,344.0,"DA XIAN, CH",FM-12,99999,V020,"040,1,N,0040,1","99999,9,9,N","008000,1,N,1","+0153,1","+0136,1","10135,1",,,,,,"06,99,1,06,1,00,1,99999,9,04,1,00,1",,,,"7,1,007,1,+999,9","10,1",,SYN066AAXX  08211 57328 41958 60404 10153 20136 40135 57007 71000 86040;,
10-09T00:00:00,4,31.2,107.5,344.0,"DA XIAN, CH",FM-12,99999,V020,"040,1,N,0010,1","22000,1,9,N","012000,1,N,1","+0155,1","+0134,1","10156,1","06,0000,9,1",,,,,"02,99,1,02,1,00,1,99999,9,04,1,00,1",,,"99999,9,09753,1","2,1,016,1,+004,1",,,SYN076AAXX  09001 57328 32962 20401 10155 20134 39753 40156 52016 82040 333 05402;,Q01  00002PRCP06
10-09T03:00:00,4,31.2,107.5,344.0,"DA XIAN, CH",FM-12,99999,V020,"999,9,C,0000,1","99999,9,9,N","012000,1,N,1","+0186,1","+0147,1","10165,1",,,,,,"08,99,1,08,1,00,1,99999,9,07,1,99,9",,,,"2,1,009,1,+999,9",,,SYN060AAXX  09031 57328 42962 80000 10186 20147 40165 52009 8807/;,
10-09T06:00:00,4,31.2,107.5,344.0,"DA XIAN, CH",FM-12,99999,V020,"999,9,C,0000,1","02100,1,9,N","012000,1,N,1","+0199,1","+0167,1","10149,1","06,9999,9,9",,,,,"08,99,1,08,1,05,1,02250,1,99,9,99,9",,"999,N,+0146,1","99999,9,09747,1","7,1,015,1,+999,9","21,1",,SYN088AAXX  09061 57328 11862 80000 10199 20167 39747 40149 57015 69901 72100 885// 333 20146;,
10-09T09:00:00,4,31.2,107.5,344.0,"DA XIAN, CH",FM-12,99999,V020,"040,1,N,0010,1","02100,1,9,N","011000,1,N,1","+0197,1","+0175,1","10142,1",,,"6,1,03,1",,,"08,99,1,08,1,05,1,02250,1,99,9,99,9",,,,"7,1,006,1,+999,9","00,1",,SYN066AAXX  09091 57328 41861 80401 10197 20175 40142 57006 70060 885//;,
10-09T12:00:00,4,31.2,107.5,344.0,"DA XIAN, CH",FM-12,99999,V020,"040,1,N,0010,1","99999,9,9,N","006000,1,N,1","+0190,1","+0159,1","10155,1","06,9999,9,9",,"6,1,06,1",,,"08,99,1,08,1,00,1,99999,9,07,1,99,9",,,"99999,9,09753,1","2,1,012,1,+999,9","10,1",,SYN078AAXX  09121 57328 11956 80401 10190 20159 39753 40155 52012 69901 71060 8807/;,
10-09T15:00:00,4,31.2,107.5,344.0,"DA XIAN, CH",FM-12,99999,V020,"070,1,N,0010,1","99999,9,9,N","006000,1,N,1","+0183,1","+0149,1","10164,1",,,,,,"08,99,1,08,1,00,1,99999,9,07,1,99,9",,,,"2,1,010,1,+999,9","10,1",,SYN066AAXX  09151 57328 41956 80701 10183 20149 40164 52010 71000 8807/;,
10-09T18:00:00,4,31.2,107.5,344.0,"DA XIAN, CH",FM-12,99999,V020,"040,1,N,0010,1","99999,9,9,N","006000,1,N,1","+0177,1","+0150,1","10158,1","06,0000,9,1",,,,,"08,99,1,08,1,00,1,99999,9,07,1,99,9",,"999,M,+0201,1","99999,9,09758,1","7,1,005,1,+999,9","10,1",,SYN082AAXX  09181 57328 31956 80401 10177 20150 39758 40158 57005 71000 8807/ 333 10201;,Q01  00002PRCP06
10-09T21:00:00,4,31.2,107.5,344.0,"DA XIAN, CH",FM-12,99999,V020,"999,9,C,0000,1","99999,9,9,N","005000,1,N,1","+0171,1","+0147,1","10177,1","24,0000,2,1",,,,,"08,99,1,08,1,00,1,99999,9,07,1,99,9",,,,"2,1,018,1,+999,9","10,1",,SYN076AAXX  09211 57328 41950 80000 10171 20147 40177 52018 71000 8807/ 333 79999;,
10-10T00:00:00,4,31.2,107.5,344.0,"DA XIAN, CH",FM-12,99999,V020,"090,1,N,0020,1","99999,9,9,N","006000,1,N,1","+0171,1","+0144,1","10205,1","06,0005,9,1","24,0005,9,1","6,1,06,1",,,"08,99,1,08,1,00,1,99999,9,02,1,99,9",,,"99999,9,09802,1","2,1,026,1,+050,1","60,1",,SYN094AAXX  10001 57328 11956 80902 10171 20144 39802 40205 52026 69951 76060 8802/ 333 00502 70005;,
10-10T03:00:00,4,31.2,107.5,344.0,"DA XIAN, CH",FM-12,99999,V020,"040,1,N,0010,1","99999,9,9,N","004000,1,N,1","+0169,1","+0152,1","10218,1",,,"6,1,03,1","6,1,03,1",,"08,99,1,08,1,00,1,99999,9,02,1,99,9",,,,"2,1,012,1,+999,9","21,1",,SYN066AAXX  10031 57328 41940 80401 10169 20152 40218 52012 72166 8802/;,
10-10T06:00:00,4,31.2,107.5,344.0,"DA XIAN, CH",FM-12,99999,V020,"360,1,N,0010,1","99999,9,9,N","007000,1,N,1","+0187,1","+0161,1","10207,1","06,9999,9,9",,"6,1,06,1",,,"08,99,1,08,1,00,1,99999,9,07,1,99,9",,"999,N,+0163,1","99999,9,09804,1","7,1,010,1,+999,9","10,1",,SYN088AAXX  10061 57328 11957 83601 10187 20161 39804 40207 57010 69921 71060 8807/ 333 20163;,
10-10T09:00:00,4,31.2,107.5,344.0,"DA XIAN, CH",FM-12,99999,V020,"140,1,N,0010,1","22000,1,9,N","020000,1,N,1","+0208,1","+0126,1","10200,1",,,,,,"02,99,1,02,1,00,1,99999,9,04,1,00,1",,,,"7,1,006,1,+999,9",,,SYN060AAXX  10091 57328 42970 21401 10208 20126 40200 57006 82040;,
10-10T12:00:00,4,31.2,107.5,344.0,"DA XIAN, CH",FM-12,99999,V020,"999,9,C,0000,1","22000,1,9,N","005000,1,N,1","+0171,1","+0134,1","10217,1","06,0000,9,1",,,,"00,1,+99999,9,99,9","00,99,1,00,1,00,1,99999,9,00,1,00,1",,,"99999,9,09812,1","2,1,014,1,+999,9","10,1",,SYN066AAXX  10121 57328 31950 00000 10171 20134 39812 40217 52014 71000;,Q01  00002PRCP06
10-10T15:00:00,4,31.2,107.5,344.0,"DA XIAN, CH",FM-12,99999,V020,"999,9,C,0000,1","22000,1,9,N","004000,1,N,1","+0155,1","+0136,1","10245,1",,,,,"00,1,+99999,9,99,9","00,99,1,00,1,00,1,99999,9,00,1,00,1",,,,"2,1,026,1,+999,9","10,1",,SYN060AAXX  10151 57328 41940 00000 10155 20136 40245 52026 71000;,
10-10T18:00:00,4,31.2,107.5,344.0,"DA XIAN, CH",FM-12,99999,V020,"070,1,N,0010,1","99999,9,9,N","004000,1,N,1","+0143,1","+0136,1","10240,1","06,0000,9,1",,,,,"06,99,1,06,1,00,1,99999,9,04,1,00,1",,"999,M,+0210,1","99999,9,09833,1","7,1,005,1,+999,9","10,1",,SYN082AAXX  10181 57328 31940 60701 10143 20136 39833 40240 57005 71000 86040 333 10210;,Q01  00002PRCP06
10-10T21:00:00,4,31.2,107.5,344.0,"DA XIAN, CH",FM-12,99999,V020,"020,1,N,0010,1","00030,1,9,N","000200,1,N,1","+0133,1","+0131,1","10231,1","24,0008,9,1",,,,"09,1,+99999,9,99,9","09,99,1,09,1,99,9,99999,9,99,9,99,9",,,,"7,1,007,1,+999,9","47,1",,SYN070AAXX  10211 57328 41/02 90201 10133 20131 40231 57007 74700 333 70007;,
10-11T00:00:00,4,31.2,107.5,344.0,"DA XIAN, CH",FM-12,99999,V020,"090,1,N,0010,1","00060,1,9,N","000800,1,N,1","+0138,1","+0134,1","10257,1","06,0000,9,1","24,0003,9,1","4,1,06,1",,"09,1,+99999,9,99,9","09,99,1,09,1,99,9,99999,9,99,9,99,9",,,"99999,9,09848,1","2,1,022,1,+050,1","43,1",,SYN082AAXX  11001 57328 31/08 90901 10138 20134 39848 40257 52022 74340 333 00553 70002;,Q01  00002PRCP06
10-11T03:00:00,4,31.2,107.5,344.0,"DA XIAN, CH",FM-12,99999,V020,"220,1,N,0010,1","99999,9,9,N","004000,1,N,1","+0164,1","+0140,1","10268,1",,,"4,1,03,1",,,"08,99,1,08,1,00,1,99999,9,07,1,99,9",,,,"2,1,012,1,+999,9","10,1",,SYN066AAXX  11031 57328 41940 82201 10164 20140 40268 52012 71040 8807/;,
10-11T06:00:00,4,31.2,107.5,344.0,"DA XIAN, CH",FM-12,99999,V020,"220,1,N,0020,1","99999,9,9,N","007000,1,N,1","+0203,1","+0150,1","10232,1","06,0000,9,1",,"4,1,06,1",,,"07,99,1,07,1,00,1,99999,9,04,1,99,9",,"999,N,+0131,1","99999,9,09827,1","7,1,033,1,+999,9","10,1",,SYN082AAXX  11061 57328 31957 72202 10203 20150 39827 40232 57033 71040 8704/ 333 20131;,Q01  00002PRCP06
10-11T09:00:00,4,31.2,107.5,344.0,"DA XIAN, CH",FM-12,99999,V020,"140,1,N,0010,1","22000,1,9,N","012000,1,N,1","+0213,1","+0154,1","10221,1",,,,,,"04,99,1,04,1,00,1,99999,9,04,1,00,1",,,,"7,1,011,1,+999,9",,,SYN060AAXX  11091 57328 42962 41401 10213 20154 40221 57011 84040;,
10-11T12:00:00,4,31.2,107.5,344.0,"DA XIAN, CH",FM-12,99999,V020,"999,9,C,0000,1","99999,9,9,N","007000,1,N,1","+0184,1","+0159,1","10233,1","06,0000,9,1",,,,,"06,99,1,06,1,00,1,99999,9,04,1,00,1",,,"99999,9,09826,1","2,1,010,1,+999,9","10,1",,SYN072AAXX  11121 57328 31957 60000 10184 20159 39826 40233 52010 71000 86040;,Q01  00002PRCP06
10-11T15:00:00,4,31.2,107.5,344.0,"DA XIAN, CH",FM-12,99999,V020,"220,1,N,0010,1","99999,9,9,N","006000,1,N,1","+0168,1","+0151,1","10237,1",,,,,,"08,99,1,08,1,00,1,99999,9,07,1,99,9",,,,"2,1,005,1,+999,9","10,1",,SYN066AAXX  11151 57328 41956 82201 10168 20151 40237 52005 71000 8807/;,
10-11T18:00:00,4,31.2,107.5,344.0,"DA XIAN, CH",FM-12,99999,V020,"040,1,N,0010,1","99999,9,9,N","002000,1,N,1","+0152,1","+0147,1","10230,1","06,0000,9,1",,,,,"08,99,1,08,1,00,1,99999,9,07,1,99,9",,"999,M,+0220,1","99999,9,09826,1","7,1,005,1,+999,9","10,1",,SYN082AAXX  11181 57328 31920 80401 10152 20147 39826 40230 57005 71000 8807/ 333 10220;,Q01  00002PRCP06
10-11T21:00:00,4,31.2,107.5,344.0,"DA XIAN, CH",FM-12,99999,V020,"110,1,N,0010,1","99999,9,9,N","002000,1,N,1","+0155,1","+0150,1","10218,1",,,,,,"08,99,1,08,1,00,1,99999,9,07,1,99,9",,,,"7,1,011,1,+999,9","10,1",,SYN066AAXX  11211 57328 41920 81101 10155 20150 40218 57011 71000 8807/;,
10-12T00:00:00,4,31.2,107.5,344.0,"DA XIAN, CH",FM-12,99999,V020,"999,9,C,0000,1","99999,9,9,N","001500,1,N,1","+0159,1","+0154,1","10230,1","06,0000,9,1",,,,,"08,99,1,08,1,00,1,99999,9,07,1,99,9",,,"99999,9,09825,1","2,1,010,1,+002,1","10,1",,SYN082AAXX  12001 57328 31915 80000 10159 20154 39825 40230 52010 71000 8807/ 333 05202;,Q01  00002PRCP06
10-12T03:00:00,4,31.2,107.5,344.0,"DA XIAN, CH",FM-12,99999,V020,"999,9,C,0000,1","02100,1,9,N","005000,1,N,1","+0191,1","+0160,1","10230,1",,,,,,"06,99,1,06,1,05,1,02250,1,00,1,00,1",,,,"2,1,001,1,+999,9","10,1",,SYN066AAXX  12031 57328 41850 60000 10191 20160 40230 52001 71000 86500;,
10-12T06:00:00,4,31.2,107.5,344.0,"DA XIAN, CH",FM-12,99999,V020,"320,1,N,0010,1","03600,1,9,N","012000,1,N,1","+0231,1","+0154,1","10192,1","06,0000,9,1",,,,,"06,99,1,01,1,01,1,01250,1,04,1,00,1",,"999,N,+0149,1","99999,9,09791,1","7,1,035,1,+999,9",,,SYN076AAXX  12061 57328 32662 63201 10231 20154 39791 40192 57035 81140 333 20149;,Q01  00002PRCP06
10-12T09:00:00,4,31.2,107.5,344.0,"DA XIAN, CH",FM-12,99999,V020,"140,1,N,0010,1","99999,9,9,N","012000,1,N,1","+0213,1","+0161,1","10182,1",,,,,,"08,99,1,08,1,00,1,99999,9,07,1,99,9",,,,"7,1,011,1,+999,9",,,SYN060AAXX  12091 57328 42962 81401 10213 20161 40182 57011 8807/;,
10-12T12:00:00,4,31.2,107.5,344.0,"DA XIAN, CH",FM-12,99999,V020,"999,9,C,0000,1","99999,9,9,N","003000,1,N,1","+0194,1","+0168,1","10192,1","06,0000,9,1",,,,,"08,99,1,08,1,00,1,99999,9,07,1,99,9",,,"99999,9,09789,1","2,1,009,1,+999,9","10,1",,SYN072AAXX  12121 57328 31930 80000 10194 20168 39789 40192 52009 71000 8807/;,Q01  00002PRCP06
10-12T15:00:00,4,31.2,107.5,344.0,"DA XIAN, CH",FM-12,99999,V020,"999,9,C,0000,1","99999,9,9,N","004000,1,N,1","+0184,1","+0171,1","10203,1",,,,,,"08,99,1,08,1,00,1,99999,9,07,1,99,9",,,,"2,1,012,1,+999,9","10,1",,SYN066AAXX  12151 57328 41940 80000 10184 20171 40203 52012 71000 8807/;,
10-12T18:00:00,4,31.2,107.5,344.0,"DA XIAN, CH",FM-12,99999,V020,"999,9,C,0000,1","99999,9,9,N","002000,1,N,1","+0175,1","+0168,1","10196,1","06,0000,9,1",,,,,"08,99,1,08,1,00,1,99999,9,07,1,99,9",,"999,M,+0233,1","99999,9,09796,1","7,1,005,1,+999,9","10,1",,SYN082AAXX  12181 57328 31920 80000 10175 20168 39796 40196 57005 71000 8807/ 333 10233;,Q01  00002PRCP06
10-12T21:00:00,4,31.2,107.5,344.0,"DA XIAN, CH",FM-12,99999,V020,"110,1,N,0010,1","99999,9,9,N","003000,1,N,1","+0173,1","+0166,1","10192,1","24,0000,2,1",,,,,"08,99,1,08,1,00,1,99999,9,02,1,99,9",,,,"7,1,005,1,+999,9","60,1",,SYN076AAXX  12211 57328 41930 81101 10173 20166 40192 57005 76000 8802/ 333 79999;,
10-13T00:00:00,4,31.2,107.5,344.0,"DA XIAN, CH",FM-12,99999,V020,"360,1,N,0010,1","99999,9,9,N","004000,1,N,1","+0172,1","+0164,1","10207,1","06,9999,9,9","24,0000,2,1","6,1,06,1",,,"08,99,1,08,1,00,1,99999,9,02,1,99,9",,,"99999,9,09804,1","2,1,013,1,-020,1","10,1",,SYN094AAXX  13001 57328 11940 83601 10172 20164 39804 40207 52013 69901 71060 8802/ 333 05201 79999;,
10-13T03:00:00,4,31.2,107.5,344.0,"DA XIAN, CH",FM-12,99999,V020,"999,9,C,0000,1","99999,9,9,N","004000,1,N,1","+0189,1","+0171,1","10221,1",,,"6,1,03,1",,,"08,99,1,08,1,00,1,99999,9,07,1,99,9",,,,"2,1,014,1,+999,9","60,1",,SYN066AAXX  13031 57328 41940 80000 10189 20171 40221 52014 76060 8807/;,
10-13T06:00:00,4,31.2,107.5,344.0,"DA XIAN, CH",FM-12,99999,V020,"140,1,N,0010,1","99999,9,9,N","004000,1,N,1","+0199,1","+0172,1","10211,1","06,0010,9,1",,"6,1,06,1",,,"08,99,1,08,1,00,1,99999,9,02,1,99,9",,"999,N,+0168,1","99999,9,09809,1","7,1,009,1,+999,9","60,1",,SYN088AAXX  13061 57328 11940 81401 10199 20172 39809 40211 57009 69991 76060 8802/ 333 20168;,
10-13T09:00:00,4,31.2,107.5,344.0,"DA XIAN, CH",FM-12,99999,V020,"999,9,C,0000,1","99999,9,9,N","005000,1,N,1","+0189,1","+0173,1","10207,1",,,"6,1,03,1","6,1,03,1",,"08,99,1,08,1,00,1,99999,9,02,1,99,9",,,,"7,1,005,1,+999,9","60,1",,SYN066AAXX  13091 57328 41950 80000 10189 20173 40207 57005 76066 8802/;,
10-13T12:00:00,4,31.2,107.5,344.0,"DA XIAN, CH",FM-12,99999,V020,"999,9,C,0000,1","99999,9,9,N","005000,1,N,1","+0179,1","+0164,1","10221,1","06,0003,9,1",,"6,1,06,1",,,"08,99,1,08,1,00,1,99999,9,07,1,99,9",,,"99999,9,09817,1","2,1,013,1,+999,9","10,1",,SYN078AAXX  13121 57328 11950 80000 10179 20164 39817 40221 52013 69931 71060 8807/;,
10-13T15:00:00,4,31.2,107.5,344.0,"DA XIAN, CH",FM-12,99999,V020,"040,1,N,0010,1","99999,9,9,N","004000,1,N,1","+0175,1","+0162,1","10227,1",,,,,,"08,99,1,08,1,00,1,99999,9,07,1,99,9",,,,"2,1,006,1,+999,9","10,1",,SYN066AAXX  13151 57328 41940 80401 10175 20162 40227 52006 71000 8807/;,
10-13T18:00:00,4,31.2,107.5,344.0,"DA XIAN, CH",FM-12,99999,V020,"070,1,N,0010,1","99999,9,9,N","006000,1,N,1","+0174,1","+0159,1","10224,1","06,0000,9,1",,,,,"08,99,1,08,1,00,1,99999,9,07,1,99,9",,"999,M,+0199,1","99999,9,09821,1","7,1,002,1,+999,9","10,1",,SYN082AAXX  13181 57328 31956 80701 10174 20159 39821 40224 57002 71000 8807/ 333 10199;,Q01  00002PRCP06
10-13T21:00:00,4,31.2,107.5,344.0,"DA XIAN, CH",FM-12,99999,V020,"360,1,N,0010,1","99999,9,9,N","004000,1,N,1","+0171,1","+0154,1","10221,1","24,0013,9,1",,"6,1,03,1",,,"08,99,1,08,1,00,1,99999,9,07,1,99,9",,,,"7,1,004,1,+999,9","10,1",,SYN076AAXX  13211 57328 41940 83601 10171 20154 40221 57004 71060 8807/ 333 70012;,
10-14T00:00:00,4,31.2,107.5,344.0,"DA XIAN, CH",FM-12,99999,V020,"070,1,N,0020,1","02100,1,9,N","008000,1,N,1","+0167,1","+0150,1","10234,1","06,0005,9,1","24,0015,9,1","6,1,06,1",,,"08,99,1,08,1,05,1,02250,1,99,9,99,9",,,"99999,9,09829,1","2,1,012,1,+030,1","60,1",,SYN094AAXX  14001 57328 11858 80702 10167 20150 39829 40234 52012 69941 76060 885// 333 00351 70016;,
10-14T03:00:00,4,31.2,107.5,344.0,"DA XIAN, CH",FM-12,99999,V020,"040,1,N,0020,1","99999,9,9,N","008000,1,N,1","+0153,1","+0146,1","10263,1",,,"6,1,03,1","6,1,03,1",,"08,99,1,08,1,00,1,99999,9,02,1,99,9",,,,"2,1,026,1,+999,9","60,1",,SYN066AAXX  14031 57328 41958 80402 10153 20146 40263 52026 76066 8802/;,
10-14T06:00:00,4,31.2,107.5,344.0,"DA XIAN, CH",FM-12,99999,V020,"360,1,N,0010,1","02100,1,9,N","008000,1,N,1","+0158,1","+0151,1","10248,1","06,0041,9,1",,"6,1,06,1","6,1,06,1",,"08,99,1,08,1,05,1,02250,1,99,9,99,9",,"999,N,+0149,1","99999,9,09841,1","7,1,014,1,+999,9","60,1",,SYN088AAXX  14061 57328 11858 83601 10158 20151 39841 40248 57014 60041 76066 885// 333 20149;,
10-14T09:00:00,4,31.2,107.5,344.0,"DA XIAN, CH",FM-12,99999,V020,"320,1,N,0010,1","02100,1,9,N","008000,1,N,1","+0160,1","+0152,1","10239,1",,,"6,1,03,1",,,"08,99,1,08,1,05,1,02250,1,99,9,99,9",,,,"7,1,008,1,+999,9","10,1",,SYN066AAXX  14091 57328 41858 83201 10160 20152 40239 57008 71060 885//;,
10-14T12:00:00,4,31.2,107.5,344.0,"DA XIAN, CH",FM-12,99999,V020,"040,1,N,0010,1","02100,1,9,N","007000,1,N,1","+0157,1","+0140,1","10252,1","06,9999,9,9",,"6,1,06,1",,,"08,99,1,08,1,05,1,02250,1,99,9,99,9",,,"99999,9,09845,1","2,1,012,1,+999,9","10,1",,SYN078AAXX  14121 57328 11857 80401 10157 20140 39845 40252 52012 69901 71060 885//;,
10-14T15:00:00,4,31.2,107.5,344.0,"DA XIAN, CH",FM-12,99999,V020,"020,1,N,0020,1","99999,9,9,N","006000,1,N,1","+0153,1","+0143,1","10260,1",,,,,,"08,99,1,08,1,00,1,99999,9,07,1,99,9",,,,"2,1,006,1,+999,9","10,1",,SYN066AAXX  14151 57328 41956 80202 10153 20143 40260 52006 71000 8807/;,
10-14T21:00:00,4,31.2,107.5,344.0,"DA XIAN, CH",FM-12,99999,V020,"090,1,N,0010,1","02100,1,9,N","006000,1,N,1","+0147,1","+0129,1","10233,1","24,0046,9,1",,,,,"08,99,1,08,1,05,1,02250,1,99,9,99,9",,,,"7,1,017,1,+999,9","10,1",,SYN076AAXX  14211 57328 41856 80901 10147 20129 40233 57017 71000 885// 333 70045;,
10-15T00:00:00,4,31.2,107.5,344.0,"DA XIAN, CH",FM-12,99999,V020,"040,1,N,0020,1","99999,9,9,N","012000,1,N,1","+0150,1","+0129,1","10243,1","06,0000,9,1","24,0041,9,1",,,,"08,99,1,08,1,00,1,99999,9,07,1,99,9",,,"99999,9,09835,1","2,1,010,1,+010,1",,,SYN082AAXX  15001 57328 32962 80402 10150 20129 39835 40243 52010 8807/ 333 00152 70041;,Q01  00002PRCP06
10-15T03:00:00,4,31.2,107.5,344.0,"DA XIAN, CH",FM-12,99999,V020,"999,9,C,0000,1","99999,9,9,N","008000,1,N,1","+0160,1","+0137,1","10251,1",,,,,,"08,99,1,08,1,00,1,99999,9,07,1,99,9",,,,"2,1,008,1,+999,9","21,1",,SYN066AAXX  15031 57328 41958 80000 10160 20137 40251 52008 72100 8807/;,
10-15T06:00:00,4,31.2,107.5,344.0,"DA XIAN, CH",FM-12,99999,V020,"999,9,C,0000,1","99999,9,9,N","008000,1,N,1","+0164,1","+0138,1","10229,1","06,9999,9,9",,"6,1,06,1",,,"08,99,1,08,1,00,1,99999,9,02,1,99,9",,"999,N,+0144,1","99999,9,09822,1","7,1,021,1,+999,9","10,1",,SYN088AAXX  15061 57328 11958 80000 10164 20138 39822 40229 57021 69901 71060 8802/ 333 20144;,
10-15T09:00:00,4,31.2,107.5,344.0,"DA XIAN, CH",FM-12,99999,V020,"140,1,N,0010,1","99999,9,9,N","005000,1,N,1","+0164,1","+0140,1","10216,1",,,,,,"08,99,1,08,1,00,1,99999,9,02,1,99,9",,,,"7,1,013,1,+999,9","10,1",,SYN066AAXX  15091 57328 41950 81401 10164 20140 40216 57013 71000 8802/;,
10-15T12:00:00,4,31.2,107.5,344.0,"DA XIAN, CH",FM-12,99999,V020,"999,9,C,0000,1","99999,9,9,N","005000,1,N,1","+0157,1","+0145,1","10221,1","06,0000,9,1",,,,,"08,99,1,08,1,00,1,99999,9,07,1,99,9",,,"99999,9,09814,1","2,1,005,1,+999,9","10,1",,SYN072AAXX  15121 57328 31950 80000 10157 20145 39814 40221 52005 71000 8807/;,Q01  00002PRCP06
10-15T15:00:00,4,31.2,107.5,344.0,"DA XIAN, CH",FM-12,99999,V020,"999,9,C,0000,1","99999,9,9,N","005000,1,N,1","+0153,1","+0143,1","10217,1",,,,,,"08,99,1,08,1,00,1,99999,9,07,1,99,9",,,,"7,1,004,1,+999,9","10,1",,SYN066AAXX  15151 57328 41950 80000 10153 20143 40217 57004 71000 8807/;,
10-15T18:00:00,4,31.2,107.5,344.0,"DA XIAN, CH",FM-12,99999,V020,"999,9,C,0000,1","99999,9,9,N","004000,1,N,1","+0145,1","+0142,1","10204,1","06,0005,9,1",,"6,1,06,1",,,"08,99,1,08,1,00,1,99999,9,07,1,99,9",,"999,M,+0165,1","99999,9,09797,1","7,1,013,1,+999,9","60,1",,SYN088AAXX  15181 57328 11940 80000 10145 20142 39797 40204 57013 69961 76060 8807/ 333 10165;,
10-15T21:00:00,4,31.2,107.5,344.0,"DA XIAN, CH",FM-12,99999,V020,"040,1,N,0010,1","99999,9,9,N","003000,1,N,1","+0145,1","+0138,1","10190,1","24,0008,9,1",,"6,1,03,1",,,"08,99,1,08,1,00,1,99999,9,02,1,99,9",,,,"7,1,013,1,+999,9","60,1",,SYN076AAXX  15211 57328 41930 80401 10145 20138 40190 57013 76060 8802/ 333 70007;,
10-16T00:00:00,4,31.2,107.5,344.0,"DA XIAN, CH",FM-12,99999,V020,"040,1,N,0020,1","99999,9,9,N","003000,1,N,1","+0145,1","+0138,1","10206,1","06,9999,9,9","24,0008,9,1","6,1,06,1",,,"08,99,1,08,1,00,1,99999,9,02,1,99,9",,,"99999,9,09799,1","2,1,015,1,-040,1","60,1",,SYN094AAXX  16001 57328 11930 80402 10145 20138 39799 40206 52015 69911 76060 8802/ 333 05451 70007;,
10-16T03:00:00,4,31.2,107.5,344.0,"DA XIAN, CH",FM-12,99999,V020,"040,1,N,0020,1","99999,9,9,N","003000,1,N,1","+0149,1","+0139,1","10209,1",,,"6,1,03,1",,,"08,99,1,08,1,00,1,99999,9,02,1,99,9",,,,"2,1,003,1,+999,9","21,1",,SYN066AAXX  16031 57328 41930 80402 10149 20139 40209 52003 72160 8802/;,
10-16T06:00:00,4,31.2,107.5,344.0,"DA XIAN, CH",FM-12,99999,V020,"040,1,N,0010,1","99999,9,9,N","006000,1,N,1","+0155,1","+0141,1","10190,1","06,9999,9,9",,"6,1,06,1",,,"08,99,1,08,1,00,1,99999,9,07,1,99,9",,"999,N,+0141,1","99999,9,09783,1","7,1,019,1,+999,9","60,1",,SYN088AAXX  16061 57328 11956 80401 10155 20141 39783 40190 57019 69901 76060 8807/ 333 20141;,
10-16T09:00:00,4,31.2,107.5,344.0,"DA XIAN, CH",FM-12,99999,V020,"040,1,N,0020,1","99999,9,9,N","004000,1,N,1","+0153,1","+0144,1","10185,1",,,"6,1,03,1",,,"08,99,1,08,1,00,1,99999,9,07,1,99,9",,,,"7,1,005,1,+999,9","60,1",,SYN066AAXX  16091 57328 41940 80402 10153 20144 40185 57005 76060 8807/;,
10-16T12:00:00,4,31.2,107.5,344.0,"DA XIAN, CH",FM-12,99999,V020,"040,1,N,0010,1","02100,1,9,N","003000,1,N,1","+0153,1","+0146,1","10200,1","06,9999,9,9",,"6,1,06,1",,,"08,99,1,08,1,05,1,02250,1,99,9,99,9",,,"99999,9,09793,1","2,1,015,1,+999,9","60,1",,SYN078AAXX  16121 57328 11830 80401 10153 20146 39793 40200 52015 69921 76060 885//;,
10-16T15:00:00,4,31.2,107.5,344.0,"DA XIAN, CH",FM-12,99999,V020,"040,1,N,0010,1","02100,1,9,N","002000,1,N,1","+0151,1","+0148,1","10213,1",,,"6,1,03,1","6,1,03,1",,"08,99,1,08,1,05,1,02250,1,99,9,99,9",,,,"2,1,012,1,+999,9","60,1",,SYN066AAXX  16151 57328 41820 80401 10151 20148 40213 52012 76066 885//;,
10-16T18:00:00,4,31.2,107.5,344.0,"DA XIAN, CH",FM-12,99999,V020,"040,1,N,0010,1","02100,1,9,N","003000,1,N,1","+0153,1","+0150,1","10209,1","06,0030,9,1",,"6,1,06,1","6,1,06,1",,"08,99,1,08,1,05,1,02250,1,99,9,99,9",,"999,M,+0156,1","99999,9,09802,1","7,1,003,1,+999,9","60,1",,SYN088AAXX  16181 57328 11830 80401 10153 20150 39802 40209 57003 60031 76066 885// 333 10156;,
10-16T21:00:00,4,31.2,107.5,344.0,"DA XIAN, CH",FM-12,99999,V020,"020,1,N,0010,1","99999,9,9,N","008000,1,N,1","+0149,1","+0144,1","10206,1","24,0033,9,1",,"6,1,03,1",,,"08,99,1,08,1,00,1,99999,9,07,1,99,9",,,,"7,1,003,1,+999,9","10,1",,SYN076AAXX  16211 57328 41958 80201 10149 20144 40206 57003 71060 8807/ 333 70033;,
10-17T00:00:00,4,31.2,107.5,344.0,"DA XIAN, CH",FM-12,99999,V020,"999,9,C,0000,1","02100,1,9,N","006000,1,N,1","+0150,1","+0147,1","10222,1","06,9999,9,9","24,0033,9,1","6,1,06,1",,,"08,99,1,08,1,05,1,02250,1,99,9,99,9",,,"99999,9,09814,1","2,1,015,1,+020,1","10,1",,SYN094AAXX  17001 57328 11856 80000 10150 20147 39814 40222 52015 69921 71060 885// 333 00201 70033;,
10-17T03:00:00,4,31.2,107.5,344.0,"DA XIAN, CH",FM-12,99999,V020,"999,9,C,0000,1","99999,9,9,N","008000,1,N,1","+0161,1","+0146,1","10234,1",,,,,,"08,99,1,08,1,00,1,99999,9,07,1,99,9",,,,"2,1,012,1,+999,9","10,1",,SYN066AAXX  17031 57328 41958 80000 10161 20146 40234 52012 71000 8807/;,
10-17T06:00:00,4,31.2,107.5,344.0,"DA XIAN, CH",FM-12,99999,V020,"999,9,C,0000,1","02100,1,9,N","006000,1,N,1","+0169,1","+0149,1","10215,1","06,9999,9,9",,"6,1,06,1",,,"08,99,1,08,1,05,1,02250,1,99,9,99,9",,"999,N,+0146,1","99999,9,09809,1","7,1,017,1,+999,9","21,1",,SYN088AAXX  17061 57328 11856 80000 10169 20149 39809 40215 57017 69911 72160 885// 333 20146;,
10-17T09:00:00,4,31.2,107.5,344.0,"DA XIAN, CH",FM-12,99999,V020,"999,9,C,0000,1","02100,1,9,N","020000,1,N,1","+0177,1","+0154,1","10211,1",,,,,,"08,99,1,08,1,05,1,02250,1,99,9,99,9",,,,"7,1,004,1,+999,9",,,SYN060AAXX  17091 57328 42870 80000 10177 20154 40211 57004 885//;,
10-17T12:00:00,4,31.2,107.5,344.0,"DA XIAN, CH",FM-12,99999,V020,"999,9,C,0000,1","99999,9,9,N","011000,1,N,1","+0165,1","+0155,1","10221,1","06,0000,2,1",,,,,"06,99,1,06,1,00,1,99999,9,04,1,00,1",,,"99999,9,09814,1","2,1,009,1,+999,9",,,SYN066AAXX  17121 57328 32961 60000 10165 20155 39814 40221 52009 86040;,
10-17T15:00:00,4,31.2,107.5,344.0,"DA XIAN, CH",FM-12,99999,V020,"040,1,N,0010,1","99999,9,9,N","007000,1,N,1","+0145,1","+0142,1","10238,1",,,,,,"08,99,1,08,1,00,1,99999,9,07,1,99,9",,,,"2,1,016,1,+999,9","10,1",,SYN066AAXX  17151 57328 41957 80401 10145 20142 40238 52016 71000 8807/;,
10-17T18:00:00,4,31.2,107.5,344.0,"DA XIAN, CH",FM-12,99999,V020,"040,1,N,0020,1","00015,1,9,N","000000,1,N,1","+0135,1","+0133,1","10236,1","06,0000,9,1",,"4,1,06,1",,"09,1,+99999,9,99,9","09,99,1,09,1,99,9,99999,9,99,9,99,9",,"999,M,+0178,1","99999,9,09828,1","7,1,002,1,+999,9","47,1",,SYN076AAXX  17181 57328 31/00 90402 10135 20133 39828 40236 57002 74740 333 10178;,Q01  00002PRCP06
10-17T21:00:00,4,31.2,107.5,344.0,"DA XIAN, CH",FM-12,99999,V020,"070,1,N,0010,1","00030,1,9,N","000300,1,N,1","+0139,1","+0135,1","10225,1","24,0000,2,1",,"4,1,03,1","4,1,03,1","09,1,+99999,9,99,9","09,99,1,09,1,99,9,99999,9,99,9,99,9",,,,"7,1,010,1,+999,9","43,1",,SYN070AAXX  17211 57328 41/03 90701 10139 20135 40225 57010 74344 333 70001;,
10-18T00:00:00,4,31.2,107.5,344.0,"DA XIAN, CH",FM-12,99999,V020,"040,1,N,0020,1","02100,1,9,N","007000,1,N,1","+0138,1","+0131,1","10237,1","06,0000,9,1","24,0000,2,1","4,1,06,1",,,"08,99,1,08,1,05,1,02250,1,99,9,99,9",,,"99999,9,09829,1","2,1,011,1,+020,1","10,1",,SYN088AAXX  18001 57328 31857 80402 10138 20131 39829 40237 52011 71040 885// 333 00251 70001;,Q01  00002PRCP06
10-18T03:00:00,4,31.2,107.5,344.0,"DA XIAN, CH",FM-12,99999,V020,"999,9,C,0000,1","99999,9,9,N","015000,1,N,1","+0155,1","+0138,1","10244,1",,,,,,"08,99,1,08,1,00,1,99999,9,07,1,99,9",,,,"2,1,006,1,+999,9",,,SYN060AAXX  18031 57328 42965 80000 10155 20138 40244 52006 8807/;,
10-18T06:00:00,4,31.2,107.5,344.0,"DA XIAN, CH",FM-12,99999,V020,"020,1,N,0010,1","03600,1,9,N","015000,1,N,1","+0189,1","+0145,1","10210,1","06,0000,9,1",,,,,"06,99,1,01,1,01,1,01250,1,04,1,00,1",,"999,N,+0132,1","99999,9,09804,1","7,1,031,1,+999,9",,,SYN076AAXX  18061 57328 32665 60201 10189 20145 39804 40210 57031 81140 333 20132;,Q01  00002PRCP06
10-18T09:00:00,4,31.2,107.5,344.0,"DA XIAN, CH",FM-12,99999,V020,"999,9,C,0000,1","99999,9,9,N","015000,1,N,1","+0203,1","+0153,1","10194,1",,,,,,"07,99,1,07,1,00,1,99999,9,04,1,99,9",,,,"7,1,014,1,+999,9",,,SYN060AAXX  18091 57328 42965 70000 10203 20153 40194 57014 8704/;,
10-18T12:00:00,4,31.2,107.5,344.0,"DA XIAN, CH",FM-12,99999,V020,"999,9,C,0000,1","22000,1,9,N","007000,1,N,1","+0172,1","+0154,1","10197,1","06,0000,9,1",,,,,"01,99,1,01,1,00,1,99999,9,04,1,00,1",,,"99999,9,09791,1","2,1,001,1,+999,9","10,1",,SYN072AAXX  18121 57328 31957 10000 10172 20154 39791 40197 52001 71000 81040;,Q01  00002PRCP06
10-18T15:00:00,4,31.2,107.5,344.0,"DA XIAN, CH",FM-12,99999,V020,"999,9,C,0000,1","22000,1,9,N","003000,1,N,1","+0155,1","+0148,1","10209,1",,,,,,"01,99,1,01,1,00,1,99999,9,04,1,00,1",,,,"2,1,011,1,+999,9","10,1",,SYN066AAXX  18151 57328 41930 10000 10155 20148 40209 52011 71000 81040;,
10-18T18:00:00,4,31.2,107.5,344.0,"DA XIAN, CH",FM-12,99999,V020,"040,1,N,0020,1","00015,1,9,N","000000,1,N,1","+0142,1","+0142,1","10203,1","06,0000,9,1",,"4,1,06,1",,"09,1,+99999,9,99,9","09,99,1,09,1,99,9,99999,9,99,9,99,9",,"999,M,+0210,1","99999,9,09798,1","7,1,004,1,+999,9","47,1",,SYN076AAXX  18181 57328 31/00 90402 10142 20142 39798 40203 57004 74740 333 10210;,Q01  00002PRCP06
10-18T21:00:00,4,31.2,107.5,344.0,"DA XIAN, CH",FM-12,99999,V020,"020,1,N,0010,1","99999,9,9,N","002000,1,N,1","+0138,1","+0136,1","10199,1",,,"4,1,03,1",,,"08,99,1,08,1,00,1,99999,9,07,1,99,9",,,,"7,1,003,1,+999,9","10,1",,SYN066AAXX  18211 57328 41920 80201 10138 20136 40199 57003 71040 8807/;,
10-19T00:00:00,4,31.2,107.5,344.0,"DA XIAN, CH",FM-12,99999,V020,"020,1,N,0020,1","22000,1,9,N","000200,1,N,1","+0132,1","+0130,1","10211,1","06,0000,9,1",,"4,1,06,1",,"00,1,+99999,9,99,9","00,99,1,00,1,00,1,99999,9,00,1,00,1",,,"99999,9,09804,1","2,1,009,1,+003,1","46,1",,SYN076AAXX  19001 57328 31902 00202 10132 20130 39804 40211 52009 74640 333 05351;,Q01  00002PRCP06
10-19T03:00:00,4,31.2,107.5,344.0,"DA XIAN, CH",FM-12,99999,V020,"040,1,N,0030,1","22000,1,9,N","007000,1,N,1","+0179,1","+0149,1","10213,1",,,"4,1,03,1",,"00,1,+99999,9,99,9","00,99,1,00,1,00,1,99999,9,00,1,00,1",,,,"2,1,004,1,+999,9","10,1",,SYN060AAXX  19031 57328 41957 00403 10179 20149 40213 52004 71040;,
10-19T06:00:00,4,31.2,107.5,344.0,"DA XIAN, CH",FM-12,99999,V020,"999,9,C,0000,1","22000,1,9,N","020000,1,N,1","+0233,1","+0143,1","10178,1","06,0000,9,1",,"4,1,06,1",,,"02,99,1,01,1,01,1,01250,1,04,1,00,1",,"999,N,+0129,1","99999,9,09777,1","7,1,031,1,+999,9","00,1",,SYN082AAXX  19061 57328 31670 20000 10233 20143 39777 40178 57031 70040 81140 333 20129;,Q01  00002PRCP06
10-19T09:00:00,4,31.2,107.5,344.0,"DA XIAN, CH",FM-12,99999,V020,"999,9,C,0000,1","22000,1,9,N","030000,1,N,1","+0235,1","+0148,1","10164,1",,,,,,"01,99,1,01,1,00,1,99999,9,04,1,00,1",,,,"7,1,014,1,+999,9",,,SYN060AAXX  19091 57328 42980 10000 10235 20148 40164 57014 81040;,
10-19T12:00:00,4,31.2,107.5,344.0,"DA XIAN, CH",FM-12,99999,V020,"999,9,C,0000,1","22000,1,9,N","008000,1,N,1","+0187,1","+0155,1","10177,1","06,0000,9,1",,,,"00,1,+99999,9,99,9","00,99,1,00,1,00,1,99999,9,00,1,00,1",,,"99999,9,09772,1","2,1,009,1,+999,9","10,1",,SYN066AAXX  19121 57328 31958 00000 10187 20155 39772 40177 52009 71000;,Q01  00002PRCP06
10-19T15:00:00,4,31.2,107.5,344.0,"DA XIAN, CH",FM-12,99999,V020,"040,1,N,0010,1","22000,1,9,N","006000,1,N,1","+0156,1","+0146,1","10186,1",,,,,"00,1,+99999,9,99,9","00,99,1,00,1,00,1,99999,9,00,1,00,1",,,,"2,1,010,1,+999,9","10,1",,SYN060AAXX  19151 57328 41956 00401 10156 20146 40186 52010 71000;,
10-19T18:00:00,4,31.2,107.5,344.0,"DA XIAN, CH",FM-12,99999,V020,"040,1,N,0020,1","22000,1,9,N","003000,1,N,1","+0142,1","+0138,1","10179,1","06,0000,9,1",,,,"00,1,+99999,9,99,9","00,99,1,00,1,00,1,99999,9,00,1,00,1",,"999,M,+0245,1","99999,9,09778,1","7,1,004,1,+999,9","10,1",,SYN076AAXX  19181 57328 31930 00402 10142 20138 39778 40179 57004 71000 333 10245;,Q01  00002PRCP06
10-19T21:00:00,4,31.2,107.5,344.0,"DA XIAN, CH",FM-12,99999,V020,"040,1,N,0020,1","22000,1,9,N","000300,1,N,1","+0135,1","+0135,1","10175,1",,,,,"00,1,+99999,9,99,9","00,99,1,00,1,00,1,99999,9,00,1,00,1",,,,"7,1,004,1,+999,9","46,1",,SYN060AAXX  19211 57328 41903 00402 10135 20135 40175 57004 74600;,
10-20T00:00:00,4,31.2,107.5,344.0,"DA XIAN, CH",FM-12,99999,V020,"040,1,N,0030,1","00015,1,9,N","000100,1,N,1","+0131,1","+0131,1","10189,1","06,0000,9,1",,"4,1,06,1",,"09,1,+99999,9,99,9","09,99,1,09,1,99,9,99999,9,99,9,99,9",,,"99999,9,09784,1","2,1,010,1,+002,1","45,1",,SYN076AAXX  20001 57328 31/01 90403 10131 20131 39784 40189 52010 74540 333 05200;,Q01  00002PRCP06
10-20T03:00:00,4,31.2,107.5,344.0,"DA XIAN, CH",FM-12,99999,V020,"040,1,N,0030,1","22000,1,9,N","008000,1,N,1","+0191,1","+0151,1","10188,1",,,"4,1,03,1",,"00,1,+99999,9,99,9","00,99,1,00,1,00,1,99999,9,00,1,00,1",,,,"2,1,001,1,+999,9","10,1",,SYN060AAXX  20031 57328 41958 00403 10191 20151 40188 52001 71040;,
10-20T06:00:00,4,31.2,107.5,344.0,"DA XIAN, CH",FM-12,99999,V020,"320,1,N,0010,1","22000,1,9,N","017000,1,N,1","+0246,1","+0151,1","10160,1","06,0000,9,1",,"4,1,06,1",,,"01,99,1,01,1,01,1,01250,1,00,1,00,1",,"999,N,+0129,1","99999,9,09761,1","7,1,024,1,+999,9","00,1",,SYN082AAXX  20061 57328 31667 13201 10246 20151 39761 40160 57024 70040 81100 333 20129;,Q01  00002PRCP06
10-20T09:00:00,4,31.2,107.5,344.0,"DA XIAN, CH",FM-12,99999,V020,"020,1,N,0020,1","22000,1,9,N","020000,1,N,1","+0242,1","+0146,1","10152,1",,,,,,"01,99,1,01,1,01,1,01250,1,00,1,00,1",,,,"7,1,009,1,+999,9",,,SYN060AAXX  20091 57328 42670 10202 10242 20146 40152 57009 81100;,
10-20T12:00:00,4,31.2,107.5,344.0,"DA XIAN, CH",FM-12,99999,V020,"999,9,C,0000,1","22000,1,9,N","011000,1,N,1","+0195,1","+0162,1","10174,1","06,0000,9,1",,,,"00,1,+99999,9,99,9","00,99,1,00,1,00,1,99999,9,00,1,00,1",,,"99999,9,09770,1","2,1,018,1,+999,9",,,SYN060AAXX  20121 57328 32961 00000 10195 20162 39770 40174 52018;,Q01  00002PRCP06
10-20T15:00:00,4,31.2,107.5,344.0,"DA XIAN, CH",FM-12,99999,V020,"040,1,N,0010,1","22000,1,9,N","006000,1,N,1","+0169,1","+0156,1","10192,1",,,,,"00,1,+99999,9,99,9","00,99,1,00,1,00,1,99999,9,00,1,00,1",,,,"2,1,019,1,+999,9","10,1",,SYN060AAXX  20151 57328 41956 00401 10169 20156 40192 52019 71000;,
10-20T18:00:00,4,31.2,107.5,344.0,"DA XIAN, CH",FM-12,99999,V020,"040,1,N,0010,1","99999,9,9,N","005000,1,N,1","+0161,1","+0151,1","10185,1","06,0000,9,1",,,,,"07,99,1,07,1,00,1,99999,9,04,1,99,9",,"999,M,+0259,1","99999,9,09786,1","7,1,003,1,+999,9","10,1",,SYN082AAXX  20181 57328 31950 70401 10161 20151 39786 40185 57003 71000 8704/ 333 10259;,Q01  00002PRCP06
10-20T21:00:00,4,31.2,107.5,344.0,"DA XIAN, CH",FM-12,99999,V020,"040,1,N,0010,1","99999,9,9,N","005000,1,N,1","+0165,1","+0150,1","10183,1",,,,,,"08,99,1,08,1,00,1,99999,9,07,1,99,9",,,,"7,1,002,1,+999,9","10,1",,SYN066AAXX  20211 57328 41950 80401 10165 20150 40183 57002 71000 8807/;,
10-21T00:00:00,4,31.2,107.5,344.0,"DA XIAN, CH",FM-12,99999,V020,"360,1,N,0010,1","99999,9,9,N","006000,1,N,1","+0171,1","+0147,1","10205,1","06,0000,9,1",,,,,"08,99,1,08,1,00,1,99999,9,07,1,99,9",,,"99999,9,09802,1","2,1,018,1,+002,1","10,1",,SYN082AAXX  21001 57328 31956 83601 10171 20147 39802 40205 52018 71000 8807/ 333 00204;,Q01  00002PRCP06
10-21T03:00:00,4,31.2,107.5,344.0,"DA XIAN, CH",FM-12,99999,V020,"999,9,C,0000,1","99999,9,9,N","007000,1,N,1","+0180,1","+0150,1","10224,1",,,"6,1,03,1",,,"08,99,1,08,1,00,1,99999,9,07,1,99,9",,,,"2,1,017,1,+999,9","10,1",,SYN066AAXX  21031 57328 41957 80000 10180 20150 40224 52017 71060 8807/;,
10-21T06:00:00,4,31.2,107.5,344.0,"DA XIAN, CH",FM-12,99999,V020,"040,1,N,0040,1","99999,9,9,N","015000,1,N,1","+0180,1","+0121,1","10207,1","06,9999,9,9",,"6,1,06,1",,,"08,99,1,08,1,00,1,99999,9,07,1,99,9",,"999,N,+0156,1","99999,9,09803,1","7,1,016,1,+999,9","00,1",,SYN088AAXX  21061 57328 11965 80404 10180 20121 39803 40207 57016 69901 70060 8807/ 333 20156;,
10-21T09:00:00,4,31.2,107.5,344.0,"DA XIAN, CH",FM-12,99999,V020,"040,1,N,0030,1","99999,9,9,N","030000,1,N,1","+0167,1","+0118,1","10209,1",,,,,,"08,99,1,08,1,00,1,99999,9,07,1,99,9",,,,"2,1,001,1,+999,9","60,1",,SYN066AAXX  21091 57328 41980 80403 10167 20118 40209 52001 76000 8807/;,
10-21T12:00:00,4,31.2,107.5,344.0,"DA XIAN, CH",FM-12,99999,V020,"090,1,N,0020,1","02100,1,9,N","005000,1,N,1","+0148,1","+0125,1","10230,1","06,0005,9,1",,"6,1,06,1",,,"08,99,1,08,1,05,1,02250,1,99,9,99,9",,,"99999,9,09823,1","2,1,019,1,+999,9","60,1",,SYN078AAXX  21121 57328 11850 80902 10148 20125 39823 40230 52019 69961 76060 885//;,
10-21T15:00:00,4,31.2,107.5,344.0,"DA XIAN, CH",FM-12,99999,V020,"040,1,N,0040,1","02100,1,9,N","007000,1,N,1","+0137,1","+0128,1","10243,1",,,"6,1,03,1","6,1,03,1",,"08,99,1,08,1,05,1,02250,1,99,9,99,9",,,,"2,1,012,1,+999,9","60,1",,SYN066AAXX  21151 57328 41857 80404 10137 20128 40243 52012 76066 885//;,
10-21T18:00:00,4,31.2,107.5,344.0,"DA XIAN, CH",FM-12,99999,V020,"040,1,N,9999,9","02100,1,9,N","012000,1,N,1","+0135,1","+0130,1","10230,1","06,0061,9,1",,"6,1,06,1","6,1,06,1",,"08,99,1,08,1,05,1,02250,1,99,9,99,9",,"999,M,+0183,1","99999,9,09823,1","7,1,012,1,+999,9","60,1",,SYN088AAXX  21181 57328 11862 80430 10135 20130 39823 40230 57012 60061 76066 885// 333 10183;,Q01+003003WOSPD 
10-21T21:00:00,4,31.2,107.5,344.0,"DA XIAN, CH",FM-12,99999,V020,"999,9,C,0000,1","02100,1,9,N","012000,1,N,1","+0137,1","+0126,1","10228,1","24,0069,9,1",,"6,1,03,1",,,"08,99,1,08,1,05,1,02250,1,99,9,99,9",,,,"7,1,003,1,+999,9","60,1",,SYN076AAXX  21211 57328 41862 80000 10137 20126 40228 57003 76060 885// 333 70069;,
10-22T00:00:00,4,31.2,107.5,344.0,"DA XIAN, CH",FM-12,99999,V020,"090,1,N,0020,1","02100,1,9,N","003000,1,N,1","+0134,1","+0130,1","10259,1","06,0089,9,1","24,0155,9,1","6,1,06,1",,,"08,99,1,08,1,05,1,02250,1,99,9,99,9",,,"99999,9,09848,1","2,1,028,1,+050,1","61,1",,SYN094AAXX  22001 57328 11830 80902 10134 20130 39848 40259 52028 60091 76160 885// 333 00554 70154;,
10-22T03:00:00,4,31.2,107.5,344.0,"DA XIAN, CH",FM-12,99999,V020,"040,1,N,0020,1","99999,9,9,N","008000,1,N,1","+0141,1","+0134,1","10268,1",,,"6,1,03,1","6,1,03,1",,"08,99,1,08,1,00,1,99999,9,02,1,99,9",,,,"2,1,009,1,+999,9","21,1",,SYN066AAXX  22031 57328 41958 80402 10141 20134 40268 52009 72166 8802/;,
10-22T06:00:00,4,31.2,107.5,344.0,"DA XIAN, CH",FM-12,99999,V020,"020,1,N,0030,1","99999,9,9,N","005000,1,N,1","+0143,1","+0136,1","10237,1","06,0020,9,1",,"6,1,06,1",,,"08,99,1,08,1,00,1,99999,9,02,1,99,9",,"999,N,+0131,1","99999,9,09827,1","7,1,030,1,+999,9","21,1",,SYN088AAXX  22061 57328 11950 80203 10143 20136 39827 40237 57030 60021 72160 8802/ 333 20131;,
10-22T09:00:00,4,31.2,107.5,344.0,"DA XIAN, CH",FM-12,99999,V020,"040,1,N,0030,1","99999,9,9,N","005000,1,N,1","+0147,1","+0136,1","10219,1",,,,,,"08,99,1,08,1,00,1,99999,9,02,1,99,9",,,,"7,1,017,1,+999,9","10,1",,SYN066AAXX  22091 57328 41950 80403 10147 20136 40219 57017 71000 8802/;,
10-22T12:00:00,4,31.2,107.5,344.0,"DA XIAN, CH",FM-12,99999,V020,"020,1,N,0020,1","99999,9,9,N","008000,1,N,1","+0144,1","+0132,1","10226,1","06,0000,2,1",,,,,"08,99,1,08,1,00,1,99999,9,02,1,99,9",,,"99999,9,09816,1","2,1,006,1,+999,9","10,1",,SYN072AAXX  22121 57328 31958 80202 10144 20132 39816 40226 52006 71000 8802/;,
10-22T15:00:00,4,31.2,107.5,344.0,"DA XIAN, CH",FM-12,99999,V020,"040,1,N,0030,1","99999,9,9,N","006000,1,N,1","+0147,1","+0125,1","10231,1",,,,,,"08,99,1,08,1,00,1,99999,9,02,1,99,9",,,,"2,1,006,1,+999,9","10,1",,SYN066AAXX  22151 57328 41956 80403 10147 20125 40231 52006 71000 8802/;,
10-22T18:00:00,4,31.2,107.5,344.0,"DA XIAN, CH",FM-12,99999,V020,"040,1,N,0020,1","99999,9,9,N","006000,1,N,1","+0145,1","+0118,1","10219,1","06,0000,9,1",,,,,"08,99,1,08,1,00,1,99999,9,02,1,99,9",,"999,M,+0147,1","99999,9,09810,1","7,1,012,1,+999,9","10,1",,SYN082AAXX  22181 57328 31956 80402 10145 20118 39810 40219 57012 71000 8802/ 333 10147;,Q01  00002PRCP06
10-22T21:00:00,4,31.2,107.5,344.0,"DA XIAN, CH",FM-12,99999,V020,"040,1,N,0020,1","99999,9,9,N","012000,1,N,1","+0142,1","+0110,1","10210,1","24,0107,9,1",,,,,"08,99,1,08,1,00,1,99999,9,02,1,99,9",,,,"7,1,008,1,+999,9","60,1",,SYN076AAXX  22211 57328 41962 80402 10142 20110 40210 57008 76000 8802/ 333 70107;,
10-23T00:00:00,4,31.2,107.5,344.0,"DA XIAN, CH",FM-12,99999,V020,"090,1,N,0020,1","99999,9,9,N","004000,1,N,1","+0128,1","+0121,1","10230,1","06,0010,9,1","24,0033,9,1","6,1,06,1",,,"08,99,1,08,1,00,1,99999,9,02,1,99,9",,,"99999,9,09820,1","2,1,018,1,-030,1","60,1",,SYN094AAXX  23001 57328 11940 80902 10128 20121 39820 40230 52018 60011 76060 8802/ 333 05351 70034;,
10-23T03:00:00,4,31.2,107.5,344.0,"DA XIAN, CH",FM-12,99999,V020,"040,1,N,0020,1","99999,9,9,N","004000,1,N,1","+0129,1","+0125,1","10251,1",,,"6,1,03,1","6,1,03,1",,"08,99,1,08,1,00,1,99999,9,02,1,99,9",,,,"2,1,020,1,+999,9","60,1",,SYN066AAXX  23031 57328 41940 80402 10129 20125 40251 52020 76066 8802/;,
10-23T06:00:00,4,31.2,107.5,344.0,"DA XIAN, CH",FM-12,99999,V020,"040,1,N,0020,1","99999,9,9,N","003000,1,N,1","+0131,1","+0127,1","10233,1","06,0030,9,1",,"6,1,06,1","6,1,06,1",,"08,99,1,08,1,00,1,99999,9,02,1,99,9",,"999,N,+0124,1","99999,9,09823,1","7,1,017,1,+999,9","60,1",,SYN088AAXX  23061 57328 11930 80402 10131 20127 39823 40233 57017 60031 76066 8802/ 333 20124;,
10-23T09:00:00,4,31.2,107.5,344.0,"DA XIAN, CH",FM-12,99999,V020,"040,1,N,0020,1","99999,9,9,N","005000,1,N,1","+0133,1","+0126,1","10231,1",,,"6,1,03,1","6,1,03,1",,"08,99,1,08,1,00,1,99999,9,02,1,99,9",,,,"7,1,002,1,+999,9","60,1",,SYN066AAXX  23091 57328 41950 80402 10133 20126 40231 57002 76066 8802/;,
10-23T12:00:00,4,31.2,107.5,344.0,"DA XIAN, CH",FM-12,99999,V020,"040,1,N,0010,1","99999,9,9,N","005000,1,N,1","+0132,1","+0125,1","10255,1","06,0010,9,1",,"6,1,06,1","6,1,06,1",,"08,99,1,08,1,00,1,99999,9,02,1,99,9",,,"99999,9,09843,1","2,1,022,1,+999,9","21,1",,SYN078AAXX  23121 57328 11950 80401 10132 20125 39843 40255 52022 60011 72166 8802/;,
10-23T15:00:00,4,31.2,107.5,344.0,"DA XIAN, CH",FM-12,99999,V020,"999,9,C,0000,1","99999,9,9,N","006000,1,N,1","+0130,1","+0123,1","10262,1",,,,,,"08,99,1,08,1,00,1,99999,9,02,1,99,9",,,,"2,1,007,1,+999,9","10,1",,SYN066AAXX  23151 57328 41956 80000 10130 20123 40262 52007 71000 8802/;,
10-23T18:00:00,4,31.2,107.5,344.0,"DA XIAN, CH",FM-12,99999,V020,"020,1,N,0010,1","99999,9,9,N","006000,1,N,1","+0128,1","+0123,1","10262,1","06,0000,2,1",,,,,"08,99,1,08,1,00,1,99999,9,02,1,99,9",,"999,M,+0145,1","99999,9,09850,1","4,1,000,1,+999,9","10,1",,SYN082AAXX  23181 57328 31956 80201 10128 20123 39850 40262 54000 71000 8802/ 333 10145;,
10-23T21:00:00,4,31.2,107.5,344.0,"DA XIAN, CH",FM-12,99999,V020,"999,9,C,0000,1","99999,9,9,N","020000,1,N,1","+0127,1","+0116,1","10251,1","24,0051,9,1",,,,,"08,99,1,08,1,00,1,99999,9,02,1,99,9",,,,"7,1,011,1,+999,9",,,SYN070AAXX  23211 57328 42970 80000 10127 20116 40251 57011 8802/ 333 70050;,
10-24T00:00:00,4,31.2,107.5,344.0,"DA XIAN, CH",FM-12,99999,V020,"040,1,N,0010,1","99999,9,9,N","008000,1,N,1","+0131,1","+0124,1","10264,1","06,0000,9,1","24,0038,9,1",,,,"08,99,1,08,1,00,1,99999,9,02,1,99,9",,,"99999,9,09852,1","2,1,013,1,+030,1","10,1",,SYN088AAXX  24001 57328 31958 80401 10131 20124 39852 40264 52013 71000 8802/ 333 00300 70038;,Q01  00002PRCP06
10-24T03:00:00,4,31.2,107.5,344.0,"DA XIAN, CH",FM-12,99999,V020,"040,1,N,0010,1","99999,9,9,N","008000,1,N,1","+0139,1","+0121,1","10274,1",,,,,,"08,99,1,08,1,00,1,99999,9,02,1,99,9",,,,"2,1,010,1,+999,9","10,1",,SYN066AAXX  24031 57328 41958 80401 10139 20121 40274 52010 71000 8802/;,
10-24T06:00:00,4,31.2,107.5,344.0,"DA XIAN, CH",FM-12,99999,V020,"020,1,N,0010,1","99999,9,9,N","007000,1,N,1","+0145,1","+0127,1","10254,1","06,0000,9,1",,,,,"08,99,1,08,1,00,1,99999,9,02,1,99,9",,"999,N,+0124,1","99999,9,09843,1","7,1,019,1,+999,9","10,1",,SYN082AAXX  24061 57328 31957 80201 10145 20127 39843 40254 57019 71000 8802/ 333 20124;,Q01  00002PRCP06
10-24T09:00:00,4,31.2,107.5,344.0,"DA XIAN, CH",FM-12,99999,V020,"040,1,N,0030,1","99999,9,9,N","007000,1,N,1","+0151,1","+0130,1","10252,1",,,,,,"08,99,1,08,1,00,1,99999,9,07,1,99,9",,,,"7,1,002,1,+999,9","10,1",,SYN066AAXX  24091 57328 41957 80403 10151 20130 40252 57002 71000 8807/;,
10-24T12:00:00,4,31.2,107.5,344.0,"DA XIAN, CH",FM-12,99999,V020,"040,1,N,0010,1","99999,9,9,N","007000,1,N,1","+0145,1","+0134,1","10264,1","06,0000,9,1",,,,,"08,99,1,08,1,00,1,99999,9,07,1,99,9",,,"99999,9,09853,1","2,1,012,1,+999,9","10,1",,SYN072AAXX  24121 57328 31957 80401 10145 20134 39853 40264 52012 71000 8807/;,Q01  00002PRCP06
10-24T15:00:00,4,31.2,107.5,344.0,"DA XIAN, CH",FM-12,99999,V020,"020,1,N,0020,1","99999,9,9,N","004000,1,N,1","+0135,1","+0131,1","10272,1",,,,,,"07,99,1,07,1,00,1,99999,9,04,1,99,9",,,,"2,1,007,1,+999,9","10,1",,SYN066AAXX  24151 57328 41940 70202 10135 20131 40272 52007 71000 8704/;,
10-24T18:00:00,4,31.2,107.5,344.0,"DA XIAN, CH",FM-12,99999,V020,"040,1,N,0030,1","99999,9,9,N","000000,1,N,1","+0124,1","+0122,1","10265,1","06,0000,9,1",,"4,1,06,1",,,"07,99,1,07,1,00,1,99999,9,04,1,99,9",,"999,M,+0151,1","99999,9,09853,1","7,1,007,1,+999,9","44,1",,SYN082AAXX  24181 57328 31900 70403 10124 20122 39853 40265 57007 74440 8704/ 333 10151;,Q01  00002PRCP06
10-24T21:00:00,4,31.2,107.5,344.0,"DA XIAN, CH",FM-12,99999,V020,"040,1,N,0010,1","00015,1,9,N","000000,1,N,1","+0119,1","+0119,1","10270,1",,,"4,1,03,1","4,1,03,1","09,1,+99999,9,99,9","09,99,1,09,1,99,9,99999,9,99,9,99,9",,,,"2,1,005,1,+999,9","45,1",,SYN060AAXX  24211 57328 41/00 90401 10119 20119 40270 52005 74544;,
10-25T00:00:00,4,31.2,107.5,344.0,"DA XIAN, CH",FM-12,99999,V020,"040,1,N,0020,1","99999,9,9,N","002000,1,N,1","+0119,1","+0115,1","10287,1","06,0000,9,1",,"4,1,06,1","4,1,06,1",,"08,99,1,08,1,00,1,99999,9,07,1,99,9",,,"99999,9,09874,1","2,1,016,1,+002,1","28,1",,SYN082AAXX  25001 57328 31920 80402 10119 20115 39874 40287 52016 72844 8807/ 333 00251;,Q01  00002PRCP06
10-25T03:00:00,4,31.2,107.5,344.0,"DA XIAN, CH",FM-12,99999,V020,"020,1,N,0020,1","99999,9,9,N","008000,1,N,1","+0143,1","+0117,1","10297,1",,,,,,"08,99,1,08,1,00,1,99999,9,07,1,99,9",,,,"2,1,011,1,+999,9","10,1",,SYN066AAXX  25031 57328 41958 80202 10143 20117 40297 52011 71000 8807/;,
10-25T06:00:00,4,31.2,107.5,344.0,"DA XIAN, CH",FM-12,99999,V020,"220,1,N,0010,1","99999,9,9,N","012000,1,N,1","+0191,1","+0124,1","10270,1","06,0000,9,1",,,,,"06,99,1,00,1,00,1,99999,9,00,1,01,1",,"999,N,+0114,1","99999,9,09861,1","7,1,024,1,+999,9",,,SYN076AAXX  25061 57328 32962 62201 10191 20124 39861 40270 57024 80001 333 20114;,Q01  00002PRCP06
10-25T09:00:00,4,31.2,107.5,344.0,"DA XIAN, CH",FM-12,99999,V020,"220,1,N,0010,1","22000,1,9,N","012000,1,N,1","+0186,1","+0143,1","10266,1",,,,,"00,1,+99999,9,99,9","00,99,1,00,1,00,1,99999,9,00,1,00,1",,,,"7,1,004,1,+999,9",,,SYN054AAXX  25091 57328 42962 02201 10186 20143 40266 57004;,
10-25T12:00:00,4,31.2,107.5,344.0,"DA XIAN, CH",FM-12,99999,V020,"140,1,N,0010,1","99999,9,9,N","008000,1,N,1","+0163,1","+0140,1","10288,1","06,0000,9,1",,,,,"08,99,1,08,1,00,1,99999,9,07,1,99,9",,,"99999,9,09876,1","2,1,019,1,+999,9","10,1",,SYN072AAXX  25121 57328 31958 81401 10163 20140 39876 40288 52019 71000 8807/;,Q01  00002PRCP06
10-25T15:00:00,4,31.2,107.5,344.0,"DA XIAN, CH",FM-12,99999,V020,"070,1,N,0010,1","22000,1,9,N","006000,1,N,1","+0139,1","+0132,1","10305,1",,,,,"00,1,+99999,9,99,9","00,99,1,00,1,00,1,99999,9,00,1,00,1",,,,"2,1,017,1,+999,9","10,1",,SYN060AAXX  25151 57328 41956 00701 10139 20132 40305 52017 71000;,
10-25T18:00:00,4,31.2,107.5,344.0,"DA XIAN, CH",FM-12,99999,V020,"040,1,N,0010,1","00015,1,9,N","000000,1,N,1","+0130,1","+0128,1","10303,1","06,0000,9,1",,"4,1,06,1",,"09,1,+99999,9,99,9","09,99,1,09,1,99,9,99999,9,99,9,99,9",,"999,M,+0197,1","99999,9,09893,1","4,1,000,1,+999,9","47,1",,SYN076AAXX  25181 57328 31/00 90401 10130 20128 39893 40303 54000 74740 333 10197;,Q01  00002PRCP06
10-25T21:00:00,4,31.2,107.5,344.0,"DA XIAN, CH",FM-12,99999,V020,"040,1,N,0020,1","00030,1,9,N","000500,1,N,1","+0131,1","+0127,1","10294,1",,,"4,1,03,1","4,1,03,1","09,1,+99999,9,99,9","09,99,1,09,1,99,9,99999,9,99,9,99,9",,,,"7,1,009,1,+999,9","43,1",,SYN060AAXX  25211 57328 41/05 90402 10131 20127 40294 57009 74344;,
10-26T00:00:00,4,31.2,107.5,344.0,"DA XIAN, CH",FM-12,99999,V020,"040,1,N,0030,1","99999,9,9,N","001500,1,N,1","+0131,1","+0127,1","10308,1","06,0000,9,1",,"4,1,06,1",,,"07,99,1,07,1,00,1,99999,9,04,1,99,9",,,"99999,9,09896,1","2,1,012,1,+002,1","10,1",,SYN082AAXX  26001 57328 31915 70403 10131 20127 39896 40308 52012 71040 8704/ 333 00201;,Q01  00002PRCP06
10-26T03:00:00,4,31.2,107.5,344.0,"DA XIAN, CH",FM-12,99999,V020,"999,9,C,0000,1","99999,9,9,N","006000,1,N,1","+0151,1","+0130,1","10315,1",,,,,,"08,99,1,08,1,00,1,99999,9,07,1,99,9",,,,"2,1,007,1,+999,9","10,1",,SYN066AAXX  26031 57328 41956 80000 10151 20130 40315 52007 71000 8807/;,
10-26T06:00:00,4,31.2,107.5,344.0,"DA XIAN, CH",FM-12,99999,V020,"140,1,N,0010,1","99999,9,9,N","004000,1,N,1","+0155,1","+0137,1","10293,1","06,9999,9,9",,,,,"08,99,1,08,1,00,1,99999,9,02,1,99,9",,"999,N,+0126,1","99999,9,09881,1","7,1,022,1,+999,9","60,1",,SYN088AAXX  26061 57328 11940 81401 10155 20137 39881 40293 57022 69901 76000 8802/ 333 20126;,
10-26T09:00:00,4,31.2,107.5,344.0,"DA XIAN, CH",FM-12,99999,V020,"999,9,C,0000,1","99999,9,9,N","004000,1,N,1","+0157,1","+0140,1","10280,1",,,"6,1,03,1",,,"08,99,1,08,1,00,1,99999,9,07,1,99,9",,,,"7,1,012,1,+999,9","10,1",,SYN066AAXX  26091 57328 41940 80000 10157 20140 40280 57012 71060 8807/;,
10-26T12:00:00,4,31.2,107.5,344.0,"DA XIAN, CH",FM-12,99999,V020,"999,9,C,0000,1","99999,9,9,N","004000,1,N,1","+0151,1","+0141,1","10276,1","06,9999,9,9",,"6,1,06,1",,,"08,99,1,08,1,00,1,99999,9,02,1,99,9",,,"99999,9,09865,1","7,1,004,1,+999,9","10,1",,SYN078AAXX  26121 57328 11940 80000 10151 20141 39865 40276 57004 69901 71060 8802/;,
10-26T15:00:00,4,31.2,107.5,344.0,"DA XIAN, CH",FM-12,99999,V020,"020,1,N,0020,1","99999,9,9,N","003000,1,N,1","+0147,1","+0140,1","10274,1",,,,,,"08,99,1,08,1,00,1,99999,9,02,1,99,9",,,,"7,1,001,1,+999,9","10,1",,SYN066AAXX  26151 57328 41930 80202 10147 20140 40274 57001 71000 8802/;,
10-26T21:00:00,4,31.2,107.5,344.0,"DA XIAN, CH",FM-12,99999,V020,"020,1,N,0020,1","99999,9,9,N","003000,1,N,1","+0143,1","+0136,1","10233,1","24,0000,2,1",,,,,"08,99,1,08,1,00,1,99999,9,07,1,99,9",,,,"7,1,022,1,+999,9","10,1",,SYN076AAXX  26211 57328 41930 80202 10143 20136 40233 57022 71000 8807/ 333 79999;,
10-27T00:00:00,4,31.2,107.5,344.0,"DA XIAN, CH",FM-12,99999,V020,"040,1,N,0020,1","99999,9,9,N","004000,1,N,1","+0143,1","+0129,1","10240,1","06,0000,9,1","24,0000,2,1",,,,"08,99,1,08,1,00,1,99999,9,07,1,99,9",,,"99999,9,09831,1","2,1,006,1,-070,1","10,1",,SYN088AAXX  27001 57328 31940 80402 10143 20129 39831 40240 52006 71000 8807/ 333 05701 79999;,Q01  00002PRCP06
10-27T03:00:00,4,31.2,107.5,344.0,"DA XIAN, CH",FM-12,99999,V020,"020,1,N,0030,1","99999,9,9,N","005000,1,N,1","+0155,1","+0134,1","10236,1",,,"6,1,03,1",,,"08,99,1,08,1,00,1,99999,9,07,1,99,9",,,,"7,1,003,1,+999,9","10,1",,SYN066AAXX  27031 57328 41950 80203 10155 20134 40236 57003 71060 8807/;,
10-27T06:00:00,4,31.2,107.5,344.0,"DA XIAN, CH",FM-12,99999,V020,"040,1,N,0020,1","99999,9,9,N","005000,1,N,1","+0154,1","+0135,1","10205,1","06,9999,9,9",,"6,1,06,1",,,"08,99,1,08,1,00,1,99999,9,02,1,99,9",,"999,N,+0140,1","99999,9,09798,1","7,1,030,1,+999,9","60,1",,SYN088AAXX  27061 57328 11950 80402 10154 20135 39798 40205 57030 69911 76060 8802/ 333 20140;,
10-27T09:00:00,4,31.2,107.5,344.0,"DA XIAN, CH",FM-12,99999,V020,"040,1,N,0020,1","99999,9,9,N","007000,1,N,1","+0158,1","+0128,1","10188,1",,,"6,1,03,1",,,"08,99,1,08,1,00,1,99999,9,02,1,99,9",,,,"7,1,016,1,+999,9","10,1",,SYN066AAXX  27091 57328 41957 80402 10158 20128 40188 57016 71060 8802/;,
10-27T12:00:00,4,31.2,107.5,344.0,"DA XIAN, CH",FM-12,99999,V020,"040,1,N,0020,1","99999,9,9,N","004000,1,N,1","+0149,1","+0131,1","10201,1","06,9999,9,9",,"6,1,06,1",,,"08,99,1,08,1,00,1,99999,9,02,1,99,9",,,"99999,9,09793,1","2,1,011,1,+999,9","10,1",,SYN078AAXX  27121 57328 11940 80402 10149 20131 39793 40201 52011 69901 71060 8802/;,
10-27T15:00:00,4,31.2,107.5,344.0,"DA XIAN, CH",FM-12,99999,V020,"040,1,N,0010,1","99999,9,9,N","004000,1,N,1","+0145,1","+0131,1","10204,1",,,,,,"08,99,1,08,1,00,1,99999,9,02,1,99,9",,,,"2,1,004,1,+999,9","10,1",,SYN066AAXX  27151 57328 41940 80401 10145 20131 40204 52004 71000 8802/;,
10-27T18:00:00,4,31.2,107.5,344.0,"DA XIAN, CH",FM-12,99999,V020,"040,1,N,0030,1","99999,9,9,N","004000,1,N,1","+0143,1","+0127,1","10191,1","06,0000,9,1",,,,,"08,99,1,08,1,00,1,99999,9,02,1,99,9",,"999,M,+0161,1","99999,9,09784,1","7,1,013,1,+999,9","10,1",,SYN082AAXX  27181 57328 31940 80403 10143 20127 39784 40191 57013 71000 8802/ 333 10161;,Q01  00002PRCP06
10-27T21:00:00,4,31.2,107.5,344.0,"DA XIAN, CH",FM-12,99999,V020,"020,1,N,0030,1","99999,9,9,N","004000,1,N,1","+0139,1","+0126,1","10181,1","24,0000,2,1",,,,,"08,99,1,08,1,00,1,99999,9,02,1,99,9",,,,"7,1,009,1,+999,9","10,1",,SYN076AAXX  27211 57328 41940 80203 10139 20126 40181 57009 71000 8802/ 333 70001;,
10-28T00:00:00,4,31.2,107.5,344.0,"DA XIAN, CH",FM-12,99999,V020,"040,1,N,0020,1","99999,9,9,N","004000,1,N,1","+0140,1","+0126,1","10190,1","06,0000,9,1","24,0000,2,1",,,,"08,99,1,08,1,00,1,99999,9,07,1,99,9",,,"99999,9,09783,1","2,1,008,1,-050,1","10,1",,SYN088AAXX  28001 57328 31940 80402 10140 20126 39783 40190 52008 71000 8807/ 333 05500 70001;,Q01  00002PRCP06
10-28T03:00:00,4,31.2,107.5,344.0,"DA XIAN, CH",FM-12,99999,V020,"040,1,N,0020,1","99999,9,9,N","006000,1,N,1","+0153,1","+0124,1","10195,1",,,,,,"08,99,1,08,1,00,1,99999,9,02,1,99,9",,,,"2,1,005,1,+999,9","10,1",,SYN066AAXX  28031 57328 41956 80402 10153 20124 40195 52005 71000 8802/;,
10-28T06:00:00,4,31.2,107.5,344.0,"DA XIAN, CH",FM-12,99999,V020,"020,1,N,0020,1","99999,9,9,N","006000,1,N,1","+0183,1","+0123,1","10173,1","06,0000,9,1",,,,,"08,99,1,08,1,00,1,99999,9,07,1,99,9",,"999,N,+0136,1","99999,9,09769,1","7,1,019,1,+999,9","10,1",,SYN082AAXX  28061 57328 31956 80202 10183 20123 39769 40173 57019 71000 8807/ 333 20136;,Q01  00002PRCP06
10-28T09:00:00,4,31.2,107.5,344.0,"DA XIAN, CH",FM-12,99999,V020,"020,1,N,0020,1","22000,1,9,N","008000,1,N,1","+0181,1","+0129,1","10163,1",,,,,"00,1,+99999,9,99,9","00,99,1,00,1,00,1,99999,9,00,1,00,1",,,,"7,1,010,1,+999,9","10,1",,SYN060AAXX  28091 57328 41958 00202 10181 20129 40163 57010 71000;,
10-28T12:00:00,4,31.2,107.5,344.0,"DA XIAN, CH",FM-12,99999,V020,"999,9,C,0000,1","99999,9,9,N","005000,1,N,1","+0163,1","+0141,1","10179,1","06,0000,9,1",,,,,"08,99,1,08,1,00,1,99999,9,02,1,99,9",,,"99999,9,09773,1","2,1,014,1,+999,9","10,1",,SYN072AAXX  28121 57328 31950 80000 10163 20141 39773 40179 52014 71000 8802/;,Q01  00002PRCP06
10-28T15:00:00,4,31.2,107.5,344.0,"DA XIAN, CH",FM-12,99999,V020,"040,1,N,0030,1","99999,9,9,N","005000,1,N,1","+0155,1","+0138,1","10189,1",,,,,,"08,99,1,08,1,00,1,99999,9,02,1,99,9",,,,"2,1,010,1,+999,9","10,1",,SYN066AAXX  28151 57328 41950 80403 10155 20138 40189 52010 71000 8802/;,
10-28T18:00:00,4,31.2,107.5,344.0,"DA XIAN, CH",FM-12,99999,V020,"040,1,N,0010,1","99999,9,9,N","004000,1,N,1","+0151,1","+0139,1","10182,1","06,0000,9,1",,,,,"08,99,1,08,1,00,1,99999,9,02,1,99,9",,"999,M,+0188,1","99999,9,09778,1","7,1,005,1,+999,9","10,1",,SYN082AAXX  28181 57328 31940 80401 10151 20139 39778 40182 57005 71000 8802/ 333 10188;,Q01  00002PRCP06
10-28T21:00:00,4,31.2,107.5,344.0,"DA XIAN, CH",FM-12,99999,V020,"040,1,N,0010,1","99999,9,9,N","004000,1,N,1","+0149,1","+0135,1","10172,1",,,,,,"07,99,1,07,1,00,1,99999,9,04,1,99,9",,,,"7,1,010,1,+999,9","10,1",,SYN066AAXX  28211 57328 41940 70401 10149 20135 40172 57010 71000 8704/;,
10-29T00:00:00,4,31.2,107.5,344.0,"DA XIAN, CH",FM-12,99999,V020,"040,1,N,0030,1","99999,9,9,N","001500,1,N,1","+0141,1","+0134,1","10181,1","06,0000,9,1",,,,,"08,99,1,08,1,00,1,99999,9,07,1,99,9",,,"99999,9,09775,1","2,1,007,1,+001,1","10,1",,SYN082AAXX  29001 57328 31915 80403 10141 20134 39775 40181 52007 71000 8807/ 333 05100;,Q01  00002PRCP06
10-29T03:00:00,4,31.2,107.5,344.0,"DA XIAN, CH",FM-12,99999,V020,"999,9,C,0000,1","99999,9,9,N","002000,1,N,1","+0171,1","+0140,1","10192,1",,,,,,"08,99,1,08,1,00,1,99999,9,07,1,99,9",,,,"2,1,012,1,+999,9","10,1",,SYN066AAXX  29031 57328 41920 80000 10171 20140 40192 52012 71000 8807/;,
10-29T06:00:00,4,31.2,107.5,344.0,"DA XIAN, CH",FM-12,99999,V020,"999,9,C,0000,1","99999,9,9,N","003000,1,N,1","+0179,1","+0149,1","10171,1","06,0000,9,1",,,,,"08,99,1,08,1,00,1,99999,9,07,1,99,9",,"999,N,+0137,1","99999,9,09767,1","7,1,020,1,+999,9","10,1",,SYN082AAXX  29061 57328 31930 80000 10179 20149 39767 40171 57020 71000 8807/ 333 20137;,Q01  00002PRCP06
10-29T09:00:00,4,31.2,107.5,344.0,"DA XIAN, CH",FM-12,99999,V020,"999,9,C,0000,1","99999,9,9,N","004000,1,N,1","+0177,1","+0150,1","10168,1",,,,,,"08,99,1,08,1,00,1,99999,9,07,1,99,9",,,,"7,1,003,1,+999,9","10,1",,SYN066AAXX  29091 57328 41940 80000 10177 20150 40168 57003 71000 8807/;,
10-29T12:00:00,4,31.2,107.5,344.0,"DA XIAN, CH",FM-12,99999,V020,"360,1,N,0010,1","99999,9,9,N","003000,1,N,1","+0168,1","+0151,1","10182,1","06,0000,9,1",,,,,"08,99,1,08,1,00,1,99999,9,07,1,99,9",,,"99999,9,09776,1","2,1,012,1,+999,9","10,1",,SYN072AAXX  29121 57328 31930 83601 10168 20151 39776 40182 52012 71000 8807/;,Q01  00002PRCP06
10-29T15:00:00,4,31.2,107.5,344.0,"DA XIAN, CH",FM-12,99999,V020,"040,1,N,0020,1","99999,9,9,N","003000,1,N,1","+0164,1","+0152,1","10192,1",,,,,,"08,99,1,08,1,00,1,99999,9,07,1,99,9",,,,"2,1,012,1,+999,9","10,1",,SYN066AAXX  29151 57328 41930 80402 10164 20152 40192 52012 71000 8807/;,
10-29T18:00:00,4,31.2,107.5,344.0,"DA XIAN, CH",FM-12,99999,V020,"999,9,C,0000,1","99999,9,9,N","002000,1,N,1","+0162,1","+0154,1","10189,1","06,0000,9,1",,,,,"08,99,1,08,1,00,1,99999,9,07,1,99,9",,"999,M,+0181,1","99999,9,09785,1","7,1,003,1,+999,9","10,1",,SYN082AAXX  29181 57328 31920 80000 10162 20154 39785 40189 57003 71000 8807/ 333 10181;,Q01  00002PRCP06
10-29T21:00:00,4,31.2,107.5,344.0,"DA XIAN, CH",FM-12,99999,V020,"040,1,N,0010,1","99999,9,9,N","002000,1,N,1","+0157,1","+0150,1","10174,1",,,,,,"08,99,1,08,1,00,1,99999,9,07,1,99,9",,,,"7,1,015,1,+999,9","10,1",,SYN066AAXX  29211 57328 41920 80401 10157 20150 40174 57015 71000 8807/;,
10-30T00:00:00,4,31.2,107.5,344.0,"DA XIAN, CH",FM-12,99999,V020,"999,9,C,0000,1","99999,9,9,N","002000,1,N,1","+0156,1","+0147,1","10183,1","06,0000,9,1",,,,,"08,99,1,08,1,00,1,99999,9,07,1,99,9",,,"99999,9,09778,1","2,1,008,1,+000,1","10,1",,SYN082AAXX  30001 57328 31920 80000 10156 20147 39778 40183 52008 71000 8807/ 333 00002;,Q01  00002PRCP06
10-30T03:00:00,4,31.2,107.5,344.0,"DA XIAN, CH",FM-12,99999,V020,"999,9,C,0000,1","99999,9,9,N","002000,1,N,1","+0171,1","+0151,1","10190,1",,,,,,"08,99,1,08,1,00,1,99999,9,07,1,99,9",,,,"2,1,008,1,+999,9","10,1",,SYN066AAXX  30031 57328 41920 80000 10171 20151 40190 52008 71000 8807/;,
10-30T06:00:00,4,31.2,107.5,344.0,"DA XIAN, CH",FM-12,99999,V020,"020,1,N,0020,1","02100,1,9,N","001500,1,N,1","+0163,1","+0156,1","10168,1","06,0030,9,1",,"6,1,06,1",,,"08,99,1,08,1,05,1,02250,1,99,9,99,9",,"999,N,+0151,1","99999,9,09764,1","7,1,022,1,+999,9","60,1",,SYN088AAXX  30061 57328 11815 80202 10163 20156 39764 40168 57022 60031 76060 885// 333 20151;,
10-30T09:00:00,4,31.2,107.5,344.0,"DA XIAN, CH",FM-12,99999,V020,"999,9,C,0000,1","02100,1,9,N","001200,1,N,1","+0159,1","+0152,1","10166,1",,,"6,1,03,1","6,1,03,1",,"08,99,1,08,1,05,1,02250,1,99,9,99,9",,,,"7,1,003,1,+999,9","60,1",,SYN066AAXX  30091 57328 41812 80000 10159 20152 40166 57003 76066 885//;,
10-30T12:00:00,4,31.2,107.5,344.0,"DA XIAN, CH",FM-12,99999,V020,"020,1,N,0020,1","02100,1,9,N","003000,1,N,1","+0157,1","+0150,1","10179,1","06,0051,9,1",,"6,1,06,1","6,1,06,1",,"08,99,1,08,1,05,1,02250,1,99,9,99,9",,,"99999,9,09774,1","2,1,013,1,+999,9","21,1",,SYN078AAXX  30121 57328 11830 80202 10157 20150 39774 40179 52013 60051 72166 885//;,
10-30T15:00:00,4,31.2,107.5,344.0,"DA XIAN, CH",FM-12,99999,V020,"070,1,N,0010,1","02100,1,9,N","004000,1,N,1","+0155,1","+0148,1","10191,1",,,,,,"08,99,1,08,1,05,1,02250,1,99,9,99,9",,,,"2,1,012,1,+999,9","10,1",,SYN066AAXX  30151 57328 41840 80701 10155 20148 40191 52012 71000 885//;,
10-30T18:00:00,4,31.2,107.5,344.0,"DA XIAN, CH",FM-12,99999,V020,"020,1,N,0020,1","02100,1,9,N","004000,1,N,1","+0157,1","+0150,1","10191,1","06,9999,9,9",,"6,1,06,1",,,"08,99,1,08,1,05,1,02250,1,99,9,99,9",,"999,M,+0173,1","99999,9,09786,1","4,1,000,1,+999,9","60,1",,SYN088AAXX  30181 57328 11840 80202 10157 20150 39786 40191 54000 69901 76060 885// 333 10173;,
10-30T21:00:00,4,31.2,107.5,344.0,"DA XIAN, CH",FM-12,99999,V020,"999,9,C,0000,1","99999,9,9,N","002000,1,N,1","+0154,1","+0149,1","10182,1","24,0079,9,1",,"6,1,03,1",,,"07,99,1,07,1,00,1,99999,9,04,1,99,9",,,,"7,1,009,1,+999,9","10,1",,SYN076AAXX  30211 57328 41920 70000 10154 20149 40182 57009 71060 8704/ 333 70080;,
10-31T00:00:00,4,31.2,107.5,344.0,"DA XIAN, CH",FM-12,99999,V020,"999,9,C,0000,1","99999,9,9,N","001500,1,N,1","+0150,1","+0145,1","10211,1","06,9999,9,9","24,0079,9,1","6,1,06,1",,,"08,99,1,08,1,00,1,99999,9,07,1,99,9",,,"99999,9,09804,1","2,1,027,1,+030,1","10,1",,SYN094AAXX  31001 57328 11915 80000 10150 20145 39804 40211 52027 69901 71060 8807/ 333 00351 70080;,
10-31T03:00:00,4,31.2,107.5,344.0,"DA XIAN, CH",FM-12,99999,V020,"140,1,N,0020,1","22000,1,9,N","003000,1,N,1","+0187,1","+0154,1","10220,1",,,,,,"04,99,1,04,1,00,1,99999,9,04,1,00,1",,,,"2,1,011,1,+999,9","10,1",,SYN066AAXX  31031 57328 41930 41402 10187 20154 40220 52011 71000 84040;,
10-31T06:00:00,4,31.2,107.5,344.0,"DA XIAN, CH",FM-12,99999,V020,"220,1,N,0010,1","22000,1,9,N","011000,1,N,1","+0227,1","+0147,1","10193,1","06,0000,9,1",,,,"00,1,+99999,9,99,9","00,99,1,00,1,00,1,99999,9,00,1,00,1",,"999,N,+0146,1","99999,9,09792,1","7,1,023,1,+999,9",,,SYN070AAXX  31061 57328 32961 02201 10227 20147 39792 40193 57023 333 20146;,Q01  00002PRCP06
10-31T09:00:00,4,31.2,107.5,344.0,"DA XIAN, CH",FM-12,99999,V020,"220,1,N,0030,1","22000,1,9,N","015000,1,N,1","+0218,1","+0141,1","10186,1",,,,,"00,1,+99999,9,99,9","00,99,1,00,1,00,1,99999,9,00,1,00,1",,,,"7,1,008,1,+999,9",,,SYN054AAXX  31091 57328 42965 02203 10218 20141 40186 57008;,
10-31T12:00:00,4,31.2,107.5,344.0,"DA XIAN, CH",FM-12,99999,V020,"999,9,C,0000,1","22000,1,9,N","008000,1,N,1","+0182,1","+0152,1","10208,1","06,0000,9,1",,,,"00,1,+99999,9,99,9","00,99,1,00,1,00,1,99999,9,00,1,00,1",,,"99999,9,09803,1","2,1,019,1,+999,9","10,1",,SYN066AAXX  31121 57328 31958 00000 10182 20152 39803 40208 52019 71000;,Q01  00002PRCP06
10-31T15:00:00,4,31.2,107.5,344.0,"DA XIAN, CH",FM-12,99999,V020,"999,9,C,0000,1","22000,1,9,N","006000,1,N,1","+0153,1","+0143,1","10228,1",,,,,"00,1,+99999,9,99,9","00,99,1,00,1,00,1,99999,9,00,1,00,1",,,,"2,1,020,1,+999,9","10,1",,SYN060AAXX  31151 57328 41956 00000 10153 20143 40228 52020 71000;,
10-31T18:00:00,4,31.2,107.5,344.0,"DA XIAN, CH",FM-12,99999,V020,"020,1,N,0020,1","22000,1,9,N","000000,1,N,1","+0135,1","+0135,1","10227,1","06,0000,9,1",,"4,1,06,1",,"00,1,+99999,9,99,9","00,99,1,00,1,00,1,99999,9,00,1,00,1",,"999,M,+0233,1","99999,9,09823,1","4,1,000,1,+999,9","44,1",,SYN076AAXX  31181 57328 31900 00202 10135 20135 39823 40227 54000 74440 333 10233;,Q01  00002PRCP06
10-31T21:00:00,4,31.2,107.5,344.0,"DA XIAN, CH",FM-12,99999,V020,"040,1,N,0030,1","22000,1,9,N","000000,1,N,1","+0126,1","+0124,1","10226,1",,,"4,1,03,1","4,1,03,1","00,1,+99999,9,99,9","00,99,1,00,1,00,1,99999,9,00,1,00,1",,,,"7,1,002,1,+999,9","44,1",,SYN060AAXX  31211 57328 41900 00403 10126 20124 40226 57002 74444;,
11-01T00:00:00,4,31.2,107.5,344.0,"DA XIAN, CH",FM-12,99999,V020,"040,1,N,0030,1","99999,9,9,N","002000,1,N,1","+0123,1","+0116,1","10239,1","06,0000,9,1",,"4,1,06,1",,,"08,99,1,08,1,00,1,99999,9,02,1,99,9",,,"99999,9,09831,1","2,1,010,1,+003,1","10,1",,SYN082AAXX  01001 57328 31920 80403 10123 20116 39831 40239 52010 71040 8802/ 333 00353;,Q01  00002PRCP06
11-01T03:00:00,4,31.2,107.5,344.0,"DA XIAN, CH",FM-12,99999,V020,"040,1,N,0030,1","99999,9,9,N","006000,1,N,1","+0159,1","+0136,1","10241,1",,,,,,"07,99,1,00,1,00,1,99999,9,00,1,02,1",,,,"2,1,002,1,+999,9","10,1",,SYN066AAXX  01031 57328 41956 70403 10159 20136 40241 52002 71000 80002;,
11-01T06:00:00,4,31.2,107.5,344.0,"DA XIAN, CH",FM-12,99999,V020,"070,1,N,0010,1","99999,9,9,N","008000,1,N,1","+0207,1","+0150,1","10205,1","06,0000,9,1",,,,,"07,99,1,02,1,00,1,99999,9,04,1,01,1",,"999,N,+0118,1","99999,9,09801,1","7,1,032,1,+999,9","10,1",,SYN082AAXX  01061 57328 31958 70701 10207 20150 39801 40205 57032 71000 82041 333 20118;,Q01  00002PRCP06
11-01T09:00:00,4,31.2,107.5,344.0,"DA XIAN, CH",FM-12,99999,V020,"020,1,N,0030,1","99999,9,9,N","012000,1,N,1","+0209,1","+0160,1","10185,1",,,,,,"07,99,1,00,1,00,1,99999,9,00,1,01,1",,,,"7,1,020,1,+999,9",,,SYN060AAXX  01091 57328 42962 70203 10209 20160 40185 57020 80001;,
11-01T12:00:00,4,31.2,107.5,344.0,"DA XIAN, CH",FM-12,99999,V020,"040,1,N,0020,1","22000,1,9,N","002000,1,N,1","+0167,1","+0154,1","10203,1","06,0000,9,1",,,,"00,1,+99999,9,99,9","00,99,1,00,1,00,1,99999,9,00,1,00,1",,,"99999,9,09795,1","2,1,014,1,+999,9","10,1",,SYN066AAXX  01121 57328 31920 00402 10167 20154 39795 40203 52014 71000;,Q01  00002PRCP06
11-01T15:00:00,4,31.2,107.5,344.0,"DA XIAN, CH",FM-12,99999,V020,"040,1,N,0030,1","99999,9,9,N","002000,1,N,1","+0145,1","+0138,1","10210,1",,,,,,"07,99,1,00,1,00,1,99999,9,00,1,02,1",,,,"2,1,008,1,+999,9","10,1",,SYN066AAXX  01151 57328 41920 70403 10145 20138 40210 52008 71000 80002;,
11-01T18:00:00,4,31.2,107.5,344.0,"DA XIAN, CH",FM-12,99999,V020,"020,1,N,0030,1","22000,1,9,N","001500,1,N,1","+0129,1","+0129,1","10203,1","06,0000,9,1",,,,"00,1,+99999,9,99,9","00,99,1,00,1,00,1,99999,9,00,1,00,1",,"999,M,+0217,1","99999,9,09798,1","7,1,005,1,+999,9","10,1",,SYN076AAXX  01181 57328 31915 00203 10129 20129 39798 40203 57005 71000 333 10217;,Q01  00002PRCP06
11-01T21:00:00,4,31.2,107.5,344.0,"DA XIAN, CH",FM-12,99999,V020,"040,1,N,0020,1","22000,1,9,N","000200,1,N,1","+0121,1","+0121,1","10194,1",,,"4,1,03,1",,"00,1,+99999,9,99,9","00,99,1,00,1,00,1,99999,9,00,1,00,1",,,,"7,1,009,1,+999,9","44,1",,SYN060AAXX  01211 57328 41902 00402 10121 20121 40194 57009 74440;,
11-02T00:00:00,4,31.2,107.5,344.0,"DA XIAN, CH",FM-12,99999,V020,"360,1,N,0020,1","22000,1,9,N","001500,1,N,1","+0117,1","+0113,1","10204,1","06,0000,9,1",,"4,1,06,1",,,"01,99,1,00,1,00,1,99999,9,00,1,01,1",,,"99999,9,09796,1","2,1,007,1,+004,1","10,1",,SYN082AAXX  02001 57328 31915 13602 10117 20113 39796 40204 52007 71040 80001 333 05451;,Q01  00002PRCP06
11-02T03:00:00,4,31.2,107.5,344.0,"DA XIAN, CH",FM-12,99999,V020,"070,1,N,0030,1","22000,1,9,N","005000,1,N,1","+0167,1","+0126,1","10207,1",,,,,"00,1,+99999,9,99,9","00,99,1,00,1,00,1,99999,9,00,1,00,1",,,,"2,1,005,1,+999,9","10,1",,SYN060AAXX  02031 57328 41950 00703 10167 20126 40207 52005 71000;,
11-02T06:00:00,4,31.2,107.5,344.0,"DA XIAN, CH",FM-12,99999,V020,"320,1,N,0010,1","22000,1,9,N","020000,1,N,1","+0216,1","+0136,1","10176,1","06,0000,9,1",,,,,"01,99,1,00,1,00,1,99999,9,00,1,01,1",,"999,N,+0111,1","99999,9,09773,1","7,1,028,1,+999,9",,,SYN076AAXX  02061 57328 32970 13201 10216 20136 39773 40176 57028 80001 333 20111;,Q01  00002PRCP06
11-02T09:00:00,4,31.2,107.5,344.0,"DA XIAN, CH",FM-12,99999,V020,"320,1,N,0010,1","22000,1,9,N","015000,1,N,1","+0225,1","+0125,1","10164,1",,,,,"00,1,+99999,9,99,9","00,99,1,00,1,00,1,99999,9,00,1,00,1",,,,"7,1,011,1,+999,9",,,SYN054AAXX  02091 57328 42965 03201 10225 20125 40164 57011;,
11-02T12:00:00,4,31.2,107.5,344.0,"DA XIAN, CH",FM-12,99999,V020,"040,1,N,0030,1","22000,1,9,N","005000,1,N,1","+0165,1","+0141,1","10185,1","06,0000,9,1",,,,"00,1,+99999,9,99,9","00,99,1,00,1,00,1,99999,9,00,1,00,1",,,"99999,9,09777,1","2,1,015,1,+999,9","10,1",,SYN066AAXX  02121 57328 31950 00403 10165 20141 39777 40185 52015 71000;,Q01  00002PRCP06
11-02T15:00:00,4,31.2,107.5,344.0,"DA XIAN, CH",FM-12,99999,V020,"040,1,N,0020,1","22000,1,9,N","005000,1,N,1","+0143,1","+0132,1","10196,1",,,,,"00,1,+99999,9,99,9","00,99,1,00,1,00,1,99999,9,00,1,00,1",,,,"2,1,013,1,+999,9","10,1",,SYN060AAXX  02151 57328 41950 00402 10143 20132 40196 52013 71000;,
11-02T18:00:00,4,31.2,107.5,344.0,"DA XIAN, CH",FM-12,99999,V020,"040,1,N,0030,1","22000,1,9,N","005000,1,N,1","+0131,1","+0124,1","10187,1","06,0000,9,1",,,,"00,1,+99999,9,99,9","00,99,1,00,1,00,1,99999,9,00,1,00,1",,"999,M,+0232,1","99999,9,09784,1","7,1,006,1,+999,9","10,1",,SYN076AAXX  02181 57328 31950 00403 10131 20124 39784 40187 57006 71000 333 10232;,Q01  00002PRCP06
11-02T21:00:00,4,31.2,107.5,344.0,"DA XIAN, CH",FM-12,99999,V020,"040,1,N,0040,1","22000,1,9,N","005000,1,N,1","+0123,1","+0117,1","10183,1",,,,,"00,1,+99999,9,99,9","00,99,1,00,1,00,1,99999,9,00,1,00,1",,,,"7,1,004,1,+999,9","10,1",,SYN060AAXX  02211 57328 41950 00404 10123 20117 40183 57004 71000;,
11-03T00:00:00,4,31.2,107.5,344.0,"DA XIAN, CH",FM-12,99999,V020,"040,1,N,0040,1","99999,9,9,N","004000,1,N,1","+0123,1","+0112,1","10198,1","06,0000,9,1",,,,,"07,99,1,00,1,00,1,99999,9,00,1,02,1",,,"99999,9,09790,1","2,1,010,1,+001,1","10,1",,SYN082AAXX  03001 57328 31940 70404 10123 20112 39790 40198 52010 71000 80002 333 05101;,Q01  00002PRCP06
11-03T03:00:00,4,31.2,107.5,344.0,"DA XIAN, CH",FM-12,99999,V020,"070,1,N,0020,1","22000,1,9,N","008000,1,N,1","+0173,1","+0123,1","10199,1",,,,,"00,1,+99999,9,99,9","00,99,1,00,1,00,1,99999,9,00,1,00,1",,,,"2,1,003,1,+999,9","10,1",,SYN060AAXX  03031 57328 41958 00702 10173 20123 40199 52003 71000;,
11-03T06:00:00,4,31.2,107.5,344.0,"DA XIAN, CH",FM-12,99999,V020,"999,9,C,0000,1","22000,1,9,N","015000,1,N,1","+0223,1","+0129,1","10164,1","06,0000,9,1",,,,,"02,99,1,02,1,00,1,99999,9,04,1,00,1",,"999,N,+0117,1","99999,9,09762,1","7,1,031,1,+999,9",,,SYN076AAXX  03061 57328 32965 20000 10223 20129 39762 40164 57031 82040 333 20117;,Q01  00002PRCP06
11-03T09:00:00,4,31.2,107.5,344.0,"DA XIAN, CH",FM-12,99999,V020,"999,9,C,0000,1","22000,1,9,N","020000,1,N,1","+0225,1","+0121,1","10150,1",,,,,,"04,99,1,02,1,00,1,99999,9,04,1,02,1",,,,"7,1,014,1,+999,9",,,SYN060AAXX  03091 57328 42970 40000 10225 20121 40150 57014 82042;,
11-03T12:00:00,4,31.2,107.5,344.0,"DA XIAN, CH",FM-12,99999,V020,"040,1,N,0010,1","22000,1,9,N","012000,1,N,1","+0171,1","+0142,1","10165,1","06,0000,9,1",,,,"00,1,+99999,9,99,9","00,99,1,00,1,00,1,99999,9,00,1,00,1",,,"99999,9,09759,1","2,1,011,1,+999,9",,,SYN060AAXX  03121 57328 32962 00401 10171 20142 39759 40165 52011;,Q01  00002PRCP06
11-03T15:00:00,4,31.2,107.5,344.0,"DA XIAN, CH",FM-12,99999,V020,"040,1,N,0020,1","99999,9,9,N","006000,1,N,1","+0151,1","+0137,1","10173,1",,,,,,"08,99,1,08,1,00,1,99999,9,07,1,99,9",,,,"2,1,010,1,+999,9","10,1",,SYN066AAXX  03151 57328 41956 80402 10151 20137 40173 52010 71000 8807/;,
11-03T18:00:00,4,31.2,107.5,344.0,"DA XIAN, CH",FM-12,99999,V020,"040,1,N,0020,1","22000,1,9,N","006000,1,N,1","+0141,1","+0130,1","99999,9","06,0000,9,1",,,,"00,1,+99999,9,99,9","00,99,1,00,1,00,1,99999,9,00,1,00,1",,"999,M,+0232,1","99999,9,09854,2","2,1,085,2,+999,9","10,1",,SYN076AAXX  03181 57328 31956 00402 10141 20130 39854 40259 52085 71000 333 10232;,Q01+098543APOSP Q02+102593APOSLPQ03+000852APC3  Q04  00002PRCP06
11-03T21:00:00,4,31.2,107.5,344.0,"DA XIAN, CH",FM-12,99999,V020,"999,9,C,0000,1","99999,9,9,N","006000,1,N,1","+0147,1","+0133,1","10153,1",,,,,,"07,99,1,07,1,00,1,99999,9,04,1,99,9",,,,"7,1,001,1,+999,9","10,1",,SYN066AAXX  03211 57328 41956 70000 10147 20133 40153 57001 71000 8704/;,
11-04T00:00:00,4,31.2,107.5,344.0,"DA XIAN, CH",FM-12,99999,V020,"110,1,N,0010,1","99999,9,9,N","004000,1,N,1","+0139,1","+0128,1","10171,1","06,0000,9,1",,,,,"08,99,1,00,1,00,1,99999,9,00,1,02,1",,,"99999,9,09766,1","2,1,013,1,+002,1","10,1",,SYN082AAXX  04001 57328 31940 81101 10139 20128 39766 40171 52013 71000 80002 333 05202;,Q01  00002PRCP06
11-04T03:00:00,4,31.2,107.5,344.0,"DA XIAN, CH",FM-12,99999,V020,"999,9,C,0000,1","99999,9,9,N","005000,1,N,1","+0172,1","+0139,1","10184,1",,,,,,"08,99,1,08,1,00,1,99999,9,07,1,99,9",,,,"2,1,013,1,+999,9","10,1",,SYN066AAXX  04031 57328 41950 80000 10172 20139 40184 52013 71000 8807/;,
11-04T06:00:00,4,31.2,107.5,344.0,"DA XIAN, CH",FM-12,99999,V020,"999,9,C,0000,1","99999,9,9,N","004000,1,N,1","+0199,1","+0141,1","10163,1","06,0000,9,1",,,,,"08,99,1,08,1,00,1,99999,9,07,1,99,9",,"999,N,+0133,1","99999,9,09760,1","7,1,019,1,+999,9","10,1",,SYN082AAXX  04061 57328 31940 80000 10199 20141 39760 40163 57019 71000 8807/ 333 20133;,Q01  00002PRCP06
11-04T09:00:00,4,31.2,107.5,344.0,"DA XIAN, CH",FM-12,99999,V020,"220,1,N,0020,1","22000,1,9,N","006000,1,N,1","+0207,1","+0147,1","10163,1",,,,,"00,1,+99999,9,99,9","00,99,1,00,1,00,1,99999,9,00,1,00,1",,,,"2,1,001,1,+999,9","10,1",,SYN060AAXX  04091 57328 41956 02202 10207 20147 40163 52001 71000;,
11-04T12:00:00,4,31.2,107.5,344.0,"DA XIAN, CH",FM-12,99999,V020,"999,9,C,0000,1","99999,9,9,N","005000,1,N,1","+0173,1","+0153,1","10196,1","06,0000,9,1",,,,,"08,99,1,08,1,00,1,99999,9,07,1,99,9",,,"99999,9,09790,1","2,1,029,1,+999,9","10,1",,SYN072AAXX  04121 57328 31950 80000 10173 20153 39790 40196 52029 71000 8807/;,Q01  00002PRCP06
11-04T15:00:00,4,31.2,107.5,344.0,"DA XIAN, CH",FM-12,99999,V020,"999,9,C,0000,1","99999,9,9,N","004000,1,N,1","+0153,1","+0144,1","10215,1",,,,,,"08,99,1,08,1,00,1,99999,9,07,1,99,9",,,,"2,1,019,1,+999,9","10,1",,SYN066AAXX  04151 57328 41940 80000 10153 20144 40215 52019 71000 8807/;,
11-04T18:00:00,4,31.2,107.5,344.0,"DA XIAN, CH",FM-12,99999,V020,"999,9,C,0000,1","99999,9,9,N","001500,1,N,1","+0142,1","+0137,1","10216,1","06,0000,9,1",,,,,"08,99,1,08,1,00,1,99999,9,07,1,99,9",,"999,M,+0215,1","99999,9,09811,1","2,1,002,1,+999,9","10,1",,SYN082AAXX  04181 57328 31915 80000 10142 20137 39811 40216 52002 71000 8807/ 333 10215;,Q01  00002PRCP06
11-04T21:00:00,4,31.2,107.5,344.0,"DA XIAN, CH",FM-12,99999,V020,"040,1,N,0020,1","99999,9,9,N","002000,1,N,1","+0143,1","+0139,1","10214,1",,,,,,"08,99,1,08,1,00,1,99999,9,07,1,99,9",,,,"7,1,001,1,+999,9","10,1",,SYN066AAXX  04211 57328 41920 80402 10143 20139 40214 57001 71000 8807/;,
11-05T00:00:00,4,31.2,107.5,344.0,"DA XIAN, CH",FM-12,99999,V020,"140,1,N,0030,1","99999,9,9,N","002000,1,N,1","+0151,1","+0141,1","10235,1","06,0000,9,1",,,,,"08,99,1,08,1,00,1,99999,9,02,1,99,9",,,"99999,9,09828,1","2,1,018,1,+006,1","10,1",,SYN082AAXX  05001 57328 31920 81403 10151 20141 39828 40235 52018 71000 8802/ 333 00601;,Q01  00002PRCP06
11-05T03:00:00,4,31.2,107.5,344.0,"DA XIAN, CH",FM-12,99999,V020,"999,9,C,0000,1","99999,9,9,N","003000,1,N,1","+0161,1","+0144,1","10244,1",,,,,,"08,99,1,08,1,00,1,99999,9,02,1,99,9",,,,"2,1,008,1,+999,9","10,1",,SYN066AAXX  05031 57328 41930 80000 10161 20144 40244 52008 71000 8802/;,
11-05T06:00:00,4,31.2,107.5,344.0,"DA XIAN, CH",FM-12,99999,V020,"999,9,C,0000,1","22000,1,9,N","006000,1,N,1","+0199,1","+0141,1","10209,1","06,0000,9,1",,,,,"01,99,1,01,1,01,1,01250,1,00,1,00,1",,"999,N,+0137,1","99999,9,09804,1","7,1,032,1,+999,9","10,1",,SYN082AAXX  05061 57328 31656 10000 10199 20141 39804 40209 57032 71000 81100 333 20137;,Q01  00002PRCP06
11-05T09:00:00,4,31.2,107.5,344.0,"DA XIAN, CH",FM-12,99999,V020,"220,1,N,0020,1","22000,1,9,N","011000,1,N,1","+0201,1","+0147,1","10198,1",,,,,"00,1,+99999,9,99,9","00,99,1,00,1,00,1,99999,9,00,1,00,1",,,,"7,1,010,1,+999,9",,,SYN054AAXX  05091 57328 42961 02202 10201 20147 40198 57010;,
11-05T12:00:00,4,31.2,107.5,344.0,"DA XIAN, CH",FM-12,99999,V020,"999,9,C,0000,1","22000,1,9,N","005000,1,N,1","+0172,1","+0150,1","10215,1","06,0000,9,1",,,,"00,1,+99999,9,99,9","00,99,1,00,1,00,1,99999,9,00,1,00,1",,,"99999,9,09809,1","2,1,015,1,+999,9","10,1",,SYN066AAXX  05121 57328 31950 00000 10172 20150 39809 40215 52015 71000;,Q01  00002PRCP06
11-05T15:00:00,4,31.2,107.5,344.0,"DA XIAN, CH",FM-12,99999,V020,"040,1,N,0030,1","22000,1,9,N","003000,1,N,1","+0147,1","+0142,1","10217,1",,,,,"00,1,+99999,9,99,9","00,99,1,00,1,00,1,99999,9,00,1,00,1",,,,"2,1,001,1,+999,9","10,1",,SYN060AAXX  05151 57328 41930 00403 10147 20142 40217 52001 71000;,
11-05T18:00:00,4,31.2,107.5,344.0,"DA XIAN, CH",FM-12,99999,V020,"040,1,N,0010,1","22000,1,9,N","002000,1,N,1","+0141,1","+0137,1","10207,1","06,0000,9,1",,,,"00,1,+99999,9,99,9","00,99,1,00,1,00,1,99999,9,00,1,00,1",,"999,M,+0216,1","99999,9,09802,1","7,1,008,1,+999,9","10,1",,SYN076AAXX  05181 57328 31920 00401 10141 20137 39802 40207 57008 71000 333 10216;,Q01  00002PRCP06
11-05T21:00:00,4,31.2,107.5,344.0,"DA XIAN, CH",FM-12,99999,V020,"020,1,N,0030,1","00015,1,9,N","000000,1,N,1","+0136,1","+0136,1","10194,1",,,"4,1,03,1",,"09,1,+99999,9,99,9","09,99,1,09,1,99,9,99999,9,99,9,99,9",,,,"7,1,012,1,+999,9","47,1",,SYN060AAXX  05211 57328 41/00 90203 10136 20136 40194 57012 74740;,
11-06T00:00:00,4,31.2,107.5,344.0,"DA XIAN, CH",FM-12,99999,V020,"360,1,N,0020,1","00060,1,9,N","000700,1,N,1","+0138,1","+0136,1","10200,1","06,0000,9,1",,"4,1,06,1",,"09,1,+99999,9,99,9","09,99,1,09,1,99,9,99999,9,99,9,99,9",,,"99999,9,09794,1","2,1,004,1,+003,1","43,1",,SYN076AAXX  06001 57328 31/07 93602 10138 20136 39794 40200 52004 74340 333 05351;,Q01  00002PRCP06
11-06T03:00:00,4,31.2,107.5,344.0,"DA XIAN, CH",FM-12,99999,V020,"360,1,N,0020,1","99999,9,9,N","002000,1,N,1","+0150,1","+0138,1","10209,1",,,"4,1,03,1",,,"08,99,1,08,1,00,1,99999,9,07,1,99,9",,,,"2,1,007,1,+999,9","10,1",,SYN066AAXX  06031 57328 41920 83602 10150 20138 40209 52007 71040 8807/;,
11-06T06:00:00,4,31.2,107.5,344.0,"DA XIAN, CH",FM-12,99999,V020,"020,1,N,0010,1","22000,1,9,N","008000,1,N,1","+0201,1","+0151,1","10167,1","06,0000,9,1",,"4,1,06,1",,"00,1,+99999,9,99,9","00,99,1,00,1,00,1,99999,9,00,1,00,1",,"999,N,+0132,1","99999,9,09764,1","7,1,037,1,+999,9","10,1",,SYN076AAXX  06061 57328 31958 00201 10201 20151 39764 40167 57037 71040 333 20132;,Q01  00002PRCP06
11-06T09:00:00,4,31.2,107.5,344.0,"DA XIAN, CH",FM-12,99999,V020,"020,1,N,0010,1","22000,1,9,N","015000,1,N,1","+0215,1","+0149,1","10143,1",,,,,"00,1,+99999,9,99,9","00,99,1,00,1,00,1,99999,9,00,1,00,1",,,,"7,1,022,1,+999,9",,,SYN054AAXX  06091 57328 42965 00201 10215 20149 40143 57022;,
11-06T12:00:00,4,31.2,107.5,344.0,"DA XIAN, CH",FM-12,99999,V020,"040,1,N,0020,1","22000,1,9,N","008000,1,N,1","+0169,1","+0147,1","10158,1","06,0000,9,1",,,,"00,1,+99999,9,99,9","00,99,1,00,1,00,1,99999,9,00,1,00,1",,,"99999,9,09753,1","2,1,011,1,+999,9","10,1",,SYN066AAXX  06121 57328 31958 00402 10169 20147 39753 40158 52011 71000;,Q01  00002PRCP06
11-06T15:00:00,4,31.2,107.5,344.0,"DA XIAN, CH",FM-12,99999,V020,"040,1,N,0020,1","22000,1,9,N","006000,1,N,1","+0147,1","+0138,1","10170,1",,,,,"00,1,+99999,9,99,9","00,99,1,00,1,00,1,99999,9,00,1,00,1",,,,"2,1,011,1,+999,9","10,1",,SYN060AAXX  06151 57328 41956 00402 10147 20138 40170 52011 71000;,
11-06T18:00:00,4,31.2,107.5,344.0,"DA XIAN, CH",FM-12,99999,V020,"020,1,N,0020,1","22000,1,9,N","006000,1,N,1","+0139,1","+0132,1","10163,1","06,0000,9,1",,,,"00,1,+99999,9,99,9","00,99,1,00,1,00,1,99999,9,00,1,00,1",,"999,M,+0221,1","99999,9,09760,1","7,1,004,1,+999,9","10,1",,SYN076AAXX  06181 57328 31956 00202 10139 20132 39760 40163 57004 71000 333 10221;,Q01  00002PRCP06
11-06T21:00:00,4,31.2,107.5,344.0,"DA XIAN, CH",FM-12,99999,V020,"040,1,N,0020,1","22000,1,9,N","002000,1,N,1","+0128,1","+0123,1","10162,1",,,,,"00,1,+99999,9,99,9","00,99,1,00,1,00,1,99999,9,00,1,00,1",,,,"7,1,001,1,+999,9","10,1",,SYN060AAXX  06211 57328 41920 00402 10128 20123 40162 57001 71000;,
11-07T00:00:00,4,31.2,107.5,344.0,"DA XIAN, CH",FM-12,99999,V020,"040,1,N,0040,1","22000,1,9,N","005000,1,N,1","+0125,1","+0118,1","10176,1","06,0000,9,1",,,,"00,1,+99999,9,99,9","00,99,1,00,1,00,1,99999,9,00,1,00,1",,,"99999,9,09770,1","2,1,011,1,+002,1","10,1",,SYN076AAXX  07001 57328 31950 00404 10125 20118 39770 40176 52011 71000 333 05251;,Q01  00002PRCP06
11-07T03:00:00,4,31.2,107.5,344.0,"DA XIAN, CH",FM-12,99999,V020,"020,1,N,0030,1","22000,1,9,N","006000,1,N,1","+0177,1","+0128,1","10183,1",,,,,"00,1,+99999,9,99,9","00,99,1,00,1,00,1,99999,9,00,1,00,1",,,,"2,1,008,1,+999,9","10,1",,SYN060AAXX  07031 57328 41956 00203 10177 20128 40183 52008 71000;,
11-07T06:00:00,4,31.2,107.5,344.0,"DA XIAN, CH",FM-12,99999,V020,"320,1,N,0020,1","22000,1,9,N","013000,1,N,1","+0227,1","+0126,1","10148,1","06,0000,9,1",,,,"00,1,+99999,9,99,9","00,99,1,00,1,00,1,99999,9,00,1,00,1",,"999,N,+0119,1","99999,9,09748,1","7,1,030,1,+999,9",,,SYN070AAXX  07061 57328 32963 03202 10227 20126 39748 40148 57030 333 20119;,Q01  00002PRCP06
11-07T09:00:00,4,31.2,107.5,344.0,"DA XIAN, CH",FM-12,99999,V020,"220,1,N,0020,1","22000,1,9,N","015000,1,N,1","+0233,1","+0125,1","10136,1",,,,,"00,1,+99999,9,99,9","00,99,1,00,1,00,1,99999,9,00,1,00,1",,,,"7,1,012,1,+999,9",,,SYN054AAXX  07091 57328 42965 02202 10233 20125 40136 57012;,
11-07T12:00:00,4,31.2,107.5,344.0,"DA XIAN, CH",FM-12,99999,V020,"040,1,N,0030,1","22000,1,9,N","008000,1,N,1","+0175,1","+0144,1","10153,1","06,0000,9,1",,,,"00,1,+99999,9,99,9","00,99,1,00,1,00,1,99999,9,00,1,00,1",,,"99999,9,09748,1","2,1,012,1,+999,9","10,1",,SYN066AAXX  07121 57328 31958 00403 10175 20144 39748 40153 52012 71000;,Q01  00002PRCP06
11-07T15:00:00,4,31.2,107.5,344.0,"DA XIAN, CH",FM-12,99999,V020,"040,1,N,0030,1","22000,1,9,N","005000,1,N,1","+0155,1","+0141,1","10161,1",,,,,"00,1,+99999,9,99,9","00,99,1,00,1,00,1,99999,9,00,1,00,1",,,,"2,1,010,1,+999,9","10,1",,SYN060AAXX  07151 57328 41950 00403 10155 20141 40161 52010 71000;,
11-07T18:00:00,4,31.2,107.5,344.0,"DA XIAN, CH",FM-12,99999,V020,"070,1,N,0030,1","22000,1,9,N","004000,1,N,1","+0145,1","+0134,1","10157,1","06,0000,9,1",,,,"00,1,+99999,9,99,9","00,99,1,00,1,00,1,99999,9,00,1,00,1",,"999,M,+0245,1","99999,9,09757,1","7,1,001,1,+999,9","10,1",,SYN076AAXX  07181 57328 31940 00703 10145 20134 39757 40157 57001 71000 333 10245;,Q01  00002PRCP06
11-07T21:00:00,4,31.2,107.5,344.0,"DA XIAN, CH",FM-12,99999,V020,"020,1,N,0020,1","22000,1,9,N","004000,1,N,1","+0143,1","+0131,1","10146,1",,,,,"00,1,+99999,9,99,9","00,99,1,00,1,00,1,99999,9,00,1,00,1",,,,"7,1,011,1,+999,9","10,1",,SYN060AAXX  07211 57328 41940 00202 10143 20131 40146 57011 71000;,
11-08T00:00:00,4,31.2,107.5,344.0,"DA XIAN, CH",FM-12,99999,V020,"999,9,C,0000,1","02100,1,9,N","006000,1,N,1","+0145,1","+0127,1","10161,1","06,9999,9,9","24,0000,2,1",,,,"08,99,1,08,1,05,1,02250,1,99,9,99,9",,,"99999,9,09757,1","2,1,011,1,-010,1","60,1",,SYN094AAXX  08001 57328 11856 80000 10145 20127 39757 40161 52011 69901 76000 885// 333 05102 79999;,
11-08T03:00:00,4,31.2,107.5,344.0,"DA XIAN, CH",FM-12,99999,V020,"040,1,N,0020,1","02100,1,9,N","007000,1,N,1","+0154,1","+0142,1","10159,1",,,"6,1,03,1",,,"08,99,1,08,1,05,1,02250,1,99,9,99,9",,,,"7,1,003,1,+999,9","10,1",,SYN066AAXX  08031 57328 41857 80402 10154 20142 40159 57003 71060 885//;,
11-08T06:00:00,4,31.2,107.5,344.0,"DA XIAN, CH",FM-12,99999,V020,"360,1,N,0030,1","01500,1,9,N","007000,1,N,1","+0151,1","+0141,1","10137,1","06,0109,9,1",,"6,1,06,1",,,"08,99,1,08,1,09,1,01750,1,99,9,99,9",,"999,N,+0136,1","99999,9,09732,1","7,1,022,1,+999,9","91,1",,SYN088AAXX  08061 57328 11757 83603 10151 20141 39732 40137 57022 60111 79160 889// 333 20136;,
11-08T09:00:00,4,31.2,107.5,344.0,"DA XIAN, CH",FM-12,99999,V020,"040,1,N,0010,1","01500,1,9,N","008000,1,N,1","+0161,1","+0147,1","10126,1",,,"8,1,03,1",,,"08,99,1,08,1,09,1,01750,1,99,9,99,9",,,,"7,1,010,1,+999,9","10,1",,SYN066AAXX  08091 57328 41758 80401 10161 20147 40126 57010 71080 889//;,
11-08T12:00:00,4,31.2,107.5,344.0,"DA XIAN, CH",FM-12,99999,V020,"999,9,C,0000,1","02100,1,9,N","003000,1,N,1","+0157,1","+0148,1","10142,1","06,9999,9,9",,"8,1,06,1",,,"07,99,1,07,1,05,1,02250,1,99,9,99,9",,,"99999,9,09737,1","2,1,015,1,+999,9","10,1",,SYN078AAXX  08121 57328 11830 70000 10157 20148 39737 40142 52015 69911 71080 875//;,
11-08T15:00:00,4,31.2,107.5,344.0,"DA XIAN, CH",FM-12,99999,V020,"999,9,C,0000,1","02100,1,9,N","003000,1,N,1","+0144,1","+0139,1","10148,1",,,,,,"08,99,1,08,1,05,1,02250,1,99,9,99,9",,,,"2,1,006,1,+999,9","10,1",,SYN066AAXX  08151 57328 41830 80000 10144 20139 40148 52006 71000 885//;,
11-08T18:00:00,4,31.2,107.5,344.0,"DA XIAN, CH",FM-12,99999,V020,"040,1,N,0020,1","00015,1,9,N","000100,1,N,1","+0135,1","+0135,1","10139,1","06,0000,9,1",,"4,1,06,1",,"09,1,+99999,9,99,9","09,99,1,09,1,99,9,99999,9,99,9,99,9",,"999,M,+0163,1","99999,9,09733,1","7,1,010,1,+999,9","47,1",,SYN076AAXX  08181 57328 31/01 90402 10135 20135 39733 40139 57010 74740 333 10163;,Q01  00002PRCP06
11-08T21:00:00,4,31.2,107.5,344.0,"DA XIAN, CH",FM-12,99999,V020,"040,1,N,0010,1","99999,9,9,N","002000,1,N,1","+0139,1","+0135,1","10126,1","24,0107,9,1",,"4,1,03,1",,,"08,99,1,08,1,00,1,99999,9,02,1,99,9",,,,"7,1,011,1,+999,9","10,1",,SYN076AAXX  08211 57328 41920 80401 10139 20135 40126 57011 71040 8802/ 333 70107;,
11-09T00:00:00,4,31.2,107.5,344.0,"DA XIAN, CH",FM-12,99999,V020,"999,9,C,0000,1","99999,9,9,N","002000,1,N,1","+0141,1","+0134,1","10140,1","06,0000,9,1","24,0107,9,1","4,1,06,1",,,"08,99,1,08,1,00,1,99999,9,02,1,99,9",,,"99999,9,09735,1","2,1,013,1,-020,1","10,1",,SYN088AAXX  09001 57328 31920 80000 10141 20134 39735 40140 52013 71040 8802/ 333 05200 70107;,Q01  00002PRCP06
11-09T03:00:00,4,31.2,107.5,344.0,"DA XIAN, CH",FM-12,99999,V020,"040,1,N,0020,1","99999,9,9,N","008000,1,N,1","+0157,1","+0140,1","10151,1",,,,,,"08,99,1,08,1,00,1,99999,9,02,1,99,9",,,,"2,1,011,1,+999,9","10,1",,SYN066AAXX  09031 57328 41958 80402 10157 20140 40151 52011 71000 8802/;,
11-09T06:00:00,4,31.2,107.5,344.0,"DA XIAN, CH",FM-12,99999,V020,"999,9,C,0000,1","99999,9,9,N","012000,1,N,1","+0173,1","+0142,1","10127,1","06,0000,9,1",,,,,"08,99,1,08,1,00,1,99999,9,07,1,99,9",,"999,N,+0133,1","99999,9,09723,1","7,1,023,1,+999,9",,,SYN076AAXX  09061 57328 32962 80000 10173 20142 39723 40127 57023 8807/ 333 20133;,Q01  00002PRCP06
11-09T09:00:00,4,31.2,107.5,344.0,"DA XIAN, CH",FM-12,99999,V020,"360,1,N,0020,1","22000,1,9,N","015000,1,N,1","+0182,1","+0139,1","10125,1",,,,,,"04,99,1,01,1,01,1,01250,1,00,1,02,1",,,,"7,1,001,1,+999,9",,,SYN060AAXX  09091 57328 42665 43602 10182 20139 40125 57001 81102;,
11-09T12:00:00,4,31.2,107.5,344.0,"DA XIAN, CH",FM-12,99999,V020,"040,1,N,0020,1","99999,9,9,N","005000,1,N,1","+0151,1","+0141,1","10148,1","06,0000,9,1",,,,,"05,99,1,05,1,00,1,99999,9,04,1,00,1",,,"99999,9,09743,1","2,1,021,1,+999,9","10,1",,SYN072AAXX  09121 57328 31950 50402 10151 20141 39743 40148 52021 71000 85040;,Q01  00002PRCP06
11-09T15:00:00,4,31.2,107.5,344.0,"DA XIAN, CH",FM-12,99999,V020,"040,1,N,0020,1","99999,9,9,N","005000,1,N,1","+0145,1","+0138,1","10158,1",,,,,,"07,99,1,07,1,00,1,99999,9,04,1,99,9",,,,"2,1,010,1,+999,9","10,1",,SYN066AAXX  09151 57328 41950 70402 10145 20138 40158 52010 71000 8704/;,
11-09T18:00:00,4,31.2,107.5,344.0,"DA XIAN, CH",FM-12,99999,V020,"040,1,N,0030,1","99999,9,9,N","005000,1,N,1","+0145,1","+0138,1","10144,1","06,0000,9,1",,,,,"08,99,1,08,1,00,1,99999,9,07,1,99,9",,"999,M,+0183,1","99999,9,09740,1","7,1,013,1,+999,9","10,1",,SYN082AAXX  09181 57328 31950 80403 10145 20138 39740 40144 57013 71000 8807/ 333 10183;,Q01  00002PRCP06
11-09T21:00:00,4,31.2,107.5,344.0,"DA XIAN, CH",FM-12,99999,V020,"040,1,N,0030,1","99999,9,9,N","005000,1,N,1","+0147,1","+0129,1","10133,1",,,,,,"08,99,1,08,1,00,1,99999,9,07,1,99,9",,,,"7,1,009,1,+999,9","10,1",,SYN066AAXX  09211 57328 41950 80403 10147 20129 40133 57009 71000 8807/;,
11-10T00:00:00,4,31.2,107.5,344.0,"DA XIAN, CH",FM-12,99999,V020,"040,1,N,0010,1","02100,1,9,N","020000,1,N,1","+0157,1","+0115,1","10141,1","06,0000,9,1",,,,,"08,99,1,08,1,05,1,02250,1,99,9,99,9",,,"99999,9,09737,1","2,1,006,1,+000,1",,,SYN076AAXX  10001 57328 32870 80401 10157 20115 39737 40141 52006 885// 333 00002;,Q01  00002PRCP06
11-10T03:00:00,4,31.2,107.5,344.0,"DA XIAN, CH",FM-12,99999,V020,"040,1,N,0030,1","02100,1,9,N","008000,1,N,1","+0143,1","+0132,1","10171,1",,,"6,1,03,1",,,"08,99,1,08,1,05,1,02250,1,99,9,99,9",,,,"2,1,027,1,+999,9","60,1",,SYN066AAXX  10031 57328 41858 80403 10143 20132 40171 52027 76060 885//;,
11-10T06:00:00,4,31.2,107.5,344.0,"DA XIAN, CH",FM-12,99999,V020,"020,1,N,0030,1","00750,1,9,N","008000,1,N,1","+0131,1","+0124,1","10153,1","06,0089,9,1",,"6,1,06,1",,,"08,99,1,08,1,05,1,00800,1,99,9,99,9",,"999,N,+0129,1","99999,9,09746,1","7,1,018,1,+999,9","60,1",,SYN088AAXX  10061 57328 11558 80203 10131 20124 39746 40153 57018 60091 76060 885// 333 20129;,
11-10T09:00:00,4,31.2,107.5,344.0,"DA XIAN, CH",FM-12,99999,V020,"999,9,C,0000,1","02100,1,9,N","011000,1,N,1","+0139,1","+0128,1","10143,1",,,"6,1,03,1","6,1,03,1",,"08,99,1,08,1,05,1,02250,1,99,9,99,9",,,,"7,1,009,1,+999,9","60,1",,SYN066AAXX  10091 57328 41861 80000 10139 20128 40143 57009 76066 885//;,
11-10T12:00:00,4,31.2,107.5,344.0,"DA XIAN, CH",FM-12,99999,V020,"090,1,N,0020,1","02100,1,9,N","008000,1,N,1","+0132,1","+0130,1","10167,1","06,0030,9,1",,"6,1,06,1","6,1,06,1",,"08,99,1,08,1,05,1,02250,1,99,9,99,9",,,"99999,9,09761,1","2,1,024,1,+999,9","60,1",,SYN078AAXX  10121 57328 11858 80902 10132 20130 39761 40167 52024 60031 76066 885//;,
11-10T15:00:00,4,31.2,107.5,344.0,"DA XIAN, CH",FM-12,99999,V020,"999,9,C,0000,1","02100,1,9,N","008000,1,N,1","+0132,1","+0128,1","10180,1",,,"6,1,03,1","6,1,03,1",,"08,99,1,08,1,05,1,02250,1,99,9,99,9",,,,"2,1,011,1,+999,9","60,1",,SYN066AAXX  10151 57328 41858 80000 10132 20128 40180 52011 76066 885//;,
11-10T18:00:00,4,31.2,107.5,344.0,"DA XIAN, CH",FM-12,99999,V020,"070,1,N,0010,1","02100,1,9,N","006000,1,N,1","+0131,1","+0127,1","10179,1","06,0005,9,1",,"6,1,06,1",,,"08,99,1,08,1,05,1,02250,1,99,9,99,9",,"999,M,+0157,1","99999,9,09770,1","7,1,002,1,+999,9","60,1",,SYN088AAXX  10181 57328 11856 80701 10131 20127 39770 40179 57002 69951 76060 885// 333 10157;,
11-10T21:00:00,4,31.2,107.5,344.0,"DA XIAN, CH",FM-12,99999,V020,"040,1,N,0020,1","02100,1,9,N","008000,1,N,1","+0133,1","+0126,1","10173,1","24,0135,9,1",,"6,1,03,1","6,1,03,1",,"08,99,1,08,1,05,1,02250,1,99,9,99,9",,,,"7,1,005,1,+999,9","60,1",,SYN076AAXX  10211 57328 41858 80402 10133 20126 40173 57005 76066 885// 333 70134;,
11-11T00:00:00,4,31.2,107.5,344.0,"DA XIAN, CH",FM-12,99999,V020,"040,1,N,0030,1","02100,1,9,N","005000,1,N,1","+0133,1","+0126,1","10204,1","06,0003,9,1","24,0135,9,1","6,1,06,1","6,1,06,1",,"08,99,1,08,1,05,1,02250,1,99,9,99,9",,,"99999,9,09794,1","2,1,029,1,+060,1","60,1",,SYN094AAXX  11001 57328 11850 80403 10133 20126 39794 40204 52029 69931 76066 885// 333 00652 70135;,
11-11T03:00:00,4,31.2,107.5,344.0,"DA XIAN, CH",FM-12,99999,V020,"020,1,N,0030,1","02100,1,9,N","008000,1,N,1","+0139,1","+0128,1","10218,1",,,"6,1,03,1",,,"08,99,1,08,1,05,1,02250,1,99,9,99,9",,,,"2,1,014,1,+999,9","60,1",,SYN066AAXX  11031 57328 41858 80203 10139 20128 40218 52014 76060 885//;,
11-11T06:00:00,4,31.2,107.5,344.0,"DA XIAN, CH",FM-12,99999,V020,"040,1,N,0010,1","00420,1,9,N","006000,1,N,1","+0135,1","+0130,1","10212,1","06,0008,9,1",,"6,1,06,1",,,"08,99,1,08,1,05,1,00450,1,99,9,99,9",,"999,N,+0128,1","99999,9,09802,1","7,1,006,1,+999,9","60,1",,SYN088AAXX  11061 57328 11456 80401 10135 20130 39802 40212 57006 69981 76060 885// 333 20128;,
11-11T09:00:00,4,31.2,107.5,344.0,"DA XIAN, CH",FM-12,99999,V020,"040,1,N,0020,1","00420,1,9,N","015000,1,N,1","+0129,1","+0120,1","10218,1",,,"6,1,03,1","6,1,03,1",,"08,99,1,08,1,05,1,00450,1,99,9,99,9",,,,"2,1,006,1,+999,9","60,1",,SYN066AAXX  11091 57328 41465 80402 10129 20120 40218 52006 76066 885//;,
11-11T12:00:00,4,31.2,107.5,344.0,"DA XIAN, CH",FM-12,99999,V020,"040,1,N,0020,1","02100,1,9,N","020000,1,N,1","+0129,1","+0112,1","10231,1","06,0020,9,1",,"6,1,06,1",,,"08,99,1,08,1,05,1,02250,1,99,9,99,9",,,"99999,9,09820,1","2,1,012,1,+999,9","00,1",,SYN078AAXX  11121 57328 11870 80402 10129 20112 39820 40231 52012 60021 70060 885//;,
11-11T15:00:00,4,31.2,107.5,344.0,"DA XIAN, CH",FM-12,99999,V020,"040,1,N,0020,1","02100,1,9,N","012000,1,N,1","+0131,1","+0120,1","10243,1",,,,,,"08,99,1,08,1,05,1,02250,1,99,9,99,9",,,,"2,1,012,1,+999,9",,,SYN060AAXX  11151 57328 42862 80402 10131 20120 40243 52012 885//;,
11-11T18:00:00,4,31.2,107.5,344.0,"DA XIAN, CH",FM-12,99999,V020,"040,1,N,0040,1","02100,1,9,N","006000,1,N,1","+0124,1","+0113,1","10230,1","06,0010,9,1",,"6,1,06,1",,,"08,99,1,08,1,05,1,02250,1,99,9,99,9",,"999,M,+0144,1","99999,9,09819,1","7,1,013,1,+999,9","60,1",,SYN088AAXX  11181 57328 11856 80404 10124 20113 39819 40230 57013 60011 76060 885// 333 10144;,
11-11T21:00:00,4,31.2,107.5,344.0,"DA XIAN, CH",FM-12,99999,V020,"040,1,N,0030,1","02100,1,9,N","015000,1,N,1","+0121,1","+0106,1","10211,1","24,0048,9,1",,"6,1,03,1",,,"08,99,1,08,1,05,1,02250,1,99,9,99,9",,,,"7,1,019,1,+999,9","60,1",,SYN076AAXX  11211 57328 41865 80403 10121 20106 40211 57019 76060 885// 333 70048;,
11-12T00:00:00,4,31.2,107.5,344.0,"DA XIAN, CH",FM-12,99999,V020,"040,1,N,0030,1","02100,1,9,N","012000,1,N,1","+0118,1","+0109,1","10209,1","06,0010,9,1","24,0056,9,1","6,1,06,1",,,"08,99,1,08,1,05,1,02250,1,99,9,99,9",,,"99999,9,09798,1","7,1,002,1,+000,1","21,1",,SYN094AAXX  12001 57328 11862 80403 10118 20109 39798 40209 57002 60011 72160 885// 333 00052 70055;,
11-12T03:00:00,4,31.2,107.5,344.0,"DA XIAN, CH",FM-12,99999,V020,"040,1,N,0010,1","02100,1,9,N","008000,1,N,1","+0123,1","+0116,1","10210,1",,,"6,1,03,1",,,"08,99,1,08,1,05,1,02250,1,99,9,99,9",,,,"2,1,001,1,+999,9","21,1",,SYN066AAXX  12031 57328 41858 80401 10123 20116 40210 52001 72160 885//;,
11-12T06:00:00,4,31.2,107.5,344.0,"DA XIAN, CH",FM-12,99999,V020,"040,1,N,0020,1","99999,9,9,N","012000,1,N,1","+0131,1","+0120,1","10180,1","06,0020,9,1",,"6,1,06,1",,,"08,99,1,08,1,00,1,99999,9,02,1,99,9",,"999,N,+0116,1","99999,9,09771,1","7,1,028,1,+999,9","21,1",,SYN088AAXX  12061 57328 11962 80402 10131 20120 39771 40180 57028 60021 72160 8802/ 333 20116;,
11-12T09:00:00,4,31.2,107.5,344.0,"DA XIAN, CH",FM-12,99999,V020,"040,1,N,0020,1","99999,9,9,N","015000,1,N,1","+0143,1","+0129,1","10165,1",,,,,,"08,99,1,08,1,00,1,99999,9,02,1,99,9",,,,"7,1,014,1,+999,9",,,SYN060AAXX  12091 57328 42965 80402 10143 20129 40165 57014 8802/;,
11-12T12:00:00,4,31.2,107.5,344.0,"DA XIAN, CH",FM-12,99999,V020,"070,1,N,0020,1","99999,9,9,N","012000,1,N,1","+0139,1","+0121,1","10182,1","06,9999,9,9",,,,,"08,99,1,08,1,00,1,99999,9,02,1,99,9",,,"99999,9,09773,1","2,1,016,1,+999,9","60,1",,SYN078AAXX  12121 57328 11962 80702 10139 20121 39773 40182 52016 69901 76000 8802/;,
11-12T15:00:00,4,31.2,107.5,344.0,"DA XIAN, CH",FM-12,99999,V020,"040,1,N,0030,1","99999,9,9,N","015000,1,N,1","+0139,1","+0111,1","10192,1",,,"6,1,03,1",,,"08,99,1,08,1,00,1,99999,9,02,1,99,9",,,,"2,1,010,1,+999,9","00,1",,SYN066AAXX  12151 57328 41965 80403 10139 20111 40192 52010 70060 8802/;,
11-12T18:00:00,4,31.2,107.5,344.0,"DA XIAN, CH",FM-12,99999,V020,"020,1,N,0030,1","99999,9,9,N","015000,1,N,1","+0131,1","+0096,1","10189,1","06,9999,9,9",,"6,1,06,1",,,"08,99,1,08,1,00,1,99999,9,02,1,99,9",,"999,M,+0143,1","99999,9,09780,1","7,1,003,1,+999,9","00,1",,SYN088AAXX  12181 57328 11965 80203 10131 20096 39780 40189 57003 69901 70060 8802/ 333 10143;,
11-12T21:00:00,4,31.2,107.5,344.0,"DA XIAN, CH",FM-12,99999,V020,"040,1,N,0020,1","99999,9,9,N","012000,1,N,1","+0109,1","+0097,1","10184,1","24,0048,9,1",,"6,1,03,1",,,"08,99,1,08,1,00,1,99999,9,02,1,99,9",,,,"7,1,006,1,+999,9","21,1",,SYN076AAXX  12211 57328 41962 80402 10109 20097 40184 57006 72160 8802/ 333 70047;,
11-13T00:00:00,4,31.2,107.5,344.0,"DA XIAN, CH",FM-12,99999,V020,"020,1,N,0020,1","99999,9,9,N","012000,1,N,1","+0099,1","+0091,1","10199,1","06,0079,9,1","24,0097,9,1","6,1,06,1",,,"08,99,1,08,1,00,1,99999,9,02,1,99,9",,,"99999,9,09788,1","2,1,014,1,-010,1","60,1",,SYN094AAXX  13001 57328 11962 80202 10099 20091 39788 40199 52014 60081 76060 8802/ 333 05152 70097;,
11-13T03:00:00,4,31.2,107.5,344.0,"DA XIAN, CH",FM-12,99999,V020,"040,1,N,0030,1","02100,1,9,N","025000,1,N,1","+0107,1","+0079,1","10216,1",,,"6,1,03,1","6,1,03,1",,"08,99,1,08,1,05,1,02250,1,99,9,99,9",,,,"2,1,017,1,+999,9","21,1",,SYN066AAXX  13031 57328 41875 80403 10107 20079 40216 52017 72166 885//;,
11-13T06:00:00,4,31.2,107.5,344.0,"DA XIAN, CH",FM-12,99999,V020,"360,1,N,0030,1","99999,9,9,N","020000,1,N,1","+0115,1","+0081,1","10202,1","06,0010,9,1",,"6,1,06,1",,,"08,99,1,08,1,00,1,99999,9,07,1,99,9",,"999,N,+0096,1","99999,9,09791,1","7,1,014,1,+999,9","21,1",,SYN088AAXX  13061 57328 11970 83603 10115 20081 39791 40202 57014 60011 72160 8807/ 333 20096;,
11-13T09:00:00,4,31.2,107.5,344.0,"DA XIAN, CH",FM-12,99999,V020,"020,1,N,0030,1","99999,9,9,N","020000,1,N,1","+0118,1","+0084,1","10196,1",,,,,,"08,99,1,08,1,00,1,99999,9,07,1,99,9",,,,"7,1,007,1,+999,9",,,SYN060AAXX  13091 57328 42970 80203 10118 20084 40196 57007 8807/;,
11-13T12:00:00,4,31.2,107.5,344.0,"DA XIAN, CH",FM-12,99999,V020,"090,1,N,0010,1","99999,9,9,N","015000,1,N,1","+0117,1","+0085,1","10222,1","06,0000,2,1",,,,,"08,99,1,08,1,00,1,99999,9,07,1,99,9",,,"99999,9,09808,1","2,1,024,1,+999,9",,,SYN066AAXX  13121 57328 32965 80901 10117 20085 39808 40222 52024 8807/;,
11-13T15:00:00,4,31.2,107.5,344.0,"DA XIAN, CH",FM-12,99999,V020,"040,1,N,0020,1","99999,9,9,N","025000,1,N,1","+0117,1","+0076,1","10228,1",,,,,,"08,99,1,08,1,00,1,99999,9,07,1,99,9",,,,"2,1,007,1,+999,9",,,SYN060AAXX  13151 57328 42975 80402 10117 20076 40228 52007 8807/;,
11-13T18:00:00,4,31.2,107.5,344.0,"DA XIAN, CH",FM-12,99999,V020,"999,9,C,0000,1","99999,9,9,N","025000,1,N,1","+0117,1","+0067,1","10230,1","06,0000,9,1",,,,,"08,99,1,08,1,00,1,99999,9,07,1,99,9",,"999,M,+0132,1","99999,9,09817,1","2,1,002,1,+999,9",,,SYN076AAXX  13181 57328 32975 80000 10117 20067 39817 40230 52002 8807/ 333 10132;,Q01  00002PRCP06
11-13T21:00:00,4,31.2,107.5,344.0,"DA XIAN, CH",FM-12,99999,V020,"040,1,N,0020,1","02100,1,9,N","015000,1,N,1","+0106,1","+0066,1","10227,1","24,0071,9,1",,"6,1,03,1",,,"08,99,1,08,1,05,1,02250,1,99,9,99,9",,,,"7,1,003,1,+999,9","60,1",,SYN076AAXX  13211 57328 41865 80402 10106 20066 40227 57003 76060 885// 333 70071;,
11-14T00:00:00,4,31.2,107.5,344.0,"DA XIAN, CH",FM-12,99999,V020,"999,9,C,0000,1","02100,1,9,N","025000,1,N,1","+0095,1","+0083,1","10246,1","06,0020,9,1","24,0028,9,1","6,1,06,1",,,"08,99,1,08,1,05,1,02250,1,99,9,99,9",,,"99999,9,09831,1","2,1,017,1,+040,1","60,1",,SYN094AAXX  14001 57328 11875 80000 10095 20083 39831 40246 52017 60021 76060 885// 333 00400 70028;,
11-14T03:00:00,4,31.2,107.5,344.0,"DA XIAN, CH",FM-12,99999,V020,"999,9,C,0000,1","99999,9,9,N","012000,1,N,1","+0112,1","+0077,1","10264,1",,,"6,1,03,1",,,"08,99,1,08,1,00,1,99999,9,07,1,99,9",,,,"2,1,018,1,+999,9","60,1",,SYN066AAXX  14031 57328 41962 80000 10112 20077 40264 52018 76060 8807/;,
11-14T06:00:00,4,31.2,107.5,344.0,"DA XIAN, CH",FM-12,99999,V020,"220,1,N,0010,1","99999,9,9,N","015000,1,N,1","+0130,1","+0080,1","10242,1","06,9999,9,9",,"6,1,06,1",,,"08,99,1,08,1,00,1,99999,9,07,1,99,9",,"999,N,+0093,1","99999,9,09830,1","7,1,019,1,+999,9","00,1",,SYN088AAXX  14061 57328 11965 82201 10130 20080 39830 40242 57019 69921 70060 8807/ 333 20093;,
11-14T09:00:00,4,31.2,107.5,344.0,"DA XIAN, CH",FM-12,99999,V020,"220,1,N,0010,1","02100,1,9,N","015000,1,N,1","+0133,1","+0099,1","10246,1",,,,,,"08,99,1,08,1,05,1,02250,1,99,9,99,9",,,,"2,1,003,1,+999,9",,,SYN060AAXX  14091 57328 42865 82201 10133 20099 40246 52003 885//;,
11-14T12:00:00,4,31.2,107.5,344.0,"DA XIAN, CH",FM-12,99999,V020,"140,1,N,0020,1","99999,9,9,N","005000,1,N,1","+0115,1","+0095,1","10272,1","06,0000,9,1",,,,,"07,99,1,07,1,00,1,99999,9,04,1,99,9",,,"99999,9,09856,1","2,1,023,1,+999,9","10,1",,SYN072AAXX  14121 57328 31950 71402 10115 20095 39856 40272 52023 71000 8704/;,Q01  00002PRCP06
11-14T15:00:00,4,31.2,107.5,344.0,"DA XIAN, CH",FM-12,99999,V020,"040,1,N,0030,1","99999,9,9,N","003000,1,N,1","+0097,1","+0091,1","10291,1",,,,,,"08,99,1,08,1,00,1,99999,9,07,1,99,9",,,,"2,1,018,1,+999,9","10,1",,SYN066AAXX  14151 57328 41930 80403 10097 20091 40291 52018 71000 8807/;,
11-14T18:00:00,4,31.2,107.5,344.0,"DA XIAN, CH",FM-12,99999,V020,"040,1,N,0020,1","99999,9,9,N","003000,1,N,1","+0095,1","+0091,1","99999,9","06,0000,9,1",,,,,"08,99,1,08,1,00,1,99999,9,07,1,99,9",,"999,M,+0137,1","99999,9,09780,1","7,1,094,2,+999,9","10,1",,SYN082AAXX  14181 57328 31930 80402 10095 20091 39780 40192 57094 71000 8807/ 333 10137;,Q01+101923APOSLPQ02+000942APC3  Q03  00002PRCP06
11-14T21:00:00,4,31.2,107.5,344.0,"DA XIAN, CH",FM-12,99999,V020,"090,1,N,0010,1","99999,9,9,N","000100,1,N,1","+0089,1","+0085,1","10291,1","24,0018,9,1",,"4,1,03,1",,,"08,99,1,08,1,00,1,99999,9,07,1,99,9",,,,"7,1,005,1,+999,9","44,1",,SYN076AAXX  14211 57328 41901 80901 10089 20085 40291 57005 74440 8807/ 333 70017;,
11-15T00:00:00,4,31.2,107.5,344.0,"DA XIAN, CH",FM-12,99999,V020,"999,9,C,0000,1","99999,9,9,N","000100,1,N,1","+0089,1","+0085,1","10309,1","06,0000,9,1","24,0003,9,1","4,1,06,1",,,"08,99,1,08,1,00,1,99999,9,07,1,99,9",,,"99999,9,09891,2","2,1,016,1,+060,1","44,1",,SYN088AAXX  15001 57328 31901 80000 10089 20085 39891 40309 52016 74440 8807/ 333 00651 70002;,Q01+098913APOSP Q02  00002PRCP06
11-15T03:00:00,4,31.2,107.5,344.0,"DA XIAN, CH",FM-12,99999,V020,"020,1,N,0010,1","99999,9,9,N","001500,1,N,1","+0103,1","+0095,1","10320,1",,,"4,1,03,1",,,"08,99,1,08,1,00,1,99999,9,07,1,99,9",,,,"2,1,010,1,+999,9","10,1",,SYN066AAXX  15031 57328 41915 80201 10103 20095 40320 52010 71040 8807/;,
11-15T06:00:00,4,31.2,107.5,344.0,"DA XIAN, CH",FM-12,99999,V020,"999,9,C,0000,1","99999,9,9,N","004000,1,N,1","+0148,1","+0088,1","10280,1","06,0000,9,1",,"4,1,06,1",,,"07,99,1,07,1,00,1,99999,9,04,1,99,9",,"999,N,+0082,1","99999,9,09866,1","7,1,035,1,+999,9","10,1",,SYN082AAXX  15061 57328 31940 70000 10148 20088 39866 40280 57035 71040 8704/ 333 20082;,Q01  00002PRCP06
11-15T09:00:00,4,31.2,107.5,344.0,"DA XIAN, CH",FM-12,99999,V020,"999,9,C,0000,1","99999,9,9,N","008000,1,N,1","+0152,1","+0084,1","10272,1",,,,,,"07,99,1,04,1,00,1,99999,9,04,1,02,1",,,,"7,1,008,1,+999,9","10,1",,SYN066AAXX  15091 57328 41958 70000 10152 20084 40272 57008 71000 84042;,
11-15T12:00:00,4,31.2,107.5,344.0,"DA XIAN, CH",FM-12,99999,V020,"040,1,N,0010,1","99999,9,9,N","002000,1,N,1","+0118,1","+0095,1","10284,1","06,0000,9,1",,,,,"08,99,1,08,1,00,1,99999,9,07,1,99,9",,,"99999,9,09867,1","2,1,009,1,+999,9","10,1",,SYN072AAXX  15121 57328 31920 80401 10118 20095 39867 40284 52009 71000 8807/;,Q01  00002PRCP06
11-15T15:00:00,4,31.2,107.5,344.0,"DA XIAN, CH",FM-12,99999,V020,"040,1,N,0020,1","99999,9,9,N","002000,1,N,1","+0099,1","+0089,1","10295,1",,,,,,"08,99,1,08,1,00,1,99999,9,07,1,99,9",,,,"2,1,010,1,+999,9","10,1",,SYN066AAXX  15151 57328 41920 80402 10099 20089 40295 52010 71000 8807/;,
11-15T18:00:00,4,31.2,107.5,344.0,"DA XIAN, CH",FM-12,99999,V020,"040,1,N,0020,1","00015,1,9,N","000100,1,N,1","+0085,1","+0085,1","10292,1","06,0000,9,1",,"4,1,06,1",,"09,1,+99999,9,99,9","09,99,1,09,1,99,9,99999,9,99,9,99,9",,"999,M,+0157,1","99999,9,09877,1","4,1,000,1,+999,9","45,1",,SYN076AAXX  15181 57328 31/01 90402 10085 20085 39877 40292 54000 74540 333 10157;,Q01  00002PRCP06
11-15T21:00:00,4,31.2,107.5,344.0,"DA XIAN, CH",FM-12,99999,V020,"040,1,N,0020,1","99999,9,9,N","001500,1,N,1","+0078,1","+0076,1","10292,1",,,"4,1,03,1","4,1,03,1",,"08,99,1,08,1,00,1,99999,9,07,1,99,9",,,,"7,1,001,1,+999,9","28,1",,SYN066AAXX  15211 57328 41915 80402 10078 20076 40292 57001 72844 8807/;,
11-16T00:00:00,4,31.2,107.5,344.0,"DA XIAN, CH",FM-12,99999,V020,"040,1,N,0030,1","99999,9,9,N","001500,1,N,1","+0078,1","+0076,1","10296,1","06,0000,9,1",,"4,1,06,1",,,"08,99,1,08,1,00,1,99999,9,07,1,99,9",,,"99999,9,09878,1","2,1,002,1,+001,1","10,1",,SYN082AAXX  16001 57328 31915 80403 10078 20076 39878 40296 52002 71040 8807/ 333 05151;,Q01  00002PRCP06
11-16T03:00:00,4,31.2,107.5,344.0,"DA XIAN, CH",FM-12,99999,V020,"040,1,N,0040,1","99999,9,9,N","003000,1,N,1","+0103,1","+0081,1","10303,1",,,,,,"08,99,1,08,1,00,1,99999,9,07,1,99,9",,,,"2,1,007,1,+999,9","10,1",,SYN066AAXX  16031 57328 41930 80404 10103 20081 40303 52007 71000 8807/;,
11-16T06:00:00,4,31.2,107.5,344.0,"DA XIAN, CH",FM-12,99999,V020,"999,9,C,0000,1","99999,9,9,N","012000,1,N,1","+0131,1","+0096,1","10273,1","06,0000,9,1",,,,,"08,99,1,08,1,00,1,99999,9,07,1,99,9",,"999,N,+0074,1","99999,9,09857,1","7,1,028,1,+999,9",,,SYN076AAXX  16061 57328 32962 80000 10131 20096 39857 40273 57028 8807/ 333 20074;,Q01  00002PRCP06
11-16T09:00:00,4,31.2,107.5,344.0,"DA XIAN, CH",FM-12,99999,V020,"999,9,C,0000,1","99999,9,9,N","012000,1,N,1","+0144,1","+0105,1","10264,1",,,,,,"07,99,1,07,1,00,1,99999,9,04,1,99,9",,,,"7,1,008,1,+999,9",,,SYN060AAXX  16091 57328 42962 70000 10144 20105 40264 57008 8704/;,
11-16T12:00:00,4,31.2,107.5,344.0,"DA XIAN, CH",FM-12,99999,V020,"040,1,N,0010,1","99999,9,9,N","008000,1,N,1","+0106,1","+0096,1","10286,1","06,0000,9,1",,,,,"07,99,1,07,1,00,1,99999,9,04,1,99,9",,,"99999,9,09867,1","2,1,018,1,+999,9","10,1",,SYN072AAXX  16121 57328 31958 70401 10106 20096 39867 40286 52018 71000 8704/;,Q01  00002PRCP06
11-16T15:00:00,4,31.2,107.5,344.0,"DA XIAN, CH",FM-12,99999,V020,"040,1,N,0020,1","99999,9,9,N","005000,1,N,1","+0090,1","+0086,1","10289,1",,,,,,"08,99,1,08,1,00,1,99999,9,07,1,99,9",,,,"2,1,004,1,+999,9","10,1",,SYN066AAXX  16151 57328 41950 80402 10090 20086 40289 52004 71000 8807/;,
11-16T18:00:00,4,31.2,107.5,344.0,"DA XIAN, CH",FM-12,99999,V020,"070,1,N,0010,1","00015,1,9,N","000000,1,N,1","+0084,1","+0082,1","10290,1","06,0000,9,1",,"4,1,06,1",,"09,1,+99999,9,99,9","09,99,1,09,1,99,9,99999,9,99,9,99,9",,"999,M,+0147,1","99999,9,09873,1","2,1,002,1,+999,9","47,1",,SYN076AAXX  16181 57328 31/00 90701 10084 20082 39873 40290 52002 74740 333 10147;,Q01  00002PRCP06
11-16T21:00:00,4,31.2,107.5,344.0,"DA XIAN, CH",FM-12,99999,V020,"040,1,N,0010,1","00015,1,9,N","000000,1,N,1","+0185,1","+0185,1","10275,1",,,"4,1,03,1","4,1,03,1","09,1,+99999,9,99,9","09,99,1,09,1,99,9,99999,9,99,9,99,9",,,,"7,1,006,1,+999,9","45,1",,SYN060AAXX  16211 57328 41/00 90401 10185 20185 40275 57006 74544;,
11-17T00:00:00,4,31.2,107.5,344.0,"DA XIAN, CH",FM-12,99999,V020,"040,1,N,0010,1","99999,9,9,N","002000,1,N,1","+0092,1","+0086,1","10294,1","06,0000,9,1",,"4,1,06,1",,,"08,99,1,08,1,00,1,99999,9,07,1,99,9",,,"99999,9,09876,1","2,1,009,1,+000,1","10,1",,SYN082AAXX  17001 57328 31920 80401 10092 20086 39876 40294 52009 71040 8807/ 333 00001;,Q01  00002PRCP06
11-17T03:00:00,4,31.2,107.5,344.0,"DA XIAN, CH",FM-12,99999,V020,"999,9,C,0000,1","99999,9,9,N","003000,1,N,1","+0097,1","+0085,1","10298,1",,,,,,"08,99,1,08,1,00,1,99999,9,02,1,99,9",,,,"2,1,003,1,+999,9","10,1",,SYN066AAXX  17031 57328 41930 80000 10097 20085 40298 52003 71000 8802/;,
11-17T06:00:00,4,31.2,107.5,344.0,"DA XIAN, CH",FM-12,99999,V020,"070,1,N,0020,1","99999,9,9,N","005000,1,N,1","+0119,1","+0089,1","10272,1","06,0000,9,1",,,,,"08,99,1,08,1,00,1,99999,9,04,1,99,9",,"999,N,+0078,1","99999,9,09855,1","7,1,024,1,+999,9","10,1",,SYN082AAXX  17061 57328 31950 80702 10119 20089 39855 40272 57024 71000 8804/ 333 20078;,Q01  00002PRCP06
11-17T09:00:00,4,31.2,107.5,344.0,"DA XIAN, CH",FM-12,99999,V020,"999,9,C,0000,1","22000,1,9,N","005000,1,N,1","+0135,1","+0097,1","10251,1",,,,,"00,1,+99999,9,99,9","00,99,1,00,1,00,1,99999,9,00,1,00,1",,,,"7,1,012,1,+999,9","10,1",,SYN060AAXX  17091 57328 41950 00000 10135 20097 40251 57012 71000;,
11-17T12:00:00,4,31.2,107.5,344.0,"DA XIAN, CH",FM-12,99999,V020,"040,1,N,0020,1","22000,1,9,N","004000,1,N,1","+0103,1","+0095,1","10269,1","06,0000,9,1",,,,"00,1,+99999,9,99,9","00,99,1,00,1,00,1,99999,9,00,1,00,1",,,"99999,9,09852,1","2,1,009,1,+999,9","10,1",,SYN066AAXX  17121 57328 31940 00402 10103 20095 39852 40269 52009 71000;,Q01  00002PRCP06
11-17T15:00:00,4,31.2,107.5,344.0,"DA XIAN, CH",FM-12,99999,V020,"040,1,N,0030,1","22000,1,9,N","000100,1,N,1","+0085,1","+0081,1","10277,1",,,"4,1,03,1",,"00,1,+99999,9,99,9","00,99,1,00,1,00,1,99999,9,00,1,00,1",,,,"2,1,007,1,+999,9","46,1",,SYN060AAXX  17151 57328 41901 00403 10085 20081 40277 52007 74640;,
11-17T18:00:00,4,31.2,107.5,344.0,"DA XIAN, CH",FM-12,99999,V020,"040,1,N,0020,1","22000,1,9,N","000000,1,N,1","+0079,1","+0077,1","10272,1","06,0000,9,1",,"4,1,06,1",,"00,1,+99999,9,99,9","00,99,1,00,1,00,1,99999,9,00,1,00,1",,"999,M,+0137,1","99999,9,09855,1","7,1,004,1,+999,9","44,1",,SYN076AAXX  17181 57328 31900 00402 10079 20077 39855 40272 57004 74440 333 10137;,Q01  00002PRCP06
11-17T21:00:00,4,31.2,107.5,344.0,"DA XIAN, CH",FM-12,99999,V020,"040,1,N,0040,1","00015,1,9,N","000000,1,N,1","+0077,1","+0077,1","10259,1",,,"4,1,03,1","4,1,03,1","09,1,+99999,9,99,9","09,99,1,09,1,99,9,99999,9,99,9,99,9",,,,"7,1,012,1,+999,9","45,1",,SYN060AAXX  17211 57328 41/00 90404 10077 20077 40259 57012 74544;,
11-18T00:00:00,4,31.2,107.5,344.0,"DA XIAN, CH",FM-12,99999,V020,"040,1,N,0040,1","99999,9,9,N","001500,1,N,1","+0078,1","+0072,1","10269,1","06,0000,9,1",,"4,1,06,1",,,"08,99,1,08,1,00,1,99999,9,07,1,99,9",,,"99999,9,09851,1","2,1,008,1,+003,1","10,1",,SYN082AAXX  8001  57328 31915 80404 10078 20072 39851 40269 52008 71040 8807/ 333 05351;,Q01  00002PRCP06
11-18T03:00:00,4,31.2,107.5,344.0,"DA XIAN, CH",FM-12,99999,V020,"020,1,N,0020,1","99999,9,9,N","003000,1,N,1","+0087,1","+0074,1","10278,1",,,,,,"08,99,1,08,1,00,1,99999,9,07,1,99,9",,,,"2,1,008,1,+999,9","10,1",,SYN066AAXX  18031 57328 41930 80202 10087 20074 40278 52008 71000 8807/;,
11-18T06:00:00,4,31.2,107.5,344.0,"DA XIAN, CH",FM-12,99999,V020,"020,1,N,0020,1","22000,1,9,N","008000,1,N,1","+0129,1","+0090,1","10240,1","06,0000,9,1",,,,"00,1,+99999,9,99,9","00,99,1,00,1,00,1,99999,9,00,1,00,1",,"999,N,+0073,1","99999,9,09825,1","7,1,034,1,+999,9","10,1",,SYN076AAXX  18061 57328 31958 00202 10129 20090 39825 40240 57034 71000 333 20073;,Q01  00002PRCP06
11-18T09:00:00,4,31.2,107.5,344.0,"DA XIAN, CH",FM-12,99999,V020,"999,9,C,0000,1","22000,1,9,N","011000,1,N,1","+0161,1","+0097,1","10216,1",,,,,"00,1,+99999,9,99,9","00,99,1,00,1,00,1,99999,9,00,1,00,1",,,,"7,1,021,1,+999,9",,,SYN054AAXX  18091 57328 42961 00000 10161 20097 40216 57021;,
11-18T12:00:00,4,31.2,107.5,344.0,"DA XIAN, CH",FM-12,99999,V020,"040,1,N,0020,1","99999,9,9,N","011000,1,N,1","+0123,1","+0096,1","10223,1","06,0000,9,1",,,,,"08,99,1,08,1,00,1,99999,9,07,1,99,9",,,"99999,9,09808,1","2,1,004,1,+999,9",,,SYN066AAXX  18121 57328 32961 80402 10123 20096 39808 40223 52004 8807/;,Q01  00002PRCP06
11-18T15:00:00,4,31.2,107.5,344.0,"DA XIAN, CH",FM-12,99999,V020,"040,1,N,0010,1","99999,9,9,N","008000,1,N,1","+0119,1","+0104,1","10232,1",,,,,,"08,99,1,08,1,00,1,99999,9,07,1,99,9",,,,"2,1,009,1,+999,9","10,1",,SYN066AAXX  18151 57328 41958 80401 10119 20104 40232 52009 71000 8807/;,
11-18T18:00:00,4,31.2,107.5,344.0,"DA XIAN, CH",FM-12,99999,V020,"040,1,N,0020,1","99999,9,9,N","007000,1,N,1","+0118,1","+0095,1","10221,1","06,0000,9,1",,,,,"08,99,1,08,1,00,1,99999,9,07,1,99,9",,"999,M,+0165,1","99999,9,09809,1","7,1,008,1,+999,9","10,1",,SYN082AAXX  18181 57328 31957 80402 10118 20095 39809 40221 57008 71000 8807/ 333 10165;,Q01  00002PRCP06
11-18T21:00:00,4,31.2,107.5,344.0,"DA XIAN, CH",FM-12,99999,V020,"040,1,N,0020,1","99999,9,9,N","003000,1,N,1","+0115,1","+0091,1","10206,1",,,,,,"08,99,1,08,1,00,1,99999,9,07,1,99,9",,,,"7,1,012,1,+999,9","10,1",,SYN066AAXX  18211 57328 41930 80402 10115 20091 40206 57012 71000 8807/;,
11-19T00:00:00,4,31.2,107.5,344.0,"DA XIAN, CH",FM-12,99999,V020,"040,1,N,0020,1","99999,9,9,N","006000,1,N,1","+0115,1","+0091,1","10216,1","06,0000,9,1",,,,,"08,99,1,08,1,00,1,99999,9,07,1,99,9",,,"99999,9,09804,1","2,1,007,1,+005,1","10,1",,SYN082AAXX  19001 57328 31956 80402 10115 20091 39804 40216 52007 71000 8807/ 333 05504;,Q01  00002PRCP06
11-19T03:00:00,4,31.2,107.5,344.0,"DA XIAN, CH",FM-12,99999,V020,"999,9,C,0000,1","99999,9,9,N","005000,1,N,1","+0133,1","+0097,1","10223,1",,,,,,"08,99,1,08,1,00,1,99999,9,04,1,99,9",,,,"2,1,008,1,+999,9","10,1",,SYN066AAXX  19031 57328 41950 80000 10133 20097 40223 52008 71000 8804/;,
11-19T06:00:00,4,31.2,107.5,344.0,"DA XIAN, CH",FM-12,99999,V020,"999,9,C,0000,1","02100,1,9,N","007000,1,N,1","+0140,1","+0094,1","10201,1","06,9999,9,9",,,,,"08,99,1,08,1,05,1,02250,1,99,9,99,9",,"999,N,+0111,1","99999,9,09791,1","7,1,021,1,+999,9","60,1",,SYN088AAXX  19061 57328 11857 80000 10140 20094 39791 40201 57021 69901 76000 885// 333 20111;,
11-19T09:00:00,4,31.2,107.5,344.0,"DA XIAN, CH",FM-12,99999,V020,"090,1,N,0020,1","02100,1,9,N","006000,1,N,1","+0129,1","+0110,1","10208,1",,,"6,1,03,1","6,1,03,1",,"08,99,1,08,1,05,1,02250,1,99,9,99,9",,,,"2,1,006,1,+999,9","60,1",,SYN066AAXX  19091 57328 41856 80902 10129 20110 40208 52006 76066 885//;,
11-19T12:00:00,4,31.2,107.5,344.0,"DA XIAN, CH",FM-12,99999,V020,"999,9,C,0000,1","02100,1,9,N","005000,1,N,1","+0120,1","+0114,1","10231,1","06,0020,9,1",,"6,1,06,1","6,1,06,1",,"08,99,1,08,1,05,1,02250,1,99,9,99,9",,,"99999,9,09818,1","2,1,021,1,+999,9","60,1",,SYN078AAXX  19121 57328 11850 80000 10120 20114 39818 40231 52021 60021 76066 885//;,
11-19T15:00:00,4,31.2,107.5,344.0,"DA XIAN, CH",FM-12,99999,V020,"999,9,C,0000,1","02100,1,9,N","004000,1,N,1","+0116,1","+0112,1","10244,1",,,"6,1,03,1","6,1,03,1",,"08,99,1,08,1,05,1,02250,1,99,9,99,9",,,,"2,1,014,1,+999,9","60,1",,SYN066AAXX  19151 57328 41840 80000 10116 20112 40244 52014 76066 885//;,
11-19T18:00:00,4,31.2,107.5,344.0,"DA XIAN, CH",FM-12,99999,V020,"040,1,N,0030,1","02100,1,9,N","005000,1,N,1","+0114,1","+0108,1","10239,1","06,0020,9,1",,"6,1,06,1","6,1,06,1",,"08,99,1,08,1,05,1,02250,1,99,9,99,9",,"999,M,+0142,1","99999,9,09827,1","7,1,005,1,+999,9","60,1",,SYN088AAXX  19181 57328 11850 80403 10114 20108 39827 40239 57005 60021 76066 885// 333 10142;,
11-19T21:00:00,4,31.2,107.5,344.0,"DA XIAN, CH",FM-12,99999,V020,"999,9,C,0000,1","02100,1,9,N","003000,1,N,1","+0113,1","+0103,1","10248,1","24,0046,9,1",,"6,1,03,1","6,1,03,1",,"08,99,1,08,1,05,1,02250,1,99,9,99,9",,,,"2,1,008,1,+999,9","60,1",,SYN076AAXX  19211 57328 41830 80000 10113 20103 40248 52008 76066 885// 333 70045;,
11-20T00:00:00,4,31.2,107.5,344.0,"DA XIAN, CH",FM-12,99999,V020,"040,1,N,0020,1","02100,1,9,N","005000,1,N,1","+0111,1","+0103,1","10265,1","06,0020,9,1","24,0058,9,1","6,1,06,1","6,1,06,1",,"08,99,1,08,1,05,1,02250,1,99,9,99,9",,,"99999,9,09851,1","2,1,016,1,+050,1","60,1",,SYN094AAXX  20001 57328 11850 80402 10111 20103 39851 40265 52016 60021 76066 885// 333 00500 70058;,
11-20T03:00:00,4,31.2,107.5,344.0,"DA XIAN, CH",FM-12,99999,V020,"040,1,N,0030,1","02100,1,9,N","005000,1,N,1","+0122,1","+0113,1","10277,1",,,"6,1,03,1","6,1,03,1",,"08,99,1,08,1,05,1,02250,1,99,9,99,9",,,,"2,1,012,1,+999,9","60,1",,SYN066AAXX  20031 57328 41850 80403 10122 20113 40277 52012 76066 885//;,
11-20T06:00:00,4,31.2,107.5,344.0,"DA XIAN, CH",FM-12,99999,V020,"140,1,N,0020,1","02100,1,9,N","011000,1,N,1","+0139,1","+0105,1","10264,1","06,0010,9,1",,"6,1,06,1","6,1,06,1",,"08,99,1,08,1,05,1,02250,1,99,9,99,9",,"999,N,+0108,1","99999,9,09851,1","7,1,012,1,+999,9","60,1",,SYN088AAXX  20061 57328 11861 81402 10139 20105 39851 40264 57012 60011 76066 885// 333 20108;,
11-20T09:00:00,4,31.2,107.5,344.0,"DA XIAN, CH",FM-12,99999,V020,"999,9,C,0000,1","03600,1,9,N","020000,1,N,1","+0144,1","+0103,1","10256,1",,,"6,1,03,1",,,"07,99,1,02,1,01,1,01250,1,04,1,02,1",,,,"7,1,007,1,+999,9","00,1",,SYN066AAXX  20091 57328 41670 70000 10144 20103 40256 57007 70060 82142;,
11-20T12:00:00,4,31.2,107.5,344.0,"DA XIAN, CH",FM-12,99999,V020,"140,1,N,0010,1","22000,1,9,N","008000,1,N,1","+0116,1","+0101,1","10277,1","06,9999,9,9",,"6,1,06,1",,"00,1,+99999,9,99,9","00,99,1,00,1,00,1,99999,9,00,1,00,1",,,"99999,9,09862,1","2,1,018,1,+999,9","10,1",,SYN072AAXX  20121 57328 11958 01401 10116 20101 39862 40277 52018 69901 71060;,
11-20T15:00:00,4,31.2,107.5,344.0,"DA XIAN, CH",FM-12,99999,V020,"070,1,N,0010,1","22000,1,9,N","000100,1,N,1","+0097,1","+0093,1","10288,1",,,,,"00,1,+99999,9,99,9","00,99,1,00,1,00,1,99999,9,00,1,00,1",,,,"2,1,010,1,+999,9","46,1",,SYN060AAXX  20151 57328 41901 00701 10097 20093 40288 52010 74600;,
11-20T18:00:00,4,31.2,107.5,344.0,"DA XIAN, CH",FM-12,99999,V020,"040,1,N,0030,1","22000,1,9,N","000000,1,N,1","+0089,1","+0087,1","10283,1","06,0000,9,1",,"4,1,06,1",,"00,1,+99999,9,99,9","00,99,1,00,1,00,1,99999,9,00,1,00,1",,"999,M,+0144,1","99999,9,09868,1","7,1,004,1,+999,9","44,1",,SYN076AAXX  20181 57328 31900 00403 10089 20087 39868 40283 57004 74440 333 10144;,Q01  00002PRCP06
11-20T21:00:00,4,31.2,107.5,344.0,"DA XIAN, CH",FM-12,99999,V020,"040,1,N,0020,1","00015,1,9,N","000000,1,N,1","+0091,1","+0091,1","10279,1","24,0025,9,1",,"4,1,03,1","4,1,03,1","09,1,+99999,9,99,9","09,99,1,09,1,99,9,99999,9,99,9,99,9",,,,"7,1,004,1,+999,9","45,1",,SYN070AAXX  20211 57328 41/00 90402 10091 20091 40279 57004 74544 333 70026;,
11-21T00:00:00,4,31.2,107.5,344.0,"DA XIAN, CH",FM-12,99999,V020,"040,1,N,0030,1","99999,9,9,N","001500,1,N,1","+0089,1","+0085,1","10292,1","06,0000,9,1","24,0013,9,1","4,1,06,1",,,"08,99,1,08,1,00,1,99999,9,07,1,99,9",,,"99999,9,09875,1","2,1,011,1,+020,1","10,1",,SYN088AAXX  21001 57328 31915 80403 10089 20085 39875 40292 52011 71040 8807/ 333 00252 70013;,Q01  00002PRCP06
11-21T03:00:00,4,31.2,107.5,344.0,"DA XIAN, CH",FM-12,99999,V020,"020,1,N,0020,1","99999,9,9,N","002000,1,N,1","+0099,1","+0087,1","10307,1",,,,,,"08,99,1,08,1,00,1,99999,9,07,1,99,9",,,,"2,1,013,1,+999,9","10,1",,SYN066AAXX  21031 57328 41920 80202 10099 20087 40307 52013 71000 8807/;,
11-21T06:00:00,4,31.2,107.5,344.0,"DA XIAN, CH",FM-12,99999,V020,"020,1,N,0040,1","99999,9,9,N","007000,1,N,1","+0133,1","+0103,1","10267,1","06,0000,9,1",,,,,"07,99,1,07,1,00,1,99999,9,04,1,99,9",,"999,N,+0084,1","99999,9,09852,1","7,1,036,1,+999,9","10,1",,SYN082AAXX  21061 57328 31957 70204 10133 20103 39852 40267 57036 71000 8704/ 333 20084;,Q01  00002PRCP06
11-21T09:00:00,4,31.2,107.5,344.0,"DA XIAN, CH",FM-12,99999,V020,"999,9,C,0000,1","99999,9,9,N","012000,1,N,1","+0135,1","+0101,1","10248,1",,,,,,"07,99,1,00,1,00,1,99999,9,00,1,02,1",,,,"7,1,018,1,+999,9",,,SYN060AAXX  21091 57328 42962 70000 10135 20101 40248 57018 80002;,
11-21T12:00:00,4,31.2,107.5,344.0,"DA XIAN, CH",FM-12,99999,V020,"040,1,N,0020,1","22000,1,9,N","002000,1,N,1","+0107,1","+0099,1","10257,1","06,0000,9,1",,,,"00,1,+99999,9,99,9","00,99,1,00,1,00,1,99999,9,00,1,00,1",,,"99999,9,09840,1","2,1,006,1,+999,9","10,1",,SYN066AAXX  21121 57328 31920 00402 10107 20099 39840 40257 52006 71000;,Q01  00002PRCP06
11-21T15:00:00,4,31.2,107.5,344.0,"DA XIAN, CH",FM-12,99999,V020,"040,1,N,0030,1","22000,1,9,N","002000,1,N,1","+0093,1","+0089,1","10263,1",,,,,"00,1,+99999,9,99,9","00,99,1,00,1,00,1,99999,9,00,1,00,1",,,,"2,1,006,1,+999,9","10,1",,SYN060AAXX  21151 57328 41920 00403 10093 20089 40263 52006 71000;,
11-21T18:00:00,4,31.2,107.5,344.0,"DA XIAN, CH",FM-12,99999,V020,"040,1,N,0010,1","99999,9,9,N","002000,1,N,1","+0091,1","+0087,1","10259,1","06,0000,9,1",,,,,"08,99,1,08,1,00,1,99999,9,07,1,99,9",,"999,M,+0135,1","99999,9,09844,1","7,1,002,1,+999,9","10,1",,SYN082AAXX  21181 57328 31920 80401 10091 20087 39844 40259 57002 71000 8807/ 333 10135;,Q01  00002PRCP06
11-21T21:00:00,4,31.2,107.5,344.0,"DA XIAN, CH",FM-12,99999,V020,"999,9,C,0000,1","99999,9,9,N","003000,1,N,1","+0093,1","+0089,1","10251,1",,,,,,"08,99,1,08,1,00,1,99999,9,07,1,99,9",,,,"7,1,007,1,+999,9","10,1",,SYN066AAXX  21211 57328 41930 80000 10093 20089 40251 57007 71000 8807/;,
11-22T00:00:00,4,31.2,107.5,344.0,"DA XIAN, CH",FM-12,99999,V020,"999,9,C,0000,1","00030,1,9,N","000200,1,N,1","+0090,1","+0088,1","10266,1","06,0000,9,1",,"4,1,06,1",,"09,1,+99999,9,99,9","09,99,1,09,1,99,9,99999,9,99,9,99,9",,,"99999,9,09849,1","2,1,012,1,+003,1","47,1",,SYN076AAXX  22001 57328 31/02 90000 10090 20088 39849 40266 52012 74740 333 05300;,Q01  00002PRCP06
11-22T03:00:00,4,31.2,107.5,344.0,"DA XIAN, CH",FM-12,99999,V020,"320,1,N,0010,1","99999,9,9,N","000800,1,N,1","+0104,1","+0094,1","10271,1",,,"4,1,03,1","4,1,03,1",,"08,99,1,08,1,00,1,99999,9,07,1,99,9",,,,"2,1,005,1,+999,9","42,1",,SYN066AAXX  22031 57328 41908 83201 10104 20094 40271 52005 74244 8807/;,
11-22T06:00:00,4,31.2,107.5,344.0,"DA XIAN, CH",FM-12,99999,V020,"999,9,C,0000,1","22000,1,9,N","002000,1,N,1","+0167,1","+0091,1","10238,1","06,0000,9,1",,"4,1,06,1",,"00,1,+99999,9,99,9","00,99,1,00,1,00,1,99999,9,00,1,00,1",,"999,N,+0084,1","99999,9,09827,1","7,1,027,1,+999,9","10,1",,SYN076AAXX  22061 57328 31920 00000 10167 20091 39827 40238 57027 71040 333 20084;,Q01  00002PRCP06
11-22T09:00:00,4,31.2,107.5,344.0,"DA XIAN, CH",FM-12,99999,V020,"220,1,N,0020,1","99999,9,9,N","020000,1,N,1","+0181,1","+0079,1","10227,1",,,,,,"07,99,1,00,1,00,1,99999,9,00,1,02,1",,,,"7,1,010,1,+999,9",,,SYN060AAXX  22091 57328 42970 72202 10181 20079 40227 57010 80002;,
11-22T12:00:00,4,31.2,107.5,344.0,"DA XIAN, CH",FM-12,99999,V020,"040,1,N,0020,1","99999,9,9,N","011000,1,N,1","+0129,1","+0100,1","10249,1","06,0000,9,1",,,,,"07,99,1,07,1,00,1,99999,9,04,1,99,9",,,"99999,9,09834,1","2,1,017,1,+999,9",,,SYN066AAXX  22121 57328 32961 70402 10129 20100 39834 40249 52017 8704/;,Q01  00002PRCP06
11-22T15:00:00,4,31.2,107.5,344.0,"DA XIAN, CH",FM-12,99999,V020,"999,9,C,0000,1","99999,9,9,N","008000,1,N,1","+0124,1","+0101,1","10257,1",,,,,,"07,99,1,07,1,00,1,99999,9,07,1,99,9",,,,"2,1,009,1,+999,9","10,1",,SYN066AAXX  22151 57328 41958 70000 10124 20101 40257 52009 71000 8707/;,
11-22T18:00:00,4,31.2,107.5,344.0,"DA XIAN, CH",FM-12,99999,V020,"040,1,N,0030,1","99999,9,9,N","006000,1,N,1","+0115,1","+0100,1","10243,1","06,0000,9,1",,,,,"08,99,1,08,1,00,1,99999,9,07,1,99,9",,"999,M,+0187,1","99999,9,09833,1","7,1,010,1,+999,9","10,1",,SYN082AAXX  22181 57328 31956 80403 10115 20100 39833 40243 57010 71000 8807/ 333 10187;,Q01  00002PRCP06
11-22T21:00:00,4,31.2,107.5,344.0,"DA XIAN, CH",FM-12,99999,V020,"040,1,N,0040,1","99999,9,9,N","008000,1,N,1","+0113,1","+0093,1","10232,1",,,,,,"07,99,1,07,1,00,1,99999,9,04,1,99,9",,,,"7,1,010,1,+999,9","10,1",,SYN066AAXX  22211 57328 41958 70404 10113 20093 40232 57010 71000 8704/;,
11-23T00:00:00,4,31.2,107.5,344.0,"DA XIAN, CH",FM-12,99999,V020,"040,1,N,0030,1","02100,1,9,N","008000,1,N,1","+0115,1","+0091,1","10238,1","06,0000,9,1",,,,,"08,99,1,08,1,05,1,02250,1,99,9,99,9",,,"99999,9,09826,1","2,1,003,1,+002,1","10,1",,SYN082AAXX  23001 57328 31858 80403 10115 20091 39826 40238 52003 71000 885// 333 05203;,Q01  00002PRCP06
11-23T03:00:00,4,31.2,107.5,344.0,"DA XIAN, CH",FM-12,99999,V020,"360,1,N,0020,1","99999,9,9,N","008000,1,N,1","+0131,1","+0096,1","10249,1",,,"6,1,03,1",,,"08,99,1,08,1,00,1,99999,9,07,1,99,9",,,,"2,1,011,1,+999,9","10,1",,SYN066AAXX  23031 57328 41958 83602 10131 20096 40249 52011 71060 8807/;,
11-23T06:00:00,4,31.2,107.5,344.0,"DA XIAN, CH",FM-12,99999,V020,"999,9,C,0000,1","02100,1,9,N","007000,1,N,1","+0129,1","+0110,1","10238,1","06,0005,9,1",,"6,1,06,1",,,"08,99,1,08,1,05,1,02250,1,99,9,99,9",,"999,N,+0110,1","99999,9,09826,1","7,1,011,1,+999,9","60,1",,SYN088AAXX  23061 57328 11857 80000 10129 20110 39826 40238 57011 69961 76060 885// 333 20110;,
11-23T09:00:00,4,31.2,107.5,344.0,"DA XIAN, CH",FM-12,99999,V020,"999,9,C,0000,1","02100,1,9,N","008000,1,N,1","+0123,1","+0112,1","10230,1",,,"6,1,03,1","6,1,03,1",,"08,99,1,08,1,05,1,02250,1,99,9,99,9",,,,"7,1,009,1,+999,9","60,1",,SYN066AAXX  23091 57328 41858 80000 10123 20112 40230 57009 76066 885//;,
11-23T12:00:00,4,31.2,107.5,344.0,"DA XIAN, CH",FM-12,99999,V020,"040,1,N,0020,1","02100,1,9,N","005000,1,N,1","+0119,1","+0111,1","10243,1","06,0005,9,1",,"6,1,06,1",,,"08,99,1,08,1,05,1,02250,1,99,9,99,9",,,"99999,9,09830,1","2,1,013,1,+999,9","10,1",,SYN078AAXX  23121 57328 11850 80402 10119 20111 39830 40243 52013 69961 71060 885//;,
11-23T15:00:00,4,31.2,107.5,344.0,"DA XIAN, CH",FM-12,99999,V020,"020,1,N,0020,1","02100,1,9,N","004000,1,N,1","+0117,1","+0109,1","10245,1",,,,,,"08,99,1,08,1,05,1,02250,1,99,9,99,9",,,,"2,1,003,1,+999,9","10,1",,SYN066AAXX  23151 57328 41840 80202 10117 20109 40245 52003 71000 885//;,
11-23T18:00:00,4,31.2,107.5,344.0,"DA XIAN, CH",FM-12,99999,V020,"070,1,N,0020,1","02100,1,9,N","003000,1,N,1","+0117,1","+0109,1","10242,1","06,0000,9,1",,,,,"08,99,1,08,1,05,1,02250,1,99,9,99,9",,"999,M,+0132,1","99999,9,09830,1","7,1,003,1,+999,9","10,1",,SYN082AAXX  23181 57328 31830 80702 10117 20109 39830 40242 57003 71000 885// 333 10132;,Q01  00002PRCP06
11-23T21:00:00,4,31.2,107.5,344.0,"DA XIAN, CH",FM-12,99999,V020,"999,9,C,0000,1","02100,1,9,N","003000,1,N,1","+0115,1","+0111,1","10235,1","24,0013,9,1",,,,,"08,99,1,08,1,05,1,02250,1,99,9,99,9",,,,"7,1,008,1,+999,9","60,1",,SYN076AAXX  23211 57328 11830 80000 10115 20111 40235 57008 76000 885// 333 70012;,
11-24T00:00:00,4,31.2,107.5,344.0,"DA XIAN, CH",FM-12,99999,V020,"999,9,C,0000,1","02100,1,9,N","001500,1,N,1","+0117,1","+0111,1","10248,1","06,0003,9,1","24,0015,9,1","6,1,06,1",,,"08,99,1,08,1,05,1,02250,1,99,9,99,9",,,"99999,9,09835,1","2,1,013,1,+010,1","60,1",,SYN094AAXX  24001 57328 11815 80000 10117 20111 39835 40248 52013 69931 76060 885// 333 00100 70015;,
11-24T03:00:00,4,31.2,107.5,344.0,"DA XIAN, CH",FM-12,99999,V020,"040,1,N,0020,1","02100,1,9,N","001500,1,N,1","+0118,1","+0112,1","10268,1",,,"6,1,03,1","6,1,03,1",,"08,99,1,08,1,05,1,02250,1,99,9,99,9",,,,"2,1,019,1,+999,9","60,1",,SYN066AAXX  24031 57328 41815 80402 10118 20112 40268 52019 76066 885//;,
11-24T06:00:00,4,31.2,107.5,344.0,"DA XIAN, CH",FM-12,99999,V020,"040,1,N,0010,1","02100,1,9,N","002000,1,N,1","+0116,1","+0112,1","10250,1","06,0061,9,1",,"6,1,06,1","6,1,06,1",,"08,99,1,08,1,05,1,02250,1,99,9,99,9",,"999,N,+0113,1","99999,9,09836,1","7,1,018,1,+999,9","60,1",,SYN088AAXX  24061 57328 11820 80401 10116 20112 39836 40250 57018 60061 76066 885// 333 20113;,
11-24T09:00:00,4,31.2,107.5,344.0,"DA XIAN, CH",FM-12,99999,V020,"040,1,N,0020,1","02100,1,9,N","002000,1,N,1","+0115,1","+0113,1","10255,1",,,"6,1,03,1","6,1,03,1",,"08,99,1,08,1,05,1,02250,1,99,9,99,9",,,,"2,1,005,1,+999,9","60,1",,SYN066AAXX  24091 57328 41820 80402 10115 20113 40255 52005 76066 885//;,
11-24T12:00:00,4,31.2,107.5,344.0,"DA XIAN, CH",FM-12,99999,V020,"020,1,N,0070,1","02100,1,9,N","009000,1,N,1","+0104,1","+0090,1","10276,1","06,0089,9,1",,"6,1,06,1","6,1,06,1",,"08,99,1,08,1,05,1,02250,1,99,9,99,9",,,"99999,9,09860,1","2,1,019,1,+999,9","60,1",,SYN078AAXX  24121 57328 11859 80207 10104 20090 39860 40276 52019 60091 76066 885//;,
11-24T15:00:00,4,31.2,107.5,344.0,"DA XIAN, CH",FM-12,99999,V020,"040,1,N,0040,1","02100,1,9,N","009000,1,N,1","+0081,1","+0064,1","10305,1",,,"6,1,03,1","6,1,03,1",,"08,99,1,08,1,05,1,02250,1,99,9,99,9",,,,"2,1,027,1,+999,9","60,1",,SYN066AAXX  24151 57328 41859 80404 10081 20064 40305 52027 76066 885//;,
11-24T18:00:00,4,31.2,107.5,344.0,"DA XIAN, CH",FM-12,99999,V020,"020,1,N,0060,1","02100,1,9,N","008000,1,N,1","+0068,1","+0057,1","10314,1","06,0109,9,1",,"6,1,06,1","6,1,06,1",,"08,99,1,08,1,05,1,02250,1,99,9,99,9",,"999,M,+0119,1","99999,9,09894,1","2,1,007,1,+999,9","60,1",,SYN088AAXX  24181 57328 11858 80206 10068 20057 39894 40314 52007 60111 76066 885// 333 10119;,
11-24T21:00:00,4,31.2,107.5,344.0,"DA XIAN, CH",FM-12,99999,V020,"040,1,N,0040,1","02100,1,9,N","009000,1,N,1","+0059,1","+0040,1","10320,1","24,0312,9,1",,"6,1,03,1","6,1,03,1",,"08,99,1,08,1,05,1,02250,1,99,9,99,9",,,,"2,1,005,1,+999,9","60,1",,SYN076AAXX  24211 57328 41859 80404 10059 20040 40320 52005 76066 885// 333 70312;,
11-25T00:00:00,4,31.2,107.5,344.0,"DA XIAN, CH",FM-12,99999,V020,"020,1,N,0040,1","00420,1,9,N","020000,1,N,1","+0053,1","+0039,1","10335,1","06,0071,9,1","24,0340,9,1","6,1,06,1","6,1,06,1",,"08,99,1,08,1,05,1,00450,1,99,9,99,9",,,"99999,9,09912,1","2,1,013,1,+080,1","60,1",,SYN094AAXX  25001 57328 11470 80204 10053 20039 39912 40335 52013 60071 76066 885// 333 00856 70340;,
11-25T03:00:00,4,31.2,107.5,344.0,"DA XIAN, CH",FM-12,99999,V020,"020,1,N,0030,1","02100,1,9,N","030000,1,N,1","+0053,1","+0039,1","10359,1",,,"6,1,03,1","6,1,03,1",,"08,99,1,08,1,05,1,02250,1,99,9,99,9",,,,"2,1,022,1,+999,9","60,1",,SYN066AAXX  25031 57328 41880 80203 10053 20039 40359 52022 76066 885//;,
11-25T06:00:00,4,31.2,107.5,344.0,"DA XIAN, CH",FM-12,99999,V020,"020,1,N,0020,1","00420,1,9,N","030000,1,N,1","+0055,1","+0039,1","10350,1","06,0041,9,1",,"6,1,06,1","6,1,06,1",,"08,99,1,08,1,05,1,00450,1,99,9,99,9",,"999,N,+0050,1","99999,9,09924,1","7,1,010,1,+999,9","60,1",,SYN088AAXX  25061 57328 11480 80202 10055 20039 39924 40350 57010 60041 76066 885// 333 20050;,
11-25T09:00:00,4,31.2,107.5,344.0,"DA XIAN, CH",FM-12,99999,V020,"090,1,N,0020,1","02100,1,9,N","030000,1,N,1","+0059,1","+0043,1","10354,1",,,"6,1,03,1","6,1,03,1",,"08,99,1,08,1,05,1,02250,1,99,9,99,9",,,,"2,1,004,1,+999,9","60,1",,SYN066AAXX  25091 57328 41880 80902 10059 20043 40354 52004 76066 885//;,
11-25T12:00:00,4,31.2,107.5,344.0,"DA XIAN, CH",FM-12,99999,V020,"070,1,N,0020,1","02100,1,9,N","030000,1,N,1","+0063,1","+0035,1","10377,1","06,0010,9,1",,"6,1,06,1",,,"08,99,1,08,1,05,1,02250,1,99,9,99,9",,,"99999,9,09950,1","2,1,022,1,+999,9","00,1",,SYN078AAXX  25121 57328 11880 80702 10063 20035 39950 40377 52022 60011 70060 885//;,
11-25T15:00:00,4,31.2,107.5,344.0,"DA XIAN, CH",FM-12,99999,V020,"999,9,C,0000,1","02100,1,9,N","030000,1,N,1","+0065,1","+0032,1","10389,1",,,,,,"08,99,1,08,1,05,1,02250,1,99,9,99,9",,,,"2,1,011,1,+999,9",,,SYN060AAXX  25151 57328 42880 80000 10065 20032 40389 52011 885//;,
11-25T18:00:00,4,31.2,107.5,344.0,"DA XIAN, CH",FM-12,99999,V020,"040,1,N,0030,1","99999,9,9,N","025000,1,N,1","+0059,1","+0025,1","10387,1","06,0000,9,1",,,,,"07,99,1,07,1,00,1,99999,9,04,1,99,9",,"999,M,+0069,1","99999,9,09959,1","7,1,002,1,+999,9",,,SYN076AAXX  25181 57328 32975 70403 10059 20025 39959 40387 57002 8704/ 333 10069;,Q01  00002PRCP06
11-25T21:00:00,4,31.2,107.5,344.0,"DA XIAN, CH",FM-12,99999,V020,"040,1,N,0040,1","99999,9,9,N","025000,1,N,1","+0056,1","+0016,1","10384,1","24,0084,9,1",,,,,"08,99,1,08,1,00,1,99999,9,07,1,99,9",,,,"7,1,003,1,+999,9",,,SYN070AAXX  25211 57328 42975 80404 10056 20016 40384 57003 8807/ 333 70083;,
11-26T00:00:00,4,31.2,107.5,344.0,"DA XIAN, CH",FM-12,99999,V020,"999,9,C,0000,1","99999,9,9,N","028000,1,N,1","+0055,1","+0020,1","10384,1","06,0000,9,1","24,0051,9,1",,,,"08,99,1,08,1,00,1,99999,9,07,1,99,9",,,"99999,9,09956,1","4,1,000,1,+040,1",,,SYN082AAXX  26001 57328 32978 80000 10055 20020 39956 40384 54000 8807/ 333 00400 70052;,Q01  00002PRCP06
11-26T03:00:00,4,31.2,107.5,344.0,"DA XIAN, CH",FM-12,99999,V020,"040,1,N,0020,1","99999,9,9,N","030000,1,N,1","+0063,1","+0027,1","10395,1",,,,,,"08,99,1,08,1,00,1,99999,9,07,1,99,9",,,,"2,1,012,1,+999,9",,,SYN060AAXX  26031 57328 42980 80402 10063 20027 40395 52012 8807/;,
11-26T06:00:00,4,31.2,107.5,344.0,"DA XIAN, CH",FM-12,99999,V020,"070,1,N,0020,1","99999,9,9,N","025000,1,N,1","+0071,1","+0036,1","10365,1","06,0000,9,1",,,,,"08,99,1,08,1,00,1,99999,9,07,1,99,9",,"999,N,+0051,1","99999,9,09939,1","7,1,029,1,+999,9",,,SYN076AAXX  26061 57328 32975 80702 10071 20036 39939 40365 57029 8807/ 333 20051;,Q01  00002PRCP06
11-26T09:00:00,4,31.2,107.5,344.0,"DA XIAN, CH",FM-12,99999,V020,"999,9,C,0000,1","99999,9,9,N","020000,1,N,1","+0072,1","+0037,1","10345,1",,,,,,"08,99,1,08,1,00,1,99999,9,07,1,99,9",,,,"7,1,019,1,+999,9",,,SYN060AAXX  26091 57328 42970 80000 10072 20037 40345 57019 8807/;,
11-26T12:00:00,4,31.2,107.5,344.0,"DA XIAN, CH",FM-12,99999,V020,"999,9,C,0000,1","99999,9,9,N","012000,1,N,1","+0069,1","+0046,1","10349,1","06,0000,9,1",,,,,"08,99,1,08,1,00,1,99999,9,07,1,99,9",,,"99999,9,09923,1","2,1,003,1,+999,9",,,SYN066AAXX  26121 57328 32962 80000 10069 20046 39923 40349 52003 8807/;,Q01  00002PRCP06
11-26T15:00:00,4,31.2,107.5,344.0,"DA XIAN, CH",FM-12,99999,V020,"999,9,C,0000,1","99999,9,9,N","007000,1,N,1","+0067,1","+0049,1","10350,1",,,,,,"08,99,1,08,1,00,1,99999,9,07,1,99,9",,,,"2,1,002,1,+999,9","10,1",,SYN066AAXX  26151 57328 41957 80000 10067 20049 40350 52002 71000 8807/;,
11-26T18:00:00,4,31.2,107.5,344.0,"DA XIAN, CH",FM-12,99999,V020,"999,9,C,0000,1","99999,9,9,N","007000,1,N,1","+0068,1","+0050,1","10342,1","06,0000,9,1",,,,,"08,99,1,08,1,00,1,99999,9,07,1,99,9",,"999,M,+0072,1","99999,9,09918,1","7,1,007,1,+999,9","10,1",,SYN082AAXX  26181 57328 31957 80000 10068 20050 39918 40342 57007 71000 8807/ 333 10072;,Q01  00002PRCP06
11-26T21:00:00,4,31.2,107.5,344.0,"DA XIAN, CH",FM-12,99999,V020,"999,9,C,0000,1","99999,9,9,N","007000,1,N,1","+0068,1","+0052,1","10327,1",,,,,,"08,99,1,08,1,00,1,99999,9,07,1,99,9",,,,"7,1,015,1,+999,9","10,1",,SYN066AAXX  26211 57328 41957 80000 10068 20052 40327 57015 71000 8807/;,
11-27T00:00:00,4,31.2,107.5,344.0,"DA XIAN, CH",FM-12,99999,V020,"040,1,N,0020,1","99999,9,9,N","005000,1,N,1","+0069,1","+0051,1","10336,1","06,0000,9,1",,,,,"08,99,1,08,1,00,1,99999,9,07,1,99,9",,,"99999,9,09912,1","2,1,009,1,+004,1","10,1",,SYN082AAXX  27001 57328 31950 80402 10069 20051 39912 40336 52009 71000 8807/ 333 05401;,Q01  00002PRCP06
11-27T03:00:00,4,31.2,107.5,344.0,"DA XIAN, CH",FM-12,99999,V020,"999,9,C,0000,1","99999,9,9,N","005000,1,N,1","+0079,1","+0057,1","10339,1",,,,,,"08,99,1,08,1,00,1,99999,9,07,1,99,9",,,,"2,1,003,1,+999,9","10,1",,SYN066AAXX  27031 57328 41950 80000 10079 20057 40339 52003 71000 8807/;,
11-27T06:00:00,4,31.2,107.5,344.0,"DA XIAN, CH",FM-12,99999,V020,"140,1,N,0020,1","99999,9,9,N","004000,1,N,1","+0089,1","+0049,1","10303,1","06,0000,9,1",,,,,"08,99,1,08,1,00,1,99999,9,07,1,99,9",,"999,N,+0064,1","99999,9,09882,1","7,1,033,1,+999,9","10,1",,SYN082AAXX  27061 57328 31940 81402 10089 20049 39882 40303 57033 71000 8807/ 333 20064;,Q01  00002PRCP06
11-27T09:00:00,4,31.2,107.5,344.0,"DA XIAN, CH",FM-12,99999,V020,"999,9,C,0000,1","99999,9,9,N","006000,1,N,1","+0097,1","+0063,1","10286,1",,,,,,"07,99,1,07,1,00,1,99999,9,04,1,99,9",,,,"7,1,016,1,+999,9","10,1",,SYN066AAXX  27091 57328 41956 70000 10097 20063 40286 57016 71000 8704/;,
11-27T12:00:00,4,31.2,107.5,344.0,"DA XIAN, CH",FM-12,99999,V020,"999,9,C,0000,1","99999,9,9,N","003000,1,N,1","+0076,1","+0056,1","10302,1","06,0000,9,1",,,,,"07,99,1,07,1,00,1,99999,9,04,1,99,9",,,"99999,9,09880,1","2,1,014,1,+999,9","10,1",,SYN072AAXX  27121 57328 31930 70000 10076 20056 39880 40302 52014 71000 8704/;,Q01  00002PRCP06
11-27T15:00:00,4,31.2,107.5,344.0,"DA XIAN, CH",FM-12,99999,V020,"999,9,C,0000,1","22000,1,9,N","002000,1,N,1","+0061,1","+0057,1","10308,1",,,,,"00,1,+99999,9,99,9","00,99,1,00,1,00,1,99999,9,00,1,00,1",,,,"2,1,005,1,+999,9","10,1",,SYN060AAXX  27151 57328 41920 00000 10061 20057 40308 52005 71000;,
11-27T18:00:00,4,31.2,107.5,344.0,"DA XIAN, CH",FM-12,99999,V020,"180,1,N,0010,1","22000,1,9,N","002000,1,N,1","+0055,1","+0050,1","10302,1","06,0000,9,1",,,,"00,1,+99999,9,99,9","00,99,1,00,1,00,1,99999,9,00,1,00,1",,"999,M,+0098,1","99999,9,09880,1","7,1,005,1,+999,9","10,1",,SYN076AAXX  27181 57328 31920 01801 10055 20050 39880 40302 57005 71000 333 10098;,Q01  00002PRCP06
11-27T21:00:00,4,31.2,107.5,344.0,"DA XIAN, CH",FM-12,99999,V020,"040,1,N,0020,1","99999,9,9,N","001500,1,N,1","+0065,1","+0056,1","10296,1",,,,,,"08,99,1,08,1,00,1,99999,9,07,1,99,9",,,,"7,1,005,1,+999,9","10,1",,SYN066AAXX  27211 57328 41915 80402 10065 20056 40296 57005 71000 8807/;,
11-28T00:00:00,4,31.2,107.5,344.0,"DA XIAN, CH",FM-12,99999,V020,"040,1,N,0010,1","99999,9,9,N","001200,1,N,1","+0068,1","+0061,1","10304,1","06,0000,9,1",,,,,"08,99,1,08,1,00,1,99999,9,07,1,99,9","999,+0040,9",,"99999,9,09882,1","2,1,007,1,-030,1","10,1",,SYN088AAXX  28001 57328 31912 80401 10068 20061 39882 40304 52007 71000 8807/ 333 05300 30042;,Q01  00002PRCP06
11-28T03:00:00,4,31.2,107.5,344.0,"DA XIAN, CH",FM-12,99999,V020,"999,9,C,0000,1","99999,9,9,N","003000,1,N,1","+0089,1","+0081,1","10317,1",,,,,,"07,99,1,07,1,00,1,99999,9,04,1,99,9",,,,"2,1,013,1,+999,9","10,1",,SYN066AAXX  28031 57328 41930 70000 10089 20081 40317 52013 71000 8704/;,
11-28T06:00:00,4,31.2,107.5,344.0,"DA XIAN, CH",FM-12,99999,V020,"999,9,C,0000,1","99999,9,9,N","006000,1,N,1","+0119,1","+0065,1","10287,1","06,0000,9,1",,,,,"08,99,1,08,1,00,1,99999,9,07,1,99,9",,"999,N,+0050,1","99999,9,09868,1","7,1,027,1,+999,9","10,1",,SYN082AAXX  28061 57328 31956 80000 10119 20065 39868 40287 57027 71000 8807/ 333 20050;,Q01  00002PRCP06
11-28T09:00:00,4,31.2,107.5,344.0,"DA XIAN, CH",FM-12,99999,V020,"999,9,C,0000,1","99999,9,9,N","007000,1,N,1","+0115,1","+0063,1","10283,1",,,,,,"08,99,1,08,1,00,1,99999,9,07,1,99,9",,,,"7,1,004,1,+999,9","10,1",,SYN066AAXX  28091 57328 41957 80000 10115 20063 40283 57004 71000 8807/;,
11-28T12:00:00,4,31.2,107.5,344.0,"DA XIAN, CH",FM-12,99999,V020,"999,9,C,0000,1","99999,9,9,N","006000,1,N,1","+0107,1","+0070,1","10305,1","06,0000,9,1",,,,,"08,99,1,08,1,00,1,99999,9,07,1,99,9",,,"99999,9,09885,1","2,1,021,1,+999,9","10,1",,SYN072AAXX  28121 57328 31956 80000 10107 20070 39885 40305 52021 71000 8807/;,Q01  00002PRCP06
11-28T15:00:00,4,31.2,107.5,344.0,"DA XIAN, CH",FM-12,99999,V020,"999,9,C,0000,1","99999,9,9,N","006000,1,N,1","+0102,1","+0071,1","10311,1",,,,,,"08,99,1,08,1,00,1,99999,9,07,1,99,9",,,,"2,1,007,1,+999,9","10,1",,SYN066AAXX  28151 57328 41956 80000 10102 20071 40311 52007 71000 8807/;,
11-28T18:00:00,4,31.2,107.5,344.0,"DA XIAN, CH",FM-12,99999,V020,"220,1,N,0010,1","99999,9,9,N","006000,1,N,1","+0097,1","+0072,1","10306,1","06,0000,9,1",,,,,"08,99,1,08,1,00,1,99999,9,07,1,99,9",,"999,M,+0120,1","99999,9,09889,1","7,1,003,1,+999,9","10,1",,SYN082AAXX  28181 57328 31956 82201 10097 20072 39889 40306 57003 71000 8807/ 333 10120;,Q01  00002PRCP06
11-28T21:00:00,4,31.2,107.5,344.0,"DA XIAN, CH",FM-12,99999,V020,"999,9,C,0000,1","99999,9,9,N","005000,1,N,1","+0094,1","+0080,1","10304,1",,,,,,"08,99,1,08,1,00,1,99999,9,07,1,99,9",,,,"7,1,003,1,+999,9","10,1",,SYN066AAXX  28211 57328 41950 80000 10094 20080 40304 57003 71000 8807/;,
11-29T00:00:00,4,31.2,107.5,344.0,"DA XIAN, CH",FM-12,99999,V020,"040,1,N,0010,1","99999,9,9,N","003000,1,N,1","+0091,1","+0083,1","10314,1","06,0000,9,1",,,,,"08,99,1,08,1,00,1,99999,9,07,1,99,9",,,"99999,9,09895,1","2,1,009,1,+001,1","10,1",,SYN082AAXX  29001 57328 31930 80401 10091 20083 39895 40314 52009 71000 8807/ 333 00102;,Q01  00002PRCP06
11-29T03:00:00,4,31.2,107.5,344.0,"DA XIAN, CH",FM-12,99999,V020,"040,1,N,0020,1","99999,9,9,N","005000,1,N,1","+0115,1","+0074,1","10313,1",,,,,,"06,99,1,06,1,00,1,99999,9,04,1,00,1",,,,"2,1,001,1,+999,9","10,1",,SYN066AAXX  29031 57328 41950 60402 10115 20074 40313 52001 71000 86040;,
11-29T06:00:00,4,31.2,107.5,344.0,"DA XIAN, CH",FM-12,99999,V020,"020,1,N,0010,1","09000,1,9,N","015000,1,N,1","+0139,1","+0050,1","10274,1","06,0000,9,1",,,,,"07,99,1,03,1,01,1,01250,1,00,1,02,1",,"999,N,+0088,1","99999,9,09860,1","7,1,036,1,+999,9",,,SYN076AAXX  29061 57328 32665 70201 10139 20050 39860 40274 57036 83102 333 20088;,Q01  00002PRCP06
11-29T09:00:00,4,31.2,107.5,344.0,"DA XIAN, CH",FM-12,99999,V020,"040,1,N,0020,1","99999,9,9,N","020000,1,N,1","+0133,1","+0068,1","10255,1",,,,,,"07,99,1,07,1,00,1,99999,9,04,1,99,9",,,,"7,1,019,1,+999,9",,,SYN060AAXX  29091 57328 42970 70402 10133 20068 40255 57019 8704/;,
11-29T12:00:00,4,31.2,107.5,344.0,"DA XIAN, CH",FM-12,99999,V020,"040,1,N,0020,1","22000,1,9,N","006000,1,N,1","+0106,1","+0075,1","10260,1","06,0000,9,1",,,,,"02,99,1,02,1,00,1,99999,9,04,1,00,1",,,"99999,9,09843,1","2,1,002,1,+999,9","10,1",,SYN072AAXX  29121 57328 31956 20402 10106 20075 39843 40260 52002 71000 82040;,Q01  00002PRCP06
11-29T15:00:00,4,31.2,107.5,344.0,"DA XIAN, CH",FM-12,99999,V020,"090,1,N,0010,1","99999,9,9,N","003000,1,N,1","+0091,1","+0070,1","10271,1",,,,,,"07,99,1,07,1,00,1,99999,9,04,1,99,9",,,,"2,1,012,1,+999,9","10,1",,SYN066AAXX  29151 57328 41930 70901 10091 20070 40271 52012 71000 8704/;,
11-29T18:00:00,4,31.2,107.5,344.0,"DA XIAN, CH",FM-12,99999,V020,"040,1,N,0010,1","99999,9,9,N","003000,1,N,1","+0089,1","+0072,1","10266,1","06,0000,9,1",,,,,"08,99,1,08,1,00,1,99999,9,07,1,99,9",,"999,M,+0144,1","99999,9,09851,1","7,1,004,1,+999,9","10,1",,SYN082AAXX  29181 57328 31930 80401 10089 20072 39851 40266 57004 71000 8807/ 333 10144;,Q01  00002PRCP06
11-29T21:00:00,4,31.2,107.5,344.0,"DA XIAN, CH",FM-12,99999,V020,"999,9,C,0000,1","99999,9,9,N","005000,1,N,1","+0092,1","+0071,1","10253,1","24,0000,2,1",,"6,1,03,1",,,"08,99,1,08,1,00,1,99999,9,07,1,99,9",,,,"7,1,012,1,+999,9","60,1",,SYN076AAXX  29211 57328 41950 80000 10092 20071 40253 57012 76060 8807/ 333 79999;,
11-30T00:00:00,4,31.2,107.5,344.0,"DA XIAN, CH",FM-12,99999,V020,"140,1,N,0010,1","99999,9,9,N","006000,1,N,1","+0089,1","+0081,1","10260,1","06,0005,9,1","24,0005,9,1","6,1,06,1",,,"08,99,1,08,1,00,1,99999,9,02,1,99,9",,,"99999,9,09843,1","2,1,004,1,-050,1","60,1",,SYN094AAXX  30001 57328 11956 81401 10089 20081 39843 40260 52004 69951 76060 8802/ 333 05500 70005;,
11-30T03:00:00,4,31.2,107.5,344.0,"DA XIAN, CH",FM-12,99999,V020,"999,9,C,0000,1","02100,1,9,N","005000,1,N,1","+0094,1","+0084,1","10269,1",,,"6,1,03,1","6,1,03,1",,"08,99,1,08,1,05,1,02250,1,99,9,99,9",,,,"2,1,008,1,+999,9","60,1",,SYN066AAXX  30031 57328 41850 80000 10094 20084 40269 52008 76066 885//;,
11-30T06:00:00,4,31.2,107.5,344.0,"DA XIAN, CH",FM-12,99999,V020,"999,9,C,0000,1","02100,1,9,N","002000,1,N,1","+0098,1","+0092,1","10248,1","06,0071,9,1",,"6,1,06,1","6,1,06,1",,"08,99,1,08,1,05,1,02250,1,99,9,99,9",,"999,N,+0084,1","99999,9,09831,1","7,1,020,1,+999,9","60,1",,SYN088AAXX  30061 57328 11820 80000 10098 20092 39831 40248 57020 60071 76066 885// 333 20084;,
11-30T09:00:00,4,31.2,107.5,344.0,"DA XIAN, CH",FM-12,99999,V020,"040,1,N,0010,1","99999,9,9,N","002000,1,N,1","+0099,1","+0091,1","10243,1",,,"6,1,03,1","6,1,03,1",,"08,99,1,08,1,00,1,99999,9,02,1,99,9",,,,"7,1,004,1,+999,9","60,1",,SYN066AAXX  30091 57328 41920 80401 10099 20091 40243 57004 76066 8802/;,
11-30T12:00:00,4,31.2,107.5,344.0,"DA XIAN, CH",FM-12,99999,V020,"040,1,N,0020,1","02100,1,9,N","002000,1,N,1","+0097,1","+0089,1","10257,1","06,0010,9,1",,"6,1,06,1",,,"08,99,1,08,1,05,1,02250,1,99,9,99,9",,,"99999,9,09840,1","2,1,013,1,+999,9","60,1",,SYN078AAXX  30121 57328 11820 80402 10097 20089 39840 40257 52013 60011 76060 885//;,
11-30T15:00:00,4,31.2,107.5,344.0,"DA XIAN, CH",FM-12,99999,V020,"999,9,C,0000,1","02100,1,9,N","002000,1,N,1","+0095,1","+0087,1","10267,1",,,"6,1,03,1",,,"08,99,1,08,1,05,1,02250,1,99,9,99,9",,,,"2,1,009,1,+999,9","10,1",,SYN066AAXX  30151 57328 41820 80000 10095 20087 40267 52009 71060 885//;,
11-30T18:00:00,4,31.2,107.5,344.0,"DA XIAN, CH",FM-12,99999,V020,"999,9,C,0000,1","02100,1,9,N","002000,1,N,1","+0093,1","+0089,1","10257,1","06,9999,9,9",,"6,1,06,1",,,"08,99,1,08,1,05,1,02250,1,99,9,99,9",,"999,M,+0098,1","99999,9,09840,1","7,1,009,1,+999,9","10,1",,SYN088AAXX  30181 57328 11820 80000 10093 20089 39840 40257 57009 69901 71060 885// 333 10098;,
11-30T21:00:00,4,31.2,107.5,344.0,"DA XIAN, CH",FM-12,99999,V020,"999,9,C,0000,1","99999,9,9,N","002000,1,N,1","+0089,1","+0085,1","10250,1","24,0086,9,1",,,,,"08,99,1,08,1,00,1,99999,9,07,1,99,9",,,,"7,1,007,1,+999,9","10,1",,SYN076AAXX  30211 57328 41920 80000 10089 20085 40250 57007 71000 8807/ 333 70087;,
12-01T00:00:00,4,31.2,107.5,344.0,"DA XIAN, CH",FM-12,99999,V020,"999,9,C,0000,1","02100,1,9,N","003000,1,N,1","+0092,1","+0086,1","10261,1","06,0000,9,1","24,0081,9,1",,,,"08,99,1,08,1,05,1,02250,1,99,9,99,9",,,"99999,9,09844,1","2,1,011,1,+000,1","10,1",,SYN088AAXX  01001 57328 31830 80000 10092 20086 39844 40261 52011 71000 885// 333 00000 70082;,Q01  00002PRCP06
12-01T03:00:00,4,31.2,107.5,344.0,"DA XIAN, CH",FM-12,99999,V020,"040,1,N,0020,1","02100,1,9,N","003000,1,N,1","+0103,1","+0091,1","10268,1",,,,,,"08,99,1,08,1,05,1,02250,1,99,9,99,9",,,,"2,1,007,1,+999,9","10,1",,SYN066AAXX  01031 57328 41830 80402 10103 20091 40268 52007 71000 885//;,
12-01T06:00:00,4,31.2,107.5,344.0,"DA XIAN, CH",FM-12,99999,V020,"040,1,N,0030,1","99999,9,9,N","007000,1,N,1","+0120,1","+0099,1","10233,1","06,0000,9,1",,,,,"08,99,1,08,1,00,1,99999,9,07,1,99,9",,"999,N,+0084,1","99999,9,09819,1","7,1,032,1,+999,9","10,1",,SYN082AAXX  01061 57328 31957 80403 10120 20099 39819 40233 57032 71000 8807/ 333 20084;,Q01  00002PRCP06
12-01T09:00:00,4,31.2,107.5,344.0,"DA XIAN, CH",FM-12,99999,V020,"040,1,N,0010,1","99999,9,9,N","008000,1,N,1","+0116,1","+0097,1","10215,1",,,,,,"08,99,1,08,1,00,1,99999,9,07,1,99,9",,,,"7,1,018,1,+999,9","10,1",,SYN066AAXX  01091 57328 41958 80401 10116 20097 40215 57018 71000 8807/;,
12-01T12:00:00,4,31.2,107.5,344.0,"DA XIAN, CH",FM-12,99999,V020,"999,9,C,0000,1","02100,1,9,N","003000,1,N,1","+0113,1","+0093,1","10225,1","06,0000,9,1",,,,,"08,99,1,08,1,05,1,02250,1,99,9,99,9",,,"99999,9,09810,1","2,1,009,1,+999,9","10,1",,SYN072AAXX  01121 57328 31830 80000 10113 20093 39810 40225 52009 71000 885//;,Q01  00002PRCP06
12-01T15:00:00,4,31.2,107.5,344.0,"DA XIAN, CH",FM-12,99999,V020,"999,9,C,0000,1","02100,1,9,N","003000,1,N,1","+0109,1","+0099,1","10221,1",,,,,,"08,99,1,08,1,05,1,02250,1,99,9,99,9",,,,"7,1,003,1,+999,9","10,1",,SYN066AAXX  01151 57328 41830 80000 10109 20099 40221 57003 71000 885//;,
12-01T18:00:00,4,31.2,107.5,344.0,"DA XIAN, CH",FM-12,99999,V020,"999,9,C,0000,1","02100,1,9,N","004000,1,N,1","+0105,1","+0097,1","10217,1","06,0000,9,1",,,,,"08,99,1,08,1,05,1,02250,1,99,9,99,9",,"999,M,+0122,1","99999,9,09804,1","7,1,003,1,+999,9","10,1",,SYN082AAXX  01181 57328 31840 80000 10105 20097 39804 40217 57003 71000 885// 333 10122;,Q01  00002PRCP06
12-01T21:00:00,4,31.2,107.5,344.0,"DA XIAN, CH",FM-12,99999,V020,"220,1,N,0010,1","02100,1,9,N","002000,1,N,1","+0106,1","+0098,1","10220,1",,,,,,"08,99,1,08,1,05,1,02250,1,99,9,99,9",,,,"2,1,003,1,+999,9","10,1",,SYN066AAXX  01211 57328 41820 82201 10106 20098 40220 52003 71000 885//;,
12-02T00:00:00,4,31.2,107.5,344.0,"DA XIAN, CH",FM-12,99999,V020,"220,1,N,0010,1","02100,1,9,N","003000,1,N,1","+0109,1","+0097,1","10240,1","06,0000,9,1",,,,,"08,99,1,08,1,05,1,02250,1,99,9,99,9",,,"99999,9,09826,1","2,1,019,1,+002,1","10,1",,SYN082AAXX  02001 57328 31830 82201 10109 20097 39826 40240 52019 71000 885// 333 05202;,Q01  00002PRCP06
12-02T03:00:00,4,31.2,107.5,344.0,"DA XIAN, CH",FM-12,99999,V020,"999,9,C,0000,1","99999,9,9,N","003000,1,N,1","+0118,1","+0099,1","10250,1",,,,,,"08,99,1,08,1,00,1,99999,9,07,1,99,9",,,,"2,1,010,1,+999,9","10,1",,SYN066AAXX  02031 57328 41930 80000 10118 20099 40250 52010 71000 8807/;,
12-02T06:00:00,4,31.2,107.5,344.0,"DA XIAN, CH",FM-12,99999,V020,"999,9,C,0000,1","99999,9,9,N","003000,1,N,1","+0131,1","+0105,1","10216,1","06,0000,9,1",,,,,"08,99,1,08,1,00,1,99999,9,07,1,99,9",,"999,N,+0104,1","99999,9,09804,1","7,1,032,1,+999,9","10,1",,SYN082AAXX  02061 57328 31930 80000 10131 20105 39804 40216 57032 71000 8807/ 333 20104;,Q01  00002PRCP06
12-02T09:00:00,4,31.2,107.5,344.0,"DA XIAN, CH",FM-12,99999,V020,"999,9,C,0000,1","99999,9,9,N","003000,1,N,1","+0131,1","+0109,1","10206,1",,,,,,"08,99,1,08,1,00,1,99999,9,07,1,99,9",,,,"7,1,010,1,+999,9","10,1",,SYN066AAXX  02091 57328 41930 80000 10131 20109 40206 57010 71000 8807/;,
12-02T12:00:00,4,31.2,107.5,344.0,"DA XIAN, CH",FM-12,99999,V020,"999,9,C,0000,1","99999,9,9,N","003000,1,N,1","+0121,1","+0110,1","10228,1","06,0000,9,1",,,,,"08,99,1,08,1,00,1,99999,9,07,1,99,9",,,"99999,9,09815,1","2,1,021,1,+999,9","10,1",,SYN072AAXX  02121 57328 31930 80000 10121 20110 39815 40228 52021 71000 8807/;,Q01  00002PRCP06
12-02T15:00:00,4,31.2,107.5,344.0,"DA XIAN, CH",FM-12,99999,V020,"999,9,C,0000,1","99999,9,9,N","003000,1,N,1","+0116,1","+0106,1","10227,1",,,,,,"08,99,1,08,1,00,1,99999,9,07,1,99,9",,,,"7,1,001,1,+999,9","10,1",,SYN066AAXX  02151 57328 41930 80000 10116 20106 40227 57001 71000 8807/;,
12-02T18:00:00,4,31.2,107.5,344.0,"DA XIAN, CH",FM-12,99999,V020,"220,1,N,0020,1","99999,9,9,N","003000,1,N,1","+0111,1","+0107,1","10234,1","06,0030,9,1",,"6,1,06,1",,,"08,99,1,08,1,00,1,99999,9,02,1,99,9",,"999,M,+0131,1","99999,9,09822,1","2,1,008,1,+999,9","60,1",,SYN088AAXX  02181 57328 11930 82202 10111 20107 39822 40234 52008 60031 76060 8802/ 333 10131;,
12-02T21:00:00,4,31.2,107.5,344.0,"DA XIAN, CH",FM-12,99999,V020,"180,1,N,0020,1","02100,1,9,N","002000,1,N,1","+0109,1","+0105,1","10236,1","24,0102,9,1",,"6,1,03,1","6,1,03,1",,"08,99,1,08,1,05,1,02250,1,99,9,99,9",,,,"2,1,001,1,+999,9","60,1",,SYN076AAXX  02211 57328 41820 81802 10109 20105 40236 52001 76066 885// 333 70102;,
12-03T00:00:00,4,31.2,107.5,344.0,"DA XIAN, CH",FM-12,99999,V020,"999,9,C,0000,1","02100,1,9,N","001500,1,N,1","+0109,1","+0105,1","10255,1","06,0089,9,1","24,0124,9,1","6,1,06,1","6,1,06,1",,"08,99,1,08,1,05,1,02250,1,99,9,99,9",,,"99999,9,09841,1","2,1,018,1,+020,1","60,1",,SYN094AAXX  03001 57328 11815 80000 10109 20105 39841 40255 52018 60091 76066 885// 333 00200 70124;,
12-03T03:00:00,4,31.2,107.5,344.0,"DA XIAN, CH",FM-12,99999,V020,"999,9,C,0000,1","99999,9,9,N","002000,1,N,1","+0111,1","+0107,1","10276,1",,,"6,1,03,1","6,1,03,1",,"08,99,1,08,1,00,1,99999,9,02,1,99,9",,,,"2,1,020,1,+999,9","60,1",,SYN066AAXX  03031 57328 41920 80000 10111 20107 40276 52020 76066 8802/;,
12-03T06:00:00,4,31.2,107.5,344.0,"DA XIAN, CH",FM-12,99999,V020,"320,1,N,0020,1","99999,9,9,N","008000,1,N,1","+0126,1","+0111,1","10260,1","06,0020,9,1",,"6,1,06,1",,,"07,99,1,07,1,00,1,99999,9,04,1,99,9",,"999,N,+0104,1","99999,9,09846,1","7,1,015,1,+999,9","10,1",,SYN088AAXX  03061 57328 11958 73202 10126 20111 39846 40260 57015 60021 71060 8704/ 333 20104;,
12-03T09:00:00,4,31.2,107.5,344.0,"DA XIAN, CH",FM-12,99999,V020,"140,1,N,0020,1","22000,1,9,N","012000,1,N,1","+0137,1","+0105,1","10260,1",,,,,,"02,99,1,02,1,01,1,01250,1,00,1,00,1",,,,"2,1,001,1,+999,9",,,SYN060AAXX  03091 57328 42662 21402 10137 20105 40260 52001 82100;,
12-03T12:00:00,4,31.2,107.5,344.0,"DA XIAN, CH",FM-12,99999,V020,"140,1,N,0010,1","99999,9,9,N","003000,1,N,1","+0115,1","+0102,1","10281,1","06,0000,9,1",,,,,"07,99,1,07,1,00,1,99999,9,04,1,99,9",,,"99999,9,09865,1","2,1,018,1,+999,9","10,1",,SYN072AAXX  03121 57328 31930 71401 10115 20102 39865 40281 52018 71000 8704/;,Q01  00002PRCP06
12-03T15:00:00,4,31.2,107.5,344.0,"DA XIAN, CH",FM-12,99999,V020,"070,1,N,0010,1","99999,9,9,N","001500,1,N,1","+0093,1","+0089,1","10294,1",,,,,,"08,99,1,08,1,00,1,99999,9,07,1,99,9",,,,"2,1,011,1,+999,9","10,1",,SYN066AAXX  03151 57328 41915 80701 10093 20089 40294 52011 71000 8807/;,
12-03T18:00:00,4,31.2,107.5,344.0,"DA XIAN, CH",FM-12,99999,V020,"040,1,N,0020,1","00015,1,9,N","000000,1,N,1","+0091,1","+0089,1","10292,1","06,0000,9,1",,"4,1,06,1",,"09,1,+99999,9,99,9","09,99,1,09,1,99,9,99999,9,99,9,99,9",,"999,M,+0148,1","99999,9,09875,1","7,1,001,1,+999,9","45,1",,SYN076AAXX  03181 57328 31/00 90402 10091 20089 39875 40292 57001 74540 333 10148;,Q01  00002PRCP06
12-03T21:00:00,4,31.2,107.5,344.0,"DA XIAN, CH",FM-12,99999,V020,"070,1,N,0010,1","99999,9,9,N","001800,1,N,1","+0091,1","+0087,1","10291,1","24,0046,9,1",,"4,1,03,1",,,"08,99,1,08,1,00,1,99999,9,07,1,99,9",,,,"4,1,000,1,+999,9","10,1",,SYN076AAXX  03211 57328 41918 80701 10091 20087 40291 54000 71040 8807/ 333 70045;,
12-04T00:00:00,4,31.2,107.5,344.0,"DA XIAN, CH",FM-12,99999,V020,"040,1,N,0010,1","99999,9,9,N","003000,1,N,1","+0089,1","+0081,1","10291,1","06,0000,9,1","24,0023,9,1","4,1,06,1",,,"08,99,1,08,1,00,1,99999,9,07,1,99,9",,,"99999,9,09874,1","7,1,001,1,+030,1","10,1",,SYN088AAXX  04001 57328 31930 80401 10089 20081 39874 40291 57001 71040 8807/ 333 00352 70023;,Q01  00002PRCP06
12-04T03:00:00,4,31.2,107.5,344.0,"DA XIAN, CH",FM-12,99999,V020,"040,1,N,0020,1","99999,9,9,N","004000,1,N,1","+0093,1","+0083,1","10303,1",,,,,,"08,99,1,08,1,00,1,99999,9,07,1,99,9",,,,"2,1,010,1,+999,9","10,1",,SYN066AAXX  04031 57328 41940 80402 10093 20083 40303 52010 71000 8807/;,
12-04T06:00:00,4,31.2,107.5,344.0,"DA XIAN, CH",FM-12,99999,V020,"999,9,C,0000,1","22000,1,9,N","006000,1,N,1","+0135,1","+0086,1","10261,1","06,0000,9,1",,,,,"01,99,1,01,1,01,1,00800,1,00,1,00,1",,"999,N,+0082,1","99999,9,09846,1","7,1,038,1,+999,9","10,1",,SYN082AAXX  04061 57328 31556 10000 10135 20086 39846 40261 57038 71000 81100 333 20082;,Q01  00002PRCP06
12-04T09:00:00,4,31.2,107.5,344.0,"DA XIAN, CH",FM-12,99999,V020,"999,9,C,0000,1","22000,1,9,N","012000,1,N,1","+0134,1","+0076,1","10241,1",,,,,"00,1,+99999,9,99,9","00,99,1,00,1,00,1,99999,9,00,1,00,1",,,,"7,1,019,1,+999,9",,,SYN054AAXX  04091 57328 42962 00000 10134 20076 40241 57019;,
12-04T12:00:00,4,31.2,107.5,344.0,"DA XIAN, CH",FM-12,99999,V020,"040,1,N,0020,1","99999,9,9,N","005000,1,N,1","+0093,1","+0079,1","10241,1","06,0000,9,1",,,,,"08,99,1,08,1,00,1,99999,9,07,1,99,9",,,"99999,9,09824,1","7,1,003,1,+999,9","10,1",,SYN072AAXX  04121 57328 31950 80402 10093 20079 39824 40241 57003 71000 8807/;,Q01  00002PRCP06
12-04T15:00:00,4,31.2,107.5,344.0,"DA XIAN, CH",FM-12,99999,V020,"040,1,N,0030,1","22000,1,9,N","003000,1,N,1","+0075,1","+0071,1","10252,1",,,,,"00,1,+99999,9,99,9","00,99,1,00,1,00,1,99999,9,00,1,00,1",,,,"2,1,010,1,+999,9","10,1",,SYN060AAXX  04151 57328 41930 00403 10075 20071 40252 52010 71000;,
12-04T18:00:00,4,31.2,107.5,344.0,"DA XIAN, CH",FM-12,99999,V020,"040,1,N,0020,1","00015,1,9,N","000000,1,N,1","+0061,1","+0057,1","10236,1","06,0000,9,1",,"4,1,06,1",,"09,1,+99999,9,99,9","09,99,1,09,1,99,9,99999,9,99,9,99,9",,"999,M,+0144,1","99999,9,09820,1","7,1,014,1,+999,9","45,1",,SYN076AAXX  04181 57328 31/00 90402 10061 20057 39820 40236 57014 74540 333 10144;,Q01  00002PRCP06
12-04T21:00:00,4,31.2,107.5,344.0,"DA XIAN, CH",FM-12,99999,V020,"040,1,N,0020,1","00015,1,9,N","000000,1,N,1","+0057,1","+0057,1","10225,1",,,"4,1,03,1","4,1,03,1","09,1,+99999,9,99,9","09,99,1,09,1,99,9,99999,9,99,9,99,9",,,,"7,1,011,1,+999,9","45,1",,SYN060AAXX  04211 57328 41/00 90402 10057 20057 40225 57011 74544;,
12-05T00:00:00,4,31.2,107.5,344.0,"DA XIAN, CH",FM-12,99999,V020,"040,1,N,0020,1","22000,1,9,N","002000,1,N,1","+0057,1","+0055,1","10236,1","06,0000,9,1",,"4,1,06,1",,"00,1,+99999,9,99,9","00,99,1,00,1,00,1,99999,9,00,1,00,1",,,"99999,9,09817,1","2,1,008,1,+006,1","10,1",,SYN076AAXX  05001 57328 31920 00402 10057 20055 39817 40236 52008 71040 333 05653;,Q01  00002PRCP06
12-05T03:00:00,4,31.2,107.5,344.0,"DA XIAN, CH",FM-12,99999,V020,"040,1,N,0020,1","22000,1,9,N","008000,1,N,1","+0099,1","+0063,1","10244,1",,,,,"00,1,+99999,9,99,9","00,99,1,00,1,00,1,99999,9,00,1,00,1",,,,"2,1,009,1,+999,9","10,1",,SYN060AAXX  05031 57328 41958 00402 10099 20063 40244 52009 71000;,
12-05T06:00:00,4,31.2,107.5,344.0,"DA XIAN, CH",FM-12,99999,V020,"999,9,C,0000,1","22000,1,9,N","008000,1,N,1","+0145,1","+0073,1","10211,1","06,0000,9,1",,,,"00,1,+99999,9,99,9","00,99,1,00,1,00,1,99999,9,00,1,00,1",,"999,N,+0054,1","99999,9,09797,1","7,1,029,1,+999,9","10,1",,SYN076AAXX  05061 57328 31958 00000 10145 20073 39797 40211 57029 71000 333 20054;,Q01  00002PRCP06
12-05T09:00:00,4,31.2,107.5,344.0,"DA XIAN, CH",FM-12,99999,V020,"999,9,C,0000,1","99999,9,9,N","012000,1,N,1","+0153,1","+0085,1","10192,1",,,,,,"07,99,1,00,1,00,1,99999,9,00,1,02,1",,,,"7,1,018,1,+999,9",,,SYN060AAXX  05091 57328 42962 70000 10153 20085 40192 57018 80002;,
12-05T12:00:00,4,31.2,107.5,344.0,"DA XIAN, CH",FM-12,99999,V020,"999,9,C,0000,1","22000,1,9,N","007000,1,N,1","+0116,1","+0090,1","10220,1","06,0000,9,1",,,,,"03,99,1,00,1,00,1,99999,9,00,1,02,1",,,"99999,9,09803,1","2,1,024,1,+999,9","10,1",,SYN072AAXX  05121 57328 31957 30000 10116 20090 39803 40220 52024 71000 80002;,Q01  00002PRCP06
12-05T15:00:00,4,31.2,107.5,344.0,"DA XIAN, CH",FM-12,99999,V020,"999,9,C,0000,1","22000,1,9,N","004000,1,N,1","+0103,1","+0083,1","10249,1",,,,,,"02,99,1,00,1,00,1,99999,9,00,1,02,1",,,,"2,1,030,1,+999,9","10,1",,SYN066AAXX  05151 57328 41940 20000 10103 20083 40249 52030 71000 80002;,
12-05T18:00:00,4,31.2,107.5,344.0,"DA XIAN, CH",FM-12,99999,V020,"999,9,C,0000,1","99999,9,9,N","004000,1,N,1","+0101,1","+0087,1","10264,1","06,9999,9,9",,"6,1,06,1",,,"08,99,1,08,1,00,1,99999,9,02,1,99,9",,"999,M,+0164,1","99999,9,09851,1","2,1,018,1,+999,9","60,1",,SYN088AAXX  05181 57328 11940 80000 10101 20087 39851 40264 52018 69901 76060 8802/ 333 10164;,
12-05T21:00:00,4,31.2,107.5,344.0,"DA XIAN, CH",FM-12,99999,V020,"999,9,C,0000,1","99999,9,9,N","004000,1,N,1","+0099,1","+0087,1","10272,1","24,0000,2,1",,"6,1,03,1",,,"08,99,1,08,1,00,1,99999,9,02,1,99,9",,,,"2,1,008,1,+999,9","10,1",,SYN076AAXX  05211 57328 41940 80000 10099 20087 40272 52008 71060 8802/ 333 79999;,
12-06T00:00:00,4,31.2,107.5,344.0,"DA XIAN, CH",FM-12,99999,V020,"999,9,C,0000,1","99999,9,9,N","002000,1,N,1","+0092,1","+0086,1","10292,1","06,9999,9,9","24,0000,2,1","6,1,06,1",,,"06,99,1,06,1,00,1,99999,9,04,1,00,1",,,"99999,9,09875,1","2,1,016,1,+060,1","10,1",,SYN094AAXX  06001 57328 11920 60000 10092 20086 39875 40292 52016 69901 71060 86040 333 00604 79999;,
12-06T03:00:00,4,31.2,107.5,344.0,"DA XIAN, CH",FM-12,99999,V020,"140,1,N,0010,1","99999,9,9,N","005000,1,N,1","+0111,1","+0087,1","10323,1",,,,,,"07,99,1,07,1,00,1,99999,9,01,1,99,9",,,,"2,1,030,1,+999,9","10,1",,SYN066AAXX  06031 57328 41950 71401 10111 20087 40323 52030 71000 8701/;,
12-06T06:00:00,4,31.2,107.5,344.0,"DA XIAN, CH",FM-12,99999,V020,"140,1,N,0010,1","99999,9,9,N","008000,1,N,1","+0145,1","+0053,1","10300,1","06,0000,9,1",,,,,"07,99,1,07,1,00,1,99999,9,04,1,99,9",,"999,N,+0089,1","99999,9,09885,1","7,1,020,1,+999,9","10,1",,SYN082AAXX  06061 57328 31958 71401 10145 20053 39885 40300 57020 71000 8704/ 333 20089;,Q01  00002PRCP06
12-06T09:00:00,4,31.2,107.5,344.0,"DA XIAN, CH",FM-12,99999,V020,"140,1,N,0020,1","99999,9,9,N","012000,1,N,1","+0135,1","+0079,1","10305,1",,,,,,"07,99,1,07,1,00,1,99999,9,04,1,99,9",,,,"2,1,004,1,+999,9",,,SYN060AAXX  06091 57328 42962 71402 10135 20079 40305 52004 8704/;,
12-06T12:00:00,4,31.2,107.5,344.0,"DA XIAN, CH",FM-12,99999,V020,"220,1,N,0010,1","99999,9,9,N","002000,1,N,1","+0117,1","+0081,1","10337,1","06,0000,9,1",,,,,"07,99,1,07,1,00,1,99999,9,04,1,99,9",,,"99999,9,09918,1","2,1,029,1,+999,9","10,1",,SYN072AAXX  06121 57328 31920 72201 10117 20081 39918 40337 52029 71000 8704/;,Q01  00002PRCP06
12-06T15:00:00,4,31.2,107.5,344.0,"DA XIAN, CH",FM-12,99999,V020,"140,1,N,0010,1","99999,9,9,N","003000,1,N,1","+0084,1","+0069,1","10353,1",,,,,,"07,99,1,07,1,00,1,99999,9,04,1,99,9",,,,"2,1,014,1,+999,9","10,1",,SYN066AAXX  06151 57328 41930 71401 10084 20069 40353 52014 71000 8704/;,
12-06T18:00:00,4,31.2,107.5,344.0,"DA XIAN, CH",FM-12,99999,V020,"040,1,N,0020,1","00015,1,9,N","000000,1,N,1","+0063,1","+0059,1","10355,1","06,0000,9,1",,"4,1,06,1",,"09,1,+99999,9,99,9","09,99,1,09,1,99,9,99999,9,99,9,99,9",,"999,M,+0147,1","99999,9,09935,1","2,1,003,1,+999,9","45,1",,SYN076AAXX  06181 57328 31/00 90402 10063 20059 39935 40355 52003 74540 333 10147;,Q01  00002PRCP06
12-06T21:00:00,4,31.2,107.5,344.0,"DA XIAN, CH",FM-12,99999,V020,"040,1,N,0030,1","00015,1,9,N","000000,1,N,1","+0051,1","+0051,1","10348,1",,,"4,1,03,1","4,1,03,1","09,1,+99999,9,99,9","09,99,1,09,1,99,9,99999,9,99,9,99,9",,,,"7,1,008,1,+999,9","45,1",,SYN060AAXX  06211 57328 41/00 90403 10051 20051 40348 57008 74544;,
12-07T00:00:00,4,31.2,107.5,344.0,"DA XIAN, CH",FM-12,99999,V020,"040,1,N,0030,1","02100,1,9,N","001500,1,N,1","+0051,1","+0046,1","10355,1","06,0000,9,1",,"4,1,06,1","4,1,06,1",,"08,99,1,08,1,05,1,02250,1,99,9,99,9",,,"99999,9,09932,1","2,1,005,1,+006,1","28,1",,SYN082AAXX  07001 57328 31815 80403 10051 20046 39932 40355 52005 72844 885// 333 00654;,Q01  00002PRCP06
12-07T03:00:00,4,31.2,107.5,344.0,"DA XIAN, CH",FM-12,99999,V020,"360,1,N,0020,1","99999,9,9,N","002000,1,N,1","+0071,1","+0058,1","10365,1",,,,,,"08,99,1,08,1,00,1,99999,9,02,1,99,9",,,,"2,1,009,1,+999,9","10,1",,SYN066AAXX  07031 57328 41920 83602 10071 20058 40365 52009 71000 8802/;,
12-07T06:00:00,4,31.2,107.5,344.0,"DA XIAN, CH",FM-12,99999,V020,"220,1,N,0020,1","99999,9,9,N","003000,1,N,1","+0096,1","+0064,1","10331,1","06,0000,9,1",,,,,"07,99,1,07,1,00,1,99999,9,04,1,99,9",,"999,N,+0042,1","99999,9,09909,1","7,1,032,1,+999,9","10,1",,SYN082AAXX  07061 57328 31930 72202 10096 20064 39909 40331 57032 71000 8704/ 333 20042;,Q01  00002PRCP06
12-07T09:00:00,4,31.2,107.5,344.0,"DA XIAN, CH",FM-12,99999,V020,"220,1,N,0020,1","22000,1,9,N","007000,1,N,1","+0107,1","+0067,1","10308,1",,,,,"00,1,+99999,9,99,9","00,99,1,00,1,00,1,99999,9,00,1,00,1",,,,"7,1,022,1,+999,9","10,1",,SYN060AAXX  07091 57328 41957 02202 10107 20067 40308 57022 71000;,
12-07T12:00:00,4,31.2,107.5,344.0,"DA XIAN, CH",FM-12,99999,V020,"999,9,C,0000,1","22000,1,9,N","004000,1,N,1","+0080,1","+0065,1","10318,1","06,0000,9,1",,,,"00,1,+99999,9,99,9","00,99,1,00,1,00,1,99999,9,00,1,00,1",,,"99999,9,09894,1","2,1,007,1,+999,9","10,1",,SYN066AAXX  07121 57328 31940 00000 10080 20065 39894 40318 52007 71000;,Q01  00002PRCP06
12-07T15:00:00,4,31.2,107.5,344.0,"DA XIAN, CH",FM-12,99999,V020,"040,1,N,0020,1","00015,1,9,N","000000,1,N,1","+0057,1","+0057,1","10319,1",,,,,"09,1,+99999,9,99,9","09,99,1,09,1,99,9,99999,9,99,9,99,9",,,,"2,1,001,1,+999,9","47,1",,SYN060AAXX  07151 57328 41/00 90402 10057 20057 40319 52001 74700;,
12-07T18:00:00,4,31.2,107.5,344.0,"DA XIAN, CH",FM-12,99999,V020,"090,1,N,0020,1","00015,1,9,N","000000,1,N,1","+0053,1","+0053,1","10305,1","06,0000,9,1",,"4,1,06,1",,"09,1,+99999,9,99,9","09,99,1,09,1,99,9,99999,9,99,9,99,9",,"999,M,+0113,1","99999,9,09883,1","7,1,012,1,+999,9","45,1",,SYN076AAXX  07181 57328 31/00 90902 10053 20053 39883 40305 57012 74540 333 10113;,Q01  00002PRCP06
12-07T21:00:00,4,31.2,107.5,344.0,"DA XIAN, CH",FM-12,99999,V020,"040,1,N,0040,1","00030,1,9,N","000300,1,N,1","+0047,1","+0045,1","10291,1",,,"4,1,03,1","4,1,03,1","09,1,+99999,9,99,9","09,99,1,09,1,99,9,99999,9,99,9,99,9",,,,"7,1,013,1,+999,9","43,1",,SYN060AAXX  07211 57328 41/03 90404 10047 20045 40291 57013 74344;,
12-08T00:00:00,4,31.2,107.5,344.0,"DA XIAN, CH",FM-12,99999,V020,"040,1,N,0030,1","99999,9,9,N","001200,1,N,1","+0043,1","+0038,1","10296,1","06,0000,9,1",,"4,1,06,1","4,1,06,1",,"08,99,1,08,1,00,1,99999,9,07,1,99,9","999,+0040,9",,"99999,9,09872,1","2,1,002,1,-060,1","28,1",,SYN088AAXX  08001 57328 31912 80403 10043 20038 39872 40296 52002 72844 8807/ 333 05651 30046;,Q01  00002PRCP06
12-08T03:00:00,4,31.2,107.5,344.0,"DA XIAN, CH",FM-12,99999,V020,"999,9,C,0000,1","99999,9,9,N","002000,1,N,1","+0053,1","+0039,1","10298,1",,,,,,"08,99,1,08,1,00,1,99999,9,07,1,99,9",,,,"2,1,001,1,+999,9","10,1",,SYN066AAXX  08031 57328 41920 80000 10053 20039 40298 52001 71000 8807/;,
12-08T06:00:00,4,31.2,107.5,344.0,"DA XIAN, CH",FM-12,99999,V020,"320,1,N,0010,1","22000,1,9,N","004000,1,N,1","+0106,1","+0052,1","10243,1","06,0000,9,1",,,,"00,1,+99999,9,99,9","00,99,1,00,1,00,1,99999,9,00,1,00,1",,"999,N,+0040,1","99999,9,09824,1","7,1,049,1,+999,9","10,1",,SYN076AAXX  08061 57328 31940 03201 10106 20052 39824 40243 57049 71000 333 20040;,Q01  00002PRCP06
12-08T09:00:00,4,31.2,107.5,344.0,"DA XIAN, CH",FM-12,99999,V020,"999,9,C,0000,1","22000,1,9,N","004000,1,N,1","+0125,1","+0068,1","10221,1",,,,,"00,1,+99999,9,99,9","00,99,1,00,1,00,1,99999,9,00,1,00,1",,,,"7,1,020,1,+999,9","10,1",,SYN060AAXX  08091 57328 41940 00000 10125 20068 40221 57020 71000;,
12-08T12:00:00,4,31.2,107.5,344.0,"DA XIAN, CH",FM-12,99999,V020,"140,1,N,0010,1","22000,1,9,N","004000,1,N,1","+0082,1","+0069,1","10234,1","06,0000,9,1",,,,"00,1,+99999,9,99,9","00,99,1,00,1,00,1,99999,9,00,1,00,1",,,"99999,9,09813,1","2,1,009,1,+999,9","10,1",,SYN066AAXX  08121 57328 31940 01401 10082 20069 39813 40234 52009 71000;,Q01  00002PRCP06
12-08T15:00:00,4,31.2,107.5,344.0,"DA XIAN, CH",FM-12,99999,V020,"040,1,N,0020,1","22000,1,9,N","004000,1,N,1","+0062,1","+0055,1","10235,1",,,,,"00,1,+99999,9,99,9","00,99,1,00,1,00,1,99999,9,00,1,00,1",,,,"4,1,000,1,+999,9","10,1",,SYN060AAXX  08151 57328 41940 00402 10062 20055 40235 54000 71000;,
12-08T18:00:00,4,31.2,107.5,344.0,"DA XIAN, CH",FM-12,99999,V020,"090,1,N,0010,1","00015,1,9,N","000000,1,N,1","+0043,1","+0043,1","10226,1","06,0000,9,1",,"4,1,06,1",,"09,1,+99999,9,99,9","09,99,1,09,1,99,9,99999,9,99,9,99,9",,"999,M,+0130,1","99999,9,09807,1","7,1,006,1,+999,9","45,1",,SYN076AAXX  08181 57328 31/00 90901 10043 20043 39807 40226 57006 74540 333 10130;,Q01  00002PRCP06
12-08T21:00:00,4,31.2,107.5,344.0,"DA XIAN, CH",FM-12,99999,V020,"999,9,C,0000,1","00015,1,9,N","000000,1,N,1","+0043,1","+0041,1","10227,1",,,"4,1,03,1","4,1,03,1","09,1,+99999,9,99,9","09,99,1,09,1,99,9,99999,9,99,9,99,9",,,,"2,1,003,1,+999,9","45,1",,SYN060AAXX  08211 57328 41/00 90000 10043 20041 40227 52003 74544;,
12-09T00:00:00,4,31.2,107.5,344.0,"DA XIAN, CH",FM-12,99999,V020,"999,9,C,0000,1","00030,1,9,N","000300,1,N,1","+0044,1","+0042,1","10255,1","06,0000,9,1",,"4,1,06,1","4,1,06,1","09,1,+99999,9,99,9","09,99,1,09,1,99,9,99999,9,99,9,99,9","999,+0040,9",,"99999,9,09833,1","2,1,023,1,-040,1","47,1",,SYN082AAXX  09001 57328 31/03 90000 10044 20042 39833 40255 52023 74744 333 05400 30042;,Q01  00002PRCP06
12-09T03:00:00,4,31.2,107.5,344.0,"DA XIAN, CH",FM-12,99999,V020,"140,1,N,0020,1","99999,9,9,N","001500,1,N,1","+0071,1","+0053,1","10273,1",,,"4,1,03,1",,,"07,99,1,07,1,00,1,99999,9,04,1,99,9",,,,"2,1,018,1,+999,9","10,1",,SYN066AAXX  09031 57328 41915 71402 10071 20053 40273 52018 71040 8704/;,
12-09T06:00:00,4,31.2,107.5,344.0,"DA XIAN, CH",FM-12,99999,V020,"220,1,N,0010,1","99999,9,9,N","002000,1,N,1","+0105,1","+0087,1","10255,1","06,0000,9,1",,"4,1,06,1",,,"07,99,1,07,1,00,1,99999,9,04,1,00,1",,"999,N,+0040,1","99999,9,09835,1","7,1,016,1,+999,9","10,1",,SYN082AAXX  09061 57328 31920 72201 10105 20087 39835 40255 57016 71040 87040 333 20040;,Q01  00002PRCP06
12-09T09:00:00,4,31.2,107.5,344.0,"DA XIAN, CH",FM-12,99999,V020,"999,9,C,0000,1","99999,9,9,N","003000,1,N,1","+0114,1","+0047,1","10249,1",,,,,,"05,99,1,05,1,00,1,99999,9,04,1,00,1",,,,"7,1,005,1,+999,9","10,1",,SYN066AAXX  09091 57328 41930 50000 10114 20047 40249 57005 71000 85040;,
12-09T12:00:00,4,31.2,107.5,344.0,"DA XIAN, CH",FM-12,99999,V020,"220,1,N,0010,1","99999,9,9,N","002000,1,N,1","+0096,1","+0060,1","10280,1","06,0000,9,1",,,,,"08,99,1,08,1,00,1,99999,9,07,1,99,9",,,"99999,9,09858,1","2,1,028,1,+999,9","10,1",,SYN072AAXX  09121 57328 31920 82201 10096 20060 39858 40280 52028 71000 8807/;,Q01  00002PRCP06
12-09T15:00:00,4,31.2,107.5,344.0,"DA XIAN, CH",FM-12,99999,V020,"040,1,N,0020,1","99999,9,9,N","002000,1,N,1","+0069,1","+0058,1","10303,1",,,,,,"08,99,1,08,1,00,1,99999,9,07,1,99,9",,,,"2,1,022,1,+999,9","10,1",,SYN066AAXX  09151 57328 41920 80402 10069 20058 40303 52022 71000 8807/;,
12-09T18:00:00,4,31.2,107.5,344.0,"DA XIAN, CH",FM-12,99999,V020,"040,1,N,0010,1","99999,9,9,N","001200,1,N,1","+0067,1","+0058,1","10305,1","06,0000,9,1",,,,,"08,99,1,08,1,00,1,99999,9,07,1,99,9",,"999,M,+0118,1","99999,9,09885,1","2,1,005,1,+999,9","10,1",,SYN082AAXX  09181 57328 31912 80401 10067 20058 39885 40305 52005 71000 8807/ 333 10118;,Q01  00002PRCP06
12-09T21:00:00,4,31.2,107.5,344.0,"DA XIAN, CH",FM-12,99999,V020,"040,1,N,0010,1","99999,9,9,N","002000,1,N,1","+0065,1","+0061,1","10287,1",,,,,,"08,99,1,08,1,00,1,99999,9,07,1,99,9",,,,"7,1,017,1,+999,9","10,1",,SYN066AAXX  09211 57328 41920 80401 10065 20061 40287 57017 71000 8807/;,
12-10T00:00:00,4,31.2,107.5,344.0,"DA XIAN, CH",FM-12,99999,V020,"040,1,N,0030,1","00030,1,9,N","000200,1,N,1","+0060,1","+0058,1","10288,1","06,0000,9,1",,"4,1,06,1",,"09,1,+99999,9,99,9","09,99,1,09,1,99,9,99999,9,99,9,99,9","999,+0040,9",,"99999,9,09867,1","7,1,001,1,+030,1","45,1",,SYN082AAXX  10001 57328 31/02 90403 10060 20058 39867 40288 57001 74540 333 00302 30043;,Q01  00002PRCP06
12-10T03:00:00,4,31.2,107.5,344.0,"DA XIAN, CH",FM-12,99999,V020,"020,1,N,0030,1","99999,9,9,N","003000,1,N,1","+0085,1","+0066,1","10310,1",,,"4,1,03,1",,,"07,99,1,07,1,00,1,99999,9,04,1,99,9",,,,"2,1,021,1,+999,9","10,1",,SYN066AAXX  10031 57328 41930 70203 10085 20066 40310 52021 71040 8704/;,
12-10T06:00:00,4,31.2,107.5,344.0,"DA XIAN, CH",FM-12,99999,V020,"020,1,N,0010,1","99999,9,9,N","003000,1,N,1","+0113,1","+0076,1","10268,1","06,0000,9,1",,"4,1,06,1",,,"08,99,1,08,1,00,1,99999,9,07,1,99,9",,"999,N,+0056,1","99999,9,09850,1","7,1,038,1,+999,9","10,1",,SYN082AAXX  10061 57328 31930 80201 10113 20076 39850 40268 57038 71040 8807/ 333 20056;,Q01  00002PRCP06
12-10T12:00:00,4,31.2,107.5,344.0,"DA XIAN, CH",FM-12,99999,V020,"040,1,N,0010,1","99999,9,9,N","002000,1,N,1","+0101,1","+0081,1","10266,1","06,0000,9,1",,,,,"08,99,1,08,1,00,1,99999,9,07,1,99,9",,,"99999,9,09846,1","2,1,022,1,+999,9","10,1",,SYN072AAXX  10121 57328 31920 80401 10101 20081 39846 40266 52022 71000 8807/;,Q01  00002PRCP06
12-10T15:00:00,4,31.2,107.5,344.0,"DA XIAN, CH",FM-12,99999,V020,"040,1,N,0010,1","99999,9,9,N","003000,1,N,1","+0094,1","+0082,1","10267,1",,,,,,"08,99,1,08,1,00,1,99999,9,07,1,99,9",,,,"2,1,003,1,+999,9","10,1",,SYN066AAXX  10151 57328 41930 80401 10094 20082 40267 52003 71000 8807/;,
12-10T18:00:00,4,31.2,107.5,344.0,"DA XIAN, CH",FM-12,99999,V020,"320,1,N,0010,1","99999,9,9,N","003000,1,N,1","+0092,1","+0078,1","10251,1","06,0000,9,1",,,,,"08,99,1,08,1,00,1,99999,9,07,1,99,9",,"999,M,+0116,1","99999,9,09835,1","7,1,014,1,+999,9","10,1",,SYN082AAXX  10181 57328 31930 83201 10092 20078 39835 40251 57014 71000 8807/ 333 10116;,Q01  00002PRCP06
12-10T21:00:00,4,31.2,107.5,344.0,"DA XIAN, CH",FM-12,99999,V020,"999,9,C,0000,1","99999,9,9,N","001500,1,N,1","+0090,1","+0078,1","10249,1",,,,,,"08,99,1,08,1,00,1,99999,9,07,1,99,9",,,,"7,1,002,1,+999,9","10,1",,SYN066AAXX  10211 57328 41915 80000 10090 20078 40249 57002 71000 8807/;,
12-11T00:00:00,4,31.2,107.5,344.0,"DA XIAN, CH",FM-12,99999,V020,"110,1,N,0010,1","99999,9,9,N","002000,1,N,1","+0086,1","+0078,1","10269,1","06,0000,9,1",,,,,"08,99,1,08,1,00,1,99999,9,07,1,99,9",,,"99999,9,09851,1","2,1,018,1,+002,1","10,1",,SYN082AAXX  11001 57328 31920 81101 10086 20078 39851 40269 52018 71000 8807/ 333 05203;,Q01  00002PRCP06
12-11T03:00:00,4,31.2,107.5,344.0,"DA XIAN, CH",FM-12,99999,V020,"999,9,C,0000,1","99999,9,9,N","001500,1,N,1","+0098,1","+0080,1","10290,1",,,,,,"08,99,1,08,1,00,1,99999,9,07,1,99,9",,,,"2,1,021,1,+999,9","10,1",,SYN066AAXX  11031 57328 41915 80000 10098 20080 40290 52021 71000 8807/;,
12-11T06:00:00,4,31.2,107.5,344.0,"DA XIAN, CH",FM-12,99999,V020,"999,9,C,0000,1","99999,9,9,N","001500,1,N,1","+0117,1","+0087,1","10268,1","06,0000,9,1",,,,,"08,99,1,08,1,00,1,99999,9,07,1,99,9",,"999,N,+0082,1","99999,9,09852,1","7,1,020,1,+999,9","10,1",,SYN082AAXX  11061 57328 31915 80000 10117 20087 39852 40268 57020 71000 8807/ 333 20082;,Q01  00002PRCP06
12-11T09:00:00,4,31.2,107.5,344.0,"DA XIAN, CH",FM-12,99999,V020,"999,9,C,0000,1","22000,1,9,N","003000,1,N,1","+0125,1","+0085,1","10260,1",,,,,"00,1,+99999,9,99,9","00,99,1,00,1,00,1,99999,9,00,1,00,1",,,,"7,1,007,1,+999,9","10,1",,SYN060AAXX  11091 57328 41930 00000 10125 20085 40260 57007 71000;,
12-11T12:00:00,4,31.2,107.5,344.0,"DA XIAN, CH",FM-12,99999,V020,"070,1,N,0010,1","22000,1,9,N","003000,1,N,1","+0091,1","+0074,1","10295,1","06,0000,9,1",,,,"00,1,+99999,9,99,9","00,99,1,00,1,00,1,99999,9,00,1,00,1",,,"99999,9,09875,1","2,1,030,1,+999,9","10,1",,SYN066AAXX  11121 57328 31930 00701 10091 20074 39875 40295 52030 71000;,Q01  00002PRCP06
12-11T15:00:00,4,31.2,107.5,344.0,"DA XIAN, CH",FM-12,99999,V020,"040,1,N,0030,1","22000,1,9,N","000300,1,N,1","+0071,1","+0067,1","10312,1",,,,,"00,1,+99999,9,99,9","00,99,1,00,1,00,1,99999,9,00,1,00,1",,,,"2,1,016,1,+999,9","46,1",,SYN060AAXX  11151 57328 41903 00403 10071 20067 40312 52016 74600;,
12-11T18:00:00,4,31.2,107.5,344.0,"DA XIAN, CH",FM-12,99999,V020,"040,1,N,0010,1","22000,1,9,N","000000,1,N,1","+0061,1","+0061,1","10321,1","06,0000,9,1",,"4,1,06,1",,"00,1,+99999,9,99,9","00,99,1,00,1,00,1,99999,9,00,1,00,1",,"999,M,+0132,1","99999,9,09900,1","2,1,009,1,+999,9","44,1",,SYN076AAXX  11181 57328 31900 00401 10061 20061 39900 40321 52009 74440 333 10132;,Q01  00002PRCP06
12-11T21:00:00,4,31.2,107.5,344.0,"DA XIAN, CH",FM-12,99999,V020,"040,1,N,0020,1","00015,1,9,N","000000,1,N,1","+0061,1","+0057,1","10315,1",,,"4,1,03,1","4,1,03,1","09,1,+99999,9,99,9","09,99,1,09,1,99,9,99999,9,99,9,99,9",,,,"7,1,005,1,+999,9","45,1",,SYN060AAXX  11211 57328 41/00 90402 10061 20057 40315 57005 74544;,
12-12T00:00:00,4,31.2,107.5,344.0,"DA XIAN, CH",FM-12,99999,V020,"360,1,N,0020,1","00015,1,9,N","000100,1,N,1","+0057,1","+0057,1","10327,1","06,0000,9,1",,"4,1,06,1","4,1,06,1","09,1,+99999,9,99,9","09,99,1,09,1,99,9,99999,9,99,9,99,9",,,"99999,9,09904,1","2,1,009,1,+005,1","45,1",,SYN076AAXX  12001 57328 31/01 93602 10057 20057 39904 40327 52009 74544 333 00553;,Q01  00002PRCP06
12-12T03:00:00,4,31.2,107.5,344.0,"DA XIAN, CH",FM-12,99999,V020,"040,1,N,0020,1","99999,9,9,N","000600,1,N,1","+0065,1","+0065,1","10339,1",,,"4,1,03,1","4,1,03,1",,"08,99,1,08,1,00,1,99999,9,07,1,99,9",,,,"2,1,011,1,+999,9","42,1",,SYN066AAXX  12031 57328 41906 80402 10065 20065 40339 52011 74244 8807/;,
12-12T06:00:00,4,31.2,107.5,344.0,"DA XIAN, CH",FM-12,99999,V020,"020,1,N,0020,1","99999,9,9,N","001200,1,N,1","+0083,1","+0066,1","10303,1","06,0000,9,1",,"4,1,06,1",,,"08,99,1,08,1,00,1,99999,9,07,1,99,9",,"999,N,+0054,1","99999,9,09881,1","7,1,034,1,+999,9","10,1",,SYN082AAXX  12061 57328 31912 80202 10083 20066 39881 40303 57034 71040 8807/ 333 20054;,Q01  00002PRCP06
12-12T09:00:00,4,31.2,107.5,344.0,"DA XIAN, CH",FM-12,99999,V020,"040,1,N,0020,1","22000,1,9,N","002000,1,N,1","+0091,1","+0079,1","10277,1",,,,,"00,1,+99999,9,99,9","00,99,1,00,1,00,1,99999,9,00,1,00,1",,,,"7,1,025,1,+999,9","10,1",,SYN060AAXX  12091 57328 41920 00402 10091 20079 40277 57025 71000;,
12-12T12:00:00,4,31.2,107.5,344.0,"DA XIAN, CH",FM-12,99999,V020,"999,9,C,0000,1","99999,9,9,N","002000,1,N,1","+0083,1","+0075,1","10286,1","06,0000,9,1",,,,,"08,99,1,08,1,00,1,99999,9,07,1,99,9",,,"99999,9,09864,1","2,1,008,1,+999,9","10,1",,SYN072AAXX  12121 57328 31920 80000 10083 20075 39864 40286 52008 71000 8807/;,Q01  00002PRCP06
12-12T15:00:00,4,31.2,107.5,344.0,"DA XIAN, CH",FM-12,99999,V020,"040,1,N,0020,1","00015,1,9,N","000100,1,N,1","+0072,1","+0072,1","10280,1",,,"4,1,03,1",,"09,1,+99999,9,99,9","09,99,1,09,1,99,9,99999,9,99,9,99,9",,,,"7,1,006,1,+999,9","45,1",,SYN060AAXX  12151 57328 41/01 90402 10072 20072 40280 57006 74540;,
12-12T18:00:00,4,31.2,107.5,344.0,"DA XIAN, CH",FM-12,99999,V020,"070,1,N,0010,1","00015,1,9,N","000100,1,N,1","+0069,1","+0065,1","10266,1","06,0000,9,1",,"4,1,06,1",,"09,1,+99999,9,99,9","09,99,1,09,1,99,9,99999,9,99,9,99,9",,"999,M,+0095,1","99999,9,09846,1","7,1,012,1,+999,9","45,1",,SYN076AAXX  12181 57328 31/01 90701 10069 20065 39846 40266 57012 74540 333 10095;,Q01  00002PRCP06
12-12T21:00:00,4,31.2,107.5,344.0,"DA XIAN, CH",FM-12,99999,V020,"360,1,N,0030,1","00015,1,9,N","000100,1,N,1","+0064,1","+0062,1","10248,1",,,"4,1,03,1","4,1,03,1","09,1,+99999,9,99,9","09,99,1,09,1,99,9,99999,9,99,9,99,9",,,,"7,1,017,1,+999,9","45,1",,SYN060AAXX  12211 57328 41/01 93603 10064 20062 40248 57017 74544;,
12-13T00:00:00,4,31.2,107.5,344.0,"DA XIAN, CH",FM-12,99999,V020,"040,1,N,0010,1","99999,9,9,N","002000,1,N,1","+0067,1","+0063,1","10245,1","06,0000,9,1",,"4,1,06,1",,,"08,99,1,08,1,00,1,99999,9,07,1,99,9",,,"99999,9,09826,1","7,1,003,1,+008,1","10,1",,SYN082AAXX  13001 57328 31920 80401 10067 20063 39826 40245 57003 71040 8807/ 333 05801;,Q01  00002PRCP06
12-13T03:00:00,4,31.2,107.5,344.0,"DA XIAN, CH",FM-12,99999,V020,"999,9,C,0000,1","99999,9,9,N","002000,1,N,1","+0079,1","+0066,1","10250,1",,,,,,"08,99,1,08,1,00,1,99999,9,07,1,99,9",,,,"2,1,004,1,+999,9","10,1",,SYN066AAXX  13031 57328 41920 80000 10079 20066 40250 52004 71000 8807/;,
12-13T06:00:00,4,31.2,107.5,344.0,"DA XIAN, CH",FM-12,99999,V020,"360,1,N,0030,1","99999,9,9,N","003000,1,N,1","+0096,1","+0075,1","10209,1","06,0000,9,1",,,,,"08,99,1,08,1,00,1,99999,9,07,1,99,9",,"999,N,+0059,1","99999,9,09792,1","7,1,038,1,+999,9","10,1",,SYN082AAXX  13061 57328 31930 83603 10096 20075 39792 40209 57038 71000 8807/ 333 20059;,Q01  00002PRCP06
12-13T09:00:00,4,31.2,107.5,344.0,"DA XIAN, CH",FM-12,99999,V020,"040,1,N,0020,1","99999,9,9,N","004000,1,N,1","+0099,1","+0076,1","10190,1",,,,,,"08,99,1,08,1,00,1,99999,9,07,1,99,9",,,,"7,1,018,1,+999,9","10,1",,SYN066AAXX  13091 57328 41940 80402 10099 20076 40190 57018 71000 8807/;,
12-13T12:00:00,4,31.2,107.5,344.0,"DA XIAN, CH",FM-12,99999,V020,"999,9,C,0000,1","99999,9,9,N","002000,1,N,1","+0096,1","+0082,1","10199,1","06,0000,9,1",,,,,"08,99,1,08,1,00,1,99999,9,07,1,99,9",,,"99999,9,09782,1","2,1,008,1,+999,9","10,1",,SYN072AAXX  13121 57328 31920 80000 10096 20082 39782 40199 52008 71000 8807/;,Q01  00002PRCP06
12-13T15:00:00,4,31.2,107.5,344.0,"DA XIAN, CH",FM-12,99999,V020,"999,9,C,0000,1","99999,9,9,N","002000,1,N,1","+0095,1","+0083,1","10209,1",,,,,,"08,99,1,08,1,00,1,99999,9,07,1,99,9",,,,"2,1,011,1,+999,9","10,1",,SYN066AAXX  13151 57328 41920 80000 10095 20083 40209 52011 71000 8807/;,
12-13T18:00:00,4,31.2,107.5,344.0,"DA XIAN, CH",FM-12,99999,V020,"999,9,C,0000,1","99999,9,9,N","002000,1,N,1","+0094,1","+0084,1","10196,1","06,0000,9,1",,,,,"08,99,1,08,1,00,1,99999,9,07,1,99,9",,"999,M,+0101,1","99999,9,09781,1","7,1,012,1,+999,9","10,1",,SYN082AAXX  13181 57328 31920 80000 10094 20084 39781 40196 57012 71000 8807/ 333 10101;,Q01  00002PRCP06
12-13T21:00:00,4,31.2,107.5,344.0,"DA XIAN, CH",FM-12,99999,V020,"140,1,N,0010,1","99999,9,9,N","002000,1,N,1","+0091,1","+0081,1","10198,1",,,,,,"08,99,1,08,1,00,1,99999,9,07,1,99,9",,,,"2,1,002,1,+999,9","10,1",,SYN066AAXX  13211 57328 41920 81401 10091 20081 40198 52002 71000 8807/;,
12-14T00:00:00,4,31.2,107.5,344.0,"DA XIAN, CH",FM-12,99999,V020,"999,9,C,0000,1","99999,9,9,N","002000,1,N,1","+0091,1","+0083,1","10212,1","06,0000,9,1",,,,,"08,99,1,08,1,00,1,99999,9,07,1,99,9",,,"99999,9,09797,1","2,1,014,1,+003,1","10,1",,SYN082AAXX  14001 57328 31920 80000 10091 20083 39797 40212 52014 71000 8807/ 333 05302;,Q01  00002PRCP06
12-14T03:00:00,4,31.2,107.5,344.0,"DA XIAN, CH",FM-12,99999,V020,"999,9,C,0000,1","99999,9,9,N","002000,1,N,1","+0100,1","+0084,1","10231,1",,,,,,"08,99,1,08,1,00,1,99999,9,07,1,99,9",,,,"2,1,018,1,+999,9","10,1",,SYN066AAXX  14031 57328 41920 80000 10100 20084 40231 52018 71000 8807/;,
12-14T06:00:00,4,31.2,107.5,344.0,"DA XIAN, CH",FM-12,99999,V020,"140,1,N,0010,1","99999,9,9,N","003000,1,N,1","+0117,1","+0085,1","10198,1","06,0000,9,1",,,,,"08,99,1,08,1,00,1,99999,9,07,1,99,9",,"999,N,+0087,1","99999,9,09785,1","7,1,030,1,+999,9","10,1",,SYN082AAXX  14061 57328 31930 81401 10117 20085 39785 40198 57030 71000 8807/ 333 20087;,Q01  00002PRCP06
12-14T09:00:00,4,31.2,107.5,344.0,"DA XIAN, CH",FM-12,99999,V020,"999,9,C,0000,1","22000,1,9,N","003000,1,N,1","+0118,1","+0084,1","10186,1",,,,,"00,1,+99999,9,99,9","00,99,1,00,1,00,1,99999,9,00,1,00,1",,,,"7,1,012,1,+999,9","10,1",,SYN060AAXX  14091 57328 41930 00000 10118 20084 40186 57012 71000;,
12-14T12:00:00,4,31.2,107.5,344.0,"DA XIAN, CH",FM-12,99999,V020,"999,9,C,0000,1","99999,9,9,N","004000,1,N,1","+0093,1","+0081,1","10211,1","06,0000,9,1",,,,,"08,99,1,08,1,00,1,99999,9,07,1,99,9",,,"99999,9,09795,1","2,1,022,1,+999,9","10,1",,SYN072AAXX  14121 57328 31940 80000 10093 20081 39795 40211 52022 71000 8807/;,Q01  00002PRCP06
12-14T15:00:00,4,31.2,107.5,344.0,"DA XIAN, CH",FM-12,99999,V020,"999,9,C,0000,1","00030,1,9,N","000300,1,N,1","+0073,1","+0069,1","10221,1",,,,,"09,1,+99999,9,99,9","09,99,1,09,1,99,9,99999,9,99,9,99,9",,,,"2,1,009,1,+999,9","47,1",,SYN060AAXX  14151 57328 41/03 90000 10073 20069 40221 52009 74700;,
12-14T18:00:00,4,31.2,107.5,344.0,"DA XIAN, CH",FM-12,99999,V020,"999,9,C,0000,1","99999,9,9,N","001200,1,N,1","+0077,1","+0073,1","10222,1","06,0000,9,1",,"4,1,06,1",,,"08,99,1,08,1,00,1,99999,9,07,1,99,9",,"999,M,+0120,1","99999,9,09807,1","2,1,003,1,+999,9","28,1",,SYN082AAXX  14181 57328 31912 80000 10077 20073 39807 40222 52003 72840 8807/ 333 10120;,Q01  00002PRCP06
12-14T21:00:00,4,31.2,107.5,344.0,"DA XIAN, CH",FM-12,99999,V020,"090,1,N,0010,1","99999,9,9,N","001200,1,N,1","+0084,1","+0078,1","10219,1",,,,,,"08,99,1,08,1,00,1,99999,9,07,1,99,9",,,,"7,1,003,1,+999,9","10,1",,SYN066AAXX  14211 57328 41912 80901 10084 20078 40219 57003 71000 8807/;,
12-15T00:00:00,4,31.2,107.5,344.0,"DA XIAN, CH",FM-12,99999,V020,"999,9,C,0000,1","99999,9,9,N","001500,1,N,1","+0087,1","+0079,1","10229,1","06,0000,9,1",,,,,"08,99,1,08,1,00,1,99999,9,07,1,99,9",,,"99999,9,09812,1","2,1,010,1,+002,1","10,1",,SYN082AAXX  15001 57328 31915 80000 10087 20079 39812 40229 52010 71000 8807/ 333 00200;,Q01  00002PRCP06
12-15T03:00:00,4,31.2,107.5,344.0,"DA XIAN, CH",FM-12,99999,V020,"360,1,N,0030,1","99999,9,9,N","001500,1,N,1","+0093,1","+0081,1","10243,1",,,,,,"08,99,1,08,1,00,1,99999,9,07,1,99,9",,,,"2,1,013,1,+999,9","10,1",,SYN066AAXX  15031 57328 41915 83603 10093 20081 40243 52013 71000 8807/;,
12-15T06:00:00,4,31.2,107.5,344.0,"DA XIAN, CH",FM-12,99999,V020,"020,1,N,0020,1","99999,9,9,N","002000,1,N,1","+0103,1","+0081,1","10214,1","06,0000,9,1",,,,,"08,99,1,08,1,00,1,99999,9,07,1,99,9",,"999,N,+0067,1","99999,9,09798,1","7,1,027,1,+999,9","10,1",,SYN082AAXX  15061 57328 31920 80202 10103 20081 39798 40214 57027 71000 8807/ 333 20067;,Q01  00002PRCP06
12-15T09:00:00,4,31.2,107.5,344.0,"DA XIAN, CH",FM-12,99999,V020,"090,1,N,0010,1","99999,9,9,N","002000,1,N,1","+0102,1","+0080,1","10202,1",,,,,,"08,99,1,08,1,00,1,99999,9,07,1,99,9",,,,"7,1,011,1,+999,9","10,1",,SYN066AAXX  15091 57328 41920 80901 10102 20080 40202 57011 71000 8807/;,
12-15T12:00:00,4,31.2,107.5,344.0,"DA XIAN, CH",FM-12,99999,V020,"999,9,C,0000,1","99999,9,9,N","001500,1,N,1","+0099,1","+0083,1","10214,1","06,0000,9,1",,,,,"08,99,1,08,1,00,1,99999,9,07,1,99,9",,,"99999,9,09798,1","2,1,011,1,+999,9","10,1",,SYN072AAXX  15121 57328 31915 80000 10099 20083 39798 40214 52011 71000 8807/;,Q01  00002PRCP06
12-15T15:00:00,4,31.2,107.5,344.0,"DA XIAN, CH",FM-12,99999,V020,"070,1,N,0020,1","99999,9,9,N","001500,1,N,1","+0094,1","+0080,1","10220,1",,,,,,"08,99,1,08,1,00,1,99999,9,07,1,99,9",,,,"2,1,006,1,+999,9","10,1",,SYN066AAXX  15151 57328 41915 80702 10094 20080 40220 52006 71000 8807/;,
12-15T18:00:00,4,31.2,107.5,344.0,"DA XIAN, CH",FM-12,99999,V020,"999,9,C,0000,1","99999,9,9,N","001500,1,N,1","+0093,1","+0081,1","10212,1","06,0000,9,1",,,,,"08,99,1,08,1,00,1,99999,9,07,1,99,9",,"999,M,+0108,1","99999,9,09797,1","7,1,007,1,+999,9","10,1",,SYN082AAXX  15181 57328 31915 80000 10093 20081 39797 40212 57007 71000 8807/ 333 10108;,Q01  00002PRCP06
12-15T21:00:00,4,31.2,107.5,344.0,"DA XIAN, CH",FM-12,99999,V020,"090,1,N,0010,1","99999,9,9,N","001500,1,N,1","+0090,1","+0080,1","10206,1",,,,,,"08,99,1,08,1,00,1,99999,9,07,1,99,9",,,,"7,1,006,1,+999,9","10,1",,SYN066AAXX  15211 57328 41915 80901 10090 20080 40206 57006 71000 8807/;,
12-16T00:00:00,4,31.2,107.5,344.0,"DA XIAN, CH",FM-12,99999,V020,"070,1,N,0010,1","99999,9,9,N","002500,1,N,1","+0088,1","+0080,1","10214,1","06,0000,9,1",,,,,"08,99,1,08,1,00,1,99999,9,07,1,99,9",,,"99999,9,09798,1","2,1,007,1,+001,1","10,1",,SYN082AAXX  16001 57328 31925 80701 10088 20080 39798 40214 52007 71000 8807/ 333 05100;,Q01  00002PRCP06
12-16T03:00:00,4,31.2,107.5,344.0,"DA XIAN, CH",FM-12,99999,V020,"360,1,N,0020,1","99999,9,9,N","003000,1,N,1","+0096,1","+0082,1","10228,1",,,,,,"08,99,1,08,1,00,1,99999,9,07,1,99,9",,,,"2,1,014,1,+999,9","10,1",,SYN066AAXX  16031 57328 41930 83602 10096 20082 40228 52014 71000 8807/;,
12-16T06:00:00,4,31.2,107.5,344.0,"DA XIAN, CH",FM-12,99999,V020,"999,9,C,0000,1","99999,9,9,N","003000,1,N,1","+0107,1","+0085,1","10198,1","06,0000,9,1",,,,,"08,99,1,08,1,00,1,99999,9,02,1,99,9",,"999,N,+0085,1","99999,9,09784,1","7,1,028,1,+999,9","10,1",,SYN082AAXX  16061 57328 31930 80000 10107 20085 39784 40198 57028 71000 8802/ 333 20085;,Q01  00002PRCP06
12-16T09:00:00,4,31.2,107.5,344.0,"DA XIAN, CH",FM-12,99999,V020,"999,9,C,0000,1","99999,9,9,N","003000,1,N,1","+0111,1","+0091,1","10194,1",,,,,,"07,99,1,07,1,00,1,99999,9,04,1,99,9",,,,"7,1,004,1,+999,9","10,1",,SYN066AAXX  16091 57328 41930 70000 10111 20091 40194 57004 71000 8704/;,
12-16T12:00:00,4,31.2,107.5,344.0,"DA XIAN, CH",FM-12,99999,V020,"999,9,C,0000,1","99999,9,9,N","003000,1,N,1","+0101,1","+0089,1","10211,1","06,0000,9,1",,,,,"08,99,1,08,1,00,1,99999,9,07,1,99,9",,,"99999,9,09796,1","2,1,016,1,+999,9","10,1",,SYN072AAXX  16121 57328 31930 80000 10101 20089 39796 40211 52016 71000 8807/;,Q01  00002PRCP06
12-16T15:00:00,4,31.2,107.5,344.0,"DA XIAN, CH",FM-12,99999,V020,"999,9,C,0000,1","02100,1,9,N","003000,1,N,1","+0099,1","+0087,1","10219,1",,,"6,1,03,1",,,"08,99,1,08,1,05,1,02250,1,99,9,99,9",,,,"2,1,008,1,+999,9","21,1",,SYN066AAXX  16151 57328 41830 80000 10099 20087 40219 52008 72160 885//;,
12-16T18:00:00,4,31.2,107.5,344.0,"DA XIAN, CH",FM-12,99999,V020,"999,9,C,0000,1","02100,1,9,N","002500,1,N,1","+0097,1","+0087,1","10217,1","06,9999,9,9",,"6,1,06,1",,,"08,99,1,08,1,05,1,02250,1,99,9,99,9",,"999,M,+0113,1","99999,9,09803,1","7,1,001,1,+999,9","10,1",,SYN088AAXX  16181 57328 11825 80000 10097 20087 39803 40217 57001 69901 71060 885// 333 10113;,
12-16T21:00:00,4,31.2,107.5,344.0,"DA XIAN, CH",FM-12,99999,V020,"999,9,C,0000,1","02100,1,9,N","003000,1,N,1","+0095,1","+0085,1","10215,1","24,0000,2,1",,,,,"08,99,1,08,1,05,1,02250,1,99,9,99,9",,,,"7,1,002,1,+999,9","60,1",,SYN076AAXX  16211 57328 41830 80000 10095 20085 40215 57002 76000 885// 333 79999;,
12-17T00:00:00,4,31.2,107.5,344.0,"DA XIAN, CH",FM-12,99999,V020,"140,1,N,0010,1","02100,1,9,N","002500,1,N,1","+0098,1","+0088,1","10227,1","06,9999,9,9","24,0000,2,1","6,1,06,1",,,"08,99,1,08,1,05,1,02250,1,99,9,99,9",,,"99999,9,09812,1","2,1,011,1,+010,1","10,1",,SYN094AAXX  17001 57328 11825 81401 10098 20088 39812 40227 52011 69901 71060 885// 333 00101 79999;,
12-17T03:00:00,4,31.2,107.5,344.0,"DA XIAN, CH",FM-12,99999,V020,"999,9,C,0000,1","99999,9,9,N","002500,1,N,1","+0107,1","+0091,1","10236,1",,,,,,"08,99,1,08,1,00,1,99999,9,07,1,99,9",,,,"2,1,009,1,+999,9","10,1",,SYN066AAXX  17031 57328 41925 80000 10107 20091 40236 52009 71000 8807/;,
12-17T06:00:00,4,31.2,107.5,344.0,"DA XIAN, CH",FM-12,99999,V020,"999,9,C,0000,1","02100,1,9,N","002000,1,N,1","+0107,1","+0091,1","10211,1","06,0000,9,1",,,,,"08,99,1,08,1,05,1,02250,1,99,9,99,9",,"999,N,+0093,1","99999,9,09797,1","7,1,024,1,+999,9","10,1",,SYN082AAXX  17061 57328 31820 80000 10107 20091 39797 40211 57024 71000 885// 333 20093;,Q01  00002PRCP06
12-17T09:00:00,4,31.2,107.5,344.0,"DA XIAN, CH",FM-12,99999,V020,"360,1,N,0010,1","02100,1,9,N","001500,1,N,1","+0108,1","+0094,1","10199,1",,,,,,"08,99,1,08,1,05,1,02250,1,99,9,99,9",,,,"7,1,012,1,+999,9","10,1",,SYN066AAXX  17091 57328 41815 83601 10108 20094 40199 57012 71000 885//;,
12-17T12:00:00,4,31.2,107.5,344.0,"DA XIAN, CH",FM-12,99999,V020,"070,1,N,0020,1","02100,1,9,N","002000,1,N,1","+0106,1","+0094,1","10206,1","06,0000,9,1",,,,,"08,99,1,08,1,05,1,02250,1,99,9,99,9",,,"99999,9,09792,1","2,1,007,1,+999,9","10,1",,SYN072AAXX  17121 57328 31820 80702 10106 20094 39792 40206 52007 71000 885//;,Q01  00002PRCP06
12-17T15:00:00,4,31.2,107.5,344.0,"DA XIAN, CH",FM-12,99999,V020,"040,1,N,0010,1","02100,1,9,N","002000,1,N,1","+0099,1","+0093,1","10217,1",,,,,,"08,99,1,08,1,05,1,02250,1,99,9,99,9",,,,"2,1,011,1,+999,9","10,1",,SYN066AAXX  17151 57328 41820 80401 10099 20093 40217 52011 71000 885//;,
12-17T18:00:00,4,31.2,107.5,344.0,"DA XIAN, CH",FM-12,99999,V020,"040,1,N,0010,1","02100,1,9,N","001500,1,N,1","+0098,1","+0092,1","10208,1","06,0000,9,1",,,,,"08,99,1,08,1,05,1,02250,1,99,9,99,9",,"999,M,+0108,1","99999,9,09794,1","7,1,009,1,+999,9","10,1",,SYN082AAXX  17181 57328 31815 80401 10098 20092 39794 40208 57009 71000 885// 333 10108;,Q01  00002PRCP06
12-17T21:00:00,4,31.2,107.5,344.0,"DA XIAN, CH",FM-12,99999,V020,"999,9,C,0000,1","02100,1,9,N","002000,1,N,1","+0099,1","+0093,1","10203,1","24,0000,2,1",,,,,"08,99,1,08,1,05,1,02250,1,99,9,99,9",,,,"7,1,005,1,+999,9","10,1",,SYN076AAXX  17211 57328 41820 80000 10099 20093 40203 57005 71000 885// 333 79999;,
12-18T00:00:00,4,31.2,107.5,344.0,"DA XIAN, CH",FM-12,99999,V020,"999,9,C,0000,1","02100,1,9,N","002000,1,N,1","+0101,1","+0093,1","10203,1","06,0000,9,1",,,,,"08,99,1,08,1,05,1,02250,1,99,9,99,9",,,"99999,9,09789,1","4,1,000,1,+002,1","10,1",,SYN082AAXX  18001 57328 31820 80000 10101 20093 39789 40203 54000 71000 885// 333 05200;,Q01  00002PRCP06
12-18T03:00:00,4,31.2,107.5,344.0,"DA XIAN, CH",FM-12,99999,V020,"140,1,N,0010,1","99999,9,9,N","002000,1,N,1","+0109,1","+0095,1","10217,1",,,,,,"08,99,1,08,1,00,1,99999,9,07,1,99,9",,,,"2,1,014,1,+999,9","10,1",,SYN066AAXX  18031 57328 41920 81401 10109 20095 40217 52014 71000 8807/;,
12-18T06:00:00,4,31.2,107.5,344.0,"DA XIAN, CH",FM-12,99999,V020,"999,9,C,0000,1","99999,9,9,N","002000,1,N,1","+0121,1","+0102,1","10193,1","06,0000,9,1",,,,,"08,99,1,08,1,00,1,99999,9,07,1,99,9",,"999,N,+0094,1","99999,9,09781,1","7,1,022,1,+999,9","10,1",,SYN082AAXX  18061 57328 31920 80000 10121 20102 39781 40193 57022 71000 8807/ 333 20094;,Q01  00002PRCP06
12-18T09:00:00,4,31.2,107.5,344.0,"DA XIAN, CH",FM-12,99999,V020,"020,1,N,0020,1","99999,9,9,N","002000,1,N,1","+0121,1","+0098,1","10187,1",,,,,,"08,99,1,08,1,00,1,99999,9,07,1,99,9",,,,"7,1,006,1,+999,9","10,1",,SYN066AAXX  18091 57328 41920 80202 10121 20098 40187 57006 71000 8807/;,
12-18T12:00:00,4,31.2,107.5,344.0,"DA XIAN, CH",FM-12,99999,V020,"040,1,N,0020,1","99999,9,9,N","002000,1,N,1","+0113,1","+0097,1","10191,1","06,0000,9,1",,,,,"08,99,1,08,1,00,1,99999,9,07,1,99,9",,,"99999,9,09778,1","2,1,003,1,+999,9","10,1",,SYN072AAXX  18121 57328 31920 80402 10113 20097 39778 40191 52003 71000 8807/;,Q01  00002PRCP06
12-18T15:00:00,4,31.2,107.5,344.0,"DA XIAN, CH",FM-12,99999,V020,"020,1,N,0020,1","99999,9,9,N","002000,1,N,1","+0110,1","+0096,1","10192,1",,,,,,"08,99,1,08,1,00,1,99999,9,07,1,99,9",,,,"2,1,002,1,+999,9","10,1",,SYN066AAXX  18151 57328 41920 80202 10110 20096 40192 52002 71000 8807/;,
12-18T18:00:00,4,31.2,107.5,344.0,"DA XIAN, CH",FM-12,99999,V020,"040,1,N,0030,1","99999,9,9,N","002000,1,N,1","+0105,1","+0097,1","10175,1","06,0000,9,1",,,,,"08,99,1,08,1,00,1,99999,9,07,1,99,9",,"999,M,+0123,1","99999,9,09764,1","7,1,016,1,+999,9","10,1",,SYN082AAXX  18181 57328 31920 80403 10105 20097 39764 40175 57016 71000 8807/ 333 10123;,Q01  00002PRCP06
12-18T21:00:00,4,31.2,107.5,344.0,"DA XIAN, CH",FM-12,99999,V020,"020,1,N,0020,1","99999,9,9,N","002000,1,N,1","+0102,1","+0092,1","10151,1",,,,,,"08,99,1,08,1,00,1,99999,9,07,1,99,9",,,,"7,1,023,1,+999,9","10,1",,SYN066AAXX  18211 57328 41920 80202 10102 20092 40151 57023 71000 8807/;,
12-19T00:00:00,4,31.2,107.5,344.0,"DA XIAN, CH",FM-12,99999,V020,"040,1,N,0020,1","99999,9,9,N","001200,1,N,1","+0095,1","+0087,1","10148,1","06,0000,9,1",,,,,"08,99,1,08,1,00,1,99999,9,07,1,99,9",,,"99999,9,09737,1","7,1,004,1,+005,1","10,1",,SYN082AAXX  19001 57328 31912 80402 10095 20087 39737 40148 57004 71000 8807/ 333 05551;,Q01  00002PRCP06
12-19T03:00:00,4,31.2,107.5,344.0,"DA XIAN, CH",FM-12,99999,V020,"040,1,N,0020,1","99999,9,9,N","002000,1,N,1","+0113,1","+0098,1","10156,1",,,,,,"08,99,1,08,1,00,1,99999,9,02,1,99,9",,,,"2,1,008,1,+999,9","10,1",,SYN066AAXX  19031 57328 41920 80402 10113 20098 40156 52008 71000 8802/;,
12-19T06:00:00,4,31.2,107.5,344.0,"DA XIAN, CH",FM-12,99999,V020,"020,1,N,0020,1","99999,9,9,N","003000,1,N,1","+0138,1","+0102,1","10126,1","06,0000,9,1",,,,,"08,99,1,08,1,00,1,99999,9,07,1,99,9",,"999,N,+0091,1","99999,9,09718,1","7,1,027,1,+999,9","10,1",,SYN082AAXX  19061 57328 31930 80202 10138 20102 39718 40126 57027 71000 8807/ 333 20091;,Q01  00002PRCP06
12-19T09:00:00,4,31.2,107.5,344.0,"DA XIAN, CH",FM-12,99999,V020,"999,9,C,0000,1","99999,9,9,N","003000,1,N,1","+0140,1","+0104,1","10121,1",,,,,,"08,99,1,08,1,00,1,99999,9,07,1,99,9",,,,"7,1,005,1,+999,9","10,1",,SYN066AAXX  19091 57328 41930 80000 10140 20104 40121 57005 71000 8807/;,
12-19T15:00:00,4,31.2,107.5,344.0,"DA XIAN, CH",FM-12,99999,V020,"999,9,C,0000,1","99999,9,9,N","002000,1,N,1","+0120,1","+0107,1","10164,1",,,,,,"08,99,1,08,1,00,1,99999,9,07,1,99,9",,,,"2,1,021,1,+999,9","10,1",,SYN066AAXX  19151 57328 41920 80000 10120 20107 40164 52021 71000 8807/;,
12-19T18:00:00,4,31.2,107.5,344.0,"DA XIAN, CH",FM-12,99999,V020,"999,9,C,0000,1","99999,9,9,N","003000,1,N,1","+0115,1","+0104,1","10158,1","06,0000,9,1",,,,,"08,99,1,08,1,00,1,99999,9,07,1,99,9",,"999,M,+0141,1","99999,9,09749,1","7,1,005,1,+999,9","10,1",,SYN082AAXX  19181 57328 31930 80000 10115 20104 39749 40158 57005 71000 8807/ 333 10141;,Q01  00002PRCP06
12-19T21:00:00,4,31.2,107.5,344.0,"DA XIAN, CH",FM-12,99999,V020,"999,9,C,0000,1","99999,9,9,N","002000,1,N,1","+0111,1","+0099,1","10145,1",,,,,,"08,99,1,08,1,00,1,99999,9,07,1,99,9",,,,"7,1,012,1,+999,9","10,1",,SYN066AAXX  19211 57328 41920 80000 10111 20099 40145 57012 71000 8807/;,
12-20T00:00:00,4,31.2,107.5,344.0,"DA XIAN, CH",FM-12,99999,V020,"999,9,C,0000,1","99999,9,9,N","002000,1,N,1","+0111,1","+0099,1","10152,1","06,9999,9,9","24,0000,2,1",,,,"08,99,1,08,1,00,1,99999,9,07,1,99,9",,,"99999,9,09742,1","2,1,005,1,+010,1","60,1",,SYN094AAXX  20001 57328 11920 80000 10111 20099 39742 40152 52005 69901 76000 8807/ 333 00102 79999;,
12-20T03:00:00,4,31.2,107.5,344.0,"DA XIAN, CH",FM-12,99999,V020,"999,9,C,0000,1","99999,9,9,N","002000,1,N,1","+0111,1","+0103,1","10156,1",,,"6,1,03,1","6,1,03,1",,"08,99,1,08,1,00,1,99999,9,02,1,99,9",,,,"2,1,004,1,+999,9","60,1",,SYN066AAXX  20031 57328 41920 80000 10111 20103 40156 52004 76066 8802/;,
12-20T06:00:00,4,31.2,107.5,344.0,"DA XIAN, CH",FM-12,99999,V020,"040,1,N,0020,1","99999,9,9,N","001000,1,N,1","+0111,1","+0105,1","10116,1","06,0005,9,1",,"6,1,06,1","6,1,06,1",,"08,99,1,08,1,00,1,99999,9,02,1,99,9",,"999,N,+0107,1","99999,9,09707,1","7,1,039,1,+999,9","60,1",,SYN088AAXX  20061 57328 11910 80402 10111 20105 39707 40116 57039 69961 76066 8802/ 333 20107;,
12-20T09:00:00,4,31.2,107.5,344.0,"DA XIAN, CH",FM-12,99999,V020,"070,1,N,0020,1","99999,9,9,N","000700,1,N,1","+0111,1","+0105,1","10096,1",,,"6,1,03,1","4,1,03,1",,"08,99,1,08,1,00,1,99999,9,02,1,99,9",,,,"7,1,019,1,+999,9","60,1",,SYN066AAXX  20091 57328 41907 80702 10111 20105 40096 57019 76064 8802/;,
12-20T12:00:00,4,31.2,107.5,344.0,"DA XIAN, CH",FM-12,99999,V020,"320,1,N,0020,1","02100,1,9,N","003000,1,N,1","+0111,1","+0099,1","10098,1","06,0005,9,1",,"6,1,06,1","4,1,06,1",,"08,99,1,08,1,05,1,02250,1,99,9,99,9",,,"99999,9,09690,1","2,1,002,1,+999,9","10,1",,SYN078AAXX  20121 57328 11830 83202 10111 20099 39690 40098 52002 69961 71064 885//;,
12-20T15:00:00,4,31.2,107.5,344.0,"DA XIAN, CH",FM-12,99999,V020,"020,1,N,0020,1","02100,1,9,N","003000,1,N,1","+0106,1","+0088,1","10098,1",,,,,,"08,99,1,08,1,05,1,02250,1,99,9,99,9",,,,"7,1,001,1,+999,9","10,1",,SYN066AAXX  20151 57328 41830 80202 10106 20088 40098 57001 71000 885//;,
12-20T18:00:00,4,31.2,107.5,344.0,"DA XIAN, CH",FM-12,99999,V020,"999,9,C,0000,1","99999,9,9,N","012000,1,N,1","+0110,1","+0076,1","10081,1","06,0000,9,1",,,,,"08,99,1,08,1,00,1,99999,9,07,1,99,9",,"999,M,+0122,1","99999,9,09673,1","7,1,016,1,+999,9",,,SYN076AAXX  20181 57328 32962 80000 10110 20076 39673 40081 57016 8807/ 333 10122;,Q01  00002PRCP06
12-20T21:00:00,4,31.2,107.5,344.0,"DA XIAN, CH",FM-12,99999,V020,"020,1,N,0010,1","02100,1,9,N","007000,1,N,1","+0105,1","+0081,1","10066,1","24,0013,9,1",,,,,"08,99,1,08,1,05,1,02250,1,99,9,99,9",,,,"7,1,014,1,+999,9","10,1",,SYN076AAXX  20211 57328 41857 80201 10105 20081 40066 57014 71000 885// 333 70012;,
12-21T00:00:00,4,31.2,107.5,344.0,"DA XIAN, CH",FM-12,99999,V020,"999,9,C,0000,1","02100,1,9,N","012000,1,N,1","+0107,1","+0079,1","10084,1","06,0000,9,1","24,0013,9,1",,,,"08,99,1,08,1,05,1,02250,1,99,9,99,9",,,"99999,9,09676,1","2,1,017,1,-070,1",,,SYN082AAXX  21001 57328 32862 80000 10107 20079 39676 40084 52017 885// 333 05700 70012;,Q01  00002PRCP06
12-21T03:00:00,4,31.2,107.5,344.0,"DA XIAN, CH",FM-12,99999,V020,"040,1,N,0060,1","02100,1,9,N","020000,1,N,1","+0093,1","+0049,1","10107,1",,,"6,1,03,1",,,"08,99,1,08,1,05,1,02250,1,99,9,99,9",,,,"2,1,021,1,+999,9","21,1",,SYN066AAXX  21031 57328 41870 80406 10093 20049 40107 52021 72160 885//;,
12-21T06:00:00,4,31.2,107.5,344.0,"DA XIAN, CH",FM-12,99999,V020,"040,1,N,0050,1","02100,1,9,N","025000,1,N,1","+0083,1","+0043,1","10091,1","06,9999,9,9",,"6,1,06,1",,,"08,99,1,08,1,05,1,02250,1,99,9,99,9",,"999,N,+0079,1","99999,9,09681,1","7,1,016,1,+999,9","60,1",,SYN088AAXX  21061 57328 11875 80405 10083 20043 39681 40091 57016 69901 76060 885// 333 20079;,
12-21T09:00:00,4,31.2,107.5,344.0,"DA XIAN, CH",FM-12,99999,V020,"040,1,N,0030,1","02100,1,9,N","025000,1,N,1","+0075,1","+0039,1","10108,1",,,"6,1,03,1","6,1,03,1",,"08,99,1,08,1,05,1,02250,1,99,9,99,9",,,,"2,1,015,1,+999,9","60,1",,SYN066AAXX  21091 57328 41875 80403 10075 20039 40108 52015 76066 885//;,
12-21T12:00:00,4,31.2,107.5,344.0,"DA XIAN, CH",FM-12,99999,V020,"040,1,N,0050,1","02100,1,9,N","025000,1,N,1","+0071,1","+0024,1","10137,1","06,9999,9,9",,"6,1,06,1",,,"08,99,1,08,1,05,1,02250,1,99,9,99,9",,,"99999,9,09724,1","2,1,028,1,+999,9","00,1",,SYN078AAXX  21121 57328 11875 80405 10071 20024 39724 40137 52028 69901 70060 885//;,
12-21T15:00:00,4,31.2,107.5,344.0,"DA XIAN, CH",FM-12,99999,V020,"040,1,N,0040,1","02100,1,9,N","025000,1,N,1","+0071,1","+0007,1","10157,1",,,,,,"08,99,1,08,1,05,1,02250,1,99,9,99,9",,,,"2,1,018,1,+999,9",,,SYN060AAXX  21151 57328 42875 80404 10071 20007 40157 52018 885//;,
12-21T18:00:00,4,31.2,107.5,344.0,"DA XIAN, CH",FM-12,99999,V020,"020,1,N,0050,1","02100,1,9,N","020000,1,N,1","+0071,1","+0004,1","10157,1","06,0000,9,1",,,,,"08,99,1,08,1,05,1,02250,1,99,9,99,9",,"999,M,+0112,1","99999,9,09741,1","7,1,001,1,+999,9",,,SYN076AAXX  21181 57328 32870 80205 10071 20004 39741 40157 57001 885// 333 10112;,Q01  00002PRCP06
12-21T21:00:00,4,31.2,107.5,344.0,"DA XIAN, CH",FM-12,99999,V020,"040,1,N,0030,1","02100,1,9,N","020000,1,N,1","+0069,1","+0004,1","10159,1","24,0000,2,1",,,,,"08,99,1,08,1,05,1,02250,1,99,9,99,9",,,,"2,1,002,1,+999,9",,,SYN070AAXX  21211 57328 42870 80403 10069 20004 40159 52002 885// 333 79999;,
12-22T00:00:00,4,31.2,107.5,344.0,"DA XIAN, CH",FM-12,99999,V020,"020,1,N,0030,1","02100,1,9,N","020000,1,N,1","+0055,1","+0026,1","10180,1","06,9999,9,9","24,0000,2,1","6,1,06,1",,,"08,99,1,08,1,05,1,02250,1,99,9,99,9",,,"99999,9,09761,1","2,1,018,1,+090,1","60,1",,SYN094AAXX  22001 57328 11870 80203 10055 20026 39761 40180 52018 69901 76060 885// 333 00955 79999;,
12-22T03:00:00,4,31.2,107.5,344.0,"DA XIAN, CH",FM-12,99999,V020,"070,1,N,0030,1","02100,1,9,N","015000,1,N,1","+0054,1","+0028,1","10195,1",,,"6,1,03,1","6,1,03,1",,"08,99,1,08,1,05,1,02250,1,99,9,99,9",,,,"2,1,015,1,+999,9","60,1",,SYN066AAXX  22031 57328 41865 80703 10054 20028 40195 52015 76066 885//;,
12-22T06:00:00,4,31.2,107.5,344.0,"DA XIAN, CH",FM-12,99999,V020,"040,1,N,0020,1","02100,1,9,N","015000,1,N,1","+0055,1","+0036,1","10181,1","06,9999,9,9",,"6,1,06,1","6,1,06,1",,"08,99,1,08,1,05,1,02250,1,99,9,99,9",,"999,N,+0051,1","99999,9,09762,1","7,1,014,1,+999,9","60,1",,SYN088AAXX  22061 57328 11865 80402 10055 20036 39762 40181 57014 69911 76066 885// 333 20051;,
12-22T09:00:00,4,31.2,107.5,344.0,"DA XIAN, CH",FM-12,99999,V020,"040,1,N,0030,1","02100,1,9,N","020000,1,N,1","+0055,1","+0036,1","10181,1",,,"6,1,03,1","6,1,03,1",,"08,99,1,08,1,05,1,02250,1,99,9,99,9",,,,"4,1,000,1,+999,9","60,1",,SYN066AAXX  22091 57328 41870 80403 10055 20036 40181 54000 76066 885//;,
12-22T12:00:00,4,31.2,107.5,344.0,"DA XIAN, CH",FM-12,99999,V020,"040,1,N,0020,1","02100,1,9,N","020000,1,N,1","+0059,1","+0033,1","10199,1","06,0005,9,1",,"6,1,06,1","6,1,06,1",,"08,99,1,08,1,05,1,02250,1,99,9,99,9",,,"99999,9,09779,1","2,1,017,1,+999,9","21,1",,SYN078AAXX  22121 57328 11870 80402 10059 20033 39779 40199 52017 69961 72166 885//;,
12-22T15:00:00,4,31.2,107.5,344.0,"DA XIAN, CH",FM-12,99999,V020,"040,1,N,0040,1","02100,1,9,N","020000,1,N,1","+0062,1","+0031,1","10217,1",,,,,,"08,99,1,08,1,05,1,02250,1,99,9,99,9",,,,"2,1,017,1,+999,9","60,1",,SYN066AAXX  22151 57328 41870 80404 10062 20031 40217 52017 76000 885//;,
12-22T18:00:00,4,31.2,107.5,344.0,"DA XIAN, CH",FM-12,99999,V020,"040,1,N,0030,1","02100,1,9,N","020000,1,N,1","+0065,1","+0019,1","10214,1","06,9999,9,9",,"6,1,06,1",,,"08,99,1,08,1,05,1,02250,1,99,9,99,9",,"999,M,+0071,1","99999,9,09794,1","7,1,002,1,+999,9","00,1",,SYN088AAXX  22181 57328 11870 80403 10065 20019 39794 40214 57002 69901 70060 885// 333 10071;,
12-22T21:00:00,4,31.2,107.5,344.0,"DA XIAN, CH",FM-12,99999,V020,"020,1,N,0040,1","02100,1,9,N","020000,1,N,1","+0061,1","+0022,1","10216,1","24,0008,9,1",,,,,"08,99,1,08,1,05,1,02250,1,99,9,99,9",,,,"2,1,001,1,+999,9",,,SYN070AAXX  22211 57328 42870 80204 10061 20022 40216 52001 885// 333 70007;,
12-23T00:00:00,4,31.2,107.5,344.0,"DA XIAN, CH",FM-12,99999,V020,"040,1,N,0030,1","02100,1,9,N","012000,1,N,1","+0053,1","+0032,1","10222,1","06,0005,9,1","24,0013,9,1","6,1,06,1",,,"08,99,1,08,1,05,1,02250,1,99,9,99,9",,,"99999,9,09801,1","2,1,006,1,+040,1","60,1",,SYN094AAXX  23001 57328 11862 80403 10053 20032 39801 40222 52006 69961 76060 885// 333 00400 70013;,
12-23T03:00:00,4,31.2,107.5,344.0,"DA XIAN, CH",FM-12,99999,V020,"020,1,N,0020,1","02100,1,9,N","006000,1,N,1","+0053,1","+0039,1","10249,1",,,"6,1,03,1","6,1,03,1",,"08,99,1,08,1,05,1,02250,1,99,9,99,9",,,,"2,1,026,1,+999,9","60,1",,SYN066AAXX  23031 57328 41856 80202 10053 20039 40249 52026 76066 885//;,
12-23T06:00:00,4,31.2,107.5,344.0,"DA XIAN, CH",FM-12,99999,V020,"020,1,N,0030,1","02100,1,9,N","003000,1,N,1","+0048,1","+0041,1","10225,1","06,0008,9,1",,"6,1,06,1","6,1,06,1",,"08,99,1,08,1,05,1,02250,1,99,9,99,9",,"999,N,+0046,1","99999,9,09804,1","7,1,023,1,+999,9","60,1",,SYN088AAXX  23061 57328 11830 80203 10048 20041 39804 40225 57023 69981 76066 885// 333 20046;,
12-23T09:00:00,4,31.2,107.5,344.0,"DA XIAN, CH",FM-12,99999,V020,"040,1,N,0030,1","02100,1,9,N","006000,1,N,1","+0050,1","+0038,1","10231,1",,,"6,1,03,1","6,1,03,1",,"08,99,1,08,1,05,1,02250,1,99,9,99,9",,,,"2,1,005,1,+999,9","60,1",,SYN066AAXX  23091 57328 41856 80403 10050 20038 40231 52005 76066 885//;,
12-23T12:00:00,4,31.2,107.5,344.0,"DA XIAN, CH",FM-12,99999,V020,"020,1,N,0020,1","02100,1,9,N","005000,1,N,1","+0051,1","+0037,1","10241,1","06,0003,9,1",,"6,1,06,1","6,1,06,1",,"08,99,1,08,1,05,1,02250,1,99,9,99,9",,,"99999,9,09818,1","2,1,009,1,+999,9","21,1",,SYN078AAXX  23121 57328 11850 80202 10051 20037 39818 40241 52009 69931 72166 885//;,
12-23T15:00:00,4,31.2,107.5,344.0,"DA XIAN, CH",FM-12,99999,V020,"040,1,N,0020,1","02100,1,9,N","005000,1,N,1","+0055,1","+0031,1","10255,1",,,,,,"08,99,1,08,1,05,1,02250,1,99,9,99,9",,,,"2,1,014,1,+999,9","10,1",,SYN066AAXX  23151 57328 41850 80402 10055 20031 40255 52014 71000 885//;,
12-23T18:00:00,4,31.2,107.5,344.0,"DA XIAN, CH",FM-12,99999,V020,"070,1,N,0010,1","02100,1,9,N","005000,1,N,1","+0055,1","+0026,1","10248,1","06,9999,9,9",,,,,"08,99,1,08,1,05,1,02250,1,99,9,99,9",,"999,M,+0065,1","99999,9,09825,1","7,1,007,1,+999,9","60,1",,SYN088AAXX  23181 57328 11850 80701 10055 20026 39825 40248 57007 69901 76000 885// 333 10065;,
12-23T21:00:00,4,31.2,107.5,344.0,"DA XIAN, CH",FM-12,99999,V020,"040,1,N,0030,1","02100,1,9,N","008000,1,N,1","+0055,1","+0021,1","10237,1","24,0018,9,1",,"6,1,03,1",,,"08,99,1,08,1,05,1,02250,1,99,9,99,9",,,,"7,1,010,1,+999,9","10,1",,SYN076AAXX  23211 57328 41858 80403 10055 20021 40237 57010 71060 885// 333 70017;,
12-24T03:00:00,4,31.2,107.5,344.0,"DA XIAN, CH",FM-12,99999,V020,"090,1,N,0020,1","99999,9,9,N","012000,1,N,1","+0059,1","+0028,1","10262,1",,,"6,1,03,1",,,"08,99,1,08,1,00,1,99999,9,07,1,99,9",,,,"2,1,015,1,+999,9","60,1",,SYN066AAXX  24031 57328 41962 80902 10059 20028 40262 52015 76060 8807/;,
12-24T06:00:00,4,31.2,107.5,344.0,"DA XIAN, CH",FM-12,99999,V020,"040,1,N,0040,1","02100,1,9,N","015000,1,N,1","+0059,1","+0031,1","10231,1","06,9999,9,9",,"6,1,06,1",,,"08,99,1,08,1,05,1,02250,1,99,9,99,9",,"999,N,+0047,1","99999,9,09809,1","7,1,030,1,+999,9","60,1",,SYN088AAXX  24061 57328 11865 80404 10059 20031 39809 40231 57030 69901 76060 885// 333 20047;,
12-24T09:00:00,4,31.2,107.5,344.0,"DA XIAN, CH",FM-12,99999,V020,"999,9,C,0000,1","99999,9,9,N","015000,1,N,1","+0061,1","+0038,1","10221,1",,,"6,1,03,1","6,1,03,1",,"08,99,1,08,1,00,1,99999,9,02,1,99,9",,,,"7,1,009,1,+999,9","60,1",,SYN066AAXX  24091 57328 41965 80000 10061 20038 40221 57009 76066 8802/;,
12-24T12:00:00,4,31.2,107.5,344.0,"DA XIAN, CH",FM-12,99999,V020,"040,1,N,0020,1","99999,9,9,N","012000,1,N,1","+0061,1","+0038,1","10237,1","06,9999,9,9",,"6,1,06,1",,,"08,99,1,08,1,00,1,99999,9,07,1,99,9",,,"99999,9,09815,1","2,1,015,1,+999,9","00,1",,SYN078AAXX  24121 57328 11962 80402 10061 20038 39815 40237 52015 69901 70060 8807/;,
12-24T15:00:00,4,31.2,107.5,344.0,"DA XIAN, CH",FM-12,99999,V020,"070,1,N,0010,1","99999,9,9,N","012000,1,N,1","+0062,1","+0036,1","10247,1",,,,,,"08,99,1,08,1,00,1,99999,9,07,1,99,9",,,,"2,1,010,1,+999,9",,,SYN060AAXX  24151 57328 42962 80701 10062 20036 40247 52010 8807/;,
12-24T18:00:00,4,31.2,107.5,344.0,"DA XIAN, CH",FM-12,99999,V020,"040,1,N,0010,1","99999,9,9,N","012000,1,N,1","+0061,1","+0038,1","10245,1","06,0000,9,1",,,,,"08,99,1,08,1,00,1,99999,9,07,1,99,9",,"999,M,+0063,1","99999,9,09823,1","7,1,002,1,+999,9",,,SYN076AAXX  24181 57328 32962 80401 10061 20038 39823 40245 57002 8807/ 333 10063;,Q01  00002PRCP06
12-24T21:00:00,4,31.2,107.5,344.0,"DA XIAN, CH",FM-12,99999,V020,"999,9,C,0000,1","99999,9,9,N","012000,1,N,1","+0059,1","+0045,1","10236,1","24,0000,2,1",,,,,"08,99,1,08,1,00,1,99999,9,07,1,99,9",,,,"7,1,008,1,+999,9",,,SYN070AAXX  24211 57328 42962 80000 10059 20045 40236 57008 8807/ 333 79999;,
12-25T00:00:00,4,31.2,107.5,344.0,"DA XIAN, CH",FM-12,99999,V020,"040,1,N,0020,1","99999,9,9,N","007000,1,N,1","+0060,1","+0039,1","10240,1","06,0000,9,1","24,0000,2,1",,,,"08,99,1,08,1,00,1,99999,9,07,1,99,9",,,"99999,9,09819,1","2,1,004,1,-010,1","10,1",,SYN088AAXX  25001 57328 31957 80402 10060 20039 39819 40240 52004 71000 8807/ 333 05101 79999;,Q01  00002PRCP06
12-25T03:00:00,4,31.2,107.5,344.0,"DA XIAN, CH",FM-12,99999,V020,"040,1,N,0020,1","99999,9,9,N","007000,1,N,1","+0071,1","+0039,1","10252,1",,,,,,"08,99,1,08,1,00,1,99999,9,02,1,99,9",,,,"2,1,012,1,+999,9","10,1",,SYN066AAXX  25031 57328 41957 80402 10071 20039 40252 52012 71000 8802/;,
12-25T06:00:00,4,31.2,107.5,344.0,"DA XIAN, CH",FM-12,99999,V020,"999,9,C,0000,1","99999,9,9,N","008000,1,N,1","+0079,1","+0045,1","10221,1","06,9999,9,9",,,,,"08,99,1,08,1,00,1,99999,9,07,1,99,9",,"999,N,+0054,1","99999,9,09802,1","7,1,029,1,+999,9","21,1",,SYN088AAXX  25061 57328 11958 80000 10079 20045 39802 40221 57029 69901 72100 8807/ 333 20054;,
12-25T09:00:00,4,31.2,107.5,344.0,"DA XIAN, CH",FM-12,99999,V020,"020,1,N,0030,1","99999,9,9,N","008000,1,N,1","+0081,1","+0045,1","10202,1",,,,,,"08,99,1,08,1,00,1,99999,9,07,1,99,9",,,,"7,1,018,1,+999,9","10,1",,SYN066AAXX  25091 57328 41958 80203 10081 20045 40202 57018 71000 8807/;,
12-25T12:00:00,4,31.2,107.5,344.0,"DA XIAN, CH",FM-12,99999,V020,"999,9,C,0000,1","99999,9,9,N","012000,1,N,1","+0075,1","+0046,1","10216,1","06,0000,2,1",,,,,"08,99,1,08,1,00,1,99999,9,07,1,99,9",,,"99999,9,09797,1","2,1,013,1,+999,9",,,SYN066AAXX  25121 57328 32962 80000 10075 20046 39797 40216 52013 8807/;,
12-25T15:00:00,4,31.2,107.5,344.0,"DA XIAN, CH",FM-12,99999,V020,"040,1,N,0030,1","99999,9,9,N","007000,1,N,1","+0065,1","+0047,1","10218,1",,,,,,"08,99,1,08,1,00,1,99999,9,07,1,99,9",,,,"2,1,002,1,+999,9","10,1",,SYN066AAXX  25151 57328 41957 80403 10065 20047 40218 52002 71000 8807/;,
12-25T18:00:00,4,31.2,107.5,344.0,"DA XIAN, CH",FM-12,99999,V020,"999,9,C,0000,1","99999,9,9,N","011000,1,N,1","+0065,1","+0042,1","10206,1","06,9999,9,9",,,,,"08,99,1,08,1,00,1,99999,9,07,1,99,9",,"999,M,+0083,1","99999,9,09788,1","7,1,011,1,+999,9","60,1",,SYN088AAXX  25181 57328 11961 80000 10065 20042 39788 40206 57011 69901 76000 8807/ 333 10083;,
12-25T21:00:00,4,31.2,107.5,344.0,"DA XIAN, CH",FM-12,99999,V020,"040,1,N,0030,1","02100,1,9,N","007000,1,N,1","+0059,1","+0048,1","10206,1","24,0008,9,1",,"6,1,03,1","6,1,03,1",,"08,99,1,08,1,05,1,02250,1,99,9,99,9",,,,"7,1,001,1,+999,9","60,1",,SYN076AAXX  25211 57328 41857 80403 10059 20048 40206 57001 76066 885// 333 70008;,
12-26T00:00:00,4,31.2,107.5,344.0,"DA XIAN, CH",FM-12,99999,V020,"040,1,N,0020,1","02100,1,9,N","007000,1,N,1","+0052,1","+0035,1","10225,1","06,0020,9,1","24,0020,9,1","6,1,06,1","6,1,06,1",,"08,99,1,08,1,05,1,02250,1,99,9,99,9",,,"99999,9,09805,1","2,1,018,1,-010,1","60,1",,SYN094AAXX  26001 57328 11857 80402 10052 20035 39805 40225 52018 60021 76066 885// 333 05151 70021;,
12-26T03:00:00,4,31.2,107.5,344.0,"DA XIAN, CH",FM-12,99999,V020,"020,1,N,0030,1","02100,1,9,N","011000,1,N,1","+0053,1","+0039,1","10256,1",,,"6,1,03,1","6,1,03,1",,"08,99,1,08,1,05,1,02250,1,99,9,99,9",,,,"2,1,029,1,+999,9","60,1",,SYN066AAXX  26031 57328 41861 80203 10053 20039 40256 52029 76066 885//;,
12-26T06:00:00,4,31.2,107.5,344.0,"DA XIAN, CH",FM-12,99999,V020,"020,1,N,0030,1","02100,1,9,N","011000,1,N,1","+0060,1","+0037,1","10234,1","06,0008,9,1",,"6,1,06,1","6,1,06,1",,"08,99,1,08,1,05,1,02250,1,99,9,99,9",,"999,N,+0048,1","99999,9,09813,1","7,1,021,1,+999,9","60,1",,SYN088AAXX  26061 57328 11861 80203 10060 20037 39813 40234 57021 69971 76066 885// 333 20048;,
12-26T09:00:00,4,31.2,107.5,344.0,"DA XIAN, CH",FM-12,99999,V020,"040,1,N,0030,1","02100,1,9,N","011000,1,N,1","+0060,1","+0042,1","10232,1",,,"6,1,03,1","6,1,03,1",,"08,99,1,08,1,05,1,02250,1,99,9,99,9",,,,"7,1,002,1,+999,9","60,1",,SYN066AAXX  26091 57328 41861 80403 10060 20042 40232 57002 76066 885//;,
12-26T12:00:00,4,31.2,107.5,344.0,"DA XIAN, CH",FM-12,99999,V020,"040,1,N,0030,1","02100,1,9,N","008000,1,N,1","+0056,1","+0042,1","10254,1","06,0010,9,1",,"6,1,06,1","6,1,06,1",,"08,99,1,08,1,05,1,02250,1,99,9,99,9",,,"99999,9,09831,1","2,1,020,1,+999,9","60,1",,SYN078AAXX  26121 57328 11858 80403 10056 20042 39831 40254 52020 69991 76066 885//;,
12-26T15:00:00,4,31.2,107.5,344.0,"DA XIAN, CH",FM-12,99999,V020,"040,1,N,0020,1","02100,1,9,N","008000,1,N,1","+0057,1","+0028,1","10270,1",,,"6,1,03,1",,,"08,99,1,08,1,05,1,02250,1,99,9,99,9",,,,"2,1,016,1,+999,9","10,1",,SYN066AAXX  26151 57328 41858 80402 10057 20028 40270 52016 71060 885//;,
12-26T18:00:00,4,31.2,107.5,344.0,"DA XIAN, CH",FM-12,99999,V020,"020,1,N,0050,1","99999,9,9,N","008000,1,N,1","+0053,1","+0007,1","10279,1","06,9999,9,9",,"6,1,06,1",,,"08,99,1,08,1,00,1,99999,9,01,1,99,9",,"999,M,+0067,1","99999,9,09855,1","2,1,008,1,+999,9","21,1",,SYN088AAXX  26181 57328 11958 80205 10053 20007 39855 40279 52008 69911 72160 8801/ 333 10067;,
12-26T21:00:00,4,31.2,107.5,344.0,"DA XIAN, CH",FM-12,99999,V020,"040,1,N,0040,1","99999,9,9,N","008000,1,N,1","+0041,1","+0018,1","10282,1","24,0033,9,1",,"6,1,03,1",,,"08,99,1,08,1,00,1,99999,9,02,1,99,9",,,,"2,1,002,1,+999,9","60,1",,SYN076AAXX  26211 57328 41958 80404 10041 20018 40282 52002 76060 8802/ 333 70034;,
12-27T00:00:00,4,31.2,107.5,344.0,"DA XIAN, CH",FM-12,99999,V020,"040,1,N,0040,1","99999,9,9,N","020000,1,N,1","+0036,1","+0024,1","10294,1","06,0020,9,1","24,0033,9,1","6,1,06,1",,,"08,99,1,08,1,00,1,99999,9,02,1,99,9","999,+0043,9",,"99999,9,09868,1","2,1,011,1,+060,1","60,1",,SYN100AAXX  27001 57328 11970 80404 10036 20024 39868 40294 52011 60021 76060 8802/ 333 00652 30043 70032;,
12-27T03:00:00,4,31.2,107.5,344.0,"DA XIAN, CH",FM-12,99999,V020,"020,1,N,0040,1","99999,9,9,N","020000,1,N,1","+0043,1","+0021,1","10314,1",,,"6,1,03,1","6,1,03,1",,"08,99,1,08,1,00,1,99999,9,02,1,99,9",,,,"2,1,020,1,+999,9","60,1",,SYN066AAXX  27031 57328 41970 80204 10043 20021 40314 52020 76066 8802/;,
12-27T06:00:00,4,31.2,107.5,344.0,"DA XIAN, CH",FM-12,99999,V020,"020,1,N,0030,1","99999,9,9,N","015000,1,N,1","+0053,1","+0029,1","10284,1","06,0010,9,1",,"6,1,06,1","6,1,06,1",,"08,99,1,08,1,00,1,99999,9,02,1,99,9",,"999,N,+0034,1","99999,9,09860,1","7,1,028,1,+999,9","60,1",,SYN088AAXX  27061 57328 11965 80203 10053 20029 39860 40284 57028 60011 76066 8802/ 333 20034;,
12-27T09:00:00,4,31.2,107.5,344.0,"DA XIAN, CH",FM-12,99999,V020,"999,9,C,0000,1","99999,9,9,N","012000,1,N,1","+0054,1","+0038,1","10284,1",,,"6,1,03,1","6,1,03,1",,"08,99,1,08,1,00,1,99999,9,02,1,99,9",,,,"7,1,001,1,+999,9","60,1",,SYN066AAXX  27091 57328 41962 80000 10054 20038 40284 57001 76066 8802/;,
12-27T12:00:00,4,31.2,107.5,344.0,"DA XIAN, CH",FM-12,99999,V020,"040,1,N,0020,1","99999,9,9,N","007000,1,N,1","+0047,1","+0038,1","10301,1","06,0010,9,1",,"6,1,06,1","6,1,06,1",,"08,99,1,08,1,00,1,99999,9,02,1,99,9",,,"99999,9,09874,1","2,1,015,1,+999,9","60,1",,SYN078AAXX  27121 57328 11957 80402 10047 20038 39874 40301 52015 60011 76066 8802/;,
12-27T15:00:00,4,31.2,107.5,344.0,"DA XIAN, CH",FM-12,99999,V020,"020,1,N,0020,1","99999,9,9,N","008000,1,N,1","+0042,1","+0025,1","10310,1",,,"6,1,03,1","6,1,03,1",,"08,99,1,08,1,00,1,99999,9,02,1,99,9",,,,"2,1,009,1,+999,9","60,1",,SYN066AAXX  27151 57328 41958 80202 10042 20025 40310 52009 76066 8802/;,
12-27T18:00:00,4,31.2,107.5,344.0,"DA XIAN, CH",FM-12,99999,V020,"020,1,N,0020,1","99999,9,9,N","015000,1,N,1","+0037,1","+0025,1","10310,1","06,0008,9,1",,"6,1,06,1","6,1,06,1",,"08,99,1,08,1,00,1,99999,9,02,1,99,9",,"999,M,+0055,1","99999,9,09883,1","4,1,000,1,+999,9","60,1",,SYN088AAXX  27181 57328 11965 80202 10037 20025 39883 40310 54000 69971 76066 8802/ 333 10055;,
12-27T21:00:00,4,31.2,107.5,344.0,"DA XIAN, CH",FM-12,99999,V020,"040,1,N,0030,1","99999,9,9,N","007000,1,N,1","+0033,1","+0026,1","10293,1","24,0043,9,1",,"6,1,03,1","6,1,03,1",,"08,99,1,08,1,00,1,99999,9,02,1,99,9",,,,"7,1,016,1,+999,9","60,1",,SYN076AAXX  27211 57328 41957 80403 10033 20026 40293 57016 76066 8802/ 333 70043;,
12-28T00:00:00,4,31.2,107.5,344.0,"DA XIAN, CH",FM-12,99999,V020,"040,1,N,0030,1","99999,9,9,N","005000,1,N,1","+0030,1","+0028,1","10291,1","06,0008,9,1","24,0038,9,1","6,1,06,1","6,1,06,1",,"08,99,1,08,1,00,1,99999,9,02,1,99,9","999,+0043,9",,"99999,9,09864,1","7,1,003,1,+000,1","60,1",,SYN100AAXX  28001 57328 11950 80403 10030 20028 39864 40291 57003 69971 76066 8802/ 333 00051 30043 70037;,
12-28T03:00:00,4,31.2,107.5,344.0,"DA XIAN, CH",FM-12,99999,V020,"070,1,N,0010,1","99999,9,9,N","004000,1,N,1","+0038,1","+0031,1","10292,1",,,"6,1,03,1","6,1,03,1",,"08,99,1,08,1,00,1,99999,9,02,1,99,9",,,,"2,1,001,1,+999,9","60,1",,SYN066AAXX  28031 57328 41940 80701 10038 20031 40292 52001 76066 8802/;,
12-28T06:00:00,4,31.2,107.5,344.0,"DA XIAN, CH",FM-12,99999,V020,"999,9,C,0000,1","02100,1,9,N","003000,1,N,1","+0046,1","+0034,1","10258,1","06,0003,9,1",,"6,1,06,1",,,"08,99,1,08,1,05,1,02250,1,99,9,99,9",,"999,N,+0028,1","99999,9,09833,1","7,1,032,1,+999,9","60,1",,SYN088AAXX  28061 57328 11830 80000 10046 20034 39833 40258 57032 69931 76060 885// 333 20028;,
12-28T09:00:00,4,31.2,107.5,344.0,"DA XIAN, CH",FM-12,99999,V020,"040,1,N,0020,1","02100,1,9,N","003000,1,N,1","+0048,1","+0039,1","10253,1",,,"6,1,03,1",,,"08,99,1,08,1,05,1,02250,1,99,9,99,9",,,,"7,1,005,1,+999,9","60,1",,SYN066AAXX  28091 57328 41830 80402 10048 20039 40253 57005 76060 885//;,
12-28T12:00:00,4,31.2,107.5,344.0,"DA XIAN, CH",FM-12,99999,V020,"090,1,N,0020,1","02100,1,9,N","004000,1,N,1","+0047,1","+0035,1","10247,1","06,9999,9,9",,"6,1,06,1",,,"08,99,1,08,1,05,1,02250,1,99,9,99,9",,,"99999,9,09822,1","7,1,006,1,+999,9","10,1",,SYN078AAXX  28121 57328 11840 80902 10047 20035 39822 40247 57006 69911 71060 885//;,
12-28T15:00:00,4,31.2,107.5,344.0,"DA XIAN, CH",FM-12,99999,V020,"999,9,C,0000,1","02100,1,9,N","005000,1,N,1","+0045,1","+0031,1","10249,1",,,,,,"08,99,1,08,1,05,1,02250,1,99,9,99,9",,,,"2,1,002,1,+999,9","10,1",,SYN066AAXX  28151 57328 41850 80000 10045 20031 40249 52002 71000 885//;,
12-28T18:00:00,4,31.2,107.5,344.0,"DA XIAN, CH",FM-12,99999,V020,"110,1,N,0010,1","02100,1,9,N","005000,1,N,1","+0040,1","+0028,1","10234,1","06,0000,9,1",,,,,"08,99,1,08,1,05,1,02250,1,99,9,99,9",,"999,M,+0051,1","99999,9,09810,1","7,1,014,1,+999,9","10,1",,SYN082AAXX  28181 57328 31850 81101 10040 20028 39810 40234 57014 71000 885// 333 10051;,Q01  00002PRCP06
12-28T21:00:00,4,31.2,107.5,344.0,"DA XIAN, CH",FM-12,99999,V020,"040,1,N,0020,1","02100,1,9,N","003000,1,N,1","+0043,1","+0028,1","10226,1","24,0010,9,1",,,,,"08,99,1,08,1,05,1,02250,1,99,9,99,9",,,,"7,1,007,1,+999,9","10,1",,SYN076AAXX  28211 57328 41830 80402 10043 20028 40226 57007 71000 885// 333 70009;,
12-29T00:00:00,4,31.2,107.5,344.0,"DA XIAN, CH",FM-12,99999,V020,"040,1,N,0020,1","02100,1,9,N","007000,1,N,1","+0044,1","+0030,1","10218,1","06,0000,9,1","24,0005,9,1",,,,"08,99,1,08,1,05,1,02250,1,99,9,99,9","999,+0038,9",,"99999,9,09795,1","7,1,008,1,-070,1","10,1",,SYN094AAXX  29001 57328 31857 80402 10044 20030 39795 40218 57008 71000 885// 333 05701 30038 70004;,Q01  00002PRCP06
12-29T03:00:00,4,31.2,107.5,344.0,"DA XIAN, CH",FM-12,99999,V020,"040,1,N,0040,1","02100,1,9,N","006000,1,N,1","+0040,1","+0028,1","10242,1",,,"6,1,03,1",,,"08,99,1,08,1,05,1,02250,1,99,9,99,9",,,,"2,1,023,1,+999,9","60,1",,SYN066AAXX  29031 57328 41856 80404 10040 20028 40242 52023 76060 885//;,
12-29T06:00:00,4,31.2,107.5,344.0,"DA XIAN, CH",FM-12,99999,V020,"999,9,C,0000,1","02100,1,9,N","007000,1,N,1","+0049,1","+0030,1","10233,1","06,9999,9,9",,"6,1,06,1",,,"08,99,1,08,1,05,1,02250,1,99,9,99,9",,"999,N,+0038,1","99999,9,09810,1","7,1,008,1,+999,9","10,1",,SYN088AAXX  29061 57328 11857 80000 10049 20030 39810 40233 57008 69921 71060 885// 333 20038;,
12-29T09:00:00,4,31.2,107.5,344.0,"DA XIAN, CH",FM-12,99999,V020,"140,1,N,0020,1","02100,1,9,N","008000,1,N,1","+0053,1","+0016,1","10242,1",,,,,,"08,99,1,08,1,05,1,02250,1,99,9,99,9",,,,"2,1,009,1,+999,9","10,1",,SYN066AAXX  29091 57328 41858 81402 10053 20016 40242 52009 71000 885//;,
12-29T12:00:00,4,31.2,107.5,344.0,"DA XIAN, CH",FM-12,99999,V020,"140,1,N,0010,1","02100,1,9,N","006000,1,N,1","+0047,1","+0028,1","10269,1","06,0000,9,1",,,,,"08,99,1,08,1,05,1,02250,1,99,9,99,9",,,"99999,9,09844,1","2,1,025,1,+999,9","10,1",,SYN072AAXX  29121 57328 31856 81401 10047 20028 39844 40269 52025 71000 885//;,Q01  00002PRCP06
12-29T15:00:00,4,31.2,107.5,344.0,"DA XIAN, CH",FM-12,99999,V020,"999,9,C,0000,1","02100,1,9,N","004000,1,N,1","+0045,1","+0028,1","10291,1",,,,,,"08,99,1,08,1,05,1,02250,1,99,9,99,9",,,,"2,1,021,1,+999,9","10,1",,SYN066AAXX  29151 57328 41840 80000 10045 20028 40291 52021 71000 885//;,
12-29T18:00:00,4,31.2,107.5,344.0,"DA XIAN, CH",FM-12,99999,V020,"040,1,N,0010,1","02100,1,9,N","005000,1,N,1","+0047,1","-0015,1","10299,1","06,0000,9,1",,,,,"08,99,1,08,1,05,1,02250,1,99,9,99,9",,"999,M,+0054,1","99999,9,09873,1","2,1,008,1,+999,9","10,1",,SYN082AAXX  29181 57328 31850 80401 10047 21015 39873 40299 52008 71000 885// 333 10054;,Q01  00002PRCP06
12-29T21:00:00,4,31.2,107.5,344.0,"DA XIAN, CH",FM-12,99999,V020,"020,1,N,0040,1","02100,1,9,N","005000,1,N,1","+0044,1","-0037,1","10309,1","24,0003,9,1",,,,,"08,99,1,08,1,05,1,02250,1,99,9,99,9",,,,"2,1,010,1,+999,9","10,1",,SYN076AAXX  29211 57328 41850 80204 10044 21037 40309 52010 71000 885// 333 70002;,
12-30T00:00:00,4,31.2,107.5,344.0,"DA XIAN, CH",FM-12,99999,V020,"360,1,N,0050,1","02100,1,9,N","012000,1,N,1","+0039,1","-0033,1","10344,1","06,0000,9,1","24,0003,9,1",,,,"08,99,1,08,1,05,1,02250,1,99,9,99,9","999,+0028,9",,"99999,9,09916,1","2,1,033,1,+120,1",,,SYN088AAXX  30001 57328 32862 83605 10039 21033 39916 40344 52033 885// 333 01251 30028 70002;,Q01  00002PRCP06
12-30T03:00:00,4,31.2,107.5,344.0,"DA XIAN, CH",FM-12,99999,V020,"040,1,N,0040,1","99999,9,9,N","020000,1,N,1","+0051,1","-0091,1","10373,1",,,,,,"06,99,1,06,1,00,1,99999,9,01,1,00,1",,,,"2,1,028,1,+999,9",,,SYN060AAXX  30031 57328 42970 60404 10051 21091 40373 52028 86010;,
12-30T06:00:00,4,31.2,107.5,344.0,"DA XIAN, CH",FM-12,99999,V020,"040,1,N,0050,1","99999,9,9,N","030000,1,N,1","+0067,1","-0101,1","10348,1","06,0000,9,1",,,,,"07,99,1,00,1,00,1,99999,9,00,1,02,1",,"999,N,+0038,1","99999,9,09922,1","7,1,022,1,+999,9",,,SYN076AAXX  30061 57328 32980 70405 10067 21101 39922 40348 57022 80002 333 20038;,Q01  00002PRCP06
12-30T09:00:00,4,31.2,107.5,344.0,"DA XIAN, CH",FM-12,99999,V020,"360,1,N,0020,1","22000,1,9,N","030000,1,N,1","+0065,1","-0074,1","10343,1",,,,,"00,1,+99999,9,99,9","00,99,1,00,1,00,1,99999,9,00,1,00,1",,,,"7,1,006,1,+999,9",,,SYN054AAXX  30091 57328 42980 03602 10065 21074 40343 57006;,
12-30T12:00:00,4,31.2,107.5,344.0,"DA XIAN, CH",FM-12,99999,V020,"040,1,N,0030,1","22000,1,9,N","020000,1,N,1","+0031,1","-0069,1","10383,1","06,0000,9,1",,,,"00,1,+99999,9,99,9","00,99,1,00,1,00,1,99999,9,00,1,00,1",,,"99999,9,09952,1","2,1,036,1,+999,9",,,SYN060AAXX  30121 57328 32970 00403 10031 21069 39952 40383 52036;,Q01  00002PRCP06
12-30T15:00:00,4,31.2,107.5,344.0,"DA XIAN, CH",FM-12,99999,V020,"020,1,N,0020,1","22000,1,9,N","020000,1,N,1","+0013,1","-0098,1","10398,1",,,,,"00,1,+99999,9,99,9","00,99,1,00,1,00,1,99999,9,00,1,00,1",,,,"2,1,014,1,+999,9",,,SYN054AAXX  30151 57328 42970 00202 10013 21098 40398 52014;,
12-30T18:00:00,4,31.2,107.5,344.0,"DA XIAN, CH",FM-12,99999,V020,"090,1,N,0010,1","22000,1,9,N","012000,1,N,1","-0005,1","-0074,1","10393,1","06,0000,9,1",,,,"00,1,+99999,9,99,9","00,99,1,00,1,00,1,99999,9,00,1,00,1",,"999,M,+0073,1","99999,9,09961,1","7,1,005,1,+999,9",,,SYN070AAXX  30181 57328 32962 00901 11005 21074 39961 40393 57005 333 10073;,Q01  00002PRCP06
12-30T21:00:00,4,31.2,107.5,344.0,"DA XIAN, CH",FM-12,99999,V020,"070,1,N,0010,1","22000,1,9,N","012000,1,N,1","-0017,1","-0061,1","10382,1",,,,,"00,1,+99999,9,99,9","00,99,1,00,1,00,1,99999,9,00,1,00,1",,,,"7,1,012,1,+999,9",,,SYN054AAXX  30211 57328 42962 00701 11017 21061 40382 57012;,
12-31T00:00:00,4,31.2,107.5,344.0,"DA XIAN, CH",FM-12,99999,V020,"140,1,N,0010,1","22000,1,9,N","015000,1,N,1","-0021,1","-0058,1","10399,1","06,0000,9,1",,,,"00,1,+99999,9,99,9","00,99,1,00,1,00,1,99999,9,00,1,00,1","999,-0030,9",,"99999,9,09963,1","2,1,014,1,+050,1",,,SYN076AAXX  31001 57328 32965 01401 11021 21058 39963 40399 52014 333 00556 31037;,Q01  00002PRCP06
12-31T03:00:00,4,31.2,107.5,344.0,"DA XIAN, CH",FM-12,99999,V020,"040,1,N,0030,1","22000,1,9,N","025000,1,N,1","+0025,1","-0098,1","10406,1",,,,,"00,1,+99999,9,99,9","00,99,1,00,1,00,1,99999,9,00,1,00,1",,,,"2,1,008,1,+999,9",,,SYN054AAXX  31031 57328 42975 00403 10025 21098 40406 52008;,
12-31T06:00:00,4,31.2,107.5,344.0,"DA XIAN, CH",FM-12,99999,V020,"220,1,N,0010,1","22000,1,9,N","030000,1,N,1","+0059,1","-0058,1","10369,1","06,0000,9,1",,,,"00,1,+99999,9,99,9","00,99,1,00,1,00,1,99999,9,00,1,00,1",,"999,N,-0025,1","99999,9,09937,1","7,1,034,1,+999,9",,,SYN070AAXX  31061 57328 32980 02201 10059 21058 39937 40369 57034 333 21025;,Q01  00002PRCP06
12-31T09:00:00,4,31.2,107.5,344.0,"DA XIAN, CH",FM-12,99999,V020,"220,1,N,0020,1","22000,1,9,N","030000,1,N,1","+0070,1","-0060,1","10355,1",,,,,"00,1,+99999,9,99,9","00,99,1,00,1,00,1,99999,9,00,1,00,1",,,,"7,1,013,1,+999,9",,,SYN054AAXX  31091 57328 42980 02202 10070 21060 40355 57013;,
12-31T12:00:00,4,31.2,107.5,344.0,"DA XIAN, CH",FM-12,99999,V020,"220,1,N,0020,1","22000,1,9,N","012000,1,N,1","+0033,1","-0027,1","10367,1","06,0000,9,1",,,,"00,1,+99999,9,99,9","00,99,1,00,1,00,1,99999,9,00,1,00,1",,,"99999,9,09932,1","2,1,008,1,+999,9",,,SYN060AAXX  31121 57328 32962 02202 10033 21027 39932 40367 52008;,Q01  00002PRCP06
12-31T15:00:00,4,31.2,107.5,344.0,"DA XIAN, CH",FM-12,99999,V020,"040,1,N,0020,1","22000,1,9,N","008000,1,N,1","+0005,1","-0019,1","10362,1",,,,,"00,1,+99999,9,99,9","00,99,1,00,1,00,1,99999,9,00,1,00,1",,,,"2,1,012,1,+999,9","10,1",,SYN060AAXX  31151 57328 41958 00402 10005 21019 40362 52012 71000;,
12-31T18:00:00,4,31.2,107.5,344.0,"DA XIAN, CH",FM-12,99999,V020,"040,1,N,0020,1","22000,1,9,N","004000,1,N,1","-0010,1","-0020,1","10343,1","06,0000,9,1",,,,"00,1,+99999,9,99,9","00,99,1,00,1,00,1,99999,9,00,1,00,1",,"999,M,+0077,1","99999,9,09925,1","7,1,017,1,+999,9","10,1",,SYN076AAXX  31181 57328 31940 00402 11010 21020 39925 40343 57017 71000 333 10077;,Q01  00002PRCP06
12-31T21:00:00,4,31.2,107.5,344.0,"DA XIAN, CH",FM-12,99999,V020,"040,1,N,0020,1","22000,1,9,N","004000,1,N,1","-0015,1","-0026,1","10323,1",,,,,"00,1,+99999,9,99,9","00,99,1,00,1,00,1,99999,9,00,1,00,1",,,,"7,1,020,1,+999,9","10,1",,SYN060AAXX  31211 57328 41940 00402 11015 21026 40323 57020 71000;,
